{"type":"FeatureCollection","features":[{"type":"Feature","properties":{"name":"Abbasid Caliphate","abbrevname":"Abbasid Cal."},"geometry":{"type":"Polygon","coordinates":[[[68.27132879901404,23.6889077212806],[67.69617017391704,23.948188323917137],[67.35107499885882,24.669664783427493],[66.85808189163282,24.804941619585676],[66.62801844159404,25.503871939736342],[66.49655361300043,25.515145009416187],[64.62317980554164,25.18822598870055],[64.26165152690922,25.41368738229754],[63.22636600173462,25.176952919020707],[62.010316337243836,25.075495291902058],[61.78025288720502,25.052949152542368],[60.67923494773362,25.312229755178905],[59.51248459396541,25.3573220338983],[58.95375907244261,25.548964218455737],[58.575797690236016,25.560237288135582],[57.45834664719041,25.808244821092273],[56.866754918519206,27.070828625235393],[55.63427215045422,26.980644067796604],[54.84548317889261,26.40571751412429],[53.087141096453195,27.070828625235393],[52.6105810928014,27.60066290018831],[51.558862464052595,28.051585687382286],[50.34281279956181,30.08073822975517],[49.718354863742206,30.035645951035775],[49.22536175651621,30.4527495291902],[48.76523485643861,30.01309981167607],[48.1079107134706,29.911642184557437],[48.0421782991738,29.517084745762702],[47.812114849134986,29.291623352165715],[48.33797416350939,29.28035028248587],[48.650203131419204,28.457416195856865],[49.0610307207742,27.54429755178907],[50.32637969598761,26.755182674199617],[50.1456155566714,25.977340866290007],[51.1644679782718,24.45547645951035],[51.049436253252395,25.278410546139355],[51.427397635459016,26.078798493408655],[51.78892591409141,25.62787570621468],[51.49313004975582,24.432930320150646],[51.49313004975582,24.297653483992462],[51.78892591409141,24.01582674199622],[54.221025243073,24.072192090395475],[54.976948007486214,24.748576271186437],[56.357328707719006,25.988613935969866],[56.57095905418362,26.247894538606403],[56.357328707719006,25.492598870056483],[56.48879353631261,25.481325800376638],[56.57095905418362,25.470052730696793],[56.60382526133202,24.940218455743874],[57.343314922171004,24.004553672316376],[57.60624457935822,23.858003766478333],[57.65554389008082,23.824184557438784],[58.83872734742323,23.474719397363458],[60.03834390833981,22.291047080979283],[59.068790797462015,21.129920903954797],[58.97019217601681,20.96082485875705],[58.723695622403824,20.44226365348399],[58.13210389373262,20.419717514124287],[58.049938375861615,19.05567608286252],[57.39261423289361,18.95421845574387],[56.94892043639021,18.706210922787193],[56.65312457205462,18.108738229755176],[55.60140594330582,17.826911487758935],[55.486374218286414,17.69163465160075],[55.40420870041541,17.161800376647832],[55.10841283607982,16.98143126177024],[54.96051490391201,16.970158192090395],[54.286757657369805,17.03779661016948],[53.2186059250468,16.665785310734464],[52.561281782078794,16.248681732580025],[52.1504541927238,15.561024482109218],[51.80535901766561,15.391928436911485],[51.50956315332999,15.267924670433132],[49.91555210663259,14.794455743879467],[49.159629342219404,14.230802259887],[49.0774638243484,14.185709981167605],[48.96243209932899,14.118071563088506],[48.23937554206421,14.061706214689252],[47.138357602592805,13.509325800376644],[47.0890582918702,13.48677966101694],[46.80969553110879,13.41914124293784],[45.72511069521158,13.227499058380403],[45.593645866618004,13.092222222222219],[44.26256447710779,12.6300263653484],[44.048934130643204,12.68639171374764],[43.80243757703019,12.844214689265527],[43.76957136988179,12.878033898305077],[43.26014515908159,14.62535969868172],[42.964349294746,16.665785310734464],[42.4056237732232,17.533811676082863],[41.830465148126194,18.06364595103578],[41.60040169808738,18.4582033898305],[41.23887341945499,19.303683615819196],[41.02524307299038,19.69824105461393],[39.72702789062859,20.712817325800373],[39.36549961199617,21.231378531073446],[39.266900990550994,22.584146892655355],[38.52741132971198,23.84673069679849],[37.62359063313099,24.410384180790956],[37.42639339024058,25.18822598870055],[37.21276304377599,25.548964218455737],[36.867667868717774,26.03370621468926],[36.539005797233784,26.416990583804136],[36.52257269365958,26.43953672316384],[35.32295613274297,28.085404896421835],[34.96142785411058,28.119224105461385],[35.27365682202037,29.223984934086616],[35.30652302916877,29.359261770244814],[35.191491304149366,29.483265536723152],[35.14219199342676,29.438173258003758],[34.96142785411058,29.269077212806025],[34.45200164331038,27.781032015065904],[33.71251198247137,28.34468549905837],[33.02232163235496,29.49453860640301],[32.85799059661298,29.866549905838028],[32.52932852512896,29.562177024482096],[35.38868854703978,24.4216572504708],[32.71009266444517,23.74527306967984],[31.01748299630256,23.67763465160074],[29.554936778198766,24.04964595103577],[27.550098142146368,24.15110357815442],[25.249463641758354,28.029039548022595],[21.880677409047365,28.096677966101694],[19.514310494362547,28.43487005649716],[19.333546355046337,30.216015065913368],[19.514310494362547,30.272380414312607],[19.53074359793675,30.272380414312607],[20.319532569498364,30.971310734463273],[20.27023325877576,32.0535254237288],[21.25621947322776,32.65099811676082],[22.422969826995967,32.808821092278706],[23.12959328068655,32.57208662900187],[23.359656730725362,32.15498305084745],[23.918382252248165,32.09861770244821],[23.951248459396567,32.076071563088504],[24.230611220157954,31.952067796610166],[24.444241566622566,31.940794726930307],[25.01940019171957,31.92952165725046],[25.18373122746155,31.65896798493408],[25.315196056055157,31.53496421845574],[25.463093988222965,31.456052730696797],[26.350481581229758,31.512418079096037],[29.554936778198766,30.82476082862523],[31.19824713561877,31.489871939736332],[32.808691285890376,30.98258380414312],[33.76181129319397,30.98258380414312],[33.90970922536178,31.016403013182668],[34.35340302186518,31.23059133709981],[35.175058200575165,32.95537099811675],[35.339389236317174,33.248470809792835],[35.91454786141418,34.330685499058376],[36.029579586433584,34.364504708097925],[36.062445793581986,34.51105461393597],[35.81594923996897,35.43544632768361],[36.029579586433584,35.89764218455743],[35.91454786141418,36.22456120527306],[36.01314648285938,36.31474576271185],[36.29250924362077,36.64166478342749],[36.09531200073039,36.78821468926553],[35.42155475418818,36.404930320150655],[34.862829232665376,36.66421092278719],[37.557858218834184,38.851186440677964],[40.828045830099995,39.899581920903955],[41.485369973067975,41.29744256120526],[41.501803076642176,41.29744256120526],[41.682567215958386,41.45526553672315],[41.8797644588488,41.80473069679849],[43.572374126991406,41.34253483992467],[44.246131373533586,41.13961958568737],[45.9716072488246,40.666150659133706],[47.0397589811476,40.361777777777775],[48.43657278495459,39.967220338983054],[49.159629342219404,40.15886252354048],[48.830967270735414,41.20725800376647],[49.29109417081301,41.46653860640299],[49.32396037796141,41.4439924670433],[49.81695348518741,40.69996986817324],[50.6714748710458,40.339231638418084],[49.866252795910015,40.26032015065911],[49.685488656593805,39.31338229755178],[49.47185831012919,39.03155555555554],[49.24179486009041,39.16683239171374],[49.22536175651621,39.0202824858757],[49.20892865294201,38.896278719397344],[49.028164513625796,38.321352165725045],[49.0445976172,37.53223728813559],[50.24421417811661,37.239137476459504],[50.77007349249101,36.69803013182674],[51.6245948783494,36.472568738229754],[54.1881590359246,36.799487758945375],[54.270324553795604,36.95731073446326],[55.07554662893142,36.82203389830508],[61.303692883553225,38.715909604519766],[61.648788058611416,39.29083615819209],[61.484457022869435,39.71921280602635],[61.07362943351441,40.67742372881355],[59.923312183320434,41.82727683615818],[58.888026658145805,42.74039548022597],[58.888026658145805,44.12698305084746],[61.648788058611416,45.27683615819208],[63.73579221253482,45.051374764595096],[64.77107773770942,44.12698305084746],[67.41680741315562,41.70327306967985],[68.79718811338844,40.67742372881355],[70.17756881362124,40.5534199623352],[71.09782261377643,41.01561581920902],[71.90304468891225,40.90288512241054],[73.39845711416444,39.9784934086629],[73.39845711416444,37.32932203389829],[73.85858401424204,35.266350282485874],[73.05336193910625,33.36120150659133],[72.47820331400925,32.380444444444436],[72.24813986397044,30.20474199623351],[69.94750536358245,26.40571751412429],[69.06011777057563,24.500568738229745],[68.27132879901404,23.6889077212806]]]}}]}