{
  "type": "FeatureCollection",
  "features": [
    {
      "type": "Feature",
      "properties": {
        "Name": "Ngô Dynasty",
        "FromYear": 980,
        "ToYear": 1055,
        "Area": 135574.80935183485,
        "Type": "POLITY",
        "Wikipedia": "Ngô dynasty",
        "Wikidata": "Q703919",
        "SeshatID": "",
        "Components": "",
        "MemberOf": "",
        "displayYear": 1004,
        "sourceYear": 1004,
        "mappedTerritoryId": "cliopatria_ng_dynasty"
      },
      "geometry": {
        "type": "MultiPolygon",
        "coordinates": [
          [
            [
              [
                104.60104370117188,
                19.6362361907959
              ],
              [
                104.5270004272461,
                19.6362361907959
              ],
              [
                104.53738403320312,
                19.700523376464844
              ],
              [
                104.61143493652344,
                19.700523376464844
              ],
              [
                104.60104370117188,
                19.6362361907959
              ]
            ]
          ],
          [
            [
              [
                106.7038803100586,
                22.46483612060547
              ],
              [
                106.77454376220703,
                22.014829635620117
              ],
              [
                107.04984283447266,
                21.88625717163086
              ],
              [
                107.12417602539062,
                21.88625717163086
              ],
              [
                107.10216522216797,
                21.7576847076416
              ],
              [
                107.23982238769531,
                21.693397521972656
              ],
              [
                107.4627456665039,
                21.693397521972656
              ],
              [
                107.58939361572266,
                21.5648250579834
              ],
              [
                107.97187042236328,
                21.629112243652344
              ],
              [
                108.09842681884766,
                21.500539779663086
              ],
              [
                108.08744049072266,
                21.43625259399414
              ],
              [
                107.79033660888672,
                21.43625259399414
              ],
              [
                107.41735076904297,
                20.986249923706055
              ],
              [
                106.87641143798828,
                20.857677459716797
              ],
              [
                106.8337173461914,
                20.60053253173828
              ],
              [
                106.68537902832031,
                20.60053253173828
              ],
              [
                106.53694915771484,
                20.150527954101562
              ],
              [
                106.0606460571289,
                19.95766830444336
              ],
              [
                105.84930419921875,
                19.571949005126953
              ],
              [
                105.91281127929688,
                19.507661819458008
              ],
              [
                105.73389434814453,
                18.864791870117188
              ],
              [
                106.05134582519531,
                18.543354034423828
              ],
              [
                106.030517578125,
                18.414779663085938
              ],
              [
                106.17830657958984,
                18.414779663085938
              ],
              [
                106.29487609863281,
                18.2219181060791
              ],
              [
                106.56956481933594,
                18.093341827392578
              ],
              [
                106.5281982421875,
                17.836191177368164
              ],
              [
                106.51790618896484,
                17.77190399169922
              ],
              [
                106.29645538330078,
                17.77190399169922
              ],
              [
                106.24317932128906,
                17.90047836303711
              ],
              [
                105.8740234375,
                17.90047836303711
              ],
              [
                105.77974700927734,
                17.77190399169922
              ],
              [
                105.70592498779297,
                17.77190399169922
              ],
              [
                105.66277313232422,
                17.964767456054688
              ],
              [
                105.143798828125,
                18.414779663085938
              ],
              [
                105.18512725830078,
                18.67193031311035
              ],
              [
                104.82582092285156,
                18.736217498779297
              ],
              [
                104.57136535644531,
                18.993366241455078
              ],
              [
                104.42343139648438,
                18.993366241455078
              ],
              [
                104.50773620605469,
                19.057653427124023
              ],
              [
                104.4958724975586,
                19.443374633789062
              ],
              [
                104.67509460449219,
                19.6362361907959
              ],
              [
                104.621826171875,
                19.764808654785156
              ],
              [
                104.76995086669922,
                19.764808654785156
              ],
              [
                104.98062133789062,
                20.150527954101562
              ],
              [
                104.4395751953125,
                20.471960067749023
              ],
              [
                104.61909484863281,
                20.664819717407227
              ],
              [
                104.42778778076172,
                20.857677459716797
              ],
              [
                104.06717681884766,
                20.921964645385742
              ],
              [
                103.80315399169922,
                20.664819717407227
              ],
              [
                103.6548080444336,
                20.664819717407227
              ],
              [
                102.974609375,
                21.050535202026367
              ],
              [
                103.59866333007812,
                21.693397521972656
              ],
              [
                103.57740783691406,
                22.014829635620117
              ],
              [
                103.76914978027344,
                22.271976470947266
              ],
              [
                103.49324798583984,
                22.400548934936523
              ],
              [
                103.60041046142578,
                22.59341049194336
              ],
              [
                103.52598571777344,
                22.59341049194336
              ],
              [
                103.77134704589844,
                22.72198486328125
              ],
              [
                103.88714599609375,
                22.529123306274414
              ],
              [
                104.0359878540039,
                22.529123306274414
              ],
              [
                104.15472412109375,
                22.786272048950195
              ],
              [
                104.51583099365234,
                22.72198486328125
              ],
              [
                104.83610534667969,
                22.85055923461914
              ],
              [
                104.95609283447266,
                23.107707977294922
              ],
              [
                105.21431732177734,
                23.30057144165039
              ],
              [
                105.50077819824219,
                23.236284255981445
              ],
              [
                105.57530212402344,
                23.236284255981445
              ],
              [
                105.82705688476562,
                22.97913360595703
              ],
              [
                106.72087097167969,
                22.97913360595703
              ],
              [
                106.83518981933594,
                22.786272048950195
              ],
              [
                106.62946319580078,
                22.46483612060547
              ],
              [
                106.7038803100586,
                22.46483612060547
              ]
            ]
          ]
        ]
      }
    }
  ]
}
