{
  "type": "FeatureCollection",
  "features": [
    {
      "type": "Feature",
      "properties": {
        "Name": "Visigothic Kingdom",
        "FromYear": 612,
        "ToYear": 622,
        "Area": 561378.9718970542,
        "Type": "POLITY",
        "Wikipedia": "Visigothic Kingdom",
        "Wikidata": "Q126936",
        "SeshatID": "es_visigothic_k",
        "Components": "",
        "MemberOf": "",
        "displayYear": 617,
        "sourceYear": 617,
        "mappedTerritoryId": "cliopatria_visigothic_kingdom"
      },
      "geometry": {
        "type": "Polygon",
        "coordinates": [
          [
            [
              3.45624828338623,
              43.407203674316406
            ],
            [
              2.984907388687134,
              43.146724700927734
            ],
            [
              3.009923458099365,
              42.56119155883789
            ],
            [
              3.178062200546265,
              42.36617660522461
            ],
            [
              3.116764783859253,
              41.911441802978516
            ],
            [
              2.572504997253418,
              41.586883544921875
            ],
            [
              2.333626985549927,
              41.586883544921875
            ],
            [
              2.106574535369873,
              41.32738494873047
            ],
            [
              1.238392949104309,
              41.19768524169922
            ],
            [
              0.695793092250824,
              40.93837356567383
            ],
            [
              0.709256291389465,
              40.6791877746582
            ],
            [
              0.474957317113876,
              40.614410400390625
            ],
            [
              0.247769102454185,
              40.42012023925781
            ],
            [
              0.182543575763702,
              40.16116714477539
            ],
            [
              -0.201878547668457,
              39.9670295715332
            ],
            [
              -0.345421016216278,
              39.70827102661133
            ],
            [
              -0.313707679510117,
              39.1264533996582
            ],
            [
              0.096056789159775,
              38.80344009399414
            ],
            [
              0.024202087894082,
              38.67427444458008
            ],
            [
              -0.054248761385679,
              38.67427444458008
            ],
            [
              -0.617508709430695,
              38.93262481689453
            ],
            [
              -0.928061544895172,
              38.8680305480957
            ],
            [
              -0.999290406703949,
              38.738853454589844
            ],
            [
              -1.234715342521667,
              38.738853454589844
            ],
            [
              -1.361954689025879,
              38.22237777709961
            ],
            [
              -1.906114101409912,
              38.157840728759766
            ],
            [
              -2.043425798416138,
              37.835243225097656
            ],
            [
              -2.344338178634644,
              37.641746520996094
            ],
            [
              -2.484916687011719,
              37.38381576538086
            ],
            [
              -5.516850471496582,
              37.254878997802734
            ],
            [
              -5.712831020355225,
              36.73930740356445
            ],
            [
              -6.07321310043335,
              36.3527946472168
            ],
            [
              -6.150846004486084,
              36.3527946472168
            ],
            [
              -6.349542140960693,
              36.932613372802734
            ],
            [
              -6.587993621826172,
              36.9970588684082
            ],
            [
              -6.84182596206665,
              37.254878997802734
            ],
            [
              -7.465344429016113,
              37.254878997802734
            ],
            [
              -7.454815864562988,
              37.12596130371094
            ],
            [
              -7.677903652191162,
              36.9970588684082
            ],
            [
              -8.067157745361328,
              36.9970588684082
            ],
            [
              -8.311661720275879,
              37.12596130371094
            ],
            [
              -8.70113754272461,
              37.12596130371094
            ],
            [
              -9.00136661529541,
              36.9970588684082
            ],
            [
              -8.896896362304688,
              37.5772590637207
            ],
            [
              -8.818843841552734,
              37.5772590637207
            ],
            [
              -8.822718620300293,
              38.48057174682617
            ],
            [
              -9.20852279663086,
              38.416015625
            ],
            [
              -9.23299789428711,
              38.67427444458008
            ],
            [
              -9.38370418548584,
              38.60969924926758
            ],
            [
              -9.553065299987793,
              38.738853454589844
            ],
            [
              -9.571974754333496,
              38.93262481689453
            ],
            [
              -9.42748737335205,
              39.06184005737305
            ],
            [
              -9.387048721313477,
              39.449623107910156
            ],
            [
              -9.157164573669434,
              39.51427459716797
            ],
            [
              -9.044321060180664,
              39.9670295715332
            ],
            [
              -8.899272918701172,
              40.0964469909668
            ],
            [
              -8.872282981872559,
              40.614410400390625
            ],
            [
              -8.72695255279541,
              40.74397277832031
            ],
            [
              -8.956093788146973,
              42.17123794555664
            ],
            [
              -8.65042495727539,
              42.30118942260742
            ],
            [
              -8.9043550491333,
              42.43117141723633
            ],
            [
              -8.918540954589844,
              42.56119155883789
            ],
            [
              -9.078654289245605,
              42.56119155883789
            ],
            [
              -9.30460262298584,
              43.146724700927734
            ],
            [
              -8.851689338684082,
              43.407203674316406
            ],
            [
              -8.369025230407715,
              43.407203674316406
            ],
            [
              -8.39044189453125,
              43.6026611328125
            ],
            [
              -8.243616104125977,
              43.73301696777344
            ],
            [
              -7.276463031768799,
              43.73301696777344
            ],
            [
              -7.343485832214355,
              43.6026611328125
            ],
            [
              -7.175715446472168,
              43.53750228881836
            ],
            [
              -5.732783794403076,
              43.6026611328125
            ],
            [
              -4.990375518798828,
              43.407203674316406
            ],
            [
              -3.467212915420532,
              43.472347259521484
            ],
            [
              -3.295851230621338,
              43.342071533203125
            ],
            [
              -1.767988562583923,
              43.342071533203125
            ],
            [
              -1.687574744224548,
              43.342071533203125
            ],
            [
              -1.441840410232544,
              43.276947021484375
            ],
            [
              -1.428432941436768,
              43.08163070678711
            ],
            [
              -1.026964664459229,
              43.08163070678711
            ],
            [
              -0.528801321983337,
              42.82133865356445
            ],
            [
              -0.208102732896805,
              42.82133865356445
            ],
            [
              0.040142297744751,
              42.691246032714844
            ],
            [
              1.074691534042358,
              42.82133865356445
            ],
            [
              1.485537886619568,
              42.62621307373047
            ],
            [
              1.789806246757507,
              42.95146560668945
            ],
            [
              1.950274229049683,
              42.95146560668945
            ],
            [
              2.095041275024414,
              43.276947021484375
            ],
            [
              2.633847713470459,
              43.79821014404297
            ],
            [
              2.795101165771484,
              43.79821014404297
            ],
            [
              3.025451898574829,
              44.05907440185547
            ],
            [
              3.429201602935791,
              44.05907440185547
            ],
            [
              3.814627170562744,
              44.5159797668457
            ],
            [
              4.057530879974365,
              44.5159797668457
            ],
            [
              4.633574962615967,
              44.25482940673828
            ],
            [
              4.236700534820557,
              44.05907440185547
            ],
            [
              4.092497825622559,
              43.6026611328125
            ],
            [
              4.011962413787842,
              43.6026611328125
            ],
            [
              3.536692380905151,
              43.407203674316406
            ],
            [
              3.45624828338623,
              43.407203674316406
            ]
          ]
        ]
      }
    }
  ]
}
