{
  "type": "FeatureCollection",
  "features": [
    {
      "type": "Feature",
      "properties": {
        "Name": "East Franks",
        "FromYear": 900,
        "ToYear": 910,
        "Area": 522040.0952807017,
        "Type": "POLITY",
        "Wikipedia": "East Francia",
        "Wikidata": "Q153080",
        "SeshatID": "de_east_francia",
        "Components": "",
        "MemberOf": "(Carolingian Empire)",
        "displayYear": 900,
        "sourceYear": 900,
        "mappedTerritoryId": "cliopatria_east_franks"
      },
      "geometry": {
        "type": "Polygon",
        "coordinates": [
          [
            [
              11.7313871383667,
              53.057395935058594
            ],
            [
              10.35936450958252,
              53.462066650390625
            ],
            [
              10.359575271606445,
              53.597137451171875
            ],
            [
              10.187278747558594,
              53.664710998535156
            ],
            [
              10.187337875366211,
              53.86756134033203
            ],
            [
              10.014577865600586,
              53.93522644042969
            ],
            [
              10.100866317749023,
              54.341712951660156
            ],
            [
              9.148486137390137,
              54.20612335205078
            ],
            [
              8.887362480163574,
              54.341712951660156
            ],
            [
              8.802155494689941,
              54.20612335205078
            ],
            [
              8.80289077758789,
              54.138362884521484
            ],
            [
              8.892172813415527,
              53.86756134033203
            ],
            [
              8.459527015686035,
              53.93522644042969
            ],
            [
              8.37701416015625,
              53.664710998535156
            ],
            [
              8.205669403076172,
              53.597137451171875
            ],
            [
              7.944795608520508,
              53.732303619384766
            ],
            [
              7.082295417785645,
              53.732303619384766
            ],
            [
              6.913325786590576,
              53.597137451171875
            ],
            [
              6.916844367980957,
              53.462066650390625
            ],
            [
              6.226210117340088,
              53.52959060668945
            ],
            [
              5.542333602905273,
              53.39456558227539
            ],
            [
              5.20894193649292,
              53.124786376953125
            ],
            [
              5.385728359222412,
              52.99003219604492
            ],
            [
              5.390830039978027,
              52.85536575317383
            ],
            [
              5.136557102203369,
              52.78806686401367
            ],
            [
              5.056382656097412,
              52.653533935546875
            ],
            [
              4.879741191864014,
              52.78806686401367
            ],
            [
              4.871281623840332,
              52.99003219604492
            ],
            [
              4.699799060821533,
              52.99003219604492
            ],
            [
              4.454747676849365,
              52.720787048339844
            ],
            [
              4.463808536529541,
              52.51908493041992
            ],
            [
              4.21693229675293,
              52.31757736206055
            ],
            [
              4.223166942596436,
              52.18334197998047
            ],
            [
              3.974021434783936,
              52.0491943359375
            ],
            [
              3.980464458465576,
              51.91512680053711
            ],
            [
              3.810401916503906,
              51.91512680053711
            ],
            [
              3.81699013710022,
              51.78114318847656
            ],
            [
              3.647099733352661,
              51.78114318847656
            ],
            [
              3.738690614700317,
              51.64724349975586
            ],
            [
              3.399252653121948,
              51.64724349975586
            ],
            [
              3.40621018409729,
              51.51342010498047
            ],
            [
              3.74860668182373,
              51.44654083251953
            ],
            [
              3.494410037994385,
              51.44654083251953
            ],
            [
              3.409677743911743,
              51.44654083251953
            ],
            [
              3.504641532897949,
              51.24601745605469
            ],
            [
              4.263070583343506,
              51.31283950805664
            ],
            [
              4.034165859222412,
              50.77880859375
            ],
            [
              3.538282871246338,
              50.578861236572266
            ],
            [
              3.548239946365356,
              50.37908172607422
            ],
            [
              3.632314682006836,
              50.37908172607422
            ],
            [
              3.635580539703369,
              50.312522888183594
            ],
            [
              3.816332101821899,
              50.04647445678711
            ],
            [
              4.576823711395264,
              49.91355895996094
            ],
            [
              4.679802417755127,
              49.44889450073242
            ],
            [
              5.026719093322754,
              49.11750411987305
            ],
            [
              4.865273475646973,
              48.98506164550781
            ],
            [
              4.883440971374512,
              48.52202224731445
            ],
            [
              5.217910766601562,
              48.455936431884766
            ],
            [
              5.47376823425293,
              48.257774353027344
            ],
            [
              5.480661869049072,
              48.059749603271484
            ],
            [
              5.646180152893066,
              48.059749603271484
            ],
            [
              5.818123817443848,
              47.86185836791992
            ],
            [
              6.310186386108398,
              47.993770599365234
            ],
            [
              6.975266933441162,
              47.86185836791992
            ],
            [
              7.149951457977295,
              47.46647262573242
            ],
            [
              7.478310585021973,
              47.53233337402344
            ],
            [
              7.728368282318115,
              47.4006233215332
            ],
            [
              7.652635097503662,
              47.07159423828125
            ],
            [
              7.901793003082275,
              46.94007873535156
            ],
            [
              7.983963489532471,
              46.94007873535156
            ],
            [
              8.312644004821777,
              46.94007873535156
            ],
            [
              8.40284538269043,
              46.414546966552734
            ],
            [
              8.488550186157227,
              46.1520881652832
            ],
            [
              8.652090072631836,
              46.1520881652832
            ],
            [
              8.98212718963623,
              45.889827728271484
            ],
            [
              9.303140640258789,
              46.480194091796875
            ],
            [
              10.041536331176758,
              46.283294677734375
            ],
            [
              10.122788429260254,
              46.414546966552734
            ],
            [
              10.040886878967285,
              46.414546966552734
            ],
            [
              10.039896965026855,
              46.61152267456055
            ],
            [
              10.859914779663086,
              46.54585266113281
            ],
            [
              11.598238945007324,
              46.677207946777344
            ],
            [
              12.582664489746094,
              46.677207946777344
            ],
            [
              13.073067665100098,
              46.54585266113281
            ],
            [
              13.646848678588867,
              46.54585266113281
            ],
            [
              13.72764778137207,
              46.480194091796875
            ],
            [
              13.643445014953613,
              46.348915100097656
            ],
            [
              13.963357925415039,
              45.95537567138672
            ],
            [
              13.959587097167969,
              45.75876998901367
            ],
            [
              14.281725883483887,
              45.56227111816406
            ],
            [
              14.278955459594727,
              45.431331634521484
            ],
            [
              14.930253028869629,
              45.431331634521484
            ],
            [
              15.089664459228516,
              45.300437927246094
            ],
            [
              15.415056228637695,
              45.300437927246094
            ],
            [
              15.57205581665039,
              45.10417556762695
            ],
            [
              16.461332321166992,
              44.973392486572266
            ],
            [
              16.537961959838867,
              44.842647552490234
            ],
            [
              17.108339309692383,
              44.908016204833984
            ],
            [
              17.189496994018555,
              44.908016204833984
            ],
            [
              17.519447326660156,
              45.03877639770508
            ],
            [
              17.760351181030273,
              44.973392486572266
            ],
            [
              17.92837142944336,
              45.10417556762695
            ],
            [
              18.334632873535156,
              45.10417556762695
            ],
            [
              18.415884017944336,
              45.10417556762695
            ],
            [
              18.268156051635742,
              45.431331634521484
            ],
            [
              17.622270584106445,
              45.56227111816406
            ],
            [
              17.227657318115234,
              45.889827728271484
            ],
            [
              16.824264526367188,
              46.02093505859375
            ],
            [
              16.754465103149414,
              46.348915100097656
            ],
            [
              16.278697967529297,
              46.808616638183594
            ],
            [
              16.285390853881836,
              47.005828857421875
            ],
            [
              16.452110290527344,
              47.07159423828125
            ],
            [
              16.46375846862793,
              47.4006233215332
            ],
            [
              17.056297302246094,
              47.79592514038086
            ],
            [
              17.064254760742188,
              47.993770599365234
            ],
            [
              17.066926956176758,
              48.059749603271484
            ],
            [
              17.069608688354492,
              48.1257438659668
            ],
            [
              16.986814498901367,
              48.1257438659668
            ],
            [
              16.989469528198242,
              48.191749572753906
            ],
            [
              16.992136001586914,
              48.257774353027344
            ],
            [
              16.829010009765625,
              48.323814392089844
            ],
            [
              16.92527961730957,
              48.654239654541016
            ],
            [
              16.76439666748047,
              48.786521911621094
            ],
            [
              16.179914474487305,
              48.72037124633789
            ],
            [
              15.356876373291016,
              48.98506164550781
            ],
            [
              14.940543174743652,
              48.98506164550781
            ],
            [
              14.765128135681152,
              48.654239654541016
            ],
            [
              14.182053565979004,
              48.5881233215332
            ],
            [
              12.532414436340332,
              49.51522445678711
            ],
            [
              12.534139633178711,
              49.64793395996094
            ],
            [
              12.36764907836914,
              49.71431350708008
            ],
            [
              12.370920181274414,
              49.98000717163086
            ],
            [
              12.204005241394043,
              50.04647445678711
            ],
            [
              12.12234115600586,
              50.2459831237793
            ],
            [
              12.123095512390137,
              50.312522888183594
            ],
            [
              11.955707550048828,
              50.37908172607422
            ],
            [
              11.957094192504883,
              50.51224899291992
            ],
            [
              12.295454025268555,
              50.64549255371094
            ],
            [
              12.297226905822754,
              50.77880859375
            ],
            [
              12.129409790039062,
              50.84549331665039
            ],
            [
              12.131903648376465,
              51.04566955566406
            ],
            [
              11.289310455322266,
              51.37968063354492
            ],
            [
              11.375528335571289,
              51.580322265625
            ],
            [
              11.545768737792969,
              51.64724349975586
            ],
            [
              11.547623634338379,
              51.84812545776367
            ],
            [
              11.804113388061523,
              51.98215103149414
            ],
            [
              11.55083179473877,
              52.18334197998047
            ],
            [
              11.730573654174805,
              52.99003219604492
            ],
            [
              11.7313871383667,
              53.057395935058594
            ]
          ]
        ]
      }
    }
  ]
}
