{
  "type": "FeatureCollection",
  "features": [
    {
      "type": "Feature",
      "properties": {
        "Name": "Eastern Göktürks",
        "FromYear": 626,
        "ToYear": 626,
        "Area": 2714234.259234479,
        "Type": "POLITY",
        "Wikipedia": "Göktürks",
        "Wikidata": "Q205466",
        "SeshatID": "mn_turk_khaganate_1",
        "Components": "",
        "MemberOf": "",
        "displayYear": 626,
        "sourceYear": 626,
        "mappedTerritoryId": "cliopatria_eastern_g_kt_rks"
      },
      "geometry": {
        "type": "Polygon",
        "coordinates": [
          [
            [
              103.2408447265625,
              51.71418380737305
            ],
            [
              103.15593719482422,
              51.71418380737305
            ],
            [
              103.2120361328125,
              51.91512680053711
            ],
            [
              102.83397674560547,
              51.98215103149414
            ],
            [
              102.88124084472656,
              52.0491943359375
            ],
            [
              102.46499633789062,
              52.18334197998047
            ],
            [
              102.51245880126953,
              52.250450134277344
            ],
            [
              101.79244995117188,
              52.31757736206055
            ],
            [
              101.80198669433594,
              52.4518928527832
            ],
            [
              101.6312255859375,
              52.4518928527832
            ],
            [
              101.60333251953125,
              52.653533935546875
            ],
            [
              101.43230438232422,
              52.653533935546875
            ],
            [
              101.48014068603516,
              52.720787048339844
            ],
            [
              100.59623718261719,
              52.92268753051758
            ],
            [
              99.67520141601562,
              52.586299896240234
            ],
            [
              99.01121520996094,
              52.11625671386719
            ],
            [
              98.25,
              52.250450134277344
            ],
            [
              98.29542541503906,
              52.31757736206055
            ],
            [
              97.87442779541016,
              52.4518928527832
            ],
            [
              97.92002868652344,
              52.51908493041992
            ],
            [
              96.38236236572266,
              52.51908493041992
            ],
            [
              94.58428192138672,
              52.250450134277344
            ],
            [
              92.37571716308594,
              51.580322265625
            ],
            [
              91.10346221923828,
              51.580322265625
            ],
            [
              91.1440200805664,
              51.64724349975586
            ],
            [
              90.97430419921875,
              51.64724349975586
            ],
            [
              91.0149154663086,
              51.71418380737305
            ],
            [
              90.93001556396484,
              51.71418380737305
            ],
            [
              90.67530822753906,
              51.71418380737305
            ],
            [
              90.67937469482422,
              51.580322265625
            ],
            [
              89.69277954101562,
              50.912200927734375
            ],
            [
              89.60838317871094,
              50.912200927734375
            ],
            [
              88.85690307617188,
              50.17946243286133
            ],
            [
              88.41162872314453,
              49.51522445678711
            ],
            [
              87.81902313232422,
              49.18375015258789
            ],
            [
              87.73048400878906,
              48.852684020996094
            ],
            [
              87.8968734741211,
              48.852684020996094
            ],
            [
              88.05951690673828,
              48.52202224731445
            ],
            [
              88.30854797363281,
              48.52202224731445
            ],
            [
              88.32398986816406,
              48.38986587524414
            ],
            [
              88.62197875976562,
              48.323814392089844
            ],
            [
              88.6375961303711,
              48.191749572753906
            ],
            [
              88.80326080322266,
              48.191749572753906
            ],
            [
              88.76969909667969,
              48.1257438659668
            ],
            [
              88.93529510498047,
              48.1257438659668
            ],
            [
              89.0337905883789,
              47.993770599365234
            ],
            [
              89.61286163330078,
              47.993770599365234
            ],
            [
              89.71098327636719,
              47.86185836791992
            ],
            [
              90.17317962646484,
              47.79592514038086
            ],
            [
              91.00859832763672,
              46.677207946777344
            ],
            [
              90.91261291503906,
              46.1520881652832
            ],
            [
              90.994384765625,
              46.1520881652832
            ],
            [
              90.59378051757812,
              45.496795654296875
            ],
            [
              90.74337005615234,
              45.300437927246094
            ],
            [
              90.90606689453125,
              45.300437927246094
            ],
            [
              91.00562286376953,
              45.169586181640625
            ],
            [
              91.99856567382812,
              45.03877639770508
            ],
            [
              92.34408569335938,
              44.58129119873047
            ],
            [
              92.5060806274414,
              44.58129119873047
            ],
            [
              92.57295227050781,
              44.38538360595703
            ],
            [
              93.75652313232422,
              43.99384307861328
            ],
            [
              94.05020141601562,
              43.6026611328125
            ],
            [
              93.98719024658203,
              43.472347259521484
            ],
            [
              94.31283569335938,
              43.146724700927734
            ],
            [
              94.10306549072266,
              42.36617660522461
            ],
            [
              93.31349182128906,
              42.041324615478516
            ],
            [
              92.86837005615234,
              41.586883544921875
            ],
            [
              92.55916595458984,
              41.06801223754883
            ],
            [
              93.84545135498047,
              40.74397277832031
            ],
            [
              95.22967529296875,
              41.00318908691406
            ],
            [
              97.21408081054688,
              41.00318908691406
            ],
            [
              97.18427276611328,
              40.93837356567383
            ],
            [
              97.88810729980469,
              40.74397277832031
            ],
            [
              98.03691864013672,
              40.54964065551758
            ],
            [
              98.27448272705078,
              40.54964065551758
            ],
            [
              98.50260162353516,
              40.355369567871094
            ],
            [
              98.94775390625,
              40.29063034057617
            ],
            [
              98.91836547851562,
              40.225894927978516
            ],
            [
              99.28423309326172,
              40.16116714477539
            ],
            [
              99.3836898803711,
              40.031734466552734
            ],
            [
              100.17345428466797,
              40.031734466552734
            ],
            [
              100.14405822753906,
              39.9670295715332
            ],
            [
              100.38090515136719,
              39.9670295715332
            ],
            [
              100.73719787597656,
              39.70827102661133
            ],
            [
              101.25987243652344,
              39.64360046386719
            ],
            [
              101.28044891357422,
              39.51427459716797
            ],
            [
              101.43798828125,
              39.51427459716797
            ],
            [
              101.53751373291016,
              39.38497543334961
            ],
            [
              101.47991180419922,
              39.25570297241211
            ],
            [
              101.63008880615234,
              39.06184005737305
            ],
            [
              102.12320709228516,
              38.93262481689453
            ],
            [
              102.11685943603516,
              38.738853454589844
            ],
            [
              102.2738037109375,
              38.738853454589844
            ],
            [
              102.42486572265625,
              38.54513168334961
            ],
            [
              102.58167266845703,
              38.54513168334961
            ],
            [
              102.60418701171875,
              38.416015625
            ],
            [
              103.40498352050781,
              38.09331130981445
            ],
            [
              103.55694580078125,
              37.89975357055664
            ],
            [
              104.36157989501953,
              37.7707405090332
            ],
            [
              104.462890625,
              37.641746520996094
            ],
            [
              105.66746520996094,
              37.89975357055664
            ],
            [
              105.79017639160156,
              37.641746520996094
            ],
            [
              105.94632720947266,
              37.641746520996094
            ],
            [
              106.14776611328125,
              37.38381576538086
            ],
            [
              106.09288024902344,
              37.254878997802734
            ],
            [
              106.27203369140625,
              37.12596130371094
            ],
            [
              106.21771240234375,
              36.9970588684082
            ],
            [
              106.39716339111328,
              36.8681755065918
            ],
            [
              106.3434066772461,
              36.73930740356445
            ],
            [
              106.52313995361328,
              36.61045455932617
            ],
            [
              106.46991729736328,
              36.48161697387695
            ],
            [
              106.64991760253906,
              36.3527946472168
            ],
            [
              106.59721374511719,
              36.2239875793457
            ],
            [
              106.77747344970703,
              36.09519577026367
            ],
            [
              106.72527313232422,
              35.9664192199707
            ],
            [
              106.90576934814453,
              35.837650299072266
            ],
            [
              106.85440063476562,
              35.51579284667969
            ],
            [
              107.00987243652344,
              35.32271194458008
            ],
            [
              106.9859390258789,
              35.065311431884766
            ],
            [
              107.16726684570312,
              34.93662643432617
            ],
            [
              107.1197509765625,
              34.614952087402344
            ],
            [
              107.48322296142578,
              34.3576545715332
            ],
            [
              108.0177001953125,
              34.743614196777344
            ],
            [
              107.9635009765625,
              35.194007873535156
            ],
            [
              107.78285217285156,
              35.32271194458008
            ],
            [
              107.75711822509766,
              35.644527435302734
            ],
            [
              107.6282730102539,
              35.708900451660156
            ],
            [
              107.68040466308594,
              35.837650299072266
            ],
            [
              107.5516128540039,
              35.902034759521484
            ],
            [
              107.6041259765625,
              36.03080368041992
            ],
            [
              107.3978500366211,
              36.09519577026367
            ],
            [
              107.5038833618164,
              36.3527946472168
            ],
            [
              107.35115814208984,
              36.5460319519043
            ],
            [
              107.3814468383789,
              36.80373764038086
            ],
            [
              107.25303649902344,
              36.8681755065918
            ],
            [
              107.33505249023438,
              37.06150817871094
            ],
            [
              106.68363952636719,
              37.89975357055664
            ],
            [
              106.74057006835938,
              38.028785705566406
            ],
            [
              106.51355743408203,
              38.22237777709961
            ],
            [
              106.60029602050781,
              38.416015625
            ],
            [
              107.39369201660156,
              39.449623107910156
            ],
            [
              107.43923950195312,
              39.70827102661133
            ],
            [
              107.64434051513672,
              39.9670295715332
            ],
            [
              108.50997924804688,
              40.74397277832031
            ],
            [
              109.78978729248047,
              41.06801223754883
            ],
            [
              110.8668212890625,
              41.00318908691406
            ],
            [
              110.83231353759766,
              40.93837356567383
            ],
            [
              111.30841064453125,
              40.93837356567383
            ],
            [
              111.27384948730469,
              40.873565673828125
            ],
            [
              112.54299926757812,
              40.873565673828125
            ],
            [
              113.05408477783203,
              40.93837356567383
            ],
            [
              113.08935546875,
              41.00318908691406
            ],
            [
              114.6641845703125,
              42.10627746582031
            ],
            [
              114.84928131103516,
              42.56119155883789
            ],
            [
              116.44000244140625,
              44.38538360595703
            ],
            [
              116.92962646484375,
              44.77729415893555
            ],
            [
              118.0216064453125,
              46.21768569946289
            ],
            [
              118.49048614501953,
              46.677207946777344
            ],
            [
              118.62950134277344,
              47.005828857421875
            ],
            [
              118.54730224609375,
              47.005828857421875
            ],
            [
              118.81614685058594,
              47.4006233215332
            ],
            [
              118.7337417602539,
              47.4006233215332
            ],
            [
              119.04358673095703,
              47.730003356933594
            ],
            [
              118.96100616455078,
              47.730003356933594
            ],
            [
              119.14518737792969,
              47.993770599365234
            ],
            [
              119.06246185302734,
              47.993770599365234
            ],
            [
              119.34272003173828,
              48.38986587524414
            ],
            [
              119.25978088378906,
              48.38986587524414
            ],
            [
              120.1679916381836,
              49.84712600708008
            ],
            [
              120.084228515625,
              49.84712600708008
            ],
            [
              120.53822326660156,
              50.64549255371094
            ],
            [
              120.45398712158203,
              50.64549255371094
            ],
            [
              120.72093200683594,
              50.97892379760742
            ],
            [
              120.63648986816406,
              50.97892379760742
            ],
            [
              120.79883575439453,
              51.17921447753906
            ],
            [
              120.71427154541016,
              51.17921447753906
            ],
            [
              120.8233642578125,
              51.31283950805664
            ],
            [
              120.70882415771484,
              51.37968063354492
            ],
            [
              120.76376342773438,
              51.44654083251953
            ],
            [
              120.02603912353516,
              51.580322265625
            ],
            [
              120.13639831542969,
              51.71418380737305
            ],
            [
              119.82654571533203,
              51.64724349975586
            ],
            [
              119.8816909790039,
              51.71418380737305
            ],
            [
              119.68218231201172,
              51.78114318847656
            ],
            [
              119.7375717163086,
              51.84812545776367
            ],
            [
              119.56759643554688,
              51.84812545776367
            ],
            [
              119.59368133544922,
              51.98215103149414
            ],
            [
              119.42353820800781,
              51.98215103149414
            ],
            [
              119.45001983642578,
              52.11625671386719
            ],
            [
              119.05081939697266,
              52.250450134277344
            ],
            [
              119.10698699951172,
              52.31757736206055
            ],
            [
              118.85110473632812,
              52.31757736206055
            ],
            [
              118.90731811523438,
              52.38472366333008
            ],
            [
              118.73664093017578,
              52.38472366333008
            ],
            [
              118.79295349121094,
              52.4518928527832
            ],
            [
              118.33688354492188,
              52.51908493041992
            ],
            [
              118.3932876586914,
              52.586299896240234
            ],
            [
              118.22235107421875,
              52.586299896240234
            ],
            [
              118.27884674072266,
              52.653533935546875
            ],
            [
              117.59471893310547,
              52.653533935546875
            ],
            [
              117.65103912353516,
              52.720787048339844
            ],
            [
              116.654052734375,
              52.653533935546875
            ],
            [
              114.99018859863281,
              52.18334197998047
            ],
            [
              113.8614730834961,
              52.0491943359375
            ],
            [
              112.2740478515625,
              51.64724349975586
            ],
            [
              110.3569107055664,
              51.580322265625
            ],
            [
              110.40713500976562,
              51.64724349975586
            ],
            [
              109.98284149169922,
              51.64724349975586
            ],
            [
              109.9984359741211,
              51.78114318847656
            ],
            [
              109.52361297607422,
              51.71418380737305
            ],
            [
              109.53899383544922,
              51.84812545776367
            ],
            [
              109.26890563964844,
              51.71418380737305
            ],
            [
              108.72425842285156,
              51.78114318847656
            ],
            [
              107.21868133544922,
              51.580322265625
            ],
            [
              104.93064880371094,
              50.97892379760742
            ],
            [
              104.29378509521484,
              50.912200927734375
            ],
            [
              103.49517059326172,
              50.97892379760742
            ],
            [
              103.463134765625,
              51.17921447753906
            ],
            [
              103.29400634765625,
              51.17921447753906
            ],
            [
              103.30123138427734,
              51.31283950805664
            ],
            [
              103.21658325195312,
              51.31283950805664
            ],
            [
              103.31710052490234,
              51.580322265625
            ],
            [
              103.19407653808594,
              51.64724349975586
            ],
            [
              103.2408447265625,
              51.71418380737305
            ]
          ]
        ]
      }
    }
  ]
}
