{
  "type": "FeatureCollection",
  "features": [
    {
      "type": "Feature",
      "properties": {
        "Name": "Sultanate of Bengal",
        "FromYear": 1497,
        "ToYear": 1501,
        "Area": 331910.80443619576,
        "Type": "POLITY",
        "Wikipedia": "Bengal Sultanate",
        "Wikidata": "Q4083686",
        "SeshatID": "bd_bengal_sultanate",
        "Components": "",
        "MemberOf": "",
        "displayYear": 1500,
        "sourceYear": 1500,
        "mappedTerritoryId": "cliopatria_sultanate_of_bengal"
      },
      "geometry": {
        "type": "Polygon",
        "coordinates": [
          [
            [
              87.23990631103516,
              26.386537551879883
            ],
            [
              88.22762298583984,
              26.450830459594727
            ],
            [
              88.35322570800781,
              26.32224464416504
            ],
            [
              88.87838745117188,
              26.32224464416504
            ],
            [
              89.15399169921875,
              26.19365882873535
            ],
            [
              89.60398864746094,
              26.19365882873535
            ],
            [
              90.01731872558594,
              26.000778198242188
            ],
            [
              90.39214324951172,
              26.000778198242188
            ],
            [
              90.36003112792969,
              25.422143936157227
            ],
            [
              90.51600646972656,
              25.03639030456543
            ],
            [
              90.47157287597656,
              24.779226303100586
            ],
            [
              90.54632568359375,
              24.779226303100586
            ],
            [
              90.6117935180664,
              23.814878463745117
            ],
            [
              90.6864013671875,
              23.814878463745117
            ],
            [
              90.64187622070312,
              23.043420791625977
            ],
            [
              90.5385513305664,
              22.85055923461914
            ],
            [
              90.68748474121094,
              22.85055923461914
            ],
            [
              90.79834747314453,
              22.59341049194336
            ],
            [
              90.93775177001953,
              22.529123306274414
            ],
            [
              90.86321258544922,
              22.014829635620117
            ],
            [
              90.6309814453125,
              21.950544357299805
            ],
            [
              90.64935302734375,
              22.079116821289062
            ],
            [
              90.42626953125,
              22.079116821289062
            ],
            [
              90.23202514648438,
              21.7576847076416
            ],
            [
              89.89663696289062,
              22.014829635620117
            ],
            [
              89.86945343017578,
              21.821969985961914
            ],
            [
              89.71179962158203,
              21.7576847076416
            ],
            [
              89.11725616455078,
              21.7576847076416
            ],
            [
              89.09945678710938,
              21.629112243652344
            ],
            [
              88.72795104980469,
              21.629112243652344
            ],
            [
              88.71597290039062,
              22.079116821289062
            ],
            [
              88.64161682128906,
              22.079116821289062
            ],
            [
              88.51387023925781,
              21.693397521972656
            ],
            [
              88.3652572631836,
              21.693397521972656
            ],
            [
              88.34766387939453,
              21.5648250579834
            ],
            [
              88.133544921875,
              21.629112243652344
            ],
            [
              88.17765045166016,
              21.950544357299805
            ],
            [
              88.10330963134766,
              21.950544357299805
            ],
            [
              87.76203918457031,
              21.629112243652344
            ],
            [
              87.06745910644531,
              21.43625259399414
            ],
            [
              86.96748352050781,
              21.24339485168457
            ],
            [
              86.75325775146484,
              21.307680130004883
            ],
            [
              86.27387237548828,
              21.050535202026367
            ],
            [
              85.52326965332031,
              20.986249923706055
            ],
            [
              85.33396911621094,
              21.24339485168457
            ],
            [
              85.3270492553711,
              21.7576847076416
            ],
            [
              84.9894027709961,
              22.014829635620117
            ],
            [
              85.00650787353516,
              22.143402099609375
            ],
            [
              84.8577651977539,
              22.143402099609375
            ],
            [
              84.25713348388672,
              22.657697677612305
            ],
            [
              84.28337860107422,
              22.85055923461914
            ],
            [
              84.00309753417969,
              22.97913360595703
            ],
            [
              84.02973937988281,
              23.171995162963867
            ],
            [
              83.95523071289062,
              23.171995162963867
            ],
            [
              83.9065933227539,
              23.879167556762695
            ],
            [
              84.19735717773438,
              24.329193115234375
            ],
            [
              84.35650634765625,
              24.393482208251953
            ],
            [
              84.6713638305664,
              24.97209930419922
            ],
            [
              84.6817398071289,
              25.03639030456543
            ],
            [
              84.88424682617188,
              25.357851028442383
            ],
            [
              84.98884582519531,
              26.386537551879883
            ],
            [
              85.0005874633789,
              26.450830459594727
            ],
            [
              84.925537109375,
              26.450830459594727
            ],
            [
              84.9972152709961,
              26.836584091186523
            ],
            [
              85.2734603881836,
              26.70800018310547
            ],
            [
              85.73619079589844,
              26.772293090820312
            ],
            [
              85.78701782226562,
              26.643707275390625
            ],
            [
              86.3125991821289,
              26.643707275390625
            ],
            [
              86.65162658691406,
              26.450830459594727
            ],
            [
              87.25200653076172,
              26.450830459594727
            ],
            [
              87.23990631103516,
              26.386537551879883
            ]
          ]
        ]
      }
    }
  ]
}
