{
  "type": "FeatureCollection",
  "features": [
    {
      "type": "Feature",
      "properties": {
        "Name": "Kingdom of France",
        "FromYear": 1622,
        "ToYear": 1628,
        "Area": 464236.93790188595,
        "Type": "POLITY",
        "Wikipedia": "Kingdom of France",
        "Wikidata": "Q207162",
        "SeshatID": "fr_bourbon_k_1",
        "Components": "",
        "MemberOf": "(Kingdom of France)",
        "displayYear": 1625,
        "sourceYear": 1625,
        "mappedTerritoryId": "cliopatria_kingdom_of_france"
      },
      "geometry": {
        "type": "MultiPolygon",
        "coordinates": [
          [
            [
              [
                5.619224548339844,
                48.852684020996094
              ],
              [
                5.702417373657227,
                48.852684020996094
              ],
              [
                5.785610198974609,
                48.852684020996094
              ],
              [
                5.868803024291992,
                48.852684020996094
              ],
              [
                5.787806034088135,
                48.786521911621094
              ],
              [
                5.881701946258545,
                48.455936431884766
              ],
              [
                5.71575403213501,
                48.455936431884766
              ],
              [
                5.628278255462646,
                48.5881233215332
              ],
              [
                5.381501197814941,
                48.52202224731445
              ],
              [
                5.480661869049072,
                48.059749603271484
              ],
              [
                5.646180152893066,
                48.059749603271484
              ],
              [
                5.818123817443848,
                47.86185836791992
              ],
              [
                5.822384834289551,
                47.730003356933594
              ],
              [
                5.576864242553711,
                47.664100646972656
              ],
              [
                5.594502449035645,
                47.13737487792969
              ],
              [
                5.432206630706787,
                47.07159423828125
              ],
              [
                5.376893997192383,
                46.283294677734375
              ],
              [
                5.947766780853271,
                46.348915100097656
              ],
              [
                5.949744701385498,
                46.283294677734375
              ],
              [
                6.031580448150635,
                46.283294677734375
              ],
              [
                6.033519744873047,
                46.21768569946289
              ],
              [
                5.634932518005371,
                45.889827728271484
              ],
              [
                5.48224401473999,
                45.56227111816406
              ],
              [
                5.812080860137939,
                45.431331634521484
              ],
              [
                5.901144027709961,
                45.169586181640625
              ],
              [
                6.228048801422119,
                45.10417556762695
              ],
              [
                6.640680313110352,
                44.842647552490234
              ],
              [
                6.565949440002441,
                44.58129119873047
              ],
              [
                6.814867973327637,
                44.32010269165039
              ],
              [
                6.413734436035156,
                44.18956756591797
              ],
              [
                6.416947841644287,
                44.05907440185547
              ],
              [
                6.74289083480835,
                43.92862319946289
              ],
              [
                6.668147563934326,
                43.6678352355957
              ],
              [
                6.829278945922852,
                43.6678352355957
              ],
              [
                6.91260290145874,
                43.53750228881836
              ],
              [
                6.832098007202148,
                43.53750228881836
              ],
              [
                6.593565464019775,
                43.407203674316406
              ],
              [
                6.517646789550781,
                43.211830139160156
              ],
              [
                5.796233177185059,
                43.146724700927734
              ],
              [
                5.631923198699951,
                43.276947021484375
              ],
              [
                5.390771865844727,
                43.276947021484375
              ],
              [
                5.386905193328857,
                43.407203674316406
              ],
              [
                4.577967166900635,
                43.53750228881836
              ],
              [
                4.177847862243652,
                43.472347259521484
              ],
              [
                4.173032760620117,
                43.6026611328125
              ],
              [
                3.850892543792725,
                43.6026611328125
              ],
              [
                3.617136240005493,
                43.407203674316406
              ],
              [
                3.140029191970825,
                43.276947021484375
              ],
              [
                2.987718343734741,
                43.08163070678711
              ],
              [
                2.990521192550659,
                43.016544342041016
              ],
              [
                2.749729871749878,
                43.016544342041016
              ],
              [
                2.517835140228271,
                42.82133865356445
              ],
              [
                1.80907130241394,
                42.56119155883789
              ],
              [
                1.72901451587677,
                42.56119155883789
              ],
              [
                1.725796341896057,
                42.62621307373047
              ],
              [
                1.645710229873657,
                42.62621307373047
              ],
              [
                1.565624117851257,
                42.62621307373047
              ],
              [
                1.485537886619568,
                42.62621307373047
              ],
              [
                1.074691534042358,
                42.82133865356445
              ],
              [
                0.040142297744751,
                42.691246032714844
              ],
              [
                -0.208102732896805,
                42.82133865356445
              ],
              [
                -0.528801321983337,
                42.82133865356445
              ],
              [
                -1.026964664459229,
                43.08163070678711
              ],
              [
                -1.428432941436768,
                43.08163070678711
              ],
              [
                -1.441840410232544,
                43.276947021484375
              ],
              [
                -1.687574744224548,
                43.342071533203125
              ],
              [
                -1.692170143127441,
                43.407203674316406
              ],
              [
                -1.459883332252502,
                43.53750228881836
              ],
              [
                -1.402047991752625,
                43.86341094970703
              ],
              [
                -1.321390628814697,
                43.86341094970703
              ],
              [
                -1.348801136016846,
                44.25482940673828
              ],
              [
                -1.267958283424377,
                44.25482940673828
              ],
              [
                -1.286344885826111,
                44.5159797668457
              ],
              [
                -1.205376982688904,
                44.5159797668457
              ],
              [
                -1.251859068870544,
                45.169586181640625
              ],
              [
                -1.170574903488159,
                45.169586181640625
              ],
              [
                -1.189373373985291,
                45.431331634521484
              ],
              [
                -1.031213998794556,
                45.496795654296875
              ],
              [
                -1.035891175270081,
                45.56227111816406
              ],
              [
                -0.786880731582642,
                45.496795654296875
              ],
              [
                -0.728294670581818,
                45.82429504394531
              ],
              [
                -0.996758699417114,
                46.1520881652832
              ],
              [
                -1.242068409919739,
                46.1520881652832
              ],
              [
                -1.246932625770569,
                46.21768569946289
              ],
              [
                -1.666043281555176,
                46.348915100097656
              ],
              [
                -2.014399528503418,
                46.61152267456055
              ],
              [
                -2.024919986724854,
                46.74290466308594
              ],
              [
                -2.194406032562256,
                46.808616638183594
              ],
              [
                -2.139080047607422,
                47.13737487792969
              ],
              [
                -2.232228517532349,
                47.26897048950195
              ],
              [
                -2.561590671539307,
                47.26897048950195
              ],
              [
                -2.578423976898193,
                47.46647262573242
              ],
              [
                -2.825755596160889,
                47.46647262573242
              ],
              [
                -2.837259292602539,
                47.598209381103516
              ],
              [
                -3.155531167984009,
                47.46647262573242
              ],
              [
                -3.344320774078369,
                47.730003356933594
              ],
              [
                -3.757235288619995,
                47.730003356933594
              ],
              [
                -3.934937715530396,
                47.86185836791992
              ],
              [
                -4.424368858337402,
                47.79592514038086
              ],
              [
                -4.692053318023682,
                47.993770599365234
              ],
              [
                -4.705362796783447,
                48.1257438659668
              ],
              [
                -4.546383857727051,
                48.191749572753906
              ],
              [
                -4.642560005187988,
                48.323814392089844
              ],
              [
                -4.891265392303467,
                48.323814392089844
              ],
              [
                -4.911745548248291,
                48.52202224731445
              ],
              [
                -4.599917888641357,
                48.72037124633789
              ],
              [
                -3.85184383392334,
                48.72037124633789
              ],
              [
                -3.455082654953003,
                48.91886520385742
              ],
              [
                -3.122164011001587,
                48.91886520385742
              ],
              [
                -2.759404182434082,
                48.5881233215332
              ],
              [
                -2.521934509277344,
                48.72037124633789
              ],
              [
                -1.602181315422058,
                48.654239654541016
              ],
              [
                -1.718345284461975,
                49.051273345947266
              ],
              [
                -1.635041356086731,
                49.051273345947266
              ],
              [
                -1.651668906211853,
                49.2500114440918
              ],
              [
                -1.913302421569824,
                49.38258361816406
              ],
              [
                -2.031550645828247,
                49.78071212768555
              ],
              [
                -1.361783027648926,
                49.78071212768555
              ],
              [
                -1.250783205032349,
                49.44889450073242
              ],
              [
                0.007001183927059,
                49.38258361816406
              ],
              [
                -0.012448177672923,
                49.64793395996094
              ],
              [
                0.224112883210182,
                49.84712600708008
              ],
              [
                1.052847385406494,
                49.98000717163086
              ],
              [
                1.454967975616455,
                50.2459831237793
              ],
              [
                1.495977640151978,
                50.912200927734375
              ],
              [
                1.990016341209412,
                51.112430572509766
              ],
              [
                2.074539184570312,
                51.112430572509766
              ],
              [
                2.018708944320679,
                50.64549255371094
              ],
              [
                1.854379415512085,
                50.578861236572266
              ],
              [
                1.95488452911377,
                50.312522888183594
              ],
              [
                2.378913640975952,
                50.2459831237793
              ],
              [
                2.554430246353149,
                50.11296081542969
              ],
              [
                4.490188121795654,
                49.98000717163086
              ],
              [
                4.66887092590332,
                49.71431350708008
              ],
              [
                4.679802417755127,
                49.44889450073242
              ],
              [
                4.940790176391602,
                49.18375015258789
              ],
              [
                5.029265403747559,
                49.051273345947266
              ],
              [
                4.865273475646973,
                48.98506164550781
              ],
              [
                4.878275871276855,
                48.654239654541016
              ],
              [
                5.127524375915527,
                48.654239654541016
              ],
              [
                5.286453723907471,
                48.852684020996094
              ],
              [
                5.296092987060547,
                48.5881233215332
              ],
              [
                5.379139423370361,
                48.5881233215332
              ],
              [
                5.538338184356689,
                48.786521911621094
              ],
              [
                5.621494293212891,
                48.786521911621094
              ],
              [
                5.619224548339844,
                48.852684020996094
              ]
            ],
            [
              [
                4.405217170715332,
                46.02093505859375
              ],
              [
                4.313027858734131,
                46.283294677734375
              ],
              [
                4.067520141601562,
                46.283294677734375
              ],
              [
                3.985684394836426,
                46.283294677734375
              ],
              [
                4.081100463867188,
                45.95537567138672
              ],
              [
                4.405217170715332,
                46.02093505859375
              ]
            ]
          ],
          [
            [
              [
                6.466282844543457,
                48.323814392089844
              ],
              [
                6.543642044067383,
                48.52202224731445
              ],
              [
                6.711440563201904,
                48.455936431884766
              ],
              [
                6.794414520263672,
                48.455936431884766
              ],
              [
                6.718523979187012,
                48.191749572753906
              ],
              [
                6.466282844543457,
                48.323814392089844
              ]
            ]
          ],
          [
            [
              [
                6.037274360656738,
                48.786521911621094
              ],
              [
                5.868803024291992,
                48.852684020996094
              ],
              [
                5.949869632720947,
                48.91886520385742
              ],
              [
                6.03309965133667,
                48.91886520385742
              ],
              [
                6.037274360656738,
                48.786521911621094
              ]
            ]
          ],
          [
            [
              [
                6.108088970184326,
                49.18375015258789
              ],
              [
                6.19146728515625,
                49.18375015258789
              ],
              [
                6.189437389373779,
                49.2500114440918
              ],
              [
                6.272853374481201,
                49.2500114440918
              ],
              [
                6.356269359588623,
                49.2500114440918
              ],
              [
                6.360177040100098,
                49.11750411987305
              ],
              [
                6.691738605499268,
                49.18375015258789
              ],
              [
                6.775116920471191,
                49.18375015258789
              ],
              [
                6.776882648468018,
                49.11750411987305
              ],
              [
                6.860223770141602,
                49.11750411987305
              ],
              [
                6.861949920654297,
                49.051273345947266
              ],
              [
                6.945253372192383,
                49.051273345947266
              ],
              [
                7.028557300567627,
                49.051273345947266
              ],
              [
                7.03020715713501,
                48.98506164550781
              ],
              [
                7.031855583190918,
                48.91886520385742
              ],
              [
                6.613873958587646,
                48.98506164550781
              ],
              [
                6.617537975311279,
                48.852684020996094
              ],
              [
                6.868834018707275,
                48.786521911621094
              ],
              [
                6.951990127563477,
                48.786521911621094
              ],
              [
                6.950308799743652,
                48.852684020996094
              ],
              [
                7.033501625061035,
                48.852684020996094
              ],
              [
                7.201457977294922,
                48.786521911621094
              ],
              [
                7.206159114837646,
                48.5881233215332
              ],
              [
                7.041702270507812,
                48.52202224731445
              ],
              [
                6.875682353973389,
                48.52202224731445
              ],
              [
                6.872262954711914,
                48.654239654541016
              ],
              [
                6.371833801269531,
                48.72037124633789
              ],
              [
                6.451152324676514,
                48.852684020996094
              ],
              [
                6.03309965133667,
                48.91886520385742
              ],
              [
                5.864473819732666,
                48.98506164550781
              ],
              [
                5.94133186340332,
                49.18375015258789
              ],
              [
                6.024710655212402,
                49.18375015258789
              ],
              [
                6.108088970184326,
                49.18375015258789
              ]
            ]
          ],
          [
            [
              [
                5.68668270111084,
                49.316287994384766
              ],
              [
                5.684420585632324,
                49.38258361816406
              ],
              [
                5.767911911010742,
                49.38258361816406
              ],
              [
                5.85140323638916,
                49.38258361816406
              ],
              [
                5.85359001159668,
                49.316287994384766
              ],
              [
                5.607818126678467,
                49.18375015258789
              ],
              [
                5.697940349578857,
                48.98506164550781
              ],
              [
                5.36487340927124,
                48.98506164550781
              ],
              [
                5.35286808013916,
                49.316287994384766
              ],
              [
                5.43632173538208,
                49.316287994384766
              ],
              [
                5.519775390625,
                49.316287994384766
              ],
              [
                5.60322904586792,
                49.316287994384766
              ],
              [
                5.68668270111084,
                49.316287994384766
              ]
            ]
          ]
        ]
      }
    }
  ]
}
