{
  "type": "FeatureCollection",
  "features": [
    {
      "type": "Feature",
      "properties": {
        "Name": "Rattanakosin Kingdom",
        "FromYear": 1895,
        "ToYear": 1904,
        "Area": 613025.4911355806,
        "Type": "POLITY",
        "Wikipedia": "Rattanakosin Kingdom (1782–1932)",
        "Wikidata": "Q1155700",
        "SeshatID": "",
        "Components": "",
        "MemberOf": "",
        "displayYear": 1895,
        "sourceYear": 1895,
        "mappedTerritoryId": "cliopatria_rattanakosin_kingdom"
      },
      "geometry": {
        "type": "Polygon",
        "coordinates": [
          [
            [
              103.59931945800781,
              11.085978507995605
            ],
            [
              103.61795806884766,
              11.278841018676758
            ],
            [
              103.7769546508789,
              11.407415390014648
            ],
            [
              103.85558319091797,
              12.178865432739258
            ],
            [
              104.10974884033203,
              12.500303268432617
            ],
            [
              104.33551025390625,
              13.207467079162598
            ],
            [
              104.49713897705078,
              13.336042404174805
            ],
            [
              104.7905502319336,
              13.336042404174805
            ],
            [
              104.84146881103516,
              13.143178939819336
            ],
            [
              105.14227294921875,
              13.207467079162598
            ],
            [
              105.15731811523438,
              13.336042404174805
            ],
            [
              105.46598052978516,
              13.464617729187012
            ],
            [
              105.5048599243164,
              13.786055564880371
            ],
            [
              105.88773345947266,
              13.914630889892578
            ],
            [
              105.70797729492188,
              14.236069679260254
            ],
            [
              105.79792785644531,
              14.364645004272461
            ],
            [
              105.75802612304688,
              14.621796607971191
            ],
            [
              105.91348266601562,
              14.686083793640137
            ],
            [
              105.90089416503906,
              15.136098861694336
            ],
            [
              105.65156555175781,
              15.457538604736328
            ],
            [
              105.67894744873047,
              15.650403022766113
            ],
            [
              105.4030532836914,
              15.77897834777832
            ],
            [
              105.43096923828125,
              15.971842765808105
            ],
            [
              105.1552734375,
              16.100418090820312
            ],
            [
              105.036376953125,
              16.293283462524414
            ],
            [
              104.88909149169922,
              16.293283462524414
            ],
            [
              104.77997589111328,
              16.550434112548828
            ],
            [
              104.83367919921875,
              17.38617706298828
            ],
            [
              104.44100189208984,
              17.707616806030273
            ],
            [
              104.46113586425781,
              17.836191177368164
            ],
            [
              104.01504516601562,
              18.286205291748047
            ],
            [
              103.36023712158203,
              18.350492477416992
            ],
            [
              102.92076873779297,
              17.90047836303711
            ],
            [
              102.5516128540039,
              17.90047836303711
            ],
            [
              102.49761199951172,
              18.029054641723633
            ],
            [
              102.0743408203125,
              18.157629013061523
            ],
            [
              101.74929809570312,
              17.964767456054688
            ],
            [
              101.72966003417969,
              17.836191177368164
            ],
            [
              101.50818634033203,
              17.836191177368164
            ],
            [
              101.48344421386719,
              18.157629013061523
            ],
            [
              101.92240142822266,
              18.607641220092773
            ],
            [
              101.98258209228516,
              18.993366241455078
            ],
            [
              101.81095123291016,
              19.314802169799805
            ],
            [
              101.95559692382812,
              19.764808654785156
            ],
            [
              101.90171813964844,
              19.893383026123047
            ],
            [
              101.60540771484375,
              19.893383026123047
            ],
            [
              101.43716430664062,
              19.764808654785156
            ],
            [
              100.69654083251953,
              19.764808654785156
            ],
            [
              100.55836486816406,
              19.8290958404541
            ],
            [
              100.5439224243164,
              20.214815139770508
            ],
            [
              100.1288833618164,
              20.40767478942871
            ],
            [
              99.83231353759766,
              20.40767478942871
            ],
            [
              99.41250610351562,
              20.08624267578125
            ],
            [
              99.19020080566406,
              20.08624267578125
            ],
            [
              98.91905212402344,
              19.764808654785156
            ],
            [
              98.1043701171875,
              19.764808654785156
            ],
            [
              97.93692779541016,
              19.6362361907959
            ],
            [
              97.86650085449219,
              18.67193031311035
            ],
            [
              97.77346801757812,
              18.543354034423828
            ],
            [
              97.46833038330078,
              18.479066848754883
            ],
            [
              97.44935607910156,
              18.350492477416992
            ],
            [
              97.72592163085938,
              18.2219181060791
            ],
            [
              97.9178695678711,
              17.514753341674805
            ],
            [
              98.62763977050781,
              16.807586669921875
            ],
            [
              98.63817596435547,
              16.35757064819336
            ],
            [
              98.93278503417969,
              16.35757064819336
            ],
            [
              98.90609741210938,
              16.16470718383789
            ],
            [
              98.6676254272461,
              16.036130905151367
            ],
            [
              98.67230224609375,
              15.52182674407959
            ],
            [
              98.26284790039062,
              15.200387001037598
            ],
            [
              98.23027801513672,
              14.943235397338867
            ],
            [
              98.48443603515625,
              14.621796607971191
            ],
            [
              98.46879577636719,
              14.493220329284668
            ],
            [
              99.12709045410156,
              13.850343704223633
            ],
            [
              99.24447631835938,
              13.593193054199219
            ],
            [
              99.20860290527344,
              13.271754264831543
            ],
            [
              99.28195190429688,
              13.271754264831543
            ],
            [
              99.16683197021484,
              12.886029243469238
            ],
            [
              99.42621612548828,
              12.564591407775879
            ],
            [
              99.46651458740234,
              12.24315357208252
            ],
            [
              99.66049194335938,
              11.986002922058105
            ],
            [
              99.5434341430664,
              11.535990715026855
            ],
            [
              98.97727966308594,
              10.957403182983398
            ],
            [
              98.77433776855469,
              10.314528465270996
            ],
            [
              98.5331802368164,
              10.057377815246582
            ],
            [
              98.5278091430664,
              9.993090629577637
            ],
            [
              98.13398742675781,
              8.707340240478516
            ],
            [
              98.21086883544922,
              7.743025779724121
            ],
            [
              98.43426513671875,
              7.807313442230225
            ],
            [
              98.38385009765625,
              8.128751754760742
            ],
            [
              98.4707260131836,
              8.321614265441895
            ],
            [
              98.61675262451172,
              8.321614265441895
            ],
            [
              98.67129516601562,
              8.06446361541748
            ],
            [
              98.95419311523438,
              7.935888767242432
            ],
            [
              98.936279296875,
              7.678738594055176
            ],
            [
              99.22378540039062,
              7.614450931549072
            ],
            [
              99.27500915527344,
              7.293012619018555
            ],
            [
              99.49390411376953,
              7.293012619018555
            ],
            [
              99.48112487792969,
              7.100150108337402
            ],
            [
              99.62703704833984,
              7.100150108337402
            ],
            [
              99.6103286743164,
              6.842999458312988
            ],
            [
              99.95465850830078,
              6.521561145782471
            ],
            [
              100.027587890625,
              6.521561145782471
            ],
            [
              100.32742309570312,
              6.650136470794678
            ],
            [
              100.46517944335938,
              6.521561145782471
            ],
            [
              100.67993927001953,
              6.457273483276367
            ],
            [
              101.09375,
              6.071547985076904
            ],
            [
              100.99797058105469,
              5.685822010040283
            ],
            [
              101.1400375366211,
              5.62153434753418
            ],
            [
              101.44673156738281,
              5.878684997558594
            ],
            [
              101.7307357788086,
              5.750109672546387
            ],
            [
              101.87653350830078,
              5.750109672546387
            ],
            [
              102.0534896850586,
              6.264410972595215
            ],
            [
              102.0574951171875,
              6.328698635101318
            ],
            [
              101.77386474609375,
              6.457273483276367
            ],
            [
              101.71736145019531,
              6.714424133300781
            ],
            [
              101.51110076904297,
              6.907287120819092
            ],
            [
              100.85457611083984,
              6.907287120819092
            ],
            [
              100.65270233154297,
              7.164437294006348
            ],
            [
              100.50678253173828,
              7.164437294006348
            ],
            [
              100.52853393554688,
              7.485875606536865
            ],
            [
              100.3825912475586,
              7.485875606536865
            ],
            [
              100.46891784667969,
              7.678738594055176
            ],
            [
              100.33651733398438,
              7.871601104736328
            ],
            [
              100.30083465576172,
              8.385902404785156
            ],
            [
              100.08655548095703,
              8.450189590454102
            ],
            [
              99.95985412597656,
              8.707340240478516
            ],
            [
              99.93186950683594,
              9.285927772521973
            ],
            [
              99.64473724365234,
              9.350214958190918
            ],
            [
              99.34225463867188,
              9.221640586853027
            ],
            [
              99.29487609863281,
              9.543078422546387
            ],
            [
              99.15916442871094,
              9.671652793884277
            ],
            [
              99.3143081665039,
              10.635965347290039
            ],
            [
              99.47783660888672,
              10.828827857971191
            ],
            [
              99.60441589355469,
              11.407415390014648
            ],
            [
              99.85491180419922,
              11.728853225708008
            ],
            [
              99.8802261352539,
              11.986002922058105
            ],
            [
              100.03314208984375,
              12.050291061401367
            ],
            [
              100.10314178466797,
              13.40032958984375
            ],
            [
              100.5578842163086,
              13.528904914855957
            ],
            [
              100.99075317382812,
              13.464617729187012
            ],
            [
              100.82551574707031,
              12.628878593444824
            ],
            [
              101.5516128540039,
              12.564591407775879
            ],
            [
              101.78524780273438,
              12.69316577911377
            ],
            [
              102.11073303222656,
              12.307440757751465
            ],
            [
              102.25727081298828,
              12.307440757751465
            ],
            [
              102.22405242919922,
              11.986002922058105
            ],
            [
              102.44378662109375,
              11.986002922058105
            ],
            [
              102.60350799560547,
              12.114578247070312
            ],
            [
              102.74337005615234,
              12.050291061401367
            ],
            [
              102.7302017211914,
              11.92171573638916
            ],
            [
              102.8701400756836,
              11.857428550720215
            ],
            [
              102.84432220458984,
              11.6002779006958
            ],
            [
              103.05123901367188,
              11.47170352935791
            ],
            [
              103.06279754638672,
              10.828827857971191
            ],
            [
              103.3554458618164,
              10.828827857971191
            ],
            [
              103.52613830566406,
              11.085978507995605
            ],
            [
              103.59931945800781,
              11.085978507995605
            ]
          ]
        ]
      }
    }
  ]
}
