{
  "type": "FeatureCollection",
  "features": [
    {
      "type": "Feature",
      "properties": {
        "Name": "Kara-Khitans",
        "FromYear": 1139,
        "ToYear": 1146,
        "Area": 1803952.9653516472,
        "Type": "POLITY",
        "Wikipedia": "Qara Khitai",
        "Wikidata": "Q862304",
        "SeshatID": "tm_kara_khitai_khanate",
        "Components": "",
        "MemberOf": "",
        "displayYear": 1141,
        "sourceYear": 1141,
        "mappedTerritoryId": "cliopatria_kara_khitans"
      },
      "geometry": {
        "type": "Polygon",
        "coordinates": [
          [
            [
              73.20811255405904,
              38.10261686056216
            ],
            [
              73.57133483886719,
              38.80344009399414
            ],
            [
              73.7104263305664,
              39.51427459716797
            ],
            [
              73.92901611328125,
              39.70827102661133
            ],
            [
              73.85016632080078,
              39.70827102661133
            ],
            [
              73.95331573486328,
              40.031734466552734
            ],
            [
              73.81617736816406,
              40.0964469909668
            ],
            [
              73.85803985595703,
              40.225894927978516
            ],
            [
              73.68400573730469,
              40.42012023925781
            ],
            [
              73.5257339477539,
              40.42012023925781
            ],
            [
              73.48890686035156,
              40.54964065551758
            ],
            [
              73.33053588867188,
              40.54964065551758
            ],
            [
              73.29378509521484,
              40.6791877746582
            ],
            [
              72.78146362304688,
              40.80876541137695
            ],
            [
              72.76615905761719,
              41.00318908691406
            ],
            [
              71.87642669677734,
              41.911441802978516
            ],
            [
              71.32565307617188,
              42.17123794555664
            ],
            [
              71.08600616455078,
              42.17123794555664
            ],
            [
              71.04993438720703,
              42.30118942260742
            ],
            [
              70.7520523071289,
              42.36617660522461
            ],
            [
              70.71595764160156,
              42.496177673339844
            ],
            [
              70.41775512695312,
              42.56119155883789
            ],
            [
              70.11322021484375,
              43.08163070678711
            ],
            [
              69.53694152832031,
              43.276947021484375
            ],
            [
              69.86369323730469,
              43.99384307861328
            ],
            [
              69.94441223144531,
              43.99384307861328
            ],
            [
              69.93184661865234,
              44.18956756591797
            ],
            [
              70.95574951171875,
              45.693260192871094
            ],
            [
              72.0334243774414,
              46.61152267456055
            ],
            [
              73.17585754394531,
              46.808616638183594
            ],
            [
              73.91477966308594,
              46.808616638183594
            ],
            [
              73.88894653320312,
              46.74290466308594
            ],
            [
              74.35539245605469,
              46.677207946777344
            ],
            [
              74.32948303222656,
              46.61152267456055
            ],
            [
              73.95010375976562,
              46.480194091796875
            ],
            [
              73.87349700927734,
              46.283294677734375
            ],
            [
              73.62798309326172,
              46.283294677734375
            ],
            [
              73.52702331542969,
              46.02093505859375
            ],
            [
              73.71565246582031,
              46.08650588989258
            ],
            [
              73.64013671875,
              45.889827728271484
            ],
            [
              73.50191497802734,
              45.95537567138672
            ],
            [
              73.32756042480469,
              45.496795654296875
            ],
            [
              73.74162292480469,
              45.300437927246094
            ],
            [
              73.91116333007812,
              45.10417556762695
            ],
            [
              73.86170196533203,
              44.973392486572266
            ],
            [
              74.13007354736328,
              45.03877639770508
            ],
            [
              74.25473022460938,
              45.36587905883789
            ],
            [
              74.1169662475586,
              45.431331634521484
            ],
            [
              74.3186264038086,
              45.95537567138672
            ],
            [
              74.7525863647461,
              46.02093505859375
            ],
            [
              74.88140106201172,
              46.348915100097656
            ],
            [
              75.31684112548828,
              46.414546966552734
            ],
            [
              75.4511947631836,
              46.54585266113281
            ],
            [
              77.39138793945312,
              46.480194091796875
            ],
            [
              77.36439514160156,
              46.414546966552734
            ],
            [
              77.82868194580078,
              46.348915100097656
            ],
            [
              77.8016128540039,
              46.283294677734375
            ],
            [
              78.456298828125,
              46.283294677734375
            ],
            [
              78.97484588623047,
              46.348915100097656
            ],
            [
              79.0855941772461,
              46.61152267456055
            ],
            [
              79.27751922607422,
              46.677207946777344
            ],
            [
              79.30550384521484,
              46.74290466308594
            ],
            [
              79.60565948486328,
              46.677207946777344
            ],
            [
              80.0724868774414,
              46.808616638183594
            ],
            [
              80.04412841796875,
              46.74290466308594
            ],
            [
              80.750732421875,
              46.480194091796875
            ],
            [
              80.88964080810547,
              46.61152267456055
            ],
            [
              83.36394500732422,
              47.005828857421875
            ],
            [
              83.97834014892578,
              47.26897048950195
            ],
            [
              85.17304229736328,
              47.53233337402344
            ],
            [
              85.3497543334961,
              47.730003356933594
            ],
            [
              85.5149154663086,
              47.730003356933594
            ],
            [
              85.59749603271484,
              47.730003356933594
            ],
            [
              85.58543395996094,
              47.53233337402344
            ],
            [
              85.77000427246094,
              47.4006233215332
            ],
            [
              85.67636108398438,
              47.20316696166992
            ],
            [
              85.89212799072266,
              47.13737487792969
            ],
            [
              85.96349334716797,
              46.94007873535156
            ],
            [
              86.12783813476562,
              46.94007873535156
            ],
            [
              86.19930267333984,
              46.74290466308594
            ],
            [
              86.36344146728516,
              46.74290466308594
            ],
            [
              86.43498992919922,
              46.54585266113281
            ],
            [
              86.59892272949219,
              46.54585266113281
            ],
            [
              86.72171783447266,
              46.283294677734375
            ],
            [
              87.54942321777344,
              45.95537567138672
            ],
            [
              87.51875305175781,
              45.889827728271484
            ],
            [
              87.94703674316406,
              45.75876998901367
            ],
            [
              87.9163589477539,
              45.693260192871094
            ],
            [
              88.21177673339844,
              45.62776184082031
            ],
            [
              88.44551849365234,
              45.431331634521484
            ],
            [
              88.98453521728516,
              45.36587905883789
            ],
            [
              89.21737670898438,
              45.169586181640625
            ],
            [
              89.46122741699219,
              45.169586181640625
            ],
            [
              89.6934814453125,
              44.973392486572266
            ],
            [
              90.41200256347656,
              44.77729415893555
            ],
            [
              90.64310455322266,
              44.58129119873047
            ],
            [
              90.96710205078125,
              44.58129119873047
            ],
            [
              91.06681060791016,
              44.45067596435547
            ],
            [
              91.30962371826172,
              44.45067596435547
            ],
            [
              91.27847290039062,
              44.38538360595703
            ],
            [
              91.78224182128906,
              44.25482940673828
            ],
            [
              91.88147735595703,
              44.12431716918945
            ],
            [
              92.12381744384766,
              44.12431716918945
            ],
            [
              92.09259033203125,
              44.05907440185547
            ],
            [
              92.41558837890625,
              44.05907440185547
            ],
            [
              92.3843002319336,
              43.99384307861328
            ],
            [
              92.83720397949219,
              43.92862319946289
            ],
            [
              92.80585479736328,
              43.86341094970703
            ],
            [
              94.34068298339844,
              43.53750228881836
            ],
            [
              94.30908966064453,
              43.472347259521484
            ],
            [
              95.2428970336914,
              43.407203674316406
            ],
            [
              95.2110824584961,
              43.342071533203125
            ],
            [
              95.61315155029297,
              43.342071533203125
            ],
            [
              95.58125305175781,
              43.276947021484375
            ],
            [
              95.93480682373047,
              43.342071533203125
            ],
            [
              95.95120239257812,
              43.211830139160156
            ],
            [
              96.28894805908203,
              43.08163070678711
            ],
            [
              96.53095245361328,
              42.75628662109375
            ],
            [
              98.13385772705078,
              42.75628662109375
            ],
            [
              98.10160827636719,
              42.691246032714844
            ],
            [
              97.40206146240234,
              41.911441802978516
            ],
            [
              96.44580841064453,
              40.355369567871094
            ],
            [
              96.52491760253906,
              40.355369567871094
            ],
            [
              96.20893859863281,
              39.25570297241211
            ],
            [
              96.28761291503906,
              39.25570297241211
            ],
            [
              96.23370361328125,
              39.1264533996582
            ],
            [
              96.52127838134766,
              39.06184005737305
            ],
            [
              96.49446868896484,
              38.997230529785156
            ],
            [
              96.28408813476562,
              38.8680305480957
            ],
            [
              96.30970764160156,
              38.738853454589844
            ],
            [
              96.07427978515625,
              38.738853454589844
            ],
            [
              95.6822738647461,
              38.93262481689453
            ],
            [
              95.60472869873047,
              39.1264533996582
            ],
            [
              95.4474868774414,
              39.1264533996582
            ],
            [
              95.26676940917969,
              39.449623107910156
            ],
            [
              94.84620666503906,
              39.38497543334961
            ],
            [
              94.97872924804688,
              39.51427459716797
            ],
            [
              94.47930145263672,
              39.449623107910156
            ],
            [
              93.98141479492188,
              39.57893371582031
            ],
            [
              93.35104370117188,
              39.57893371582031
            ],
            [
              93.29811096191406,
              39.449623107910156
            ],
            [
              92.93067169189453,
              39.51427459716797
            ],
            [
              91.54182434082031,
              39.19107437133789
            ],
            [
              88.7458267211914,
              38.8680305480957
            ],
            [
              87.66171264648438,
              38.48057174682617
            ],
            [
              86.44012451171875,
              38.351463317871094
            ],
            [
              86.08140563964844,
              38.22237777709961
            ],
            [
              85.81294250488281,
              37.89975357055664
            ],
            [
              85.13493347167969,
              37.51277160644531
            ],
            [
              85.1133804321289,
              37.44829177856445
            ],
            [
              82.1014175415039,
              36.80373764038086
            ],
            [
              81.71249389648438,
              36.80373764038086
            ],
            [
              81.26437377929688,
              36.61045455932617
            ],
            [
              79.07140350341797,
              36.28839111328125
            ],
            [
              77.35066986083984,
              35.9664192199707
            ],
            [
              76.84990692138672,
              35.837650299072266
            ],
            [
              76.73188745463145,
              35.708900451660156
            ],
            [
              76.6335633788704,
              36.41016344772918
            ],
            [
              76.70166500015935,
              36.9792542894823
            ],
            [
              74.53936441122572,
              37.92541460297067
            ],
            [
              73.8874394925829,
              38.0117257807975
            ],
            [
              73.20811255405904,
              38.10261686056216
            ]
          ]
        ]
      }
    }
  ]
}
