{
  "type": "FeatureCollection",
  "features": [
    {
      "type": "Feature",
      "properties": {
        "Name": "Visigothic Kingdom",
        "FromYear": 534,
        "ToYear": 539,
        "Area": 481678.9454278419,
        "Type": "POLITY",
        "Wikipedia": "Visigothic Kingdom",
        "Wikidata": "Q126936",
        "SeshatID": "es_visigothic_k",
        "Components": "",
        "MemberOf": "",
        "displayYear": 534,
        "sourceYear": 534,
        "mappedTerritoryId": "cliopatria_visigothic_kingdom"
      },
      "geometry": {
        "type": "Polygon",
        "coordinates": [
          [
            [
              3.45624828338623,
              43.407203674316406
            ],
            [
              2.984907388687134,
              43.146724700927734
            ],
            [
              3.009923458099365,
              42.56119155883789
            ],
            [
              3.178062200546265,
              42.36617660522461
            ],
            [
              3.116764783859253,
              41.911441802978516
            ],
            [
              2.572504997253418,
              41.586883544921875
            ],
            [
              2.333626985549927,
              41.586883544921875
            ],
            [
              2.106574535369873,
              41.32738494873047
            ],
            [
              1.238392949104309,
              41.19768524169922
            ],
            [
              0.695793092250824,
              40.93837356567383
            ],
            [
              0.709256291389465,
              40.6791877746582
            ],
            [
              0.247769102454185,
              40.42012023925781
            ],
            [
              0.182543575763702,
              40.16116714477539
            ],
            [
              -0.126465529203415,
              40.031734466552734
            ],
            [
              -0.345421016216278,
              39.70827102661133
            ],
            [
              -0.313707679510117,
              39.1264533996582
            ],
            [
              0.099359586834908,
              38.738853454589844
            ],
            [
              -0.660861134529114,
              38.28691864013672
            ],
            [
              -0.803495347499847,
              38.028785705566406
            ],
            [
              -0.704753637313843,
              37.641746520996094
            ],
            [
              -1.708719491958618,
              37.44829177856445
            ],
            [
              -1.623468399047852,
              37.3193473815918
            ],
            [
              -1.857354998588562,
              37.3193473815918
            ],
            [
              -2.061630010604858,
              36.80373764038086
            ],
            [
              -2.532132625579834,
              36.8681755065918
            ],
            [
              -2.680080890655518,
              36.73930740356445
            ],
            [
              -4.468626022338867,
              36.73930740356445
            ],
            [
              -4.688807487487793,
              36.5460319519043
            ],
            [
              -5.22819709777832,
              36.48161697387695
            ],
            [
              -5.287947177886963,
              36.2239875793457
            ],
            [
              -5.662277221679688,
              36.03080368041992
            ],
            [
              -5.831079006195068,
              36.2239875793457
            ],
            [
              -6.063849925994873,
              36.2239875793457
            ],
            [
              -6.330093860626221,
              36.67487716674805
            ],
            [
              -6.349542140960693,
              36.932613372802734
            ],
            [
              -6.587993621826172,
              36.9970588684082
            ],
            [
              -6.84182596206665,
              37.254878997802734
            ],
            [
              -7.465344429016113,
              37.254878997802734
            ],
            [
              -7.454815864562988,
              37.12596130371094
            ],
            [
              -7.677903652191162,
              36.9970588684082
            ],
            [
              -8.067157745361328,
              36.9970588684082
            ],
            [
              -8.311661720275879,
              37.12596130371094
            ],
            [
              -8.70113754272461,
              37.12596130371094
            ],
            [
              -9.00136661529541,
              36.9970588684082
            ],
            [
              -8.896896362304688,
              37.5772590637207
            ],
            [
              -8.818843841552734,
              37.5772590637207
            ],
            [
              -8.822718620300293,
              38.48057174682617
            ],
            [
              -9.20852279663086,
              38.416015625
            ],
            [
              -9.23299789428711,
              38.67427444458008
            ],
            [
              -9.38370418548584,
              38.60969924926758
            ],
            [
              -9.553065299987793,
              38.738853454589844
            ],
            [
              -9.446549415588379,
              39.25570297241211
            ],
            [
              -9.367877960205078,
              39.25570297241211
            ],
            [
              -8.974522590637207,
              39.25570297241211
            ],
            [
              -8.914570808410645,
              39.449623107910156
            ],
            [
              -8.757078170776367,
              39.449623107910156
            ],
            [
              -8.472929954528809,
              39.77294921875
            ],
            [
              -7.926864624023438,
              39.8376350402832
            ],
            [
              -6.862598419189453,
              40.29063034057617
            ],
            [
              -6.854352474212646,
              41.06801223754883
            ],
            [
              -6.254164218902588,
              41.45711898803711
            ],
            [
              -6.130332946777344,
              41.84651184082031
            ],
            [
              -5.902846813201904,
              41.97637939453125
            ],
            [
              -5.784419536590576,
              42.43117141723633
            ],
            [
              -5.704421520233154,
              42.43117141723633
            ],
            [
              -5.734158039093018,
              42.75628662109375
            ],
            [
              -5.654013156890869,
              42.75628662109375
            ],
            [
              -3.720062017440796,
              42.62621307373047
            ],
            [
              -2.678941965103149,
              42.62621307373047
            ],
            [
              -2.528355360031128,
              42.75628662109375
            ],
            [
              -2.27851128578186,
              42.62621307373047
            ],
            [
              -2.132294178009033,
              42.82133865356445
            ],
            [
              -1.807049632072449,
              42.75628662109375
            ],
            [
              -1.330547690391541,
              42.82133865356445
            ],
            [
              -1.259086012840271,
              42.95146560668945
            ],
            [
              -0.938149929046631,
              42.95146560668945
            ],
            [
              -0.942404747009277,
              43.016544342041016
            ],
            [
              0.040142297744751,
              42.691246032714844
            ],
            [
              1.074691534042358,
              42.82133865356445
            ],
            [
              1.485537886619568,
              42.62621307373047
            ],
            [
              1.789806246757507,
              42.95146560668945
            ],
            [
              1.950274229049683,
              42.95146560668945
            ],
            [
              1.94390070438385,
              43.08163070678711
            ],
            [
              2.326938390731812,
              43.472347259521484
            ],
            [
              3.025451898574829,
              44.05907440185547
            ],
            [
              3.429201602935791,
              44.05907440185547
            ],
            [
              3.814627170562744,
              44.5159797668457
            ],
            [
              4.057530879974365,
              44.5159797668457
            ],
            [
              4.633574962615967,
              44.25482940673828
            ],
            [
              4.236700534820557,
              44.05907440185547
            ],
            [
              4.092497825622559,
              43.6026611328125
            ],
            [
              4.011962413787842,
              43.6026611328125
            ],
            [
              3.536692380905151,
              43.407203674316406
            ],
            [
              3.45624828338623,
              43.407203674316406
            ]
          ]
        ]
      }
    }
  ]
}
