{
  "type": "FeatureCollection",
  "features": [
    {
      "type": "Feature",
      "properties": {
        "Name": "Republic of India",
        "FromYear": 1987,
        "ToYear": 2023,
        "Area": 3182468.8262455096,
        "Type": "POLITY",
        "Wikipedia": "India",
        "Wikidata": "Q668",
        "SeshatID": "",
        "Components": "",
        "MemberOf": "",
        "displayYear": 1997,
        "sourceYear": 1997,
        "mappedTerritoryId": "cliopatria_republic_of_india"
      },
      "geometry": {
        "type": "MultiPolygon",
        "coordinates": [
          [
            [
              [
                93.69792938232422,
                6.778711795806885
              ],
              [
                93.65269470214844,
                7.228724956512451
              ],
              [
                93.50677490234375,
                7.228724956512451
              ],
              [
                93.51488494873047,
                7.357300281524658
              ],
              [
                93.7378921508789,
                7.421587944030762
              ],
              [
                93.72565460205078,
                7.228724956512451
              ],
              [
                93.87158203125,
                7.228724956512451
              ],
              [
                93.86353302001953,
                7.100150108337402
              ],
              [
                93.85954284667969,
                7.035862445831299
              ],
              [
                93.920654296875,
                6.842999458312988
              ],
              [
                93.69792938232422,
                6.778711795806885
              ]
            ]
          ],
          [
            [
              [
                93.26919555664062,
                8.06446361541748
              ],
              [
                93.48820495605469,
                8.06446361541748
              ],
              [
                93.47957611083984,
                7.935888767242432
              ],
              [
                93.47529602050781,
                7.871601104736328
              ],
              [
                93.25631713867188,
                7.871601104736328
              ],
              [
                93.26919555664062,
                8.06446361541748
              ]
            ]
          ],
          [
            [
              [
                92.5739974975586,
                10.507390975952148
              ],
              [
                92.28667449951172,
                10.571678161621094
              ],
              [
                92.3810806274414,
                10.828827857971191
              ],
              [
                92.38646697998047,
                10.893115997314453
              ],
              [
                92.60596466064453,
                10.893115997314453
              ],
              [
                92.5739974975586,
                10.507390975952148
              ]
            ]
          ],
          [
            [
              [
                92.52082824707031,
                11.6002779006958
              ],
              [
                92.5676498413086,
                12.114578247070312
              ],
              [
                92.72016143798828,
                12.178865432739258
              ],
              [
                92.71507263183594,
                12.886029243469238
              ],
              [
                92.85403442382812,
                13.528904914855957
              ],
              [
                93.08092498779297,
                13.593193054199219
              ],
              [
                93.10103607177734,
                13.07889175415039
              ],
              [
                92.92863464355469,
                12.821741104125977
              ],
              [
                93.06257629394531,
                12.69316577911377
              ],
              [
                93.0376205444336,
                12.436016082763672
              ],
              [
                92.78740692138672,
                12.114578247070312
              ],
              [
                92.83106994628906,
                11.793140411376953
              ],
              [
                92.82524871826172,
                11.728853225708008
              ],
              [
                92.73475646972656,
                11.535990715026855
              ],
              [
                92.52082824707031,
                11.6002779006958
              ]
            ]
          ],
          [
            [
              [
                80.10308074951172,
                28.765243530273438
              ],
              [
                80.30361938476562,
                28.636676788330078
              ],
              [
                80.68107604980469,
                28.636676788330078
              ],
              [
                80.95700073242188,
                28.508106231689453
              ],
              [
                81.19453430175781,
                28.186676025390625
              ],
              [
                81.88497924804688,
                27.865236282348633
              ],
              [
                82.53770446777344,
                27.736658096313477
              ],
              [
                83.07760620117188,
                27.41520881652832
              ],
              [
                84.43182373046875,
                27.41520881652832
              ],
              [
                84.75791931152344,
                27.158044815063477
              ],
              [
                84.73326110839844,
                27.029460906982422
              ],
              [
                84.88357543945312,
                27.029460906982422
              ],
              [
                84.9972152709961,
                26.836584091186523
              ],
              [
                85.2734603881836,
                26.70800018310547
              ],
              [
                85.73619079589844,
                26.772293090820312
              ],
              [
                85.78701782226562,
                26.643707275390625
              ],
              [
                86.3125991821289,
                26.643707275390625
              ],
              [
                86.65162658691406,
                26.450830459594727
              ],
              [
                87.11405181884766,
                26.515121459960938
              ],
              [
                87.23990631103516,
                26.386537551879883
              ],
              [
                87.99026489257812,
                26.386537551879883
              ],
              [
                88.16487884521484,
                26.515121459960938
              ],
              [
                88.21475982666016,
                26.772293090820312
              ],
              [
                88.04019927978516,
                27.029460906982422
              ],
              [
                88.13705444335938,
                27.865236282348633
              ],
              [
                88.47978973388672,
                28.058101654052734
              ],
              [
                88.78125762939453,
                28.058101654052734
              ],
              [
                88.95187377929688,
                27.800947189331055
              ],
              [
                88.79541015625,
                27.41520881652832
              ],
              [
                88.94587707519531,
                27.41520881652832
              ],
              [
                88.80475616455078,
                27.093751907348633
              ],
              [
                89.12883758544922,
                26.836584091186523
              ],
              [
                89.50444030761719,
                26.836584091186523
              ],
              [
                89.70410919189453,
                26.70800018310547
              ],
              [
                90.0044937133789,
                26.70800018310547
              ],
              [
                90.34380340576172,
                26.900876998901367
              ],
              [
                90.56920623779297,
                26.900876998901367
              ],
              [
                90.69332885742188,
                26.772293090820312
              ],
              [
                91.8199462890625,
                26.772293090820312
              ],
              [
                92.07186126708984,
                26.900876998901367
              ],
              [
                92.09185028076172,
                27.35091781616211
              ],
              [
                91.66815948486328,
                27.4794979095459
              ],
              [
                91.72425842285156,
                27.736658096313477
              ],
              [
                92.58130645751953,
                27.865236282348633
              ],
              [
                92.72978973388672,
                28.186676025390625
              ],
              [
                93.06122589111328,
                28.315250396728516
              ],
              [
                93.36358642578125,
                28.636676788330078
              ],
              [
                93.92314910888672,
                28.765243530273438
              ],
              [
                94.57997131347656,
                29.279497146606445
              ],
              [
                95.43846130371094,
                29.08665657043457
              ],
              [
                95.89904022216797,
                29.40805435180664
              ],
              [
                96.20170593261719,
                29.40805435180664
              ],
              [
                96.31958770751953,
                29.279497146606445
              ],
              [
                96.25357818603516,
                29.022375106811523
              ],
              [
                96.61506652832031,
                28.958093643188477
              ],
              [
                96.64185333251953,
                28.765243530273438
              ],
              [
                96.3673095703125,
                28.572391510009766
              ],
              [
                96.3954086303711,
                28.379535675048828
              ],
              [
                96.86382293701172,
                28.44382095336914
              ],
              [
                97.4198989868164,
                28.25096321105957
              ],
              [
                97.34217834472656,
                27.92952537536621
              ],
              [
                96.99523162841797,
                27.736658096313477
              ],
              [
                96.93546295166016,
                27.4794979095459
              ],
              [
                97.13167572021484,
                27.35091781616211
              ],
              [
                97.16311645507812,
                27.158044815063477
              ],
              [
                96.93756866455078,
                27.158044815063477
              ],
              [
                96.89140319824219,
                27.2866268157959
              ],
              [
                96.21452331542969,
                27.2866268157959
              ],
              [
                95.57534790039062,
                26.772293090820312
              ],
              [
                95.15889739990234,
                26.57941436767578
              ],
              [
                95.0789794921875,
                26.19365882873535
              ],
              [
                95.18988800048828,
                26.000778198242188
              ],
              [
                94.8764877319336,
                25.55072784423828
              ],
              [
                94.7143783569336,
                25.48643684387207
              ],
              [
                94.74427795410156,
                24.843517303466797
              ],
              [
                94.36559295654297,
                24.393482208251953
              ],
              [
                94.12893676757812,
                23.879167556762695
              ],
              [
                93.85188293457031,
                24.00774574279785
              ],
              [
                93.40406799316406,
                24.00774574279785
              ],
              [
                93.40502166748047,
                23.557723999023438
              ],
              [
                93.4795913696289,
                23.557723999023438
              ],
              [
                93.41824340820312,
                23.171995162963867
              ],
              [
                93.17465209960938,
                23.043420791625977
              ],
              [
                93.18712615966797,
                22.143402099609375
              ],
              [
                93.01941680908203,
                22.014829635620117
              ],
              [
                92.7314453125,
                22.079116821289062
              ],
              [
                92.59217071533203,
                22.143402099609375
              ],
              [
                92.63024139404297,
                22.400548934936523
              ],
              [
                92.46491241455078,
                22.786272048950195
              ],
              [
                92.49433135986328,
                22.97913360595703
              ],
              [
                92.41984558105469,
                22.97913360595703
              ],
              [
                92.36107635498047,
                23.557723999023438
              ],
              [
                92.23243713378906,
                23.68630027770996
              ],
              [
                92.08325958251953,
                23.68630027770996
              ],
              [
                91.90352630615234,
                23.493436813354492
              ],
              [
                91.7494888305664,
                22.97913360595703
              ],
              [
                91.60051727294922,
                22.97913360595703
              ],
              [
                91.4162826538086,
                23.236284255981445
              ],
              [
                91.26724243164062,
                23.236284255981445
              ],
              [
                91.29704284667969,
                23.429147720336914
              ],
              [
                91.22248840332031,
                23.429147720336914
              ],
              [
                91.38892364501953,
                24.00774574279785
              ],
              [
                92.02848052978516,
                24.264904022216797
              ],
              [
                92.44927978515625,
                24.97209930419922
              ],
              [
                92.18464660644531,
                25.164974212646484
              ],
              [
                90.10103607177734,
                25.229267120361328
              ],
              [
                89.89935302734375,
                25.357851028442383
              ],
              [
                89.91825866699219,
                25.8721923828125
              ],
              [
                89.81673431396484,
                26.129364013671875
              ],
              [
                89.3426284790039,
                26.000778198242188
              ],
              [
                89.2047348022461,
                26.06507110595703
              ],
              [
                89.11579132080078,
                26.386537551879883
              ],
              [
                88.72834014892578,
                26.32224464416504
              ],
              [
                88.5526123046875,
                26.57941436767578
              ],
              [
                88.4024658203125,
                26.57941436767578
              ],
              [
                88.41608428955078,
                26.257951736450195
              ],
              [
                88.25399017333984,
                26.19365882873535
              ],
              [
                88.18290710449219,
                25.807899475097656
              ],
              [
                88.98982238769531,
                25.29355812072754
              ],
              [
                88.89258575439453,
                25.164974212646484
              ],
              [
                88.59330749511719,
                25.164974212646484
              ],
              [
                88.1648178100586,
                24.843517303466797
              ],
              [
                88.11196899414062,
                24.522062301635742
              ],
              [
                88.80719757080078,
                24.200613021850586
              ],
              [
                88.63268280029297,
                23.557723999023438
              ],
              [
                88.83692169189453,
                23.429147720336914
              ],
              [
                88.80804443359375,
                23.236284255981445
              ],
              [
                88.94752502441406,
                23.171995162963867
              ],
              [
                89.11725616455078,
                21.7576847076416
              ],
              [
                89.10834503173828,
                21.693397521972656
              ],
              [
                88.72795104980469,
                21.629112243652344
              ],
              [
                88.71597290039062,
                22.079116821289062
              ],
              [
                88.64161682128906,
                22.079116821289062
              ],
              [
                88.51387023925781,
                21.693397521972656
              ],
              [
                88.3652572631836,
                21.693397521972656
              ],
              [
                88.34766387939453,
                21.5648250579834
              ],
              [
                88.133544921875,
                21.629112243652344
              ],
              [
                88.17765045166016,
                21.950544357299805
              ],
              [
                88.10330963134766,
                21.950544357299805
              ],
              [
                87.76203918457031,
                21.629112243652344
              ],
              [
                87.06745910644531,
                21.43625259399414
              ],
              [
                86.88469696044922,
                21.179107666015625
              ],
              [
                86.95893859863281,
                21.179107666015625
              ],
              [
                87.03089904785156,
                20.60053253173828
              ],
              [
                86.7915267944336,
                20.471960067749023
              ],
              [
                86.84036254882812,
                20.279102325439453
              ],
              [
                86.43616485595703,
                20.021955490112305
              ],
              [
                86.41937255859375,
                19.893383026123047
              ],
              [
                85.64532470703125,
                19.6362361907959
              ],
              [
                85.49723052978516,
                19.6362361907959
              ],
              [
                85.52213287353516,
                19.8290958404541
              ],
              [
                85.37399291992188,
                19.8290958404541
              ],
              [
                85.4148941040039,
                19.571949005126953
              ],
              [
                84.74866485595703,
                18.993366241455078
              ],
              [
                84.37962341308594,
                18.414779663085938
              ],
              [
                84.0519027709961,
                18.157629013061523
              ],
              [
                83.66666412353516,
                18.029054641723633
              ],
              [
                83.5611572265625,
                17.77190399169922
              ],
              [
                83.15304565429688,
                17.450464248657227
              ],
              [
                82.4507827758789,
                17.129026412963867
              ],
              [
                82.34681701660156,
                16.87187385559082
              ],
              [
                82.42052459716797,
                16.87187385559082
              ],
              [
                82.3832015991211,
                16.550434112548828
              ],
              [
                82.06647491455078,
                16.35757064819336
              ],
              [
                81.32273864746094,
                16.293283462524414
              ],
              [
                81.11875915527344,
                15.77897834777832
              ],
              [
                80.61058044433594,
                15.843266487121582
              ],
              [
                80.37598419189453,
                15.714691162109375
              ],
              [
                80.0882339477539,
                15.07181167602539
              ],
              [
                80.26371765136719,
                14.621796607971191
              ],
              [
                80.24600982666016,
                13.657480239868164
              ],
              [
                80.16102600097656,
                13.528904914855957
              ],
              [
                80.3077621459961,
                13.528904914855957
              ],
              [
                80.43157196044922,
                13.271754264831543
              ],
              [
                80.30301666259766,
                12.628878593444824
              ],
              [
                79.8844223022461,
                11.986002922058105
              ],
              [
                79.90264892578125,
                10.250240325927734
              ],
              [
                79.3176498413086,
                10.250240325927734
              ],
              [
                79.29590606689453,
                9.928803443908691
              ],
              [
                78.98654174804688,
                9.671652793884277
              ],
              [
                78.95767211914062,
                9.221640586853027
              ],
              [
                78.58833312988281,
                9.157352447509766
              ],
              [
                78.28418731689453,
                8.964489936828613
              ],
              [
                78.1802749633789,
                8.450189590454102
              ],
              [
                77.87327575683594,
                8.193038940429688
              ],
              [
                77.28192138671875,
                8.06446361541748
              ],
              [
                76.72357177734375,
                8.514476776123047
              ],
              [
                76.7310791015625,
                8.643052101135254
              ],
              [
                76.58878326416016,
                8.707340240478516
              ],
              [
                76.53102111816406,
                8.964489936828613
              ],
              [
                76.32349395751953,
                9.157352447509766
              ],
              [
                76.33528137207031,
                9.350214958190918
              ],
              [
                76.19708251953125,
                9.478790283203125
              ],
              [
                76.20915222167969,
                9.671652793884277
              ],
              [
                76.3553237915039,
                9.671652793884277
              ],
              [
                76.36347961425781,
                9.800228118896484
              ],
              [
                76.22138977050781,
                9.86451530456543
              ],
              [
                76.23381042480469,
                10.057377815246582
              ],
              [
                75.90209197998047,
                10.571678161621094
              ],
              [
                75.72676849365234,
                11.214552879333496
              ],
              [
                75.58491516113281,
                11.278841018676758
              ],
              [
                75.3384780883789,
                11.92171573638916
              ],
              [
                75.06465148925781,
                12.178865432739258
              ],
              [
                74.74769592285156,
                12.821741104125977
              ],
              [
                74.66364288330078,
                13.593193054199219
              ],
              [
                74.4706802368164,
                13.914630889892578
              ],
              [
                74.3744888305664,
                14.493220329284668
              ],
              [
                73.97454071044922,
                14.943235397338867
              ],
              [
                73.74736785888672,
                15.650403022766113
              ],
              [
                73.53911590576172,
                15.77897834777832
              ],
              [
                73.41714477539062,
                16.036130905151367
              ],
              [
                73.32787322998047,
                16.614723205566406
              ],
              [
                73.25418853759766,
                16.614723205566406
              ],
              [
                73.25337219238281,
                17.321889877319336
              ],
              [
                72.95886993408203,
                18.029054641723633
              ],
              [
                72.87482452392578,
                19.314802169799805
              ],
              [
                72.73371887207031,
                19.379087448120117
              ],
              [
                72.7613525390625,
                19.6362361907959
              ],
              [
                72.63394165039062,
                19.8290958404541
              ],
              [
                72.8372573852539,
                20.343387603759766
              ],
              [
                72.89940643310547,
                20.921964645385742
              ],
              [
                72.56289672851562,
                21.24339485168457
              ],
              [
                72.76029968261719,
                21.693397521972656
              ],
              [
                72.54438781738281,
                21.7576847076416
              ],
              [
                72.52674865722656,
                22.271976470947266
              ],
              [
                72.37797546386719,
                22.271976470947266
              ],
              [
                72.34249877929688,
                21.950544357299805
              ],
              [
                72.11245727539062,
                21.88625717163086
              ],
              [
                72.17279815673828,
                21.7576847076416
              ],
              [
                72.3214340209961,
                21.7576847076416
              ],
              [
                72.18476104736328,
                21.179107666015625
              ],
              [
                71.4084701538086,
                20.857677459716797
              ],
              [
                71.32078552246094,
                20.72910499572754
              ],
              [
                70.72064208984375,
                20.664819717407227
              ],
              [
                70.29546356201172,
                20.857677459716797
              ],
              [
                69.88987731933594,
                21.24339485168457
              ],
              [
                69.90315246582031,
                21.371967315673828
              ],
              [
                69.49736022949219,
                21.7576847076416
              ],
              [
                69.34872436523438,
                21.7576847076416
              ],
              [
                68.94945526123047,
                22.20768928527832
              ],
              [
                68.97650909423828,
                22.46483612060547
              ],
              [
                69.40931701660156,
                22.33626365661621
              ],
              [
                69.49740600585938,
                22.46483612060547
              ],
              [
                70.18106079101562,
                22.59341049194336
              ],
              [
                70.3697338104248,
                22.786272048950195
              ],
              [
                70.35105895996094,
                22.786272048950195
              ],
              [
                70.27660369873047,
                22.786272048950195
              ],
              [
                70.28369140625,
                22.85055923461914
              ],
              [
                70.35816192626953,
                22.85055923461914
              ],
              [
                70.43262481689453,
                22.85055923461914
              ],
              [
                70.0673828125,
                22.914846420288086
              ],
              [
                69.74840545654297,
                22.72198486328125
              ],
              [
                69.23419952392578,
                22.786272048950195
              ],
              [
                68.80825805664062,
                22.97913360595703
              ],
              [
                68.55245971679688,
                23.36486053466797
              ],
              [
                68.3359375,
                23.429147720336914
              ],
              [
                68.35022735595703,
                23.557723999023438
              ],
              [
                68.12652587890625,
                23.557723999023438
              ],
              [
                68.14812469482422,
                23.75058937072754
              ],
              [
                68.15538787841797,
                23.814878463745117
              ],
              [
                68.77449035644531,
                24.00774574279785
              ],
              [
                68.80467987060547,
                24.264904022216797
              ],
              [
                69.55142974853516,
                24.264904022216797
              ],
              [
                69.90933227539062,
                24.136323928833008
              ],
              [
                70.47125244140625,
                24.457773208618164
              ],
              [
                70.6126937866211,
                24.393482208251953
              ],
              [
                70.59687042236328,
                24.264904022216797
              ],
              [
                71.05287170410156,
                24.329193115234375
              ],
              [
                71.10973358154297,
                24.779226303100586
              ],
              [
                70.78622436523438,
                25.164974212646484
              ],
              [
                70.69733428955078,
                25.615020751953125
              ],
              [
                70.19070434570312,
                25.743606567382812
              ],
              [
                70.21626281738281,
                26.450830459594727
              ],
              [
                69.51284790039062,
                26.772293090820312
              ],
              [
                69.56114196777344,
                27.093751907348633
              ],
              [
                70.39180755615234,
                28.058101654052734
              ],
              [
                70.54254150390625,
                28.058101654052734
              ],
              [
                70.73670196533203,
                27.865236282348633
              ],
              [
                70.71566009521484,
                27.736658096313477
              ],
              [
                71.64061737060547,
                27.865236282348633
              ],
              [
                71.88823699951172,
                27.993812561035156
              ],
              [
                72.38854217529297,
                28.700960159301758
              ],
              [
                72.9877700805664,
                29.08665657043457
              ],
              [
                73.28743743896484,
                29.472333908081055
              ],
              [
                73.45072937011719,
                29.922264099121094
              ],
              [
                73.944091796875,
                30.115081787109375
              ],
              [
                73.94693756103516,
                30.500701904296875
              ],
              [
                74.57347869873047,
                30.950578689575195
              ],
              [
                74.63334655761719,
                31.91460609436035
              ],
              [
                75.30276489257812,
                32.171695709228516
              ],
              [
                75.34759521484375,
                32.36451721191406
              ],
              [
                74.76611328125,
                32.493072509765625
              ],
              [
                74.67338562011719,
                32.75019073486328
              ],
              [
                74.38238525390625,
                32.81447219848633
              ],
              [
                74.07543182373047,
                33.13589859008789
              ],
              [
                74.1679458618164,
                33.52165222167969
              ],
              [
                74.0300064086914,
                33.5859489440918
              ],
              [
                74.0926742553711,
                33.84315490722656
              ],
              [
                74.2780532836914,
                33.971771240234375
              ],
              [
                73.92533874511719,
                34.10039138793945
              ],
              [
                73.97322082519531,
                34.2933349609375
              ],
              [
                73.83528137207031,
                34.3576545715332
              ],
              [
                73.89978790283203,
                34.614952087402344
              ],
              [
                74.0865478515625,
                34.743614196777344
              ],
              [
                74.78059387207031,
                34.743614196777344
              ],
              [
                75.63928985595703,
                34.48630142211914
              ],
              [
                76.460205078125,
                34.679283142089844
              ],
              [
                77.12044525146484,
                35.12965774536133
              ],
              [
                77.07093048095703,
                35.51579284667969
              ],
              [
                77.98138427734375,
                35.45143127441406
              ],
              [
                78.22614288330078,
                34.93662643432617
              ],
              [
                78.15632629394531,
                34.679283142089844
              ],
              [
                78.6611099243164,
                34.55062484741211
              ],
              [
                79.05377197265625,
                34.2933349609375
              ],
              [
                78.84819793701172,
                34.10039138793945
              ],
              [
                78.80628967285156,
                33.65024948120117
              ],
              [
                79.02970886230469,
                33.32876968383789
              ],
              [
                79.18309020996094,
                33.32876968383789
              ],
              [
                79.36327362060547,
                33.13589859008789
              ],
              [
                79.20040893554688,
                32.493072509765625
              ],
              [
                79.01564025878906,
                32.36451721191406
              ],
              [
                78.80223846435547,
                32.428794860839844
              ],
              [
                78.69712829589844,
                32.62162780761719
              ],
              [
                78.52821350097656,
                32.557350158691406
              ],
              [
                78.51007080078125,
                32.171695709228516
              ],
              [
                78.7987060546875,
                31.78606605529785
              ],
              [
                78.76864624023438,
                31.336183547973633
              ],
              [
                79.1644515991211,
                31.40045166015625
              ],
              [
                79.4549560546875,
                31.014846801757812
              ],
              [
                79.97239685058594,
                30.950578689575195
              ],
              [
                80.26356506347656,
                30.564971923828125
              ],
              [
                80.8416519165039,
                30.436433792114258
              ],
              [
                81.01100158691406,
                30.179353713989258
              ],
              [
                80.470703125,
                29.79371452331543
              ],
              [
                80.10308074951172,
                28.765243530273438
              ]
            ],
            [
              [
                75.59330749511719,
                32.107421875
              ],
              [
                75.51696014404297,
                32.107421875
              ],
              [
                75.50212097167969,
                32.043148040771484
              ],
              [
                75.57844543457031,
                32.043148040771484
              ],
              [
                75.59330749511719,
                32.107421875
              ]
            ]
          ],
          [
            [
              [
                63.76219177246094,
                29.536611557006836
              ],
              [
                63.837886810302734,
                29.536611557006836
              ],
              [
                63.827423095703125,
                29.472333908081055
              ],
              [
                63.75174331665039,
                29.472333908081055
              ],
              [
                63.76219177246094,
                29.536611557006836
              ]
            ]
          ],
          [
            [
              [
                66.26229095458984,
                29.986536026000977
              ],
              [
                66.33809661865234,
                29.986536026000977
              ],
              [
                66.32681274414062,
                29.922264099121094
              ],
              [
                66.25102233886719,
                29.922264099121094
              ],
              [
                66.26229095458984,
                29.986536026000977
              ]
            ]
          ]
        ]
      }
    }
  ]
}
