{
  "type": "FeatureCollection",
  "features": [
    {
      "type": "Feature",
      "properties": {
        "Name": "Oirat Confederation",
        "FromYear": 1619,
        "ToYear": 1635,
        "Area": 365737.3833990128,
        "Type": "POLITY",
        "Wikipedia": "Oirat Confederation",
        "Wikidata": "Q4332415",
        "SeshatID": "",
        "Components": "",
        "MemberOf": "",
        "displayYear": 1620,
        "sourceYear": 1620,
        "mappedTerritoryId": "cliopatria_oirat_confederation"
      },
      "geometry": {
        "type": "Polygon",
        "coordinates": [
          [
            [
              87.548828125,
              44.18956756591797
            ],
            [
              88.27336883544922,
              44.71194839477539
            ],
            [
              89.92989349365234,
              45.300437927246094
            ],
            [
              90.68876647949219,
              45.693260192871094
            ],
            [
              90.994384765625,
              46.1520881652832
            ],
            [
              90.91261291503906,
              46.1520881652832
            ],
            [
              91.00957489013672,
              46.348915100097656
            ],
            [
              90.9277114868164,
              46.348915100097656
            ],
            [
              91.02523040771484,
              46.54585266113281
            ],
            [
              90.17317962646484,
              47.79592514038086
            ],
            [
              89.71098327636719,
              47.86185836791992
            ],
            [
              89.61286163330078,
              47.993770599365234
            ],
            [
              89.0337905883789,
              47.993770599365234
            ],
            [
              88.93529510498047,
              48.1257438659668
            ],
            [
              88.76969909667969,
              48.1257438659668
            ],
            [
              88.80326080322266,
              48.191749572753906
            ],
            [
              88.6375961303711,
              48.191749572753906
            ],
            [
              88.62197875976562,
              48.323814392089844
            ],
            [
              88.32398986816406,
              48.38986587524414
            ],
            [
              88.30854797363281,
              48.52202224731445
            ],
            [
              88.05951690673828,
              48.52202224731445
            ],
            [
              87.8968734741211,
              48.852684020996094
            ],
            [
              87.73048400878906,
              48.852684020996094
            ],
            [
              87.78443908691406,
              49.11750411987305
            ],
            [
              87.33345031738281,
              49.051273345947266
            ],
            [
              87.1864013671875,
              49.2500114440918
            ],
            [
              86.75463104248047,
              49.38258361816406
            ],
            [
              86.60783386230469,
              49.58156967163086
            ],
            [
              86.57315063476562,
              49.51522445678711
            ],
            [
              86.1854019165039,
              49.2500114440918
            ],
            [
              85.66998291015625,
              48.38986587524414
            ],
            [
              85.63751220703125,
              48.323814392089844
            ],
            [
              85.47667694091797,
              47.993770599365234
            ],
            [
              85.55940246582031,
              47.993770599365234
            ],
            [
              85.5149154663086,
              47.730003356933594
            ],
            [
              85.2868423461914,
              47.598209381103516
            ],
            [
              84.70054626464844,
              46.87434005737305
            ],
            [
              84.22964477539062,
              46.74290466308594
            ],
            [
              84.25971984863281,
              46.808616638183594
            ],
            [
              83.79705047607422,
              46.87434005737305
            ],
            [
              83.85716247558594,
              47.005828857421875
            ],
            [
              83.61055755615234,
              47.005828857421875
            ],
            [
              83.640625,
              47.07159423828125
            ],
            [
              83.03512573242188,
              47.005828857421875
            ],
            [
              82.54325866699219,
              46.08650588989258
            ],
            [
              82.21221923828125,
              45.889827728271484
            ],
            [
              81.82308197021484,
              45.36587905883789
            ],
            [
              79.95085144042969,
              44.973392486572266
            ],
            [
              79.97791290283203,
              44.842647552490234
            ],
            [
              80.41033935546875,
              44.71194839477539
            ],
            [
              80.30226135253906,
              44.45067596435547
            ],
            [
              80.38319396972656,
              44.45067596435547
            ],
            [
              80.35716247558594,
              43.99384307861328
            ],
            [
              80.73538970947266,
              43.53750228881836
            ],
            [
              80.68252563476562,
              43.407203674316406
            ],
            [
              80.79065704345703,
              43.276947021484375
            ],
            [
              80.63168334960938,
              43.08163070678711
            ],
            [
              80.47109985351562,
              43.08163070678711
            ],
            [
              80.47344207763672,
              42.88639831542969
            ],
            [
              80.28723907470703,
              42.82133865356445
            ],
            [
              80.18842315673828,
              42.36617660522461
            ],
            [
              80.5337905883789,
              42.43117141723633
            ],
            [
              80.96251678466797,
              42.30118942260742
            ],
            [
              82.05574798583984,
              42.236209869384766
            ],
            [
              84.10846710205078,
              42.75628662109375
            ],
            [
              85.79151153564453,
              42.75628662109375
            ],
            [
              85.76380920410156,
              42.691246032714844
            ],
            [
              86.74934387207031,
              42.56119155883789
            ],
            [
              87.548828125,
              44.18956756591797
            ]
          ]
        ]
      }
    }
  ]
}
