{
  "type": "FeatureCollection",
  "features": [
    {
      "type": "Feature",
      "properties": {
        "Name": "Rouran Khaganate",
        "FromYear": 441,
        "ToYear": 475,
        "Area": 3870827.026643581,
        "Type": "POLITY",
        "Wikipedia": "Rouran Khaganate",
        "Wikidata": "Q155361",
        "SeshatID": "mn_rouran_khaganate",
        "Components": "",
        "MemberOf": "",
        "displayYear": 450,
        "sourceYear": 450,
        "mappedTerritoryId": "cliopatria_rouran_khaganate"
      },
      "geometry": {
        "type": "MultiPolygon",
        "coordinates": [
          [
            [
              [
                102.51245880126953,
                52.250450134277344
              ],
              [
                102.84349060058594,
                52.11625671386719
              ],
              [
                102.7961196899414,
                52.0491943359375
              ],
              [
                103.29706573486328,
                51.91512680053711
              ],
              [
                103.20281982421875,
                51.78114318847656
              ],
              [
                103.28776550292969,
                51.78114318847656
              ],
              [
                103.19407653808594,
                51.64724349975586
              ],
              [
                103.31710052490234,
                51.580322265625
              ],
              [
                103.21658325195312,
                51.31283950805664
              ],
              [
                103.30123138427734,
                51.31283950805664
              ],
              [
                103.29400634765625,
                51.17921447753906
              ],
              [
                103.463134765625,
                51.17921447753906
              ],
              [
                103.49517059326172,
                50.97892379760742
              ],
              [
                104.29378509521484,
                50.912200927734375
              ],
              [
                104.93064880371094,
                50.97892379760742
              ],
              [
                107.21868133544922,
                51.580322265625
              ],
              [
                108.72425842285156,
                51.78114318847656
              ],
              [
                109.26890563964844,
                51.71418380737305
              ],
              [
                109.53899383544922,
                51.84812545776367
              ],
              [
                109.52361297607422,
                51.71418380737305
              ],
              [
                109.9984359741211,
                51.78114318847656
              ],
              [
                109.98284149169922,
                51.64724349975586
              ],
              [
                110.40713500976562,
                51.64724349975586
              ],
              [
                110.3569107055664,
                51.580322265625
              ],
              [
                112.2740478515625,
                51.64724349975586
              ],
              [
                113.8614730834961,
                52.0491943359375
              ],
              [
                114.99018859863281,
                52.18334197998047
              ],
              [
                117.05211639404297,
                52.720787048339844
              ],
              [
                118.27884674072266,
                52.653533935546875
              ],
              [
                118.22235107421875,
                52.586299896240234
              ],
              [
                118.3932876586914,
                52.586299896240234
              ],
              [
                118.33688354492188,
                52.51908493041992
              ],
              [
                118.79295349121094,
                52.4518928527832
              ],
              [
                118.73664093017578,
                52.38472366333008
              ],
              [
                118.90731811523438,
                52.38472366333008
              ],
              [
                118.85110473632812,
                52.31757736206055
              ],
              [
                119.10698699951172,
                52.31757736206055
              ],
              [
                119.05081939697266,
                52.250450134277344
              ],
              [
                119.45001983642578,
                52.11625671386719
              ],
              [
                119.42353820800781,
                51.98215103149414
              ],
              [
                119.59368133544922,
                51.98215103149414
              ],
              [
                119.56759643554688,
                51.84812545776367
              ],
              [
                119.7375717163086,
                51.84812545776367
              ],
              [
                119.68218231201172,
                51.78114318847656
              ],
              [
                119.8816909790039,
                51.71418380737305
              ],
              [
                119.82654571533203,
                51.64724349975586
              ],
              [
                120.13639831542969,
                51.71418380737305
              ],
              [
                120.02603912353516,
                51.580322265625
              ],
              [
                120.56456756591797,
                51.51342010498047
              ],
              [
                120.50956726074219,
                51.44654083251953
              ],
              [
                120.76376342773438,
                51.44654083251953
              ],
              [
                120.70882415771484,
                51.37968063354492
              ],
              [
                120.8233642578125,
                51.31283950805664
              ],
              [
                120.084228515625,
                49.84712600708008
              ],
              [
                120.1679916381836,
                49.84712600708008
              ],
              [
                119.81724548339844,
                49.38258361816406
              ],
              [
                119.9007339477539,
                49.38258361816406
              ],
              [
                119.06246185302734,
                47.993770599365234
              ],
              [
                119.14518737792969,
                47.993770599365234
              ],
              [
                118.96100616455078,
                47.730003356933594
              ],
              [
                119.04358673095703,
                47.730003356933594
              ],
              [
                118.54730224609375,
                47.005828857421875
              ],
              [
                118.62950134277344,
                47.005828857421875
              ],
              [
                118.45243835449219,
                46.74290466308594
              ],
              [
                118.6165771484375,
                46.74290466308594
              ],
              [
                118.35904693603516,
                46.480194091796875
              ],
              [
                118.44097900390625,
                46.480194091796875
              ],
              [
                118.35379791259766,
                46.348915100097656
              ],
              [
                118.4356689453125,
                46.348915100097656
              ],
              [
                118.37825775146484,
                45.889827728271484
              ],
              [
                118.66175842285156,
                45.82429504394531
              ],
              [
                118.65745544433594,
                45.693260192871094
              ],
              [
                119.42070007324219,
                45.36587905883789
              ],
              [
                119.37789154052734,
                45.300437927246094
              ],
              [
                119.98568725585938,
                45.23500442504883
              ],
              [
                119.9427719116211,
                45.169586181640625
              ],
              [
                120.91818237304688,
                45.169586181640625
              ],
              [
                120.87496185302734,
                45.10417556762695
              ],
              [
                121.73102569580078,
                45.169586181640625
              ],
              [
                121.68748474121094,
                45.10417556762695
              ],
              [
                123.34963989257812,
                45.03877639770508
              ],
              [
                123.30558013916016,
                44.973392486572266
              ],
              [
                124.50812530517578,
                44.71194839477539
              ],
              [
                124.46390533447266,
                44.64661407470703
              ],
              [
                124.86150360107422,
                44.5159797668457
              ],
              [
                124.81732940673828,
                44.45067596435547
              ],
              [
                124.97185516357422,
                44.32010269165039
              ],
              [
                125.05272674560547,
                44.32010269165039
              ],
              [
                125.00868225097656,
                44.25482940673828
              ],
              [
                125.1631851196289,
                44.12431716918945
              ],
              [
                125.06883239746094,
                43.86341094970703
              ],
              [
                125.14949035644531,
                43.86341094970703
              ],
              [
                125.0624008178711,
                43.73301696777344
              ],
              [
                125.14299774169922,
                43.73301696777344
              ],
              [
                125.05621337890625,
                43.6026611328125
              ],
              [
                125.13674926757812,
                43.6026611328125
              ],
              [
                124.95885467529297,
                43.211830139160156
              ],
              [
                125.0392074584961,
                43.211830139160156
              ],
              [
                124.90662384033203,
                42.88639831542969
              ],
              [
                124.98682403564453,
                42.88639831542969
              ],
              [
                124.8182144165039,
                42.62621307373047
              ],
              [
                125.01287078857422,
                42.43117141723633
              ],
              [
                124.92961883544922,
                42.30118942260742
              ],
              [
                122.6083755493164,
                41.781593322753906
              ],
              [
                121.21884155273438,
                41.32738494873047
              ],
              [
                119.3900146484375,
                41.32738494873047
              ],
              [
                119.4281005859375,
                41.39224624633789
              ],
              [
                118.75018310546875,
                41.45711898803711
              ],
              [
                117.48167419433594,
                41.32738494873047
              ],
              [
                116.70414733886719,
                40.93837356567383
              ],
              [
                116.35044860839844,
                40.873565673828125
              ],
              [
                115.07637023925781,
                39.8376350402832
              ],
              [
                114.83967590332031,
                39.8376350402832
              ],
              [
                114.82882690429688,
                39.9670295715332
              ],
              [
                114.67092895507812,
                39.9670295715332
              ],
              [
                113.7263412475586,
                39.51427459716797
              ],
              [
                113.33248138427734,
                39.51427459716797
              ],
              [
                113.24083709716797,
                39.64360046386719
              ],
              [
                112.57745361328125,
                39.57893371582031
              ],
              [
                111.73821258544922,
                38.67427444458008
              ],
              [
                110.67475891113281,
                38.416015625
              ],
              [
                110.39788055419922,
                38.157840728759766
              ],
              [
                109.07779693603516,
                37.835243225097656
              ],
              [
                107.90563201904297,
                37.835243225097656
              ],
              [
                107.2454605102539,
                37.5772590637207
              ],
              [
                106.40936279296875,
                37.44829177856445
              ],
              [
                106.01932525634766,
                37.44829177856445
              ],
              [
                105.99661254882812,
                37.5772590637207
              ],
              [
                105.71209716796875,
                37.641746520996094
              ],
              [
                105.73988342285156,
                37.706241607666016
              ],
              [
                105.3493881225586,
                37.706241607666016
              ],
              [
                105.37715148925781,
                37.7707405090332
              ],
              [
                104.462890625,
                37.641746520996094
              ],
              [
                104.36157989501953,
                37.7707405090332
              ],
              [
                103.76398468017578,
                37.835243225097656
              ],
              [
                103.6626205444336,
                37.96426773071289
              ],
              [
                103.8799057006836,
                38.28691864013672
              ],
              [
                103.75135040283203,
                38.351463317871094
              ],
              [
                103.83612060546875,
                38.54513168334961
              ],
              [
                104.10753631591797,
                38.80344009399414
              ],
              [
                103.60787963867188,
                38.738853454589844
              ],
              [
                103.6653060913086,
                38.8680305480957
              ],
              [
                104.66761779785156,
                39.51427459716797
              ],
              [
                104.58282470703125,
                39.8376350402832
              ],
              [
                101.9494857788086,
                39.77294921875
              ],
              [
                100.944580078125,
                39.64360046386719
              ],
              [
                100.97373962402344,
                39.70827102661133
              ],
              [
                100.73719787597656,
                39.70827102661133
              ],
              [
                100.50939178466797,
                39.90232849121094
              ],
              [
                100.35154724121094,
                39.90232849121094
              ],
              [
                100.38090515136719,
                39.9670295715332
              ],
              [
                100.14405822753906,
                39.9670295715332
              ],
              [
                100.17345428466797,
                40.031734466552734
              ],
              [
                99.3836898803711,
                40.031734466552734
              ],
              [
                99.28423309326172,
                40.16116714477539
              ],
              [
                98.91836547851562,
                40.225894927978516
              ],
              [
                98.94775390625,
                40.29063034057617
              ],
              [
                98.50260162353516,
                40.355369567871094
              ],
              [
                98.27448272705078,
                40.54964065551758
              ],
              [
                98.03691864013672,
                40.54964065551758
              ],
              [
                97.6304931640625,
                40.873565673828125
              ],
              [
                96.89657592773438,
                41.00318908691406
              ],
              [
                96.92637634277344,
                41.06801223754883
              ],
              [
                95.22967529296875,
                41.00318908691406
              ],
              [
                93.84545135498047,
                40.74397277832031
              ],
              [
                91.27023315429688,
                41.39224624633789
              ],
              [
                90.77527618408203,
                41.71668243408203
              ],
              [
                90.5362319946289,
                41.71668243408203
              ],
              [
                90.43372344970703,
                41.84651184082031
              ],
              [
                90.19451141357422,
                41.84651184082031
              ],
              [
                90.22297668457031,
                41.911441802978516
              ],
              [
                89.61315155029297,
                41.97637939453125
              ],
              [
                89.64155578613281,
                42.041324615478516
              ],
              [
                88.81988525390625,
                42.17123794555664
              ],
              [
                88.84820556640625,
                42.236209869384766
              ],
              [
                88.07719421386719,
                42.30118942260742
              ],
              [
                88.10537719726562,
                42.36617660522461
              ],
              [
                85.76380920410156,
                42.691246032714844
              ],
              [
                85.79151153564453,
                42.75628662109375
              ],
              [
                84.10846710205078,
                42.75628662109375
              ],
              [
                82.05574798583984,
                42.236209869384766
              ],
              [
                80.96251678466797,
                42.30118942260742
              ],
              [
                80.5337905883789,
                42.43117141723633
              ],
              [
                80.02848815917969,
                42.36617660522461
              ],
              [
                79.43895721435547,
                42.496177673339844
              ],
              [
                79.40936279296875,
                42.62621307373047
              ],
              [
                79.24919128417969,
                42.62621307373047
              ],
              [
                79.0846176147461,
                42.82133865356445
              ],
              [
                77.93187713623047,
                42.95146560668945
              ],
              [
                77.9569091796875,
                43.016544342041016
              ],
              [
                79.09185791015625,
                44.05907440185547
              ],
              [
                79.86965942382812,
                44.973392486572266
              ],
              [
                80.33009338378906,
                45.10417556762695
              ],
              [
                81.28350830078125,
                45.62776184082031
              ],
              [
                81.7791519165039,
                46.02093505859375
              ],
              [
                81.75438690185547,
                46.1520881652832
              ],
              [
                82.36567687988281,
                46.61152267456055
              ],
              [
                82.71333312988281,
                47.20316696166992
              ],
              [
                82.63102722167969,
                47.20316696166992
              ],
              [
                82.75096893310547,
                47.46647262573242
              ],
              [
                82.59416961669922,
                47.664100646972656
              ],
              [
                82.65495300292969,
                47.79592514038086
              ],
              [
                82.52017211914062,
                47.86185836791992
              ],
              [
                82.58135223388672,
                47.993770599365234
              ],
              [
                82.39452362060547,
                48.1257438659668
              ],
              [
                82.43540954589844,
                48.38986587524414
              ],
              [
                82.35247039794922,
                48.38986587524414
              ],
              [
                82.6876220703125,
                48.91886520385742
              ],
              [
                84.98126983642578,
                50.312522888183594
              ],
              [
                85.8331527709961,
                50.64549255371094
              ],
              [
                86.86048126220703,
                50.97892379760742
              ],
              [
                88.27997589111328,
                51.24601745605469
              ],
              [
                88.39606475830078,
                51.44654083251953
              ],
              [
                88.526611328125,
                51.37968063354492
              ],
              [
                90.07669830322266,
                51.84812545776367
              ],
              [
                90.67161560058594,
                51.84812545776367
              ],
              [
                90.67530822753906,
                51.71418380737305
              ],
              [
                91.6531753540039,
                51.64724349975586
              ],
              [
                91.61236572265625,
                51.580322265625
              ],
              [
                92.37571716308594,
                51.580322265625
              ],
              [
                92.58663177490234,
                51.64724349975586
              ],
              [
                92.58467864990234,
                51.78114318847656
              ],
              [
                93.09435272216797,
                51.78114318847656
              ],
              [
                94.58428192138672,
                52.250450134277344
              ],
              [
                96.38236236572266,
                52.51908493041992
              ],
              [
                97.92002868652344,
                52.51908493041992
              ],
              [
                97.87442779541016,
                52.4518928527832
              ],
              [
                98.29542541503906,
                52.31757736206055
              ],
              [
                98.25,
                52.250450134277344
              ],
              [
                98.59099578857422,
                52.250450134277344
              ],
              [
                98.54554748535156,
                52.18334197998047
              ],
              [
                98.84089660644531,
                52.11625671386719
              ],
              [
                100.07284545898438,
                52.78806686401367
              ],
              [
                100.54847717285156,
                52.85536575317383
              ],
              [
                100.55840301513672,
                52.99003219604492
              ],
              [
                101.65126037597656,
                52.720787048339844
              ],
              [
                101.64102172851562,
                52.586299896240234
              ],
              [
                101.72649383544922,
                52.586299896240234
              ],
              [
                101.71660614013672,
                52.4518928527832
              ],
              [
                101.88736724853516,
                52.4518928527832
              ],
              [
                101.87773895263672,
                52.31757736206055
              ],
              [
                102.26651763916016,
                52.38472366333008
              ],
              [
                102.21891021728516,
                52.31757736206055
              ],
              [
                102.47479248046875,
                52.31757736206055
              ],
              [
                102.42721557617188,
                52.250450134277344
              ],
              [
                102.51245880126953,
                52.250450134277344
              ]
            ]
          ],
          [
            [
              [
                93.13627624511719,
                51.84812545776367
              ],
              [
                93.05128479003906,
                51.84812545776367
              ],
              [
                93.09330749511719,
                51.91512680053711
              ],
              [
                93.17833709716797,
                51.91512680053711
              ],
              [
                93.13627624511719,
                51.84812545776367
              ]
            ]
          ]
        ]
      }
    }
  ]
}
