{
  "type": "FeatureCollection",
  "features": [
    {
      "type": "Feature",
      "properties": {
        "Name": "Greek City-States",
        "FromYear": -600,
        "ToYear": -551,
        "Area": 169638.2453773935,
        "Type": "POLITY",
        "Wikipedia": "Polis",
        "Wikidata": "Q148837",
        "SeshatID": "",
        "Components": "",
        "MemberOf": "",
        "displayYear": -597,
        "sourceYear": -597,
        "mappedTerritoryId": "cliopatria_greek_city_states"
      },
      "geometry": {
        "type": "MultiPolygon",
        "coordinates": [
          [
            [
              [
                20.54048728942871,
                31.91460609436035
              ],
              [
                20.44478416442871,
                31.336183547973633
              ],
              [
                20.520925521850586,
                31.336183547973633
              ],
              [
                20.584304809570312,
                30.950578689575195
              ],
              [
                20.1280574798584,
                30.950578689575195
              ],
              [
                20.214296340942383,
                31.271915435791016
              ],
              [
                19.996076583862305,
                31.593257904052734
              ],
              [
                20.089075088500977,
                32.107421875
              ],
              [
                20.016965866088867,
                32.23596954345703
              ],
              [
                20.246112823486328,
                32.23596954345703
              ],
              [
                20.33134651184082,
                32.493072509765625
              ],
              [
                20.481992721557617,
                32.428794860839844
              ],
              [
                20.562992095947266,
                32.557350158691406
              ],
              [
                20.71593475341797,
                32.557350158691406
              ],
              [
                20.644094467163086,
                32.685909271240234
              ],
              [
                20.87124252319336,
                32.62162780761719
              ],
              [
                21.108016967773438,
                32.81447219848633
              ],
              [
                21.41167449951172,
                32.75019073486328
              ],
              [
                21.569839477539062,
                32.878753662109375
              ],
              [
                22.108469009399414,
                32.94303894042969
              ],
              [
                23.089431762695312,
                32.62162780761719
              ],
              [
                23.080799102783203,
                32.428794860839844
              ],
              [
                23.230775833129883,
                32.36451721191406
              ],
              [
                23.066604614257812,
                32.107421875
              ],
              [
                22.455829620361328,
                32.107421875
              ],
              [
                22.37948226928711,
                32.107421875
              ],
              [
                21.692359924316406,
                32.107421875
              ],
              [
                21.534757614135742,
                31.978878021240234
              ],
              [
                21.155561447143555,
                32.043148040771484
              ],
              [
                20.54048728942871,
                31.91460609436035
              ]
            ]
          ],
          [
            [
              [
                22.887205123901367,
                36.417205810546875
              ],
              [
                22.964859008789062,
                36.417205810546875
              ],
              [
                23.116798400878906,
                36.3527946472168
              ],
              [
                23.10675048828125,
                36.15959167480469
              ],
              [
                22.87404441833496,
                36.15959167480469
              ],
              [
                22.887205123901367,
                36.417205810546875
              ]
            ]
          ],
          [
            [
              [
                24.28331756591797,
                37.706241607666016
              ],
              [
                24.36141586303711,
                37.706241607666016
              ],
              [
                24.43158721923828,
                37.5772590637207
              ],
              [
                24.27158546447754,
                37.51277160644531
              ],
              [
                24.201318740844727,
                37.641746520996094
              ],
              [
                24.28331756591797,
                37.706241607666016
              ]
            ]
          ],
          [
            [
              [
                20.621307373046875,
                37.89975357055664
              ],
              [
                20.69947624206543,
                37.89975357055664
              ],
              [
                20.933977127075195,
                37.89975357055664
              ],
              [
                20.922147750854492,
                37.641746520996094
              ],
              [
                20.612695693969727,
                37.706241607666016
              ],
              [
                20.621307373046875,
                37.89975357055664
              ]
            ]
          ],
          [
            [
              [
                24.694225311279297,
                38.028785705566406
              ],
              [
                24.772438049316406,
                38.028785705566406
              ],
              [
                25.068470001220703,
                37.7707405090332
              ],
              [
                24.830005645751953,
                37.706241607666016
              ],
              [
                24.681930541992188,
                37.835243225097656
              ],
              [
                24.694225311279297,
                38.028785705566406
              ]
            ]
          ],
          [
            [
              [
                13.899807929992676,
                37.96426773071289
              ],
              [
                14.05713939666748,
                38.028785705566406
              ],
              [
                14.135353088378906,
                38.028785705566406
              ],
              [
                14.525333404541016,
                37.96426773071289
              ],
              [
                14.365852355957031,
                37.7707405090332
              ],
              [
                14.053367614746094,
                37.7707405090332
              ],
              [
                13.899807929992676,
                37.96426773071289
              ]
            ]
          ],
          [
            [
              [
                15.152132987976074,
                38.028785705566406
              ],
              [
                15.154701232910156,
                38.157840728759766
              ],
              [
                15.470523834228516,
                38.28691864013672
              ],
              [
                15.862062454223633,
                38.28691864013672
              ],
              [
                15.949724197387695,
                38.67427444458008
              ],
              [
                16.265209197998047,
                38.738853454589844
              ],
              [
                16.26859474182129,
                38.8680305480957
              ],
              [
                16.664875030517578,
                38.997230529785156
              ],
              [
                16.827726364135742,
                39.19107437133789
              ],
              [
                17.14231300354004,
                39.19107437133789
              ],
              [
                17.057737350463867,
                38.997230529785156
              ],
              [
                16.502395629882812,
                38.80344009399414
              ],
              [
                16.491945266723633,
                38.416015625
              ],
              [
                15.932764053344727,
                37.96426773071289
              ],
              [
                15.698192596435547,
                37.96426773071289
              ],
              [
                15.62426471710205,
                38.157840728759766
              ],
              [
                15.389483451843262,
                38.157840728759766
              ],
              [
                15.066489219665527,
                37.641746520996094
              ],
              [
                15.059245109558105,
                37.254878997802734
              ],
              [
                15.213889122009277,
                37.1904182434082
              ],
              [
                15.049844741821289,
                36.73930740356445
              ],
              [
                14.661029815673828,
                36.73930740356445
              ],
              [
                14.27791690826416,
                37.12596130371094
              ],
              [
                13.578389167785645,
                37.254878997802734
              ],
              [
                13.192005157470703,
                37.5772590637207
              ],
              [
                12.490468978881836,
                37.706241607666016
              ],
              [
                12.49141788482666,
                37.835243225097656
              ],
              [
                12.960283279418945,
                37.835243225097656
              ],
              [
                13.582268714904785,
                37.5772590637207
              ],
              [
                13.660321235656738,
                37.5772590637207
              ],
              [
                14.744194984436035,
                37.06150817871094
              ],
              [
                14.977813720703125,
                37.06150817871094
              ],
              [
                14.75418758392334,
                37.641746520996094
              ],
              [
                15.152132987976074,
                38.028785705566406
              ]
            ]
          ],
          [
            [
              [
                20.488054275512695,
                38.416015625
              ],
              [
                20.566410064697266,
                38.416015625
              ],
              [
                20.795446395874023,
                38.28691864013672
              ],
              [
                20.7864933013916,
                38.09331130981445
              ],
              [
                20.319902420043945,
                38.157840728759766
              ],
              [
                20.328466415405273,
                38.351463317871094
              ],
              [
                20.488054275512695,
                38.416015625
              ]
            ]
          ],
          [
            [
              [
                23.626148223876953,
                38.48057174682617
              ],
              [
                23.563383102416992,
                38.738853454589844
              ],
              [
                24.030162811279297,
                38.67427444458008
              ],
              [
                24.178871154785156,
                38.54513168334961
              ],
              [
                24.158668518066406,
                38.22237777709961
              ],
              [
                24.002099990844727,
                38.22237777709961
              ],
              [
                23.9786319732666,
                37.835243225097656
              ],
              [
                23.44280242919922,
                38.028785705566406
              ],
              [
                23.208162307739258,
                38.028785705566406
              ],
              [
                23.20083236694336,
                37.89975357055664
              ],
              [
                23.044498443603516,
                37.89975357055664
              ],
              [
                23.108261108398438,
                37.641746520996094
              ],
              [
                23.342487335205078,
                37.641746520996094
              ],
              [
                23.402393341064453,
                37.3193473815918
              ],
              [
                23.168506622314453,
                37.3193473815918
              ],
              [
                23.175601959228516,
                37.44829177856445
              ],
              [
                22.94858741760254,
                37.5772590637207
              ],
              [
                22.71442985534668,
                37.5772590637207
              ],
              [
                22.700735092163086,
                37.3193473815918
              ],
              [
                22.853219985961914,
                37.254878997802734
              ],
              [
                23.056013107299805,
                36.67487716674805
              ],
              [
                22.83283233642578,
                36.8681755065918
              ],
              [
                22.59941291809082,
                36.8681755065918
              ],
              [
                22.51182746887207,
                36.67487716674805
              ],
              [
                22.35634422302246,
                36.67487716674805
              ],
              [
                22.21999168395996,
                37.06150817871094
              ],
              [
                21.90850067138672,
                37.06150817871094
              ],
              [
                21.899152755737305,
                36.8681755065918
              ],
              [
                21.743539810180664,
                36.8681755065918
              ],
              [
                21.681032180786133,
                37.1904182434082
              ],
              [
                21.60311508178711,
                37.1904182434082
              ],
              [
                21.696598052978516,
                37.51277160644531
              ],
              [
                21.243581771850586,
                37.835243225097656
              ],
              [
                21.415550231933594,
                38.157840728759766
              ],
              [
                21.728593826293945,
                38.157840728759766
              ],
              [
                21.738431930541992,
                38.351463317871094
              ],
              [
                21.19325065612793,
                38.416015625
              ],
              [
                20.973709106445312,
                38.738853454589844
              ],
              [
                20.74135398864746,
                38.80344009399414
              ],
              [
                20.747533798217773,
                38.93262481689453
              ],
              [
                21.14027214050293,
                38.93262481689453
              ],
              [
                21.14674949645996,
                39.06184005737305
              ],
              [
                20.98955535888672,
                39.06184005737305
              ],
              [
                21.077896118164062,
                39.25570297241211
              ],
              [
                21.635509490966797,
                39.38497543334961
              ],
              [
                21.864606857299805,
                39.25570297241211
              ],
              [
                21.929227828979492,
                38.997230529785156
              ],
              [
                22.16851043701172,
                39.06184005737305
              ],
              [
                22.179292678833008,
                39.25570297241211
              ],
              [
                22.587739944458008,
                39.51427459716797
              ],
              [
                22.539735794067383,
                40.031734466552734
              ],
              [
                22.697689056396484,
                40.031734466552734
              ],
              [
                22.610868453979492,
                39.90232849121094
              ],
              [
                23.135168075561523,
                39.449623107910156
              ],
              [
                22.816326141357422,
                39.38497543334961
              ],
              [
                22.797286987304688,
                39.06184005737305
              ],
              [
                22.95830535888672,
                39.1264533996582
              ],
              [
                23.10781478881836,
                38.997230529785156
              ],
              [
                23.34353256225586,
                38.997230529785156
              ],
              [
                23.488826751708984,
                38.80344009399414
              ],
              [
                23.178667068481445,
                38.8680305480957
              ],
              [
                23.182519912719727,
                38.93262481689453
              ],
              [
                22.943096160888672,
                38.8680305480957
              ],
              [
                22.935583114624023,
                38.738853454589844
              ],
              [
                23.16720199584961,
                38.67427444458008
              ],
              [
                23.312631607055664,
                38.48057174682617
              ],
              [
                23.626148223876953,
                38.48057174682617
              ]
            ]
          ],
          [
            [
              [
                23.56732749938965,
                38.80344009399414
              ],
              [
                23.563383102416992,
                38.738853454589844
              ],
              [
                23.484909057617188,
                38.738853454589844
              ],
              [
                23.488826751708984,
                38.80344009399414
              ],
              [
                23.56732749938965,
                38.80344009399414
              ]
            ]
          ],
          [
            [
              [
                24.364974975585938,
                38.997230529785156
              ],
              [
                24.443546295166016,
                38.997230529785156
              ],
              [
                24.674930572509766,
                38.93262481689453
              ],
              [
                24.662033081054688,
                38.738853454589844
              ],
              [
                24.35651969909668,
                38.8680305480957
              ],
              [
                24.364974975585938,
                38.997230529785156
              ]
            ]
          ],
          [
            [
              [
                19.921405792236328,
                39.77294921875
              ],
              [
                19.918411254882812,
                39.70827102661133
              ],
              [
                19.912464141845703,
                39.57893371582031
              ],
              [
                19.75778579711914,
                39.64360046386719
              ],
              [
                19.76365852355957,
                39.77294921875
              ],
              [
                19.921405792236328,
                39.77294921875
              ]
            ]
          ],
          [
            [
              [
                17.503604888916016,
                40.54964065551758
              ],
              [
                17.981229782104492,
                40.614410400390625
              ],
              [
                18.43811798095703,
                40.16116714477539
              ],
              [
                18.34894371032715,
                39.90232849121094
              ],
              [
                18.11216926574707,
                39.90232849121094
              ],
              [
                17.813072204589844,
                40.355369567871094
              ],
              [
                17.41753578186035,
                40.355369567871094
              ],
              [
                17.345230102539062,
                40.54964065551758
              ],
              [
                17.02848243713379,
                40.54964065551758
              ],
              [
                16.867990493774414,
                40.4848747253418
              ],
              [
                16.945016860961914,
                40.42012023925781
              ],
              [
                16.861696243286133,
                40.29063034057617
              ],
              [
                16.624452590942383,
                40.29063034057617
              ],
              [
                16.697484970092773,
                40.0964469909668
              ],
              [
                16.454753875732422,
                39.90232849121094
              ],
              [
                16.452865600585938,
                39.8376350402832
              ],
              [
                16.216169357299805,
                39.8376350402832
              ],
              [
                16.30623435974121,
                40.225894927978516
              ],
              [
                16.876516342163086,
                40.74397277832031
              ],
              [
                17.508296966552734,
                40.6791877746582
              ],
              [
                17.503604888916016,
                40.54964065551758
              ]
            ]
          ],
          [
            [
              [
                14.963752746582031,
                40.29063034057617
              ],
              [
                14.893351554870605,
                40.6791877746582
              ],
              [
                14.417906761169434,
                40.6791877746582
              ],
              [
                14.421854972839355,
                40.873565673828125
              ],
              [
                14.104567527770996,
                40.873565673828125
              ],
              [
                14.02763557434082,
                41.00318908691406
              ],
              [
                15.056429862976074,
                40.873565673828125
              ],
              [
                15.36074447631836,
                40.355369567871094
              ],
              [
                15.520606994628906,
                40.42012023925781
              ],
              [
                15.517318725585938,
                40.29063034057617
              ],
              [
                15.83190631866455,
                40.225894927978516
              ],
              [
                15.826749801635742,
                40.031734466552734
              ],
              [
                15.905726432800293,
                40.031734466552734
              ],
              [
                15.903999328613281,
                39.9670295715332
              ],
              [
                15.742775917053223,
                39.8376350402832
              ],
              [
                15.66714859008789,
                39.9670295715332
              ],
              [
                15.747773170471191,
                40.031734466552734
              ],
              [
                15.431868553161621,
                40.031734466552734
              ],
              [
                14.963752746582031,
                40.29063034057617
              ]
            ]
          ],
          [
            [
              [
                15.44310188293457,
                40.4848747253418
              ],
              [
                15.363941192626953,
                40.4848747253418
              ],
              [
                15.365551948547363,
                40.54964065551758
              ],
              [
                15.44473934173584,
                40.54964065551758
              ],
              [
                15.44310188293457,
                40.4848747253418
              ]
            ]
          ],
          [
            [
              [
                15.365551948547363,
                40.54964065551758
              ],
              [
                15.286365509033203,
                40.54964065551758
              ],
              [
                15.287956237792969,
                40.614410400390625
              ],
              [
                15.367170333862305,
                40.614410400390625
              ],
              [
                15.365551948547363,
                40.54964065551758
              ]
            ]
          ],
          [
            [
              [
                24.490964889526367,
                40.80876541137695
              ],
              [
                24.57025909423828,
                40.80876541137695
              ],
              [
                24.808143615722656,
                40.80876541137695
              ],
              [
                24.793624877929688,
                40.614410400390625
              ],
              [
                24.551259994506836,
                40.54964065551758
              ],
              [
                24.490964889526367,
                40.80876541137695
              ]
            ]
          ],
          [
            [
              [
                24.897262573242188,
                40.93837356567383
              ],
              [
                24.34656524658203,
                41.00318908691406
              ],
              [
                24.010608673095703,
                40.74397277832031
              ],
              [
                23.698017120361328,
                40.80876541137695
              ],
              [
                23.684629440307617,
                40.614410400390625
              ],
              [
                23.83857536315918,
                40.54964065551758
              ],
              [
                23.6583194732666,
                40.225894927978516
              ],
              [
                23.662660598754883,
                40.29063034057617
              ],
              [
                23.19237518310547,
                40.355369567871094
              ],
              [
                23.385225296020508,
                40.873565673828125
              ],
              [
                24.519824981689453,
                41.19768524169922
              ],
              [
                25.145366668701172,
                41.06801223754883
              ],
              [
                24.897262573242188,
                40.93837356567383
              ]
            ]
          ],
          [
            [
              [
                19.58710289001465,
                41.06801223754883
              ],
              [
                19.501523971557617,
                40.93837356567383
              ],
              [
                19.422176361083984,
                40.93837356567383
              ],
              [
                19.513919830322266,
                41.19768524169922
              ],
              [
                19.440670013427734,
                41.32738494873047
              ],
              [
                19.685630798339844,
                41.45711898803711
              ],
              [
                19.825313568115234,
                41.06801223754883
              ],
              [
                19.58710289001465,
                41.06801223754883
              ]
            ]
          ],
          [
            [
              [
                5.551539421081543,
                43.276947021484375
              ],
              [
                5.390771865844727,
                43.276947021484375
              ],
              [
                5.386905193328857,
                43.407203674316406
              ],
              [
                5.306460857391357,
                43.407203674316406
              ],
              [
                5.065128803253174,
                43.407203674316406
              ],
              [
                4.978383541107178,
                43.6026611328125
              ],
              [
                5.381059169769287,
                43.6026611328125
              ],
              [
                5.551539421081543,
                43.276947021484375
              ]
            ]
          ],
          [
            [
              [
                33.95713424682617,
                35.258358001708984
              ],
              [
                33.80862808227539,
                35.32271194458008
              ],
              [
                33.46975326538086,
                35.00096893310547
              ],
              [
                33.238162994384766,
                35.00096893310547
              ],
              [
                33.292049407958984,
                34.743614196777344
              ],
              [
                33.28626251220703,
                34.679283142089844
              ],
              [
                32.88944625854492,
                34.55062484741211
              ],
              [
                32.746585845947266,
                34.679283142089844
              ],
              [
                32.36665725708008,
                34.743614196777344
              ],
              [
                32.229042053222656,
                34.93662643432617
              ],
              [
                32.24578857421875,
                35.12965774536133
              ],
              [
                32.55473709106445,
                35.12965774536133
              ],
              [
                32.875247955322266,
                35.258358001708984
              ],
              [
                32.886871337890625,
                35.38706970214844
              ],
              [
                33.73737716674805,
                35.38706970214844
              ],
              [
                34.309810638427734,
                35.708900451660156
              ],
              [
                34.38723373413086,
                35.708900451660156
              ],
              [
                34.542076110839844,
                35.708900451660156
              ],
              [
                34.5294189453125,
                35.58015823364258
              ],
              [
                34.0344123840332,
                35.258358001708984
              ],
              [
                33.95713424682617,
                35.258358001708984
              ]
            ]
          ],
          [
            [
              [
                24.149879455566406,
                35.38706970214844
              ],
              [
                24.30097007751465,
                35.32271194458008
              ],
              [
                25.69233512878418,
                35.32271194458008
              ],
              [
                25.680648803710938,
                35.12965774536133
              ],
              [
                26.22533416748047,
                35.194007873535156
              ],
              [
                26.140073776245117,
                35.065311431884766
              ],
              [
                24.823745727539062,
                35.00096893310547
              ],
              [
                24.7574462890625,
                35.194007873535156
              ],
              [
                24.52567481994629,
                35.194007873535156
              ],
              [
                24.44841766357422,
                35.194007873535156
              ],
              [
                23.679210662841797,
                35.258358001708984
              ],
              [
                23.615402221679688,
                35.51579284667969
              ],
              [
                24.156919479370117,
                35.51579284667969
              ],
              [
                24.149879455566406,
                35.38706970214844
              ]
            ]
          ],
          [
            [
              [
                28.01713752746582,
                36.48161697387695
              ],
              [
                28.09481430053711,
                36.48161697387695
              ],
              [
                28.250165939331055,
                36.48161697387695
              ],
              [
                28.139331817626953,
                36.03080368041992
              ],
              [
                27.742563247680664,
                35.902034759521484
              ],
              [
                27.692523956298828,
                36.28839111328125
              ],
              [
                28.01713752746582,
                36.48161697387695
              ]
            ]
          ],
          [
            [
              [
                32.49259948730469,
                36.15959167480469
              ],
              [
                32.58802795410156,
                36.3527946472168
              ],
              [
                32.82698059082031,
                36.417205810546875
              ],
              [
                32.904632568359375,
                36.417205810546875
              ],
              [
                33.83648681640625,
                36.417205810546875
              ],
              [
                33.901451110839844,
                36.28839111328125
              ],
              [
                33.8238410949707,
                36.28839111328125
              ],
              [
                32.558349609375,
                36.03080368041992
              ],
              [
                32.49259948730469,
                36.15959167480469
              ]
            ]
          ],
          [
            [
              [
                30.109071731567383,
                36.417205810546875
              ],
              [
                30.18672752380371,
                36.417205810546875
              ],
              [
                30.280517578125,
                36.61045455932617
              ],
              [
                30.524646759033203,
                36.73930740356445
              ],
              [
                30.49193572998047,
                36.3527946472168
              ],
              [
                30.109071731567383,
                36.417205810546875
              ]
            ]
          ],
          [
            [
              [
                27.116777420043945,
                36.932613372802734
              ],
              [
                27.18541717529297,
                36.80373764038086
              ],
              [
                26.865324020385742,
                36.67487716674805
              ],
              [
                27.038949966430664,
                36.932613372802734
              ],
              [
                27.116777420043945,
                36.932613372802734
              ]
            ]
          ],
          [
            [
              [
                25.339021682739258,
                37.12596130371094
              ],
              [
                25.416915893554688,
                37.12596130371094
              ],
              [
                25.57270622253418,
                37.12596130371094
              ],
              [
                25.56435775756836,
                36.9970588684082
              ],
              [
                25.330806732177734,
                36.9970588684082
              ],
              [
                25.339021682739258,
                37.12596130371094
              ]
            ]
          ],
          [
            [
              [
                25.064300537109375,
                37.706241607666016
              ],
              [
                25.220497131347656,
                37.706241607666016
              ],
              [
                25.285974502563477,
                37.51277160644531
              ],
              [
                25.0518856048584,
                37.51277160644531
              ],
              [
                24.986202239990234,
                37.706241607666016
              ],
              [
                25.064300537109375,
                37.706241607666016
              ]
            ]
          ],
          [
            [
              [
                26.157678604125977,
                37.706241607666016
              ],
              [
                26.313875198364258,
                37.706241607666016
              ],
              [
                26.304851531982422,
                37.5772590637207
              ],
              [
                25.988245010375977,
                37.51277160644531
              ],
              [
                26.079580307006836,
                37.706241607666016
              ],
              [
                26.157678604125977,
                37.706241607666016
              ]
            ]
          ],
          [
            [
              [
                28.241052627563477,
                37.38381576538086
              ],
              [
                28.512718200683594,
                36.8681755065918
              ],
              [
                28.434911727905273,
                36.8681755065918
              ],
              [
                28.03143882751465,
                36.67487716674805
              ],
              [
                28.138330459594727,
                37.06150817871094
              ],
              [
                28.065349578857422,
                37.12596130371094
              ],
              [
                27.597978591918945,
                37.12596130371094
              ],
              [
                27.53919219970703,
                37.38381576538086
              ],
              [
                27.22254180908203,
                37.3193473815918
              ],
              [
                27.309988021850586,
                37.44829177856445
              ],
              [
                27.16343116760254,
                37.5772590637207
              ],
              [
                27.2558650970459,
                37.7707405090332
              ],
              [
                27.177743911743164,
                37.7707405090332
              ],
              [
                27.27528190612793,
                38.028785705566406
              ],
              [
                26.888994216918945,
                38.09331130981445
              ],
              [
                26.820327758789062,
                38.22237777709961
              ],
              [
                26.42890739440918,
                38.22237777709961
              ],
              [
                26.38368797302246,
                38.67427444458008
              ],
              [
                26.535762786865234,
                38.60969924926758
              ],
              [
                26.594974517822266,
                38.351463317871094
              ],
              [
                27.06496238708496,
                38.351463317871094
              ],
              [
                27.079774856567383,
                38.54513168334961
              ],
              [
                26.849470138549805,
                38.60969924926758
              ],
              [
                26.95786476135254,
                38.997230529785156
              ],
              [
                26.81582260131836,
                39.19107437133789
              ],
              [
                26.82089614868164,
                39.25570297241211
              ],
              [
                26.909828186035156,
                39.38497543334961
              ],
              [
                27.303434371948242,
                39.38497543334961
              ],
              [
                27.44499397277832,
                39.19107437133789
              ],
              [
                27.34556007385254,
                38.93262481689453
              ],
              [
                27.10484504699707,
                38.8680305480957
              ],
              [
                27.011295318603516,
                38.67427444458008
              ],
              [
                27.163177490234375,
                38.60969924926758
              ],
              [
                27.143293380737305,
                38.351463317871094
              ],
              [
                27.421873092651367,
                37.89975357055664
              ],
              [
                27.416982650756836,
                37.835243225097656
              ],
              [
                27.47564125061035,
                37.5772590637207
              ],
              [
                27.631746292114258,
                37.5772590637207
              ],
              [
                27.700023651123047,
                37.44829177856445
              ],
              [
                28.241052627563477,
                37.38381576538086
              ]
            ]
          ],
          [
            [
              [
                25.89913558959961,
                38.48057174682617
              ],
              [
                25.820756912231445,
                38.48057174682617
              ],
              [
                25.912982940673828,
                38.67427444458008
              ],
              [
                25.99143409729004,
                38.67427444458008
              ],
              [
                26.217344284057617,
                38.54513168334961
              ],
              [
                26.111188888549805,
                38.157840728759766
              ],
              [
                25.876405715942383,
                38.157840728759766
              ],
              [
                25.89913558959961,
                38.48057174682617
              ]
            ]
          ],
          [
            [
              [
                26.09356689453125,
                38.997230529785156
              ],
              [
                26.103172302246094,
                39.1264533996582
              ],
              [
                25.793418884277344,
                39.19107437133789
              ],
              [
                26.043895721435547,
                39.38497543334961
              ],
              [
                26.122615814208984,
                39.38497543334961
              ],
              [
                26.511207580566406,
                39.320335388183594
              ],
              [
                26.643573760986328,
                38.997230529785156
              ],
              [
                26.24588966369629,
                38.93262481689453
              ],
              [
                26.09356689453125,
                38.997230529785156
              ]
            ]
          ],
          [
            [
              [
                25.145954132080078,
                40.031734466552734
              ],
              [
                25.46186065673828,
                40.031734466552734
              ],
              [
                25.447328567504883,
                39.8376350402832
              ],
              [
                24.973936080932617,
                39.8376350402832
              ],
              [
                25.066978454589844,
                40.031734466552734
              ],
              [
                25.145954132080078,
                40.031734466552734
              ]
            ]
          ],
          [
            [
              [
                26.132457733154297,
                39.51427459716797
              ],
              [
                26.2723331451416,
                40.29063034057617
              ],
              [
                26.604726791381836,
                40.4848747253418
              ],
              [
                26.683887481689453,
                40.4848747253418
              ],
              [
                26.673099517822266,
                40.355369567871094
              ],
              [
                27.46982192993164,
                40.42012023925781
              ],
              [
                27.464174270629883,
                40.355369567871094
              ],
              [
                27.37388801574707,
                40.225894927978516
              ],
              [
                26.65707778930664,
                40.16116714477539
              ],
              [
                26.70970916748047,
                39.8376350402832
              ],
              [
                26.704496383666992,
                39.77294921875
              ],
              [
                27.019989013671875,
                39.77294921875
              ],
              [
                27.16706657409668,
                39.64360046386719
              ],
              [
                26.841400146484375,
                39.51427459716797
              ],
              [
                26.84657859802246,
                39.57893371582031
              ],
              [
                26.132457733154297,
                39.51427459716797
              ]
            ]
          ],
          [
            [
              [
                25.718765258789062,
                40.29063034057617
              ],
              [
                25.7978458404541,
                40.29063034057617
              ],
              [
                26.03508949279785,
                40.29063034057617
              ],
              [
                26.024850845336914,
                40.16116714477539
              ],
              [
                25.703752517700195,
                40.0964469909668
              ],
              [
                25.718765258789062,
                40.29063034057617
              ]
            ]
          ],
          [
            [
              [
                26.9268741607666,
                40.54964065551758
              ],
              [
                26.842208862304688,
                40.4848747253418
              ],
              [
                26.773971557617188,
                40.614410400390625
              ],
              [
                27.006061553955078,
                40.54964065551758
              ],
              [
                26.9268741607666,
                40.54964065551758
              ]
            ]
          ],
          [
            [
              [
                40.47029495239258,
                41.06801223754883
              ],
              [
                40.60837936401367,
                40.93837356567383
              ],
              [
                40.56735610961914,
                40.6791877746582
              ],
              [
                39.86415100097656,
                40.74397277832031
              ],
              [
                39.68583679199219,
                40.614410400390625
              ],
              [
                39.54707717895508,
                40.74397277832031
              ],
              [
                39.160491943359375,
                40.80876541137695
              ],
              [
                38.824058532714844,
                40.6791877746582
              ],
              [
                37.8731689453125,
                40.6791877746582
              ],
              [
                37.126163482666016,
                41.00318908691406
              ],
              [
                36.878971099853516,
                40.93837356567383
              ],
              [
                36.897125244140625,
                41.06801223754883
              ],
              [
                36.43864440917969,
                41.19768524169922
              ],
              [
                36.77476501464844,
                41.32738494873047
              ],
              [
                37.06510925292969,
                41.132843017578125
              ],
              [
                37.23323440551758,
                41.19768524169922
              ],
              [
                37.21474075317383,
                41.06801223754883
              ],
              [
                37.770565032958984,
                41.06801223754883
              ],
              [
                37.83116149902344,
                40.93837356567383
              ],
              [
                38.15805435180664,
                41.00318908691406
              ],
              [
                38.29773712158203,
                40.873565673828125
              ],
              [
                38.951820373535156,
                41.00318908691406
              ],
              [
                38.96162414550781,
                41.06801223754883
              ],
              [
                39.20975112915039,
                41.132843017578125
              ],
              [
                39.735538482666016,
                40.93837356567383
              ],
              [
                40.370330810546875,
                40.93837356567383
              ],
              [
                40.47029495239258,
                41.06801223754883
              ]
            ]
          ],
          [
            [
              [
                28.1386775970459,
                41.65177917480469
              ],
              [
                28.291698455810547,
                41.586883544921875
              ],
              [
                28.352495193481445,
                41.39224624633789
              ],
              [
                28.975934982299805,
                41.26253128051758
              ],
              [
                28.96312141418457,
                41.132843017578125
              ],
              [
                29.366811752319336,
                41.19768524169922
              ],
              [
                29.255043029785156,
                40.873565673828125
              ],
              [
                29.10276222229004,
                40.93837356567383
              ],
              [
                29.115554809570312,
                41.06801223754883
              ],
              [
                28.71226692199707,
                41.00318908691406
              ],
              [
                28.632890701293945,
                41.00318908691406
              ],
              [
                28.16880989074707,
                41.132843017578125
              ],
              [
                28.077255249023438,
                41.00318908691406
              ],
              [
                27.918502807617188,
                41.00318908691406
              ],
              [
                28.187231063842773,
                41.32738494873047
              ],
              [
                28.1386775970459,
                41.65177917480469
              ]
            ]
          ],
          [
            [
              [
                35.015045166015625,
                41.84651184082031
              ],
              [
                34.79319381713867,
                41.97637939453125
              ],
              [
                35.121212005615234,
                42.041324615478516
              ],
              [
                35.08602523803711,
                41.781593322753906
              ],
              [
                35.006317138671875,
                41.781593322753906
              ],
              [
                35.015045166015625,
                41.84651184082031
              ]
            ]
          ]
        ]
      }
    }
  ]
}
