{
  "type": "FeatureCollection",
  "features": [
    {
      "type": "Feature",
      "properties": {
        "Name": "Republic of Chile",
        "FromYear": 1828,
        "ToYear": 1865,
        "Area": 303302.5552864426,
        "Type": "POLITY",
        "Wikipedia": "Chile",
        "Wikidata": "Q298",
        "SeshatID": "ch_chile_rep_1",
        "Components": "",
        "MemberOf": "",
        "displayYear": 1842,
        "sourceYear": 1842,
        "mappedTerritoryId": "cliopatria_republic_of_chile"
      },
      "geometry": {
        "type": "MultiPolygon",
        "coordinates": [
          [
            [
              [
                -72.979248046875,
                -40.427433013916016
              ],
              [
                -73.22027587890625,
                -40.621726989746094
              ],
              [
                -73.33187103271484,
                -40.88088607788086
              ],
              [
                -73.22944641113281,
                -41.01051330566406
              ],
              [
                -73.28602600097656,
                -41.140167236328125
              ],
              [
                -73.20658874511719,
                -41.140167236328125
              ],
              [
                -73.26345825195312,
                -41.26985549926758
              ],
              [
                -73.18396759033203,
                -41.26985549926758
              ],
              [
                -73.2190170288086,
                -41.529327392578125
              ],
              [
                -73.05982208251953,
                -41.529327392578125
              ],
              [
                -73.28433990478516,
                -41.85384750366211
              ],
              [
                -73.63265991210938,
                -41.91877746582031
              ],
              [
                -73.43131256103516,
                -42.1785774230957
              ],
              [
                -73.72048950195312,
                -42.63356018066406
              ],
              [
                -73.57080078125,
                -42.82868576049805
              ],
              [
                -73.6315689086914,
                -42.95881652832031
              ],
              [
                -73.55133056640625,
                -42.95881652832031
              ],
              [
                -73.6429443359375,
                -43.15407943725586
              ],
              [
                -73.87755584716797,
                -43.479705810546875
              ],
              [
                -74.53938293457031,
                -43.34942626953125
              ],
              [
                -74.35370635986328,
                -42.95881652832031
              ],
              [
                -74.43394470214844,
                -42.95881652832031
              ],
              [
                -74.27033233642578,
                -42.438514709472656
              ],
              [
                -74.37003326416016,
                -42.308528900146484
              ],
              [
                -74.13204956054688,
                -41.78892517089844
              ],
              [
                -73.84253692626953,
                -41.85384750366211
              ],
              [
                -73.81318664550781,
                -41.78892517089844
              ],
              [
                -73.89290618896484,
                -41.78892517089844
              ],
              [
                -73.88490295410156,
                -41.594215393066406
              ],
              [
                -74.09463500976562,
                -41.529327392578125
              ],
              [
                -74.03657531738281,
                -41.399574279785156
              ],
              [
                -74.13784790039062,
                -41.26985549926758
              ],
              [
                -73.81615447998047,
                -39.97433853149414
              ],
              [
                -73.52547454833984,
                -39.84494400024414
              ],
              [
                -73.36656188964844,
                -39.26300048828125
              ],
              [
                -73.05186462402344,
                -39.26300048828125
              ],
              [
                -72.87033081054688,
                -39.0045280456543
              ],
              [
                -72.42431640625,
                -39.06913757324219
              ],
              [
                -72.39680480957031,
                -39.1983757019043
              ],
              [
                -72.71025848388672,
                -39.392276763916016
              ],
              [
                -72.68360137939453,
                -39.521575927734375
              ],
              [
                -72.81485748291016,
                -39.65090560913086
              ],
              [
                -72.55220031738281,
                -39.78025817871094
              ],
              [
                -72.9765396118164,
                -40.23320770263672
              ],
              [
                -73.03101348876953,
                -40.36268615722656
              ],
              [
                -72.951904296875,
                -40.36268615722656
              ],
              [
                -72.979248046875,
                -40.427433013916016
              ]
            ]
          ],
          [
            [
              [
                -70.7034912109375,
                -36.2956657409668
              ],
              [
                -70.92520904541016,
                -36.4888916015625
              ],
              [
                -71.08056640625,
                -36.4888916015625
              ],
              [
                -71.29344940185547,
                -36.87545394897461
              ],
              [
                -71.21563720703125,
                -36.87545394897461
              ],
              [
                -71.28410339355469,
                -37.06878662109375
              ],
              [
                -71.20623016357422,
                -37.06878662109375
              ],
              [
                -71.2752685546875,
                -37.26216125488281
              ],
              [
                -71.19732666015625,
                -37.26216125488281
              ],
              [
                -71.28270721435547,
                -37.71352767944336
              ],
              [
                -71.20460510253906,
                -37.71352767944336
              ],
              [
                -71.35382843017578,
                -37.907039642333984
              ],
              [
                -71.58833312988281,
                -37.907039642333984
              ],
              [
                -71.54071044921875,
                -37.77802658081055
              ],
              [
                -71.69696044921875,
                -37.77802658081055
              ],
              [
                -71.78205871582031,
                -37.58454132080078
              ],
              [
                -72.8271484375,
                -37.45557403564453
              ],
              [
                -73.0136489868164,
                -37.326629638671875
              ],
              [
                -72.96642303466797,
                -37.19770050048828
              ],
              [
                -73.12226104736328,
                -37.19770050048828
              ],
              [
                -73.08305358886719,
                -36.87545394897461
              ],
              [
                -73.33982849121094,
                -36.93989562988281
              ],
              [
                -72.97697448730469,
                -36.360069274902344
              ],
              [
                -72.76463317871094,
                -35.52306365966797
              ],
              [
                -72.42416381835938,
                -35.20127487182617
              ],
              [
                -72.10264587402344,
                -33.979034423828125
              ],
              [
                -71.9082260131836,
                -33.85042190551758
              ],
              [
                -71.8076400756836,
                -33.52891540527344
              ],
              [
                -71.92125701904297,
                -33.40032196044922
              ],
              [
                -71.6297378540039,
                -32.69316864013672
              ],
              [
                -71.70624542236328,
                -32.69316864013672
              ],
              [
                -71.6109848022461,
                -32.37178039550781
              ],
              [
                -71.76494598388672,
                -32.114681243896484
              ],
              [
                -71.71183013916016,
                -31.664785385131836
              ],
              [
                -71.82779693603516,
                -31.53624725341797
              ],
              [
                -71.77355194091797,
                -31.343442916870117
              ],
              [
                -71.84969329833984,
                -31.343442916870117
              ],
              [
                -71.8597640991211,
                -30.829303741455078
              ],
              [
                -71.93577575683594,
                -30.829303741455078
              ],
              [
                -71.79762268066406,
                -30.315153121948242
              ],
              [
                -71.62892150878906,
                -30.250883102416992
              ],
              [
                -71.42005920410156,
                -29.7367000579834
              ],
              [
                -71.49579620361328,
                -29.7367000579834
              ],
              [
                -71.49042510986328,
                -29.415315628051758
              ],
              [
                -71.72916412353516,
                -29.1581974029541
              ],
              [
                -71.6507339477539,
                -28.836788177490234
              ],
              [
                -71.31739044189453,
                -28.386796951293945
              ],
              [
                -71.2601547241211,
                -27.808208465576172
              ],
              [
                -71.18484497070312,
                -27.808208465576172
              ],
              [
                -70.93541717529297,
                -26.650970458984375
              ],
              [
                -70.86033630371094,
                -26.650970458984375
              ],
              [
                -70.7818603515625,
                -26.265213012695312
              ],
              [
                -70.8934326171875,
                -26.07233428955078
              ],
              [
                -70.88081359863281,
                -25.622283935546875
              ],
              [
                -70.61961364746094,
                -25.429405212402344
              ],
              [
                -70.57182312011719,
                -25.172237396240234
              ],
              [
                -70.73779296875,
                -24.850778579711914
              ],
              [
                -70.66719818115234,
                -24.01500701904297
              ],
              [
                -70.65640258789062,
                -23.95071792602539
              ],
              [
                -67.45784759521484,
                -24.01500701904297
              ],
              [
                -67.71328735351562,
                -24.207876205444336
              ],
              [
                -68.25736236572266,
                -24.336454391479492
              ],
              [
                -68.61080169677734,
                -24.65790557861328
              ],
              [
                -68.65557861328125,
                -24.915069580078125
              ],
              [
                -68.52871704101562,
                -25.04365348815918
              ],
              [
                -68.69683074951172,
                -25.55799102783203
              ],
              [
                -68.48181915283203,
                -26.008041381835938
              ],
              [
                -68.66998291015625,
                -26.58667755126953
              ],
              [
                -68.4214096069336,
                -26.843847274780273
              ],
              [
                -68.46084594726562,
                -27.03672218322754
              ],
              [
                -68.95201110839844,
                -27.229597091674805
              ],
              [
                -69.34457397460938,
                -28.001075744628906
              ],
              [
                -69.73321533203125,
                -28.386796951293945
              ],
              [
                -69.89910888671875,
                -29.093917846679688
              ],
              [
                -70.08135223388672,
                -29.22247886657715
              ],
              [
                -70.1601333618164,
                -29.54387092590332
              ],
              [
                -70.08443450927734,
                -29.54387092590332
              ],
              [
                -70.13243865966797,
                -29.7367000579834
              ],
              [
                -70.01322174072266,
                -29.865249633789062
              ],
              [
                -70.06211853027344,
                -30.058069229125977
              ],
              [
                -69.95986938476562,
                -30.250883102416992
              ],
              [
                -70.36424255371094,
                -30.636499404907227
              ],
              [
                -70.40882873535156,
                -31.08637237548828
              ],
              [
                -70.68983459472656,
                -31.2791748046875
              ],
              [
                -70.74317932128906,
                -31.47197914123535
              ],
              [
                -70.66699981689453,
                -31.47197914123535
              ],
              [
                -70.68083190917969,
                -31.793325424194336
              ],
              [
                -70.43033599853516,
                -31.98613739013672
              ],
              [
                -70.44609069824219,
                -32.30750274658203
              ],
              [
                -70.25403594970703,
                -32.43605422973633
              ],
              [
                -70.29042053222656,
                -32.82173156738281
              ],
              [
                -70.09876251220703,
                -32.95029830932617
              ],
              [
                -70.19477081298828,
                -33.2717399597168
              ],
              [
                -69.92674255371094,
                -33.40032196044922
              ],
              [
                -69.98519134521484,
                -33.59321212768555
              ],
              [
                -69.9084243774414,
                -33.59321212768555
              ],
              [
                -70.04673767089844,
                -34.04334259033203
              ],
              [
                -69.95296478271484,
                -34.23628616333008
              ],
              [
                -70.24458312988281,
                -34.42924118041992
              ],
              [
                -70.65455627441406,
                -35.45869827270508
              ],
              [
                -70.52113342285156,
                -35.52306365966797
              ],
              [
                -70.5424575805664,
                -35.58742904663086
              ],
              [
                -70.7034912109375,
                -36.2956657409668
              ]
            ]
          ]
        ]
      }
    }
  ]
}
