{
  "type": "FeatureCollection",
  "features": [
    {
      "type": "Feature",
      "properties": {
        "Name": "Greek City-States",
        "FromYear": -480,
        "ToYear": -451,
        "Area": 123350.974259315,
        "Type": "POLITY",
        "Wikipedia": "Polis",
        "Wikidata": "Q148837",
        "SeshatID": "",
        "Components": "",
        "MemberOf": "",
        "displayYear": -473,
        "sourceYear": -473,
        "mappedTerritoryId": "cliopatria_greek_city_states"
      },
      "geometry": {
        "type": "MultiPolygon",
        "coordinates": [
          [
            [
              [
                -6.675864696502686,
                37.12596130371094
              ],
              [
                -6.052703857421875,
                37.12596130371094
              ],
              [
                -5.955624580383301,
                36.8681755065918
              ],
              [
                -6.023882389068604,
                36.73930740356445
              ],
              [
                -6.179408073425293,
                36.73930740356445
              ],
              [
                -6.174611568450928,
                36.67487716674805
              ],
              [
                -6.330093860626221,
                36.67487716674805
              ],
              [
                -6.349542140960693,
                36.932613372802734
              ],
              [
                -6.675864696502686,
                37.12596130371094
              ]
            ]
          ],
          [
            [
              [
                24.28331756591797,
                37.706241607666016
              ],
              [
                24.36141586303711,
                37.706241607666016
              ],
              [
                24.43158721923828,
                37.5772590637207
              ],
              [
                24.27158546447754,
                37.51277160644531
              ],
              [
                24.201318740844727,
                37.641746520996094
              ],
              [
                24.28331756591797,
                37.706241607666016
              ]
            ]
          ],
          [
            [
              [
                22.551544189453125,
                37.44829177856445
              ],
              [
                22.554927825927734,
                37.51277160644531
              ],
              [
                22.568588256835938,
                37.7707405090332
              ],
              [
                22.80295181274414,
                37.7707405090332
              ],
              [
                22.707557678222656,
                37.44829177856445
              ],
              [
                22.551544189453125,
                37.44829177856445
              ]
            ]
          ],
          [
            [
              [
                20.612695693969727,
                37.706241607666016
              ],
              [
                20.621307373046875,
                37.89975357055664
              ],
              [
                20.69947624206543,
                37.89975357055664
              ],
              [
                20.933977127075195,
                37.89975357055664
              ],
              [
                20.922147750854492,
                37.641746520996094
              ],
              [
                20.612695693969727,
                37.706241607666016
              ]
            ]
          ],
          [
            [
              [
                13.899807929992676,
                37.96426773071289
              ],
              [
                14.05713939666748,
                38.028785705566406
              ],
              [
                14.135353088378906,
                38.028785705566406
              ],
              [
                14.525333404541016,
                37.96426773071289
              ],
              [
                14.365852355957031,
                37.7707405090332
              ],
              [
                14.053367614746094,
                37.7707405090332
              ],
              [
                13.899807929992676,
                37.96426773071289
              ]
            ]
          ],
          [
            [
              [
                20.328466415405273,
                38.351463317871094
              ],
              [
                20.488054275512695,
                38.416015625
              ],
              [
                20.566410064697266,
                38.416015625
              ],
              [
                20.795446395874023,
                38.28691864013672
              ],
              [
                20.7864933013916,
                38.09331130981445
              ],
              [
                20.319902420043945,
                38.157840728759766
              ],
              [
                20.328466415405273,
                38.351463317871094
              ]
            ]
          ],
          [
            [
              [
                22.681997299194336,
                38.416015625
              ],
              [
                22.846023559570312,
                38.54513168334961
              ],
              [
                23.31644058227539,
                38.54513168334961
              ],
              [
                23.222986221313477,
                38.28691864013672
              ],
              [
                22.902502059936523,
                38.157840728759766
              ],
              [
                22.9061222076416,
                38.22237777709961
              ],
              [
                22.749553680419922,
                38.22237777709961
              ],
              [
                22.83506965637207,
                38.351463317871094
              ],
              [
                22.681997299194336,
                38.416015625
              ]
            ]
          ],
          [
            [
              [
                17.508296966552734,
                40.6791877746582
              ],
              [
                17.503604888916016,
                40.54964065551758
              ],
              [
                17.981229782104492,
                40.614410400390625
              ],
              [
                18.43811798095703,
                40.16116714477539
              ],
              [
                18.34894371032715,
                39.90232849121094
              ],
              [
                18.11216926574707,
                39.90232849121094
              ],
              [
                17.813072204589844,
                40.355369567871094
              ],
              [
                17.41753578186035,
                40.355369567871094
              ],
              [
                17.345230102539062,
                40.54964065551758
              ],
              [
                17.02848243713379,
                40.54964065551758
              ],
              [
                16.867990493774414,
                40.4848747253418
              ],
              [
                16.945016860961914,
                40.42012023925781
              ],
              [
                16.861696243286133,
                40.29063034057617
              ],
              [
                16.624452590942383,
                40.29063034057617
              ],
              [
                16.697484970092773,
                40.0964469909668
              ],
              [
                16.45665168762207,
                39.9670295715332
              ],
              [
                16.44725799560547,
                39.64360046386719
              ],
              [
                16.916194915771484,
                39.51427459716797
              ],
              [
                17.069679260253906,
                39.38497543334961
              ],
              [
                17.138301849365234,
                39.06184005737305
              ],
              [
                16.502395629882812,
                38.80344009399414
              ],
              [
                16.491945266723633,
                38.416015625
              ],
              [
                15.932764053344727,
                37.96426773071289
              ],
              [
                15.698192596435547,
                37.96426773071289
              ],
              [
                15.62426471710205,
                38.157840728759766
              ],
              [
                15.389483451843262,
                38.157840728759766
              ],
              [
                15.066489219665527,
                37.641746520996094
              ],
              [
                15.059245109558105,
                37.254878997802734
              ],
              [
                15.213889122009277,
                37.1904182434082
              ],
              [
                15.049844741821289,
                36.73930740356445
              ],
              [
                14.661029815673828,
                36.73930740356445
              ],
              [
                14.27791690826416,
                37.12596130371094
              ],
              [
                13.578389167785645,
                37.254878997802734
              ],
              [
                13.192005157470703,
                37.5772590637207
              ],
              [
                12.490468978881836,
                37.706241607666016
              ],
              [
                12.49141788482666,
                37.835243225097656
              ],
              [
                12.960283279418945,
                37.835243225097656
              ],
              [
                14.744194984436035,
                37.06150817871094
              ],
              [
                14.977813720703125,
                37.06150817871094
              ],
              [
                14.751935005187988,
                37.51277160644531
              ],
              [
                14.834580421447754,
                37.7707405090332
              ],
              [
                15.152132987976074,
                38.028785705566406
              ],
              [
                15.154701232910156,
                38.157840728759766
              ],
              [
                15.470523834228516,
                38.28691864013672
              ],
              [
                15.862062454223633,
                38.28691864013672
              ],
              [
                15.949724197387695,
                38.67427444458008
              ],
              [
                16.265209197998047,
                38.738853454589844
              ],
              [
                15.898874282836914,
                39.77294921875
              ],
              [
                15.665508270263672,
                39.90232849121094
              ],
              [
                15.747773170471191,
                40.031734466552734
              ],
              [
                15.431868553161621,
                40.031734466552734
              ],
              [
                15.199469566345215,
                40.225894927978516
              ],
              [
                15.041359901428223,
                40.225894927978516
              ],
              [
                14.893351554870605,
                40.6791877746582
              ],
              [
                14.417906761169434,
                40.6791877746582
              ],
              [
                14.421854972839355,
                40.873565673828125
              ],
              [
                14.104567527770996,
                40.873565673828125
              ],
              [
                14.02763557434082,
                41.00318908691406
              ],
              [
                15.056429862976074,
                40.873565673828125
              ],
              [
                15.515687942504883,
                40.225894927978516
              ],
              [
                15.990015983581543,
                40.225894927978516
              ],
              [
                16.144468307495117,
                40.0964469909668
              ],
              [
                16.142654418945312,
                40.031734466552734
              ],
              [
                16.37958335876465,
                40.031734466552734
              ],
              [
                16.30623435974121,
                40.225894927978516
              ],
              [
                16.876516342163086,
                40.74397277832031
              ],
              [
                17.508296966552734,
                40.6791877746582
              ]
            ]
          ],
          [
            [
              [
                22.29022216796875,
                38.416015625
              ],
              [
                22.365081787109375,
                38.351463317871094
              ],
              [
                22.279848098754883,
                38.22237777709961
              ],
              [
                22.589460372924805,
                38.157840728759766
              ],
              [
                22.653661727905273,
                37.89975357055664
              ],
              [
                22.2628231048584,
                37.89975357055664
              ],
              [
                22.116525650024414,
                38.09331130981445
              ],
              [
                21.960050582885742,
                38.09331130981445
              ],
              [
                21.953441619873047,
                37.96426773071289
              ],
              [
                21.33102798461914,
                38.028785705566406
              ],
              [
                21.415550231933594,
                38.157840728759766
              ],
              [
                21.728593826293945,
                38.157840728759766
              ],
              [
                21.738431930541992,
                38.351463317871094
              ],
              [
                21.118022918701172,
                38.48057174682617
              ],
              [
                20.976852416992188,
                38.80344009399414
              ],
              [
                21.14674949645996,
                39.06184005737305
              ],
              [
                20.92055320739746,
                39.25570297241211
              ],
              [
                20.927017211914062,
                39.38497543334961
              ],
              [
                21.084461212158203,
                39.38497543334961
              ],
              [
                21.091083526611328,
                39.51427459716797
              ],
              [
                21.64248275756836,
                39.51427459716797
              ],
              [
                21.505924224853516,
                39.90232849121094
              ],
              [
                21.509477615356445,
                39.9670295715332
              ],
              [
                21.82527732849121,
                39.9670295715332
              ],
              [
                21.91537094116211,
                40.16116714477539
              ],
              [
                22.212478637695312,
                39.8376350402832
              ],
              [
                22.697689056396484,
                40.031734466552734
              ],
              [
                22.69373321533203,
                39.9670295715332
              ],
              [
                22.610868453979492,
                39.90232849121094
              ],
              [
                22.764768600463867,
                39.8376350402832
              ],
              [
                22.756925582885742,
                39.70827102661133
              ],
              [
                23.135168075561523,
                39.449623107910156
              ],
              [
                22.816326141357422,
                39.38497543334961
              ],
              [
                22.797286987304688,
                39.06184005737305
              ],
              [
                22.95830535888672,
                39.1264533996582
              ],
              [
                23.418163299560547,
                38.93262481689453
              ],
              [
                23.02161979675293,
                38.8680305480957
              ],
              [
                22.943096160888672,
                38.8680305480957
              ],
              [
                22.7075252532959,
                38.8680305480957
              ],
              [
                22.457571029663086,
                38.60969924926758
              ],
              [
                22.446931838989258,
                38.416015625
              ],
              [
                22.29022216796875,
                38.416015625
              ]
            ]
          ],
          [
            [
              [
                -0.345421016216278,
                39.70827102661133
              ],
              [
                -0.313707679510117,
                39.1264533996582
              ],
              [
                0.096056789159775,
                38.80344009399414
              ],
              [
                -0.125997006893158,
                38.54513168334961
              ],
              [
                -0.538960754871368,
                38.93262481689453
              ],
              [
                -0.567464292049408,
                39.449623107910156
              ],
              [
                -0.571073591709137,
                39.51427459716797
              ],
              [
                -0.51402348279953,
                39.90232849121094
              ],
              [
                -0.201878547668457,
                39.9670295715332
              ],
              [
                -0.345421016216278,
                39.70827102661133
              ]
            ]
          ],
          [
            [
              [
                19.921405792236328,
                39.77294921875
              ],
              [
                19.918411254882812,
                39.70827102661133
              ],
              [
                19.912464141845703,
                39.57893371582031
              ],
              [
                19.75778579711914,
                39.64360046386719
              ],
              [
                19.76365852355957,
                39.77294921875
              ],
              [
                19.921405792236328,
                39.77294921875
              ]
            ]
          ],
          [
            [
              [
                19.74909782409668,
                41.132843017578125
              ],
              [
                19.90471839904785,
                41.06801223754883
              ],
              [
                19.895063400268555,
                40.873565673828125
              ],
              [
                19.730152130126953,
                40.74397277832031
              ],
              [
                19.79075813293457,
                40.355369567871094
              ],
              [
                19.47136878967285,
                40.29063034057617
              ],
              [
                19.48629379272461,
                40.614410400390625
              ],
              [
                19.2486515045166,
                40.614410400390625
              ],
              [
                19.254547119140625,
                40.74397277832031
              ],
              [
                19.33381462097168,
                40.74397277832031
              ],
              [
                19.498455047607422,
                40.873565673828125
              ],
              [
                19.440670013427734,
                41.32738494873047
              ],
              [
                19.685630798339844,
                41.45711898803711
              ],
              [
                19.74909782409668,
                41.132843017578125
              ]
            ]
          ],
          [
            [
              [
                5.390771865844727,
                43.276947021484375
              ],
              [
                5.386905193328857,
                43.407203674316406
              ],
              [
                5.063065528869629,
                43.472347259521484
              ],
              [
                4.177847862243652,
                43.472347259521484
              ],
              [
                4.173032760620117,
                43.6026611328125
              ],
              [
                3.850892543792725,
                43.6026611328125
              ],
              [
                2.984907388687134,
                43.146724700927734
              ],
              [
                3.009923458099365,
                42.56119155883789
              ],
              [
                3.178062200546265,
                42.36617660522461
              ],
              [
                3.039664268493652,
                41.84651184082031
              ],
              [
                2.698246717453003,
                42.36617660522461
              ],
              [
                2.775402784347534,
                42.43117141723633
              ],
              [
                2.669466018676758,
                43.016544342041016
              ],
              [
                2.749729871749878,
                43.016544342041016
              ],
              [
                2.74102783203125,
                43.211830139160156
              ],
              [
                3.445524215698242,
                43.6678352355957
              ],
              [
                4.727918148040771,
                43.86341094970703
              ],
              [
                5.869569301605225,
                43.407203674316406
              ],
              [
                6.593565464019775,
                43.407203674316406
              ],
              [
                6.596527099609375,
                43.276947021484375
              ],
              [
                6.278174877166748,
                43.146724700927734
              ],
              [
                6.197851181030273,
                43.146724700927734
              ],
              [
                5.796233177185059,
                43.146724700927734
              ],
              [
                5.631923198699951,
                43.276947021484375
              ],
              [
                5.390771865844727,
                43.276947021484375
              ]
            ]
          ],
          [
            [
              [
                24.149879455566406,
                35.38706970214844
              ],
              [
                24.30097007751465,
                35.32271194458008
              ],
              [
                25.69233512878418,
                35.32271194458008
              ],
              [
                25.680648803710938,
                35.12965774536133
              ],
              [
                26.22533416748047,
                35.194007873535156
              ],
              [
                26.140073776245117,
                35.065311431884766
              ],
              [
                24.823745727539062,
                35.00096893310547
              ],
              [
                24.7574462890625,
                35.194007873535156
              ],
              [
                24.52567481994629,
                35.194007873535156
              ],
              [
                24.44841766357422,
                35.194007873535156
              ],
              [
                23.679210662841797,
                35.258358001708984
              ],
              [
                23.615402221679688,
                35.51579284667969
              ],
              [
                24.156919479370117,
                35.51579284667969
              ],
              [
                24.149879455566406,
                35.38706970214844
              ]
            ]
          ],
          [
            [
              [
                24.694225311279297,
                38.028785705566406
              ],
              [
                24.772438049316406,
                38.028785705566406
              ],
              [
                25.068470001220703,
                37.7707405090332
              ],
              [
                24.830005645751953,
                37.706241607666016
              ],
              [
                24.681930541992188,
                37.835243225097656
              ],
              [
                24.694225311279297,
                38.028785705566406
              ]
            ]
          ],
          [
            [
              [
                24.22494125366211,
                38.028785705566406
              ],
              [
                24.39352035522461,
                38.22237777709961
              ],
              [
                24.471803665161133,
                38.22237777709961
              ],
              [
                24.624237060546875,
                38.157840728759766
              ],
              [
                24.611921310424805,
                37.96426773071289
              ],
              [
                24.22494125366211,
                38.028785705566406
              ]
            ]
          ],
          [
            [
              [
                24.364974975585938,
                38.997230529785156
              ],
              [
                24.443546295166016,
                38.997230529785156
              ],
              [
                24.674930572509766,
                38.93262481689453
              ],
              [
                24.662033081054688,
                38.738853454589844
              ],
              [
                24.35651969909668,
                38.8680305480957
              ],
              [
                24.364974975585938,
                38.997230529785156
              ]
            ]
          ],
          [
            [
              [
                40.4599723815918,
                41.00318908691406
              ],
              [
                40.59807205200195,
                40.873565673828125
              ],
              [
                40.57756042480469,
                40.74397277832031
              ],
              [
                40.40887451171875,
                40.6791877746582
              ],
              [
                39.6164665222168,
                40.6791877746582
              ],
              [
                39.39837646484375,
                40.80876541137695
              ],
              [
                39.00190353393555,
                40.80876541137695
              ],
              [
                38.824058532714844,
                40.6791877746582
              ],
              [
                37.8731689453125,
                40.6791877746582
              ],
              [
                37.35506820678711,
                40.93837356567383
              ],
              [
                36.509090423583984,
                41.132843017578125
              ],
              [
                36.52714920043945,
                41.26253128051758
              ],
              [
                36.60663604736328,
                41.26253128051758
              ],
              [
                36.77476501464844,
                41.32738494873047
              ],
              [
                37.06510925292969,
                41.132843017578125
              ],
              [
                37.23323440551758,
                41.19768524169922
              ],
              [
                37.21474075317383,
                41.06801223754883
              ],
              [
                37.770565032958984,
                41.06801223754883
              ],
              [
                37.83116149902344,
                40.93837356567383
              ],
              [
                38.15805435180664,
                41.00318908691406
              ],
              [
                38.29773712158203,
                40.873565673828125
              ],
              [
                38.951820373535156,
                41.00318908691406
              ],
              [
                38.96162414550781,
                41.06801223754883
              ],
              [
                39.20975112915039,
                41.132843017578125
              ],
              [
                39.735538482666016,
                40.93837356567383
              ],
              [
                40.38059616088867,
                41.00318908691406
              ],
              [
                40.4599723815918,
                41.00318908691406
              ]
            ]
          ],
          [
            [
              [
                31.591657638549805,
                41.19768524169922
              ],
              [
                31.51219940185547,
                41.19768524169922
              ],
              [
                31.36052894592285,
                41.26253128051758
              ],
              [
                31.693260192871094,
                41.39224624633789
              ],
              [
                31.591657638549805,
                41.19768524169922
              ]
            ]
          ],
          [
            [
              [
                35.006317138671875,
                41.781593322753906
              ],
              [
                35.015045166015625,
                41.84651184082031
              ],
              [
                34.79319381713867,
                41.97637939453125
              ],
              [
                35.121212005615234,
                42.041324615478516
              ],
              [
                35.08602523803711,
                41.781593322753906
              ],
              [
                35.006317138671875,
                41.781593322753906
              ]
            ]
          ],
          [
            [
              [
                40.41570281982422,
                43.146724700927734
              ],
              [
                40.219173431396484,
                43.407203674316406
              ],
              [
                39.977840423583984,
                43.407203674316406
              ],
              [
                39.630489349365234,
                43.73301696777344
              ],
              [
                40.41382598876953,
                43.6026611328125
              ],
              [
                40.322044372558594,
                43.53750228881836
              ],
              [
                40.380062103271484,
                43.407203674316406
              ],
              [
                41.150047302246094,
                43.211830139160156
              ],
              [
                41.20750045776367,
                43.08163070678711
              ],
              [
                41.4368782043457,
                43.016544342041016
              ],
              [
                41.41395568847656,
                42.88639831542969
              ],
              [
                41.3337516784668,
                42.88639831542969
              ],
              [
                41.173343658447266,
                42.88639831542969
              ],
              [
                41.11582565307617,
                43.016544342041016
              ],
              [
                40.81732177734375,
                43.146724700927734
              ],
              [
                40.41570281982422,
                43.146724700927734
              ]
            ]
          ],
          [
            [
              [
                40.033470153808594,
                43.73301696777344
              ],
              [
                39.95287322998047,
                43.73301696777344
              ],
              [
                39.96403884887695,
                43.79821014404297
              ],
              [
                40.0446662902832,
                43.79821014404297
              ],
              [
                40.033470153808594,
                43.73301696777344
              ]
            ]
          ],
          [
            [
              [
                36.42308807373047,
                45.431331634521484
              ],
              [
                36.37263107299805,
                45.10417556762695
              ],
              [
                35.87525939941406,
                45.03877639770508
              ],
              [
                35.732418060302734,
                45.169586181640625
              ],
              [
                35.40727996826172,
                45.169586181640625
              ],
              [
                35.297096252441406,
                44.973392486572266
              ],
              [
                34.376285552978516,
                44.77729415893555
              ],
              [
                33.92564392089844,
                44.45067596435547
              ],
              [
                33.44884490966797,
                44.5159797668457
              ],
              [
                33.61005401611328,
                45.10417556762695
              ],
              [
                33.23028564453125,
                45.300437927246094
              ],
              [
                33.63702392578125,
                45.300437927246094
              ],
              [
                33.91688919067383,
                44.973392486572266
              ],
              [
                33.92597198486328,
                45.03877639770508
              ],
              [
                34.422576904296875,
                45.10417556762695
              ],
              [
                34.85724639892578,
                45.300437927246094
              ],
              [
                35.7520751953125,
                45.300437927246094
              ],
              [
                36.42308807373047,
                45.431331634521484
              ]
            ]
          ],
          [
            [
              [
                31.566814422607422,
                46.94007873535156
              ],
              [
                31.53286361694336,
                46.677207946777344
              ],
              [
                30.87657928466797,
                46.677207946777344
              ],
              [
                30.297666549682617,
                45.95537567138672
              ],
              [
                30.044963836669922,
                45.889827728271484
              ],
              [
                29.85890007019043,
                45.693260192871094
              ],
              [
                29.614274978637695,
                45.693260192871094
              ],
              [
                29.64429473876953,
                45.95537567138672
              ],
              [
                30.188798904418945,
                46.414546966552734
              ],
              [
                30.270700454711914,
                46.414546966552734
              ],
              [
                30.45840072631836,
                46.61152267456055
              ],
              [
                31.06547737121582,
                46.87434005737305
              ],
              [
                31.082130432128906,
                47.005828857421875
              ],
              [
                31.566814422607422,
                46.94007873535156
              ]
            ]
          ],
          [
            [
              [
                38.644335937500024,
                47.212207031249996
              ],
              [
                38.63090783098882,
                47.20316696166992
              ],
              [
                38.59714889526367,
                47.20316696166992
              ],
              [
                38.52495835944441,
                47.20316696166992
              ],
              [
                38.57724609375,
                47.23911132812498
              ],
              [
                38.68815461980137,
                47.252630320856255
              ],
              [
                38.68278779216042,
                47.222116880906874
              ],
              [
                38.644335937500024,
                47.212207031249996
              ]
            ]
          ]
        ]
      }
    }
  ]
}
