{
  "type": "FeatureCollection",
  "features": [
    {
      "type": "Feature",
      "properties": {
        "Name": "Joseon",
        "FromYear": 1895,
        "ToYear": 1897,
        "Area": 231753.44122018997,
        "Type": "POLITY",
        "Wikipedia": "Joseon",
        "Wikidata": "Q28405",
        "SeshatID": "",
        "Components": "",
        "MemberOf": "",
        "displayYear": 1895,
        "sourceYear": 1895,
        "mappedTerritoryId": "cliopatria_joseon"
      },
      "geometry": {
        "type": "MultiPolygon",
        "coordinates": [
          [
            [
              [
                126.70345306396484,
                33.26447677612305
              ],
              [
                126.1387710571289,
                33.20018768310547
              ],
              [
                126.35626983642578,
                33.52165222167969
              ],
              [
                126.99883270263672,
                33.5859489440918
              ],
              [
                126.7801284790039,
                33.26447677612305
              ],
              [
                126.70345306396484,
                33.26447677612305
              ]
            ]
          ],
          [
            [
              [
                129.77735900878906,
                41.65177917480469
              ],
              [
                129.7268524169922,
                41.32738494873047
              ],
              [
                129.8822021484375,
                41.19768524169922
              ],
              [
                129.75584411621094,
                40.873565673828125
              ],
              [
                129.23776245117188,
                40.6791877746582
              ],
              [
                129.0777130126953,
                40.42012023925781
              ],
              [
                128.6822052001953,
                40.29063034057617
              ],
              [
                128.3679962158203,
                40.031734466552734
              ],
              [
                127.9345932006836,
                39.9670295715332
              ],
              [
                127.58325958251953,
                39.77294921875
              ],
              [
                127.665283203125,
                39.64360046386719
              ],
              [
                127.44142150878906,
                39.25570297241211
              ],
              [
                127.79782104492188,
                39.19107437133789
              ],
              [
                127.92344665527344,
                38.997230529785156
              ],
              [
                128.36380004882812,
                38.80344009399414
              ],
              [
                128.83999633789062,
                37.96426773071289
              ],
              [
                129.10020446777344,
                37.5772590637207
              ],
              [
                129.2563018798828,
                37.5772590637207
              ],
              [
                129.4748077392578,
                37.254878997802734
              ],
              [
                129.40687561035156,
                37.12596130371094
              ],
              [
                129.52882385253906,
                37.06150817871094
              ],
              [
                129.39639282226562,
                36.3527946472168
              ],
              [
                129.47402954101562,
                36.3527946472168
              ],
              [
                129.42141723632812,
                36.09519577026367
              ],
              [
                129.57652282714844,
                36.09519577026367
              ],
              [
                129.6669158935547,
                35.9664192199707
              ],
              [
                129.5386505126953,
                35.708900451660156
              ],
              [
                129.61607360839844,
                35.708900451660156
              ],
              [
                129.14712524414062,
                35.065311431884766
              ],
              [
                128.52938842773438,
                35.065311431884766
              ],
              [
                128.5451202392578,
                34.93662643432617
              ],
              [
                128.80740356445312,
                35.00096893310547
              ],
              [
                128.6848602294922,
                34.743614196777344
              ],
              [
                128.32968139648438,
                34.80794906616211
              ],
              [
                128.31358337402344,
                34.93662643432617
              ],
              [
                128.08206176757812,
                34.93662643432617
              ],
              [
                128.0679168701172,
                34.743614196777344
              ],
              [
                127.75946044921875,
                34.743614196777344
              ],
              [
                127.37831115722656,
                34.42197799682617
              ],
              [
                127.22427368164062,
                34.42197799682617
              ],
              [
                127.12974548339844,
                34.55062484741211
              ],
              [
                127.29676055908203,
                34.743614196777344
              ],
              [
                127.21964263916016,
                34.743614196777344
              ],
              [
                127.02291107177734,
                34.48630142211914
              ],
              [
                126.62617492675781,
                34.2933349609375
              ],
              [
                126.42462921142578,
                34.3576545715332
              ],
              [
                126.48365783691406,
                34.48630142211914
              ],
              [
                126.3476333618164,
                34.3576545715332
              ],
              [
                126.11663818359375,
                34.3576545715332
              ],
              [
                126.4784164428711,
                34.80794906616211
              ],
              [
                126.1998062133789,
                34.87228775024414
              ],
              [
                126.38115692138672,
                35.258358001708984
              ],
              [
                126.30387878417969,
                35.258358001708984
              ],
              [
                126.51919555664062,
                35.708900451660156
              ],
              [
                126.76777648925781,
                35.902034759521484
              ],
              [
                126.61280822753906,
                35.902034759521484
              ],
              [
                126.67567443847656,
                36.03080368041992
              ],
              [
                126.52062225341797,
                36.03080368041992
              ],
              [
                126.42864227294922,
                36.15959167480469
              ],
              [
                126.45157623291016,
                36.67487716674805
              ],
              [
                126.26383972167969,
                36.61045455932617
              ],
              [
                126.04977416992188,
                36.80373764038086
              ],
              [
                126.30320739746094,
                36.9970588684082
              ],
              [
                126.64752197265625,
                37.06150817871094
              ],
              [
                126.7022933959961,
                37.3193473815918
              ],
              [
                126.53524017333984,
                37.44829177856445
              ],
              [
                126.6025161743164,
                37.5772590637207
              ],
              [
                126.24594116210938,
                37.641746520996094
              ],
              [
                126.34768676757812,
                37.835243225097656
              ],
              [
                125.84493255615234,
                37.7707405090332
              ],
              [
                125.83466339111328,
                37.89975357055664
              ],
              [
                125.6783218383789,
                37.89975357055664
              ],
              [
                125.38711547851562,
                37.641746520996094
              ],
              [
                125.23096466064453,
                37.641746520996094
              ],
              [
                125.29808044433594,
                37.7707405090332
              ],
              [
                125.20932006835938,
                37.89975357055664
              ],
              [
                124.89665222167969,
                37.89975357055664
              ],
              [
                125.07669067382812,
                38.09331130981445
              ],
              [
                124.76374053955078,
                38.09331130981445
              ],
              [
                124.86637115478516,
                38.28691864013672
              ],
              [
                124.7880630493164,
                38.28691864013672
              ],
              [
                124.96138000488281,
                38.60969924926758
              ],
              [
                125.15330505371094,
                38.67427444458008
              ],
              [
                125.18850708007812,
                38.738853454589844
              ],
              [
                125.03155517578125,
                38.738853454589844
              ],
              [
                125.39002990722656,
                39.38497543334961
              ],
              [
                125.30574798583984,
                39.51427459716797
              ],
              [
                124.86974334716797,
                39.57893371582031
              ],
              [
                124.86456298828125,
                39.70827102661133
              ],
              [
                124.51239776611328,
                39.64360046386719
              ],
              [
                124.3446044921875,
                39.90232849121094
              ],
              [
                124.26568603515625,
                39.90232849121094
              ],
              [
                124.56999206542969,
                40.29063034057617
              ],
              [
                126.10708618164062,
                41.00318908691406
              ],
              [
                126.83304595947266,
                41.781593322753906
              ],
              [
                127.07218170166016,
                41.781593322753906
              ],
              [
                127.1075439453125,
                41.586883544921875
              ],
              [
                127.38482666015625,
                41.521995544433594
              ],
              [
                127.34373474121094,
                41.45711898803711
              ],
              [
                128.0981903076172,
                41.39224624633789
              ],
              [
                128.3435821533203,
                41.65177917480469
              ],
              [
                128.26783752441406,
                41.781593322753906
              ],
              [
                128.10841369628906,
                41.781593322753906
              ],
              [
                128.15032958984375,
                41.84651184082031
              ],
              [
                127.9908447265625,
                41.84651184082031
              ],
              [
                128.0749053955078,
                41.97637939453125
              ],
              [
                128.8355255126953,
                42.041324615478516
              ],
              [
                129.16644287109375,
                42.30118942260742
              ],
              [
                129.69625854492188,
                42.496177673339844
              ],
              [
                129.84327697753906,
                42.95146560668945
              ],
              [
                130.083984375,
                42.95146560668945
              ],
              [
                130.03968811035156,
                42.88639831542969
              ],
              [
                130.20010375976562,
                42.88639831542969
              ],
              [
                130.3002471923828,
                42.56119155883789
              ],
              [
                130.54042053222656,
                42.56119155883789
              ],
              [
                130.49652099609375,
                42.496177673339844
              ],
              [
                130.65658569335938,
                42.496177673339844
              ],
              [
                130.60537719726562,
                42.30118942260742
              ],
              [
                130.32212829589844,
                42.236209869384766
              ],
              [
                129.6977081298828,
                41.65177917480469
              ],
              [
                129.77735900878906,
                41.65177917480469
              ]
            ]
          ]
        ]
      }
    }
  ]
}
