{
  "type": "FeatureCollection",
  "features": [
    {
      "type": "Feature",
      "properties": {
        "Name": "Kazakh Khanate",
        "FromYear": 1822,
        "ToYear": 1845,
        "Area": 1709236.4023677486,
        "Type": "POLITY",
        "Wikipedia": "Kazakh Khanate",
        "Wikidata": "Q1433867",
        "SeshatID": "kz_kazakh_khanate_2",
        "Components": "",
        "MemberOf": "",
        "displayYear": 1842,
        "sourceYear": 1842,
        "mappedTerritoryId": "cliopatria_kazakh_khanate"
      },
      "geometry": {
        "type": "MultiPolygon",
        "coordinates": [
          [
            [
              [
                53.16569900512695,
                45.95537567138672
              ],
              [
                53.08402633666992,
                45.95537567138672
              ],
              [
                53.100955963134766,
                46.02093505859375
              ],
              [
                53.18265914916992,
                46.02093505859375
              ],
              [
                53.16569900512695,
                45.95537567138672
              ]
            ]
          ],
          [
            [
              [
                84.50035858154297,
                49.38258361816406
              ],
              [
                84.18576049804688,
                48.91886520385742
              ],
              [
                83.83905029296875,
                48.72037124633789
              ],
              [
                82.39451599121094,
                48.654239654541016
              ],
              [
                81.93778228759766,
                48.38986587524414
              ],
              [
                80.55032348632812,
                48.257774353027344
              ],
              [
                80.09963989257812,
                47.993770599365234
              ],
              [
                79.9234848022461,
                47.598209381103516
              ],
              [
                79.39262390136719,
                47.13737487792969
              ],
              [
                79.27954864501953,
                46.87434005737305
              ],
              [
                79.1974105834961,
                46.87434005737305
              ],
              [
                78.43042755126953,
                46.808616638183594
              ],
              [
                78.26557922363281,
                46.61152267456055
              ],
              [
                78.10157012939453,
                46.61152267456055
              ],
              [
                77.91033172607422,
                46.74290466308594
              ],
              [
                76.73442077636719,
                46.677207946777344
              ],
              [
                76.76136779785156,
                46.74290466308594
              ],
              [
                76.35102081298828,
                46.74290466308594
              ],
              [
                76.32263946533203,
                46.87434005737305
              ],
              [
                74.59777069091797,
                46.87434005737305
              ],
              [
                74.43742370605469,
                46.677207946777344
              ],
              [
                73.95010375976562,
                46.480194091796875
              ],
              [
                73.87349700927734,
                46.283294677734375
              ],
              [
                73.62798309326172,
                46.283294677734375
              ],
              [
                73.52702331542969,
                46.02093505859375
              ],
              [
                73.71565246582031,
                46.08650588989258
              ],
              [
                73.64013671875,
                45.889827728271484
              ],
              [
                73.50191497802734,
                45.95537567138672
              ],
              [
                73.32756042480469,
                45.496795654296875
              ],
              [
                73.74162292480469,
                45.300437927246094
              ],
              [
                73.91116333007812,
                45.10417556762695
              ],
              [
                73.86170196533203,
                44.973392486572266
              ],
              [
                73.96763610839844,
                45.03877639770508
              ],
              [
                74.0488510131836,
                45.03877639770508
              ],
              [
                73.99934387207031,
                44.908016204833984
              ],
              [
                74.08049774169922,
                44.908016204833984
              ],
              [
                73.90080261230469,
                44.64661407470703
              ],
              [
                73.60887908935547,
                44.5159797668457
              ],
              [
                71.46726989746094,
                44.18956756591797
              ],
              [
                71.14402770996094,
                44.18956756591797
              ],
              [
                70.91362762451172,
                44.45067596435547
              ],
              [
                70.61306762695312,
                44.5159797668457
              ],
              [
                67.31533813476562,
                44.58129119873047
              ],
              [
                65.94324493408203,
                44.842647552490234
              ],
              [
                65.69986724853516,
                44.842647552490234
              ],
              [
                65.39258575439453,
                44.64661407470703
              ],
              [
                64.06120300292969,
                45.300437927246094
              ],
              [
                61.35308837890625,
                46.02093505859375
              ],
              [
                61.37335968017578,
                46.08650588989258
              ],
              [
                61.70235824584961,
                46.87434005737305
              ],
              [
                61.64111328125,
                46.94007873535156
              ],
              [
                61.230262756347656,
                46.94007873535156
              ],
              [
                61.188865661621094,
                46.808616638183594
              ],
              [
                61.00410842895508,
                46.74290466308594
              ],
              [
                60.98374938964844,
                46.94007873535156
              ],
              [
                60.572898864746094,
                46.94007873535156
              ],
              [
                60.53204345703125,
                46.808616638183594
              ],
              [
                60.12153244018555,
                46.808616638183594
              ],
              [
                59.83735275268555,
                46.414546966552734
              ],
              [
                59.49004364013672,
                46.348915100097656
              ],
              [
                59.310482025146484,
                46.02093505859375
              ],
              [
                58.637691497802734,
                45.95537567138672
              ],
              [
                58.54249954223633,
                45.62776184082031
              ],
              [
                58.52356719970703,
                45.56227111816406
              ],
              [
                56.198177337646484,
                45.10417556762695
              ],
              [
                56.00019836425781,
                44.973392486572266
              ],
              [
                55.94719696044922,
                44.77729415893555
              ],
              [
                56.028289794921875,
                44.77729415893555
              ],
              [
                55.9578971862793,
                44.5159797668457
              ],
              [
                56.03886413574219,
                44.5159797668457
              ],
              [
                55.91663360595703,
                44.05907440185547
              ],
              [
                52.78733444213867,
                42.82133865356445
              ],
              [
                52.70716094970703,
                42.82133865356445
              ],
              [
                52.41746520996094,
                42.95146560668945
              ],
              [
                51.936058044433594,
                42.95146560668945
              ],
              [
                51.772151947021484,
                43.276947021484375
              ],
              [
                51.43531036376953,
                43.211830139160156
              ],
              [
                51.30513381958008,
                43.342071533203125
              ],
              [
                51.31692886352539,
                43.73301696777344
              ],
              [
                51.040714263916016,
                43.92862319946289
              ],
              [
                51.07164001464844,
                44.05907440185547
              ],
              [
                50.87572479248047,
                44.25482940673828
              ],
              [
                50.19388198852539,
                44.45067596435547
              ],
              [
                50.224510192871094,
                44.58129119873047
              ],
              [
                50.40192413330078,
                44.64661407470703
              ],
              [
                50.85692596435547,
                44.5159797668457
              ],
              [
                51.42369842529297,
                44.5159797668457
              ],
              [
                51.47117233276367,
                44.71194839477539
              ],
              [
                51.016197204589844,
                44.842647552490234
              ],
              [
                51.0634765625,
                45.03877639770508
              ],
              [
                51.468292236328125,
                45.36587905883789
              ],
              [
                51.87519073486328,
                45.36587905883789
              ],
              [
                52.086769104003906,
                45.23500442504883
              ],
              [
                53.8757209777832,
                45.23500442504883
              ],
              [
                53.80810546875,
                44.973392486572266
              ],
              [
                54.29523849487305,
                44.973392486572266
              ],
              [
                54.363616943359375,
                45.23500442504883
              ],
              [
                54.21808624267578,
                45.300437927246094
              ],
              [
                54.286781311035156,
                45.56227111816406
              ],
              [
                53.87939453125,
                45.56227111816406
              ],
              [
                53.66555404663086,
                45.36587905883789
              ],
              [
                53.42141342163086,
                45.36587905883789
              ],
              [
                53.06462860107422,
                45.56227111816406
              ],
              [
                53.067134857177734,
                45.889827728271484
              ],
              [
                53.247371673583984,
                45.95537567138672
              ],
              [
                53.34987258911133,
                46.348915100097656
              ],
              [
                53.26800537109375,
                46.348915100097656
              ],
              [
                53.27227020263672,
                46.677207946777344
              ],
              [
                53.19023513793945,
                46.677207946777344
              ],
              [
                53.242305755615234,
                46.87434005737305
              ],
              [
                53.112831115722656,
                47.005828857421875
              ],
              [
                52.19153594970703,
                46.94007873535156
              ],
              [
                52.10936737060547,
                46.94007873535156
              ],
              [
                52.18164825439453,
                47.53233337402344
              ],
              [
                52.09917068481445,
                47.53233337402344
              ],
              [
                52.25729751586914,
                48.1257438659668
              ],
              [
                52.174503326416016,
                48.1257438659668
              ],
              [
                52.228084564208984,
                48.323814392089844
              ],
              [
                52.05119705200195,
                48.5881233215332
              ],
              [
                52.08746337890625,
                48.72037124633789
              ],
              [
                52.00434494018555,
                48.72037124633789
              ],
              [
                52.04079055786133,
                48.852684020996094
              ],
              [
                51.95759582519531,
                48.852684020996094
              ],
              [
                52.022178649902344,
                49.38258361816406
              ],
              [
                51.938690185546875,
                49.38258361816406
              ],
              [
                51.9951171875,
                49.58156967163086
              ],
              [
                51.9115104675293,
                49.58156967163086
              ],
              [
                52.23632049560547,
                51.51342010498047
              ],
              [
                52.44807052612305,
                51.64724349975586
              ],
              [
                53.12694549560547,
                51.64724349975586
              ],
              [
                53.16884231567383,
                51.51342010498047
              ],
              [
                53.6143684387207,
                51.580322265625
              ],
              [
                53.59271240234375,
                51.51342010498047
              ],
              [
                54.01658630371094,
                51.51342010498047
              ],
              [
                53.99479675292969,
                51.44654083251953
              ],
              [
                54.50318908691406,
                51.44654083251953
              ],
              [
                54.481224060058594,
                51.37968063354492
              ],
              [
                54.819984436035156,
                51.37968063354492
              ],
              [
                54.94516372680664,
                51.24601745605469
              ],
              [
                55.28358840942383,
                51.24601745605469
              ],
              [
                55.26144027709961,
                51.17921447753906
              ],
              [
                56.191646575927734,
                51.17921447753906
              ],
              [
                56.400123596191406,
                51.04566955566406
              ],
              [
                57.098873138427734,
                51.112430572509766
              ],
              [
                57.28361892700195,
                50.912200927734375
              ],
              [
                57.6212158203125,
                50.912200927734375
              ],
              [
                57.775054931640625,
                51.112430572509766
              ],
              [
                58.451236724853516,
                51.112430572509766
              ],
              [
                58.67155075073242,
                50.77880859375
              ],
              [
                59.15391159057617,
                50.71213912963867
              ],
              [
                59.8036003112793,
                51.112430572509766
              ],
              [
                60.93703079223633,
                53.39456558227539
              ],
              [
                61.9644889831543,
                54.00291442871094
              ],
              [
                62.56956100463867,
                54.00291442871094
              ],
              [
                62.97359848022461,
                54.138362884521484
              ],
              [
                63.86614990234375,
                54.00291442871094
              ],
              [
                63.83662033081055,
                53.93522644042969
              ],
              [
                64.0093994140625,
                53.93522644042969
              ],
              [
                63.979862213134766,
                53.86756134033203
              ],
              [
                64.15254974365234,
                53.86756134033203
              ],
              [
                64.12300872802734,
                53.799922943115234
              ],
              [
                64.29560089111328,
                53.799922943115234
              ],
              [
                64.40899658203125,
                53.664710998535156
              ],
              [
                64.66761016845703,
                53.664710998535156
              ],
              [
                64.63800048828125,
                53.597137451171875
              ],
              [
                66.27006530761719,
                53.39456558227539
              ],
              [
                66.2398910522461,
                53.32708740234375
              ],
              [
                66.7253646850586,
                53.25962829589844
              ],
              [
                66.69510650634766,
                53.192195892333984
              ],
              [
                67.92168426513672,
                53.057395935058594
              ],
              [
                67.89102935791016,
                52.99003219604492
              ],
              [
                68.57695770263672,
                52.99003219604492
              ],
              [
                68.54603576660156,
                52.92268753051758
              ],
              [
                73.42745971679688,
                53.25962829589844
              ],
              [
                74.08053588867188,
                53.52959060668945
              ],
              [
                74.3388671875,
                53.52959060668945
              ],
              [
                74.8592529296875,
                53.86756134033203
              ],
              [
                75.44900512695312,
                54.00291442871094
              ],
              [
                75.4131088256836,
                53.93522644042969
              ],
              [
                75.72269439697266,
                53.86756134033203
              ],
              [
                75.7373046875,
                53.732303619384766
              ],
              [
                75.90980529785156,
                53.732303619384766
              ],
              [
                75.92446899414062,
                53.597137451171875
              ],
              [
                76.0967788696289,
                53.597137451171875
              ],
              [
                76.11151123046875,
                53.462066650390625
              ],
              [
                76.60665130615234,
                53.25962829589844
              ],
              [
                76.9089584350586,
                52.85536575317383
              ],
              [
                76.83877563476562,
                52.720787048339844
              ],
              [
                77.14268493652344,
                52.31757736206055
              ],
              [
                77.31327819824219,
                52.31757736206055
              ],
              [
                77.3801498413086,
                52.11625671386719
              ],
              [
                77.7369613647461,
                51.98215103149414
              ],
              [
                77.8042221069336,
                51.78114318847656
              ],
              [
                78.16050720214844,
                51.64724349975586
              ],
              [
                78.41471862792969,
                51.31283950805664
              ],
              [
                78.75331115722656,
                51.31283950805664
              ],
              [
                78.85490417480469,
                51.17921447753906
              ],
              [
                79.4635238647461,
                51.04566955566406
              ],
              [
                79.68395233154297,
                50.64549255371094
              ],
              [
                81.13239288330078,
                50.51224899291992
              ],
              [
                81.09867858886719,
                50.445655822753906
              ],
              [
                81.70391082763672,
                50.312522888183594
              ],
              [
                81.67025756835938,
                50.2459831237793
              ],
              [
                83.7508544921875,
                50.04647445678711
              ],
              [
                83.681640625,
                49.58156967163086
              ],
              [
                84.50035858154297,
                49.38258361816406
              ]
            ],
            [
              [
                53.140480041503906,
                44.58129119873047
              ],
              [
                53.09119415283203,
                44.38538360595703
              ],
              [
                53.33391189575195,
                44.38538360595703
              ],
              [
                53.743751525878906,
                45.03877639770508
              ],
              [
                53.41886901855469,
                45.03877639770508
              ],
              [
                53.15696334838867,
                44.64661407470703
              ],
              [
                53.140480041503906,
                44.58129119873047
              ]
            ]
          ]
        ]
      }
    }
  ]
}
