{
  "type": "FeatureCollection",
  "features": [
    {
      "type": "Feature",
      "properties": {
        "Name": "Himyarite Kingdom",
        "FromYear": 106,
        "ToYear": 153,
        "Area": 149073.91458172048,
        "Type": "POLITY",
        "Wikipedia": "Himyarite Kingdom",
        "Wikidata": "Q289577",
        "SeshatID": "",
        "Components": "",
        "MemberOf": "",
        "displayYear": 150,
        "sourceYear": 150,
        "mappedTerritoryId": "cliopatria_himyarite_kingdom"
      },
      "geometry": {
        "type": "MultiPolygon",
        "coordinates": [
          [
            [
              [
                44.809654235839844,
                16.550434112548828
              ],
              [
                45.22568130493164,
                16.100418090820312
              ],
              [
                45.21470260620117,
                15.907554626464844
              ],
              [
                45.365570068359375,
                15.971842765808105
              ],
              [
                45.579044342041016,
                15.843266487121582
              ],
              [
                46.0206184387207,
                15.843266487121582
              ],
              [
                46.17527389526367,
                15.971842765808105
              ],
              [
                46.39610290527344,
                15.971842765808105
              ],
              [
                46.46971130371094,
                15.971842765808105
              ],
              [
                46.38114929199219,
                15.714691162109375
              ],
              [
                46.14939498901367,
                15.52182674407959
              ],
              [
                46.579769134521484,
                15.328963279724121
              ],
              [
                46.576133728027344,
                15.26467514038086
              ],
              [
                46.34123229980469,
                15.007523536682129
              ],
              [
                45.59922790527344,
                14.878947257995605
              ],
              [
                45.816261291503906,
                14.81466007232666
              ],
              [
                45.94615173339844,
                14.493220329284668
              ],
              [
                46.16313934326172,
                14.428933143615723
              ],
              [
                46.200294494628906,
                13.721768379211426
              ],
              [
                46.047142028808594,
                13.593193054199219
              ],
              [
                46.111045837402344,
                13.40032958984375
              ],
              [
                46.03456115722656,
                13.336042404174805
              ],
              [
                45.74114990234375,
                13.336042404174805
              ],
              [
                45.05411911010742,
                12.757453918457031
              ],
              [
                44.614288330078125,
                12.757453918457031
              ],
              [
                44.38864517211914,
                12.628878593444824
              ],
              [
                43.438602447509766,
                12.69316577911377
              ],
              [
                43.44704818725586,
                12.886029243469238
              ],
              [
                43.23561477661133,
                13.07889175415039
              ],
              [
                43.26481628417969,
                13.721768379211426
              ],
              [
                43.056640625,
                13.97891902923584
              ],
              [
                42.95337677001953,
                14.878947257995605
              ],
              [
                42.88957214355469,
                15.07181167602539
              ],
              [
                42.74578857421875,
                15.136098861694336
              ],
              [
                42.70881652832031,
                15.843266487121582
              ],
              [
                42.78240966796875,
                15.843266487121582
              ],
              [
                42.8239860534668,
                16.614723205566406
              ],
              [
                42.476654052734375,
                17.000450134277344
              ],
              [
                42.48728942871094,
                17.193313598632812
              ],
              [
                42.63478469848633,
                17.193313598632812
              ],
              [
                43.02164077758789,
                17.514753341674805
              ],
              [
                43.03257751464844,
                17.707616806030273
              ],
              [
                43.250328063964844,
                17.643327713012695
              ],
              [
                43.552940368652344,
                17.77190399169922
              ],
              [
                43.89961624145508,
                17.38617706298828
              ],
              [
                43.81843948364258,
                17.257600784301758
              ],
              [
                43.95853805541992,
                17.129026412963867
              ],
              [
                43.94747543334961,
                16.9361629486084
              ],
              [
                44.087547302246094,
                16.807586669921875
              ],
              [
                44.312355041503906,
                16.87187385559082
              ],
              [
                44.304962158203125,
                16.743297576904297
              ],
              [
                44.81336975097656,
                16.614723205566406
              ],
              [
                44.809654235839844,
                16.550434112548828
              ]
            ]
          ],
          [
            [
              [
                43.89335632324219,
                18.543354034423828
              ],
              [
                43.88957977294922,
                18.479066848754883
              ],
              [
                43.815677642822266,
                18.479066848754883
              ],
              [
                43.74177551269531,
                18.479066848754883
              ],
              [
                43.74553680419922,
                18.543354034423828
              ],
              [
                43.8194465637207,
                18.543354034423828
              ],
              [
                43.82321548461914,
                18.607641220092773
              ],
              [
                43.897132873535156,
                18.607641220092773
              ],
              [
                43.89335632324219,
                18.543354034423828
              ]
            ]
          ]
        ]
      }
    }
  ]
}
