{
  "type": "FeatureCollection",
  "features": [
    {
      "type": "Feature",
      "properties": {
        "Name": "Chola Empire",
        "FromYear": 947,
        "ToYear": 959,
        "Area": 111426.0015715225,
        "Type": "POLITY",
        "Wikipedia": "Chola Empire",
        "Wikidata": "Q6806806",
        "SeshatID": "in_chola_emp",
        "Components": "",
        "MemberOf": "",
        "displayYear": 951,
        "sourceYear": 951,
        "mappedTerritoryId": "cliopatria_chola_empire"
      },
      "geometry": {
        "type": "Polygon",
        "coordinates": [
          [
            [
              79.9576644897461,
              11.986002922058105
            ],
            [
              79.97303009033203,
              12.178865432739258
            ],
            [
              80.30301666259766,
              12.628878593444824
            ],
            [
              80.34135437011719,
              13.07889175415039
            ],
            [
              80.41468048095703,
              13.07889175415039
            ],
            [
              80.37535858154297,
              13.464617729187012
            ],
            [
              80.16102600097656,
              13.528904914855957
            ],
            [
              80.16680908203125,
              13.593193054199219
            ],
            [
              78.83470916748047,
              13.464617729187012
            ],
            [
              78.8290786743164,
              13.40032958984375
            ],
            [
              78.67121887207031,
              13.271754264831543
            ],
            [
              78.47064971923828,
              12.628878593444824
            ],
            [
              77.72162628173828,
              11.47170352935791
            ],
            [
              77.2776870727539,
              11.407415390014648
            ],
            [
              77.11735534667969,
              11.214552879333496
            ],
            [
              76.69271850585938,
              9.221640586853027
            ],
            [
              77.13109588623047,
              9.221640586853027
            ],
            [
              77.21614074707031,
              9.41450309753418
            ],
            [
              77.73989868164062,
              9.607365608215332
            ],
            [
              78.2432632446289,
              9.478790283203125
            ],
            [
              78.23511505126953,
              9.350214958190918
            ],
            [
              78.377197265625,
              9.285927772521973
            ],
            [
              78.95767211914062,
              9.221640586853027
            ],
            [
              78.98654174804688,
              9.671652793884277
            ],
            [
              79.29590606689453,
              9.928803443908691
            ],
            [
              79.3176498413086,
              10.250240325927734
            ],
            [
              79.90264892578125,
              10.250240325927734
            ],
            [
              79.8844223022461,
              11.986002922058105
            ],
            [
              79.9576644897461,
              11.986002922058105
            ]
          ]
        ]
      }
    }
  ]
}
