{
  "type": "FeatureCollection",
  "features": [
    {
      "type": "Feature",
      "properties": {
        "Name": "Cai",
        "FromYear": -750,
        "ToYear": -481,
        "Area": 3733.2072897097314,
        "Type": "POLITY",
        "Wikipedia": "Cai (state)",
        "Wikidata": "Q1025803",
        "SeshatID": "",
        "Components": "",
        "MemberOf": "(Spring and Autumn States)",
        "displayYear": -632,
        "sourceYear": -632,
        "mappedTerritoryId": "cliopatria_cai"
      },
      "geometry": {
        "type": "Polygon",
        "coordinates": [
          [
            [
              113.9266357421875,
              34.48630142211914
            ],
            [
              113.59083557128906,
              34.22901916503906
            ],
            [
              113.38738250732422,
              34.48630142211914
            ],
            [
              113.02838134765625,
              34.55062484741211
            ],
            [
              113.0302505493164,
              34.743614196777344
            ],
            [
              113.05670928955078,
              34.80794906616211
            ],
            [
              113.13385009765625,
              34.80794906616211
            ],
            [
              113.160400390625,
              34.87228775024414
            ],
            [
              113.23755645751953,
              34.87228775024414
            ],
            [
              113.26419830322266,
              34.93662643432617
            ],
            [
              113.34137725830078,
              34.93662643432617
            ],
            [
              113.6738052368164,
              34.80794906616211
            ],
            [
              113.75093841552734,
              34.80794906616211
            ],
            [
              113.95305633544922,
              34.55062484741211
            ],
            [
              113.9266357421875,
              34.48630142211914
            ]
          ]
        ]
      }
    }
  ]
}
