{
  "type": "FeatureCollection",
  "features": [
    {
      "type": "Feature",
      "properties": {
        "Name": "Kingdom of England",
        "FromYear": 1363,
        "ToYear": 1374,
        "Area": 286021.11847746826,
        "Type": "POLITY",
        "Wikipedia": "Kingdom of England",
        "Wikidata": "Q179876",
        "SeshatID": "gb_england_plantagenet",
        "Components": "",
        "MemberOf": "(Kingdom of England)",
        "displayYear": 1368,
        "sourceYear": 1368,
        "mappedTerritoryId": "cliopatria_kingdom_of_england"
      },
      "geometry": {
        "type": "MultiPolygon",
        "coordinates": [
          [
            [
              [
                -1.853058218955994,
                43.407203674316406
              ],
              [
                -1.772614240646362,
                43.407203674316406
              ],
              [
                -1.767988562583923,
                43.342071533203125
              ],
              [
                -1.848402380943298,
                43.342071533203125
              ],
              [
                -1.853058218955994,
                43.407203674316406
              ]
            ]
          ],
          [
            [
              [
                1.31941831111908,
                45.693260192871094
              ],
              [
                2.30465292930603,
                45.56227111816406
              ],
              [
                2.402650356292725,
                45.23500442504883
              ],
              [
                2.168789625167847,
                45.03877639770508
              ],
              [
                2.104349136352539,
                44.71194839477539
              ],
              [
                2.357206583023071,
                44.5159797668457
              ],
              [
                2.590721607208252,
                44.71194839477539
              ],
              [
                3.169776916503906,
                44.45067596435547
              ],
              [
                3.264891147613525,
                44.12431716918945
              ],
              [
                3.429201602935791,
                44.05907440185547
              ],
              [
                3.27886176109314,
                43.79821014404297
              ],
              [
                2.878650665283203,
                43.73301696777344
              ],
              [
                2.789168834686279,
                43.92862319946289
              ],
              [
                2.54403281211853,
                43.99384307861328
              ],
              [
                1.417469382286072,
                43.92862319946289
              ],
              [
                1.248954296112061,
                44.05907440185547
              ],
              [
                1.006704568862915,
                44.05907440185547
              ],
              [
                0.852652013301849,
                43.92862319946289
              ],
              [
                0.947991132736206,
                43.6678352355957
              ],
              [
                0.63697761297226,
                43.472347259521484
              ],
              [
                0.966081380844116,
                43.342071533203125
              ],
              [
                0.812541425228119,
                43.211830139160156
              ],
              [
                0.983926355838776,
                43.016544342041016
              ],
              [
                0.994516909122467,
                42.82133865356445
              ],
              [
                0.040142297744751,
                42.691246032714844
              ],
              [
                -0.857915937900543,
                42.95146560668945
              ],
              [
                -0.963850319385529,
                43.342071533203125
              ],
              [
                -1.687574744224548,
                43.342071533203125
              ],
              [
                -1.692170143127441,
                43.407203674316406
              ],
              [
                -1.459883332252502,
                43.53750228881836
              ],
              [
                -1.402047991752625,
                43.86341094970703
              ],
              [
                -1.321390628814697,
                43.86341094970703
              ],
              [
                -1.348801136016846,
                44.25482940673828
              ],
              [
                -1.267958283424377,
                44.25482940673828
              ],
              [
                -1.286344885826111,
                44.5159797668457
              ],
              [
                -1.205376982688904,
                44.5159797668457
              ],
              [
                -1.251859068870544,
                45.169586181640625
              ],
              [
                -1.170574903488159,
                45.169586181640625
              ],
              [
                -1.189373373985291,
                45.431331634521484
              ],
              [
                -1.031213998794556,
                45.496795654296875
              ],
              [
                -1.045281529426575,
                45.693260192871094
              ],
              [
                -1.213142395019531,
                45.75876998901367
              ],
              [
                -1.141096234321594,
                45.889827728271484
              ],
              [
                -1.222735166549683,
                45.889827728271484
              ],
              [
                -1.251809358596802,
                46.283294677734375
              ],
              [
                -1.753012895584106,
                46.414546966552734
              ],
              [
                -1.758126616477966,
                46.480194091796875
              ],
              [
                -1.609475612640381,
                46.677207946777344
              ],
              [
                -1.281333684921265,
                46.677207946777344
              ],
              [
                -1.107504487037659,
                46.54585266113281
              ],
              [
                -0.79388439655304,
                46.74290466308594
              ],
              [
                0.355082273483276,
                46.74290466308594
              ],
              [
                0.945738732814789,
                46.480194091796875
              ],
              [
                1.214894890785217,
                46.08650588989258
              ],
              [
                0.895910263061523,
                45.95537567138672
              ],
              [
                0.899876236915588,
                45.889827728271484
              ],
              [
                1.230257153511047,
                45.82429504394531
              ],
              [
                1.31941831111908,
                45.693260192871094
              ]
            ]
          ],
          [
            [
              [
                -4.692053318023682,
                47.993770599365234
              ],
              [
                -4.705362796783447,
                48.1257438659668
              ],
              [
                -4.546383857727051,
                48.191749572753906
              ],
              [
                -4.642560005187988,
                48.323814392089844
              ],
              [
                -4.891265392303467,
                48.323814392089844
              ],
              [
                -4.911745548248291,
                48.52202224731445
              ],
              [
                -4.599917888641357,
                48.72037124633789
              ],
              [
                -4.18432092666626,
                48.72037124633789
              ],
              [
                -4.10120153427124,
                48.72037124633789
              ],
              [
                -3.972950458526611,
                48.257774353027344
              ],
              [
                -3.279724597930908,
                47.92780685424805
              ],
              [
                -3.344320774078369,
                47.730003356933594
              ],
              [
                -3.42690372467041,
                47.730003356933594
              ],
              [
                -3.757235288619995,
                47.730003356933594
              ],
              [
                -4.017590999603271,
                47.86185836791992
              ],
              [
                -4.100244045257568,
                47.86185836791992
              ],
              [
                -4.424368858337402,
                47.79592514038086
              ],
              [
                -4.692053318023682,
                47.993770599365234
              ]
            ]
          ],
          [
            [
              [
                1.442060351371765,
                50.445655822753906
              ],
              [
                1.437737107276917,
                50.51224899291992
              ],
              [
                1.433403611183167,
                50.578861236572266
              ],
              [
                1.517598748207092,
                50.578861236572266
              ],
              [
                1.601793885231018,
                50.578861236572266
              ],
              [
                1.782671809196472,
                50.37908172607422
              ],
              [
                2.126928567886353,
                50.2459831237793
              ],
              [
                1.568450570106506,
                49.78071212768555
              ],
              [
                1.401008725166321,
                49.78071212768555
              ],
              [
                1.216153383255005,
                50.04647445678711
              ],
              [
                1.211773872375488,
                50.11296081542969
              ],
              [
                1.295689821243286,
                50.11296081542969
              ],
              [
                1.291339039802551,
                50.17946243286133
              ],
              [
                1.37529456615448,
                50.17946243286133
              ],
              [
                1.370972871780396,
                50.2459831237793
              ],
              [
                1.454967975616455,
                50.2459831237793
              ],
              [
                1.45067572593689,
                50.312522888183594
              ],
              [
                1.446373105049133,
                50.37908172607422
              ],
              [
                1.442060351371765,
                50.445655822753906
              ]
            ]
          ],
          [
            [
              [
                2.090827465057373,
                50.84549331665039
              ],
              [
                1.75760805606842,
                50.77880859375
              ],
              [
                1.576062202453613,
                50.97892379760742
              ],
              [
                1.740700125694275,
                51.04566955566406
              ],
              [
                1.825181484222412,
                51.04566955566406
              ],
              [
                2.074539184570312,
                51.112430572509766
              ],
              [
                2.090827465057373,
                50.84549331665039
              ]
            ]
          ],
          [
            [
              [
                0.020827349275351,
                53.597137451171875
              ],
              [
                0.29531991481781,
                53.39456558227539
              ],
              [
                0.316494405269623,
                53.124786376953125
              ],
              [
                0.075146429240704,
                52.92268753051758
              ],
              [
                0.337453275918961,
                52.85536575317383
              ],
              [
                0.493327647447586,
                53.057395935058594
              ],
              [
                1.093834638595581,
                53.057395935058594
              ],
              [
                1.531973838806152,
                52.92268753051758
              ],
              [
                1.716817617416382,
                52.720787048339844
              ],
              [
                1.739019155502319,
                52.38472366333008
              ],
              [
                1.653681755065918,
                52.38472366333008
              ],
              [
                1.586262822151184,
                52.11625671386719
              ],
              [
                1.425007224082947,
                51.98215103149414
              ],
              [
                1.169783234596252,
                51.98215103149414
              ],
              [
                1.183690190315247,
                51.78114318847656
              ],
              [
                0.843909561634064,
                51.78114318847656
              ],
              [
                0.862975299358368,
                51.51342010498047
              ],
              [
                0.523877322673798,
                51.51342010498047
              ],
              [
                1.380577206611633,
                51.37968063354492
              ],
              [
                1.313834071159363,
                51.112430572509766
              ],
              [
                0.492853790521622,
                50.77880859375
              ],
              [
                -1.367843627929688,
                50.84549331665039
              ],
              [
                -1.109168291091919,
                50.77880859375
              ],
              [
                -1.176646590232849,
                50.578861236572266
              ],
              [
                -1.513427257537842,
                50.578861236572266
              ],
              [
                -1.524962306022644,
                50.71213912963867
              ],
              [
                -2.030619621276855,
                50.71213912963867
              ],
              [
                -2.102793455123901,
                50.578861236572266
              ],
              [
                -3.12621021270752,
                50.71213912963867
              ],
              [
                -3.456606388092041,
                50.64549255371094
              ],
              [
                -3.584736108779907,
                50.2459831237793
              ],
              [
                -4.088706493377686,
                50.2459831237793
              ],
              [
                -4.186630249023438,
                50.37908172607422
              ],
              [
                -4.354779243469238,
                50.37908172607422
              ],
              [
                -4.928657054901123,
                50.2459831237793
              ],
              [
                -5.151133060455322,
                49.98000717163086
              ],
              [
                -5.745615005493164,
                50.04647445678711
              ],
              [
                -5.768607616424561,
                50.2459831237793
              ],
              [
                -5.279601097106934,
                50.37908172607422
              ],
              [
                -5.133819580078125,
                50.578861236572266
              ],
              [
                -4.881234169006348,
                50.578861236572266
              ],
              [
                -4.819114208221436,
                50.77880859375
              ],
              [
                -4.657799243927002,
                50.84549331665039
              ],
              [
                -4.67988109588623,
                51.04566955566406
              ],
              [
                -4.426436901092529,
                51.04566955566406
              ],
              [
                -4.201729774475098,
                51.31283950805664
              ],
              [
                -3.094635725021362,
                51.24601745605469
              ],
              [
                -3.107994079589844,
                51.37968063354492
              ],
              [
                -2.945236444473267,
                51.44654083251953
              ],
              [
                -3.121426105499268,
                51.51342010498047
              ],
              [
                -3.277374029159546,
                51.37968063354492
              ],
              [
                -3.70082426071167,
                51.37968063354492
              ],
              [
                -3.891522645950317,
                51.580322265625
              ],
              [
                -4.308269023895264,
                51.51342010498047
              ],
              [
                -4.415247440338135,
                51.71418380737305
              ],
              [
                -4.909326076507568,
                51.580322265625
              ],
              [
                -5.264270305633545,
                51.71418380737305
              ],
              [
                -5.218731880187988,
                52.0491943359375
              ],
              [
                -4.552989482879639,
                52.18334197998047
              ],
              [
                -4.156738758087158,
                52.4518928527832
              ],
              [
                -4.29533576965332,
                52.92268753051758
              ],
              [
                -4.793659210205078,
                52.78806686401367
              ],
              [
                -4.809510231018066,
                52.92268753051758
              ],
              [
                -4.490120410919189,
                53.124786376953125
              ],
              [
                -4.669717311859131,
                53.192195892333984
              ],
              [
                -4.701662540435791,
                53.462066650390625
              ],
              [
                -4.271347522735596,
                53.462066650390625
              ],
              [
                -4.162125587463379,
                53.25962829589844
              ],
              [
                -3.152528285980225,
                53.462066650390625
              ],
              [
                -3.095205545425415,
                53.732303619384766
              ],
              [
                -3.196035623550415,
                53.86756134033203
              ],
              [
                -2.96582555770874,
                54.138362884521484
              ],
              [
                -3.304538726806641,
                54.07062530517578
              ],
              [
                -3.319409608840942,
                54.20612335205078
              ],
              [
                -3.586766958236694,
                54.27390670776367
              ],
              [
                -3.617407321929932,
                54.545284271240234
              ],
              [
                -3.704231739044189,
                54.545284271240234
              ],
              [
                -3.648374080657959,
                54.817054748535156
              ],
              [
                -3.394958257675171,
                54.88506317138672
              ],
              [
                -3.402623414993286,
                54.95309066772461
              ],
              [
                -3.141266584396362,
                54.95309066772461
              ],
              [
                -2.807486772537231,
                55.089229583740234
              ],
              [
                -2.734941720962524,
                55.225467681884766
              ],
              [
                -2.560305595397949,
                55.225467681884766
              ],
              [
                -2.239403486251831,
                55.498252868652344
              ],
              [
                -2.268072366714478,
                55.77145767211914
              ],
              [
                -2.106868505477905,
                55.90821838378906
              ],
              [
                -2.01904296875,
                55.90821838378906
              ],
              [
                -1.633551597595215,
                55.56651306152344
              ],
              [
                -1.486006855964661,
                54.95309066772461
              ],
              [
                -1.398887872695923,
                54.95309066772461
              ],
              [
                -1.285956144332886,
                54.681121826171875
              ],
              [
                -0.671433329582214,
                54.613189697265625
              ],
              [
                -0.393139123916626,
                54.4095458984375
              ],
              [
                -0.381431937217712,
                54.27390670776367
              ],
              [
                -0.294801265001297,
                54.27390670776367
              ],
              [
                -0.17964468896389,
                53.93522644042969
              ],
              [
                0.004257039166987,
                53.799922943115234
              ],
              [
                0.020827349275351,
                53.597137451171875
              ]
            ]
          ],
          [
            [
              [
                -6.871194362640381,
                52.31757736206055
              ],
              [
                -6.956487655639648,
                52.31757736206055
              ],
              [
                -7.297660827636719,
                52.31757736206055
              ],
              [
                -7.401244163513184,
                52.4518928527832
              ],
              [
                -7.752132892608643,
                52.51908493041992
              ],
              [
                -8.264689445495605,
                52.51908493041992
              ],
              [
                -8.36954402923584,
                52.653533935546875
              ],
              [
                -8.37929916381836,
                52.720787048339844
              ],
              [
                -8.227591514587402,
                52.85536575317383
              ],
              [
                -8.180913925170898,
                53.124786376953125
              ],
              [
                -8.009249687194824,
                53.124786376953125
              ],
              [
                -7.894556522369385,
                52.92268753051758
              ],
              [
                -7.57062292098999,
                53.057395935058594
              ],
              [
                -7.589578151702881,
                53.192195892333984
              ],
              [
                -7.150925159454346,
                53.124786376953125
              ],
              [
                -7.074308395385742,
                53.192195892333984
              ],
              [
                -7.120770454406738,
                53.52959060668945
              ],
              [
                -6.871671199798584,
                53.597137451171875
              ],
              [
                -6.918198585510254,
                53.93522644042969
              ],
              [
                -6.331579685211182,
                54.07062530517578
              ],
              [
                -6.286456108093262,
                53.732303619384766
              ],
              [
                -6.087455749511719,
                53.52959060668945
              ],
              [
                -6.241942882537842,
                53.39456558227539
              ],
              [
                -6.138383388519287,
                53.25962829589844
              ],
              [
                -6.644917488098145,
                53.192195892333984
              ],
              [
                -6.789515018463135,
                52.99003219604492
              ],
              [
                -7.123294830322266,
                52.92268753051758
              ],
              [
                -7.086812019348145,
                52.653533935546875
              ],
              [
                -7.001296520233154,
                52.653533935546875
              ],
              [
                -6.291281700134277,
                52.4518928527832
              ],
              [
                -6.427507877349854,
                52.18334197998047
              ],
              [
                -6.938740730285645,
                52.18334197998047
              ],
              [
                -6.871194362640381,
                52.31757736206055
              ]
            ]
          ]
        ]
      }
    }
  ]
}
