{
  "type": "FeatureCollection",
  "features": [
    {
      "type": "Feature",
      "properties": {
        "Name": "Republic of Sudan",
        "FromYear": 1992,
        "ToYear": 2013,
        "Area": 2477370.6273710355,
        "Type": "POLITY",
        "Wikipedia": "Sudan",
        "Wikidata": "Q1049",
        "SeshatID": "",
        "Components": "",
        "MemberOf": "",
        "displayYear": 1997,
        "sourceYear": 1997,
        "mappedTerritoryId": "cliopatria_republic_of_sudan"
      },
      "geometry": {
        "type": "Polygon",
        "coordinates": [
          [
            [
              36.95502853393555,
              21.950544357299805
            ],
            [
              31.60230255126953,
              21.950544357299805
            ],
            [
              31.309558868408203,
              22.079116821289062
            ],
            [
              31.156240463256836,
              21.950544357299805
            ],
            [
              25.06007957458496,
              21.950544357299805
            ],
            [
              25.08762550354004,
              20.08624267578125
            ],
            [
              24.936120986938477,
              19.95766830444336
            ],
            [
              24.121171951293945,
              19.95766830444336
            ],
            [
              24.037635803222656,
              19.571949005126953
            ],
            [
              24.089113235473633,
              15.843266487121582
            ],
            [
              23.938671112060547,
              15.714691162109375
            ],
            [
              23.35001564025879,
              15.714691162109375
            ],
            [
              23.052614212036133,
              15.586114883422852
            ],
            [
              23.045000076293945,
              15.26467514038086
            ],
            [
              22.74348258972168,
              14.943235397338867
            ],
            [
              22.664186477661133,
              14.686083793640137
            ],
            [
              22.51580810546875,
              14.621796607971191
            ],
            [
              22.57798194885254,
              14.107494354248047
            ],
            [
              22.2054386138916,
              13.850343704223633
            ],
            [
              22.266767501831055,
              13.271754264831543
            ],
            [
              21.894859313964844,
              13.014603614807129
            ],
            [
              21.888460159301758,
              12.69316577911377
            ],
            [
              22.47354507446289,
              12.628878593444824
            ],
            [
              22.465726852416992,
              12.24315357208252
            ],
            [
              22.53510093688965,
              12.050291061401367
            ],
            [
              22.680299758911133,
              11.986002922058105
            ],
            [
              22.598047256469727,
              11.535990715026855
            ],
            [
              22.958913803100586,
              11.278841018676758
            ],
            [
              22.87929916381836,
              10.957403182983398
            ],
            [
              22.948627471923828,
              10.764540672302246
            ],
            [
              23.165523529052734,
              10.635965347290039
            ],
            [
              23.16295051574707,
              10.507390975952148
            ],
            [
              23.451618194580078,
              10.314528465270996
            ],
            [
              23.73238182067871,
              9.735940933227539
            ],
            [
              23.72589874267578,
              9.41450309753418
            ],
            [
              23.50156021118164,
              9.157352447509766
            ],
            [
              23.566953659057617,
              8.771627426147461
            ],
            [
              24.076921463012695,
              8.707340240478516
            ],
            [
              24.22038459777832,
              8.578764915466309
            ],
            [
              24.146059036254883,
              8.514476776123047
            ],
            [
              24.213891983032227,
              8.25732707977295
            ],
            [
              24.723649978637695,
              8.193038940429688
            ],
            [
              24.937376022338867,
              7.935888767242432
            ],
            [
              25.226688385009766,
              7.807313442230225
            ],
            [
              25.218721389770508,
              7.421587944030762
            ],
            [
              25.79710578918457,
              7.164437294006348
            ],
            [
              26.083538055419922,
              6.907287120819092
            ],
            [
              26.08084487915039,
              6.778711795806885
            ],
            [
              26.296966552734375,
              6.650136470794678
            ],
            [
              26.290231704711914,
              6.328698635101318
            ],
            [
              26.504953384399414,
              6.135835647583008
            ],
            [
              26.502262115478516,
              6.007260322570801
            ],
            [
              27.22317886352539,
              5.62153434753418
            ],
            [
              27.215042114257812,
              5.235808849334717
            ],
            [
              27.855979919433594,
              4.528644561767578
            ],
            [
              28.2161865234375,
              4.335781574249268
            ],
            [
              28.434749603271484,
              4.335781574249268
            ],
            [
              28.58320426940918,
              4.464356899261475
            ],
            [
              29.16329002380371,
              4.335781574249268
            ],
            [
              29.53456687927246,
              4.657219886779785
            ],
            [
              29.89183235168457,
              4.335781574249268
            ],
            [
              30.030515670776367,
              4.01434326171875
            ],
            [
              30.32048988342285,
              3.950055837631226
            ],
            [
              30.603418350219727,
              3.564330101013184
            ],
            [
              30.821918487548828,
              3.564330101013184
            ],
            [
              31.044660568237305,
              3.757192850112915
            ],
            [
              31.773040771484375,
              3.757192850112915
            ],
            [
              31.914413452148438,
              3.564330101013184
            ],
            [
              32.205745697021484,
              3.564330101013184
            ],
            [
              32.281463623046875,
              3.692905426025391
            ],
            [
              32.64855194091797,
              3.821480512619019
            ],
            [
              33.521156311035156,
              3.757192850112915
            ],
            [
              33.892799377441406,
              4.078630924224854
            ],
            [
              35.3082275390625,
              5.364383697509766
            ],
            [
              35.024696350097656,
              5.685822010040283
            ],
            [
              34.75592803955078,
              6.585848808288574
            ],
            [
              34.11272430419922,
              7.100150108337402
            ],
            [
              34.04645538330078,
              7.357300281524658
            ],
            [
              33.68999099731445,
              7.678738594055176
            ],
            [
              33.325077056884766,
              7.678738594055176
            ],
            [
              33.03813552856445,
              7.871601104736328
            ],
            [
              33.04484558105469,
              8.128751754760742
            ],
            [
              33.27238464355469,
              8.450189590454102
            ],
            [
              33.85480880737305,
              8.385902404785156
            ],
            [
              34.15392303466797,
              8.643052101135254
            ],
            [
              34.16642379760742,
              9.09306526184082
            ],
            [
              34.09336853027344,
              9.09306526184082
            ],
            [
              34.032997131347656,
              9.543078422546387
            ],
            [
              34.1846923828125,
              9.735940933227539
            ],
            [
              34.192134857177734,
              9.993090629577637
            ],
            [
              34.342124938964844,
              10.121665954589844
            ],
            [
              34.357418060302734,
              10.635965347290039
            ],
            [
              34.50957489013672,
              10.828827857971191
            ],
            [
              34.65589904785156,
              10.828827857971191
            ],
            [
              34.725128173828125,
              10.7002534866333
            ],
            [
              34.94656753540039,
              10.764540672302246
            ],
            [
              35.20514678955078,
              11.986002922058105
            ],
            [
              35.35377502441406,
              12.050291061401367
            ],
            [
              35.43568420410156,
              12.307440757751465
            ],
            [
              35.81542205810547,
              12.69316577911377
            ],
            [
              36.18421173095703,
              12.757453918457031
            ],
            [
              36.28096389770508,
              13.40032958984375
            ],
            [
              36.51567459106445,
              13.786055564880371
            ],
            [
              36.60921859741211,
              14.300357818603516
            ],
            [
              36.49644470214844,
              15.136098861694336
            ],
            [
              36.651676177978516,
              15.328963279724121
            ],
            [
              36.90909957885742,
              16.16470718383789
            ],
            [
              37.06218719482422,
              16.293283462524414
            ],
            [
              37.0120735168457,
              16.807586669921875
            ],
            [
              37.168453216552734,
              17.000450134277344
            ],
            [
              37.38962936401367,
              17.000450134277344
            ],
            [
              37.54316329956055,
              17.129026412963867
            ],
            [
              37.70293045043945,
              17.38617706298828
            ],
            [
              38.530277252197266,
              17.707616806030273
            ],
            [
              38.690711975097656,
              17.964767456054688
            ],
            [
              38.69392395019531,
              18.029054641723633
            ],
            [
              38.55583190917969,
              18.2219181060791
            ],
            [
              38.192813873291016,
              18.350492477416992
            ],
            [
              37.8421516418457,
              18.736217498779297
            ],
            [
              37.54951477050781,
              18.800504684448242
            ],
            [
              37.555702209472656,
              18.929079055786133
            ],
            [
              37.410865783691406,
              18.993366241455078
            ],
            [
              37.31755065917969,
              20.150527954101562
            ],
            [
              37.243438720703125,
              20.150527954101562
            ],
            [
              37.34142303466797,
              20.664819717407227
            ],
            [
              37.20489501953125,
              20.921964645385742
            ],
            [
              37.21376419067383,
              21.114822387695312
            ],
            [
              37.36223220825195,
              21.114822387695312
            ],
            [
              37.36817932128906,
              21.24339485168457
            ],
            [
              37.01162338256836,
              21.5648250579834
            ],
            [
              36.95206832885742,
              21.88625717163086
            ],
            [
              36.95502853393555,
              21.950544357299805
            ]
          ]
        ]
      }
    }
  ]
}
