{
  "type": "FeatureCollection",
  "features": [
    {
      "type": "Feature",
      "properties": {
        "Name": "Kartids",
        "FromYear": 1344,
        "ToYear": 1351,
        "Area": 474468.7032606775,
        "Type": "POLITY",
        "Wikipedia": "Kart dynasty",
        "Wikidata": "Q1734616",
        "SeshatID": "",
        "Components": "",
        "MemberOf": "",
        "displayYear": 1351,
        "sourceYear": 1351,
        "mappedTerritoryId": "cliopatria_kartids"
      },
      "geometry": {
        "type": "Polygon",
        "coordinates": [
          [
            [
              64.16429901123047,
              38.54513168334961
            ],
            [
              64.00749206542969,
              38.54513168334961
            ],
            [
              63.5726203918457,
              38.997230529785156
            ],
            [
              63.41547393798828,
              38.997230529785156
            ],
            [
              63.24568557739258,
              39.25570297241211
            ],
            [
              63.088340759277344,
              39.25570297241211
            ],
            [
              62.65380859375,
              39.70827102661133
            ],
            [
              62.38391876220703,
              39.57893371582031
            ],
            [
              61.65839385986328,
              39.51427459716797
            ],
            [
              60.19400405883789,
              38.997230529785156
            ],
            [
              59.82230758666992,
              38.416015625
            ],
            [
              59.90066146850586,
              38.416015625
            ],
            [
              59.856224060058594,
              38.22237777709961
            ],
            [
              59.93450927734375,
              38.22237777709961
            ],
            [
              59.890464782714844,
              38.028785705566406
            ],
            [
              59.96867752075195,
              38.028785705566406
            ],
            [
              59.925018310546875,
              37.835243225097656
            ],
            [
              60.08732223510742,
              37.51277160644531
            ],
            [
              60.13008117675781,
              36.9970588684082
            ],
            [
              60.20793533325195,
              36.9970588684082
            ],
            [
              60.19395446777344,
              36.932613372802734
            ],
            [
              59.99968719482422,
              35.258358001708984
            ],
            [
              59.628108978271484,
              34.55062484741211
            ],
            [
              59.28273391723633,
              34.3576545715332
            ],
            [
              59.37959671020508,
              33.65024948120117
            ],
            [
              59.679786682128906,
              33.20018768310547
            ],
            [
              60.29301834106445,
              33.20018768310547
            ],
            [
              60.72488784790039,
              33.45735549926758
            ],
            [
              61.00727462768555,
              33.32876968383789
            ],
            [
              61.03529739379883,
              33.07160949707031
            ],
            [
              61.17642593383789,
              33.00732421875
            ],
            [
              61.15232849121094,
              32.878753662109375
            ],
            [
              61.29342269897461,
              32.81447219848633
            ],
            [
              61.26948547363281,
              32.685909271240234
            ],
            [
              61.398651123046875,
              32.557350158691406
            ],
            [
              61.263336181640625,
              32.23596954345703
            ],
            [
              61.339717864990234,
              32.23596954345703
            ],
            [
              62.38067626953125,
              32.493072509765625
            ],
            [
              65.133544921875,
              32.878753662109375
            ],
            [
              65.96540832519531,
              33.20018768310547
            ],
            [
              67.1918716430664,
              33.20018768310547
            ],
            [
              67.29595184326172,
              33.32876968383789
            ],
            [
              67.87464904785156,
              33.52165222167969
            ],
            [
              67.95140075683594,
              33.52165222167969
            ],
            [
              68.00788879394531,
              33.77885055541992
            ],
            [
              68.28134155273438,
              33.971771240234375
            ],
            [
              68.32470703125,
              34.164703369140625
            ],
            [
              68.84264373779297,
              34.743614196777344
            ],
            [
              68.91730499267578,
              35.38706970214844
            ],
            [
              68.74699401855469,
              35.644527435302734
            ],
            [
              68.79488372802734,
              36.15959167480469
            ],
            [
              68.6873779296875,
              36.3527946472168
            ],
            [
              68.83767700195312,
              37.254878997802734
            ],
            [
              67.91515350341797,
              36.9970588684082
            ],
            [
              67.74652099609375,
              37.254878997802734
            ],
            [
              67.12300109863281,
              37.254878997802734
            ],
            [
              66.99945068359375,
              37.38381576538086
            ],
            [
              66.51548767089844,
              37.3193473815918
            ],
            [
              65.62744903564453,
              37.51277160644531
            ],
            [
              65.23883056640625,
              37.835243225097656
            ],
            [
              64.66151428222656,
              38.028785705566406
            ],
            [
              64.36690521240234,
              38.416015625
            ],
            [
              64.14804077148438,
              38.48057174682617
            ],
            [
              64.16429901123047,
              38.54513168334961
            ]
          ]
        ]
      }
    }
  ]
}
