{
  "type": "FeatureCollection",
  "features": [
    {
      "type": "Feature",
      "properties": {
        "Name": "Almoravid Dynasty",
        "FromYear": 1139,
        "ToYear": 1151,
        "Area": 421285.82976761885,
        "Type": "POLITY",
        "Wikipedia": "Almoravid dynasty",
        "Wikidata": "Q75613",
        "SeshatID": "ma_almoravid_dyn",
        "Components": "",
        "MemberOf": "",
        "displayYear": 1141,
        "sourceYear": 1141,
        "mappedTerritoryId": "cliopatria_almoravid_dynasty"
      },
      "geometry": {
        "type": "MultiPolygon",
        "coordinates": [
          [
            [
              [
                -2.981565713882446,
                35.258358001708984
              ],
              [
                -2.992615222930908,
                35.45143127441406
              ],
              [
                -2.837937116622925,
                35.45143127441406
              ],
              [
                -2.819781064987183,
                35.12965774536133
              ],
              [
                -2.198449373245239,
                35.065311431884766
              ],
              [
                -2.121232748031616,
                35.065311431884766
              ],
              [
                -2.416217565536499,
                34.80794906616211
              ],
              [
                -2.570490121841431,
                34.80794906616211
              ],
              [
                -2.78778862953186,
                34.55062484741211
              ],
              [
                -3.092435598373413,
                34.48630142211914
              ],
              [
                -3.235719680786133,
                34.2933349609375
              ],
              [
                -4.363571166992188,
                33.84315490722656
              ],
              [
                -4.502042293548584,
                33.5859489440918
              ],
              [
                -4.797597885131836,
                33.393062591552734
              ],
              [
                -4.789986133575439,
                33.26447677612305
              ],
              [
                -5.807922840118408,
                32.36451721191406
              ],
              [
                -6.109657764434814,
                32.30024337768555
              ],
              [
                -6.250624179840088,
                32.107421875
              ],
              [
                -6.772973537445068,
                31.91460609436035
              ],
              [
                -7.061964511871338,
                31.65752601623535
              ],
              [
                -7.214416027069092,
                31.65752601623535
              ],
              [
                -7.206338405609131,
                31.528987884521484
              ],
              [
                -7.507019519805908,
                31.464719772338867
              ],
              [
                -7.867263793945312,
                31.143381118774414
              ],
              [
                -8.315461158752441,
                31.014846801757812
              ],
              [
                -8.822504043579102,
                30.629240036010742
              ],
              [
                -9.640763282775879,
                30.372163772583008
              ],
              [
                -9.645063400268555,
                30.436433792114258
              ],
              [
                -9.729655265808105,
                30.564971923828125
              ],
              [
                -9.881543159484863,
                30.564971923828125
              ],
              [
                -9.859257698059082,
                31.336183547973633
              ],
              [
                -9.783116340637207,
                31.336183547973633
              ],
              [
                -9.734487533569336,
                31.7217960357666
              ],
              [
                -9.5149564743042,
                31.8503360748291
              ],
              [
                -9.52421760559082,
                31.978878021240234
              ],
              [
                -9.309136390686035,
                32.171695709228516
              ],
              [
                -9.332544326782227,
                32.493072509765625
              ],
              [
                -9.198505401611328,
                32.75019073486328
              ],
              [
                -8.551655769348145,
                33.32876968383789
              ],
              [
                -7.129902839660645,
                33.84315490722656
              ],
              [
                -7.062007427215576,
                33.971771240234375
              ],
              [
                -6.90380334854126,
                33.90746307373047
              ],
              [
                -6.613898754119873,
                34.164703369140625
              ],
              [
                -6.699729919433594,
                34.2933349609375
              ],
              [
                -6.473203659057617,
                34.3576545715332
              ],
              [
                -6.482059955596924,
                34.48630142211914
              ],
              [
                -6.332395076751709,
                34.55062484741211
              ],
              [
                -6.277484893798828,
                34.87228775024414
              ],
              [
                -6.200328826904297,
                34.87228775024414
              ],
              [
                -6.290933609008789,
                35.065311431884766
              ],
              [
                -6.132044315338135,
                35.00096893310547
              ],
              [
                -6.14545202255249,
                35.194007873535156
              ],
              [
                -5.999861240386963,
                35.32271194458008
              ],
              [
                -5.876633644104004,
                35.77327346801758
              ],
              [
                -5.338923931121826,
                35.837650299072266
              ],
              [
                -5.239750862121582,
                35.51579284667969
              ],
              [
                -4.754821300506592,
                35.194007873535156
              ],
              [
                -3.364191055297852,
                35.194007873535156
              ],
              [
                -3.286933660507202,
                35.194007873535156
              ],
              [
                -2.981565713882446,
                35.258358001708984
              ]
            ]
          ],
          [
            [
              [
                0.247769102454185,
                40.42012023925781
              ],
              [
                0.106994137167931,
                40.0964469909668
              ],
              [
                -0.201878547668457,
                39.9670295715332
              ],
              [
                -0.345421016216278,
                39.70827102661133
              ],
              [
                -0.313707679510117,
                39.1264533996582
              ],
              [
                0.099359586834908,
                38.738853454589844
              ],
              [
                -0.660861134529114,
                38.28691864013672
              ],
              [
                -0.803495347499847,
                38.028785705566406
              ],
              [
                -0.704753637313843,
                37.641746520996094
              ],
              [
                -1.708719491958618,
                37.44829177856445
              ],
              [
                -1.623468399047852,
                37.3193473815918
              ],
              [
                -1.857354998588562,
                37.3193473815918
              ],
              [
                -2.061630010604858,
                36.80373764038086
              ],
              [
                -2.532132625579834,
                36.8681755065918
              ],
              [
                -2.680080890655518,
                36.73930740356445
              ],
              [
                -4.468626022338867,
                36.73930740356445
              ],
              [
                -4.688807487487793,
                36.5460319519043
              ],
              [
                -5.22819709777832,
                36.48161697387695
              ],
              [
                -5.287947177886963,
                36.2239875793457
              ],
              [
                -5.51620626449585,
                36.15959167480469
              ],
              [
                -5.584750652313232,
                36.03080368041992
              ],
              [
                -5.831079006195068,
                36.2239875793457
              ],
              [
                -6.063849925994873,
                36.2239875793457
              ],
              [
                -6.330093860626221,
                36.67487716674805
              ],
              [
                -6.349542140960693,
                36.932613372802734
              ],
              [
                -6.587993621826172,
                36.9970588684082
              ],
              [
                -6.84182596206665,
                37.254878997802734
              ],
              [
                -7.465344429016113,
                37.254878997802734
              ],
              [
                -7.454815864562988,
                37.12596130371094
              ],
              [
                -7.677903652191162,
                36.9970588684082
              ],
              [
                -8.70113754272461,
                37.12596130371094
              ],
              [
                -9.00136661529541,
                36.9970588684082
              ],
              [
                -8.896896362304688,
                37.5772590637207
              ],
              [
                -8.818843841552734,
                37.5772590637207
              ],
              [
                -8.822718620300293,
                38.48057174682617
              ],
              [
                -9.20852279663086,
                38.416015625
              ],
              [
                -9.23299789428711,
                38.67427444458008
              ],
              [
                -9.38370418548584,
                38.60969924926758
              ],
              [
                -9.553065299987793,
                38.738853454589844
              ],
              [
                -9.571974754333496,
                38.93262481689453
              ],
              [
                -9.42748737335205,
                39.06184005737305
              ],
              [
                -9.387048721313477,
                39.449623107910156
              ],
              [
                -9.157164573669434,
                39.51427459716797
              ],
              [
                -9.103915214538574,
                39.77294921875
              ],
              [
                -9.025042533874512,
                39.77294921875
              ],
              [
                -8.53316593170166,
                39.57893371582031
              ],
              [
                -7.902791976928711,
                39.57893371582031
              ],
              [
                -7.199382305145264,
                39.64360046386719
              ],
              [
                -6.974339962005615,
                39.77294921875
              ],
              [
                -6.732076168060303,
                39.70827102661133
              ],
              [
                -5.491554260253906,
                39.9670295715332
              ],
              [
                -4.859951019287109,
                39.9670295715332
              ],
              [
                -4.692013740539551,
                39.8376350402832
              ],
              [
                -4.213779926300049,
                39.77294921875
              ],
              [
                -4.041750431060791,
                39.57893371582031
              ],
              [
                -3.166091680526733,
                39.449623107910156
              ],
              [
                -2.93859601020813,
                39.57893371582031
              ],
              [
                -2.391232252120972,
                39.64360046386719
              ],
              [
                -2.25036358833313,
                39.90232849121094
              ],
              [
                -1.872196435928345,
                40.16116714477539
              ],
              [
                -1.734717130661011,
                40.4848747253418
              ],
              [
                -1.580494284629822,
                40.54964065551758
              ],
              [
                -1.251806020736694,
                40.355369567871094
              ],
              [
                -1.018372893333435,
                40.42012023925781
              ],
              [
                -0.871678948402405,
                40.614410400390625
              ],
              [
                -0.713251173496246,
                40.614410400390625
              ],
              [
                -0.728620767593384,
                40.873565673828125
              ],
              [
                -0.415093988180161,
                40.93837356567383
              ],
              [
                -0.278851270675659,
                41.32738494873047
              ],
              [
                -0.127280056476593,
                41.45711898803711
              ],
              [
                0.346563339233398,
                41.521995544433594
              ],
              [
                0.495140582323074,
                41.71668243408203
              ],
              [
                0.491581618785858,
                41.781593322753906
              ],
              [
                0.571292340755463,
                41.781593322753906
              ],
              [
                0.737652242183685,
                41.65177917480469
              ],
              [
                1.056268811225891,
                41.65177917480469
              ],
              [
                1.218863248825073,
                41.586883544921875
              ],
              [
                1.225408554077148,
                41.45711898803711
              ],
              [
                1.072890043258667,
                41.32738494873047
              ],
              [
                0.834347486495972,
                41.32738494873047
              ],
              [
                0.920557677745819,
                41.19768524169922
              ],
              [
                0.847813367843628,
                41.06801223754883
              ],
              [
                0.927217125892639,
                41.06801223754883
              ],
              [
                0.930533289909363,
                41.00318908691406
              ],
              [
                0.695793092250824,
                40.93837356567383
              ],
              [
                0.709256291389465,
                40.6791877746582
              ],
              [
                0.474957317113876,
                40.614410400390625
              ],
              [
                0.478371202945709,
                40.54964065551758
              ],
              [
                0.247769102454185,
                40.42012023925781
              ]
            ]
          ],
          [
            [
              [
                1.651834011077881,
                39.1264533996582
              ],
              [
                1.657540321350098,
                38.997230529785156
              ],
              [
                1.430543661117554,
                38.80344009399414
              ],
              [
                1.273545265197754,
                38.80344009399414
              ],
              [
                1.183109045028687,
                39.06184005737305
              ],
              [
                1.258725643157959,
                39.1264533996582
              ],
              [
                1.337347388267517,
                39.1264533996582
              ],
              [
                1.651834011077881,
                39.1264533996582
              ]
            ]
          ],
          [
            [
              [
                3.197866439819336,
                39.8376350402832
              ],
              [
                3.515789270401001,
                39.77294921875
              ],
              [
                3.295835733413696,
                39.320335388183594
              ],
              [
                2.82365870475769,
                39.320335388183594
              ],
              [
                2.658556938171387,
                39.51427459716797
              ],
              [
                2.346148252487183,
                39.449623107910156
              ],
              [
                2.338095426559448,
                39.64360046386719
              ],
              [
                2.877186298370361,
                39.9670295715332
              ],
              [
                2.956136703491211,
                39.9670295715332
              ],
              [
                3.19298791885376,
                39.9670295715332
              ],
              [
                3.197866439819336,
                39.8376350402832
              ]
            ]
          ],
          [
            [
              [
                4.302449703216553,
                39.8376350402832
              ],
              [
                3.826826572418213,
                39.90232849121094
              ],
              [
                3.741101741790771,
                40.0964469909668
              ],
              [
                3.820104122161865,
                40.0964469909668
              ],
              [
                4.215116024017334,
                40.0964469909668
              ],
              [
                4.302449703216553,
                39.8376350402832
              ]
            ]
          ]
        ]
      }
    }
  ]
}
