{
  "type": "FeatureCollection",
  "features": [
    {
      "type": "Feature",
      "properties": {
        "Name": "Western Chalukya Empire",
        "FromYear": 1034,
        "ToYear": 1039,
        "Area": 738006.888194362,
        "Type": "POLITY",
        "Wikipedia": "Western Chalukya Empire",
        "Wikidata": "Q14624218",
        "SeshatID": "in_kalyani_chalukya_emp",
        "Components": "",
        "MemberOf": "",
        "displayYear": 1038,
        "sourceYear": 1038,
        "mappedTerritoryId": "cliopatria_western_chalukya_empire"
      },
      "geometry": {
        "type": "Polygon",
        "coordinates": [
          [
            [
              79.45128631591797,
              22.914846420288086
            ],
            [
              79.74919128417969,
              22.914846420288086
            ],
            [
              79.94783782958984,
              22.72198486328125
            ],
            [
              79.93147277832031,
              22.59341049194336
            ],
            [
              80.28728485107422,
              22.46483612060547
            ],
            [
              80.47804260253906,
              22.20768928527832
            ],
            [
              81.27179718017578,
              22.014829635620117
            ],
            [
              81.1492691040039,
              21.629112243652344
            ],
            [
              81.1601791381836,
              21.114822387695312
            ],
            [
              80.91397857666016,
              20.921964645385742
            ],
            [
              81.02330780029297,
              20.60053253173828
            ],
            [
              80.8360824584961,
              20.279102325439453
            ],
            [
              80.64539337158203,
              19.314802169799805
            ],
            [
              80.48963928222656,
              19.25051498413086
            ],
            [
              80.36156463623047,
              18.800504684448242
            ],
            [
              81.03894805908203,
              18.286205291748047
            ],
            [
              81.02354431152344,
              18.157629013061523
            ],
            [
              81.22972106933594,
              18.029054641723633
            ],
            [
              81.06669616699219,
              17.90047836303711
            ],
            [
              81.05905151367188,
              17.836191177368164
            ],
            [
              80.43827056884766,
              17.57904052734375
            ],
            [
              80.3345718383789,
              17.321889877319336
            ],
            [
              80.74734497070312,
              17.06473731994629
            ],
            [
              82.35433959960938,
              16.9361629486084
            ],
            [
              82.34681701660156,
              16.87187385559082
            ],
            [
              82.42052459716797,
              16.87187385559082
            ],
            [
              82.3832015991211,
              16.550434112548828
            ],
            [
              82.22111511230469,
              16.421857833862305
            ],
            [
              81.47726440429688,
              16.35757064819336
            ],
            [
              81.2347412109375,
              16.16470718383789
            ],
            [
              81.22760772705078,
              16.100418090820312
            ],
            [
              80.35118103027344,
              16.16470718383789
            ],
            [
              79.11163330078125,
              15.586114883422852
            ],
            [
              78.6978759765625,
              15.136098861694336
            ],
            [
              78.47090148925781,
              15.07181167602539
            ],
            [
              78.11480712890625,
              14.428933143615723
            ],
            [
              77.95992279052734,
              13.528904914855957
            ],
            [
              77.4814224243164,
              13.07889175415039
            ],
            [
              76.19851684570312,
              12.628878593444824
            ],
            [
              75.25071716308594,
              12.69316577911377
            ],
            [
              75.04093933105469,
              12.821741104125977
            ],
            [
              74.81594848632812,
              12.757453918457031
            ],
            [
              74.82100677490234,
              12.821741104125977
            ],
            [
              74.74769592285156,
              12.821741104125977
            ],
            [
              74.66364288330078,
              13.593193054199219
            ],
            [
              74.4706802368164,
              13.914630889892578
            ],
            [
              74.3744888305664,
              14.493220329284668
            ],
            [
              73.97454071044922,
              14.943235397338867
            ],
            [
              73.93107604980469,
              15.26467514038086
            ],
            [
              73.79009246826172,
              15.328963279724121
            ],
            [
              73.74736785888672,
              15.650403022766113
            ],
            [
              73.53911590576172,
              15.77897834777832
            ],
            [
              73.25418853759766,
              16.614723205566406
            ],
            [
              73.30036163330078,
              17.06473731994629
            ],
            [
              72.95886993408203,
              18.029054641723633
            ],
            [
              72.87482452392578,
              19.314802169799805
            ],
            [
              72.73371887207031,
              19.379087448120117
            ],
            [
              72.7613525390625,
              19.6362361907959
            ],
            [
              72.63394165039062,
              19.8290958404541
            ],
            [
              72.76312255859375,
              20.343387603759766
            ],
            [
              72.84673016139978,
              20.43170991700734
            ],
            [
              73.40628620528649,
              20.44902253197805
            ],
            [
              73.95370407590208,
              21.202540501594665
            ],
            [
              73.94872754980558,
              21.735130439950762
            ],
            [
              74.10568234696828,
              22.079116821289062
            ],
            [
              75.96370697021484,
              22.400548934936523
            ],
            [
              77.2363510131836,
              22.46483612060547
            ],
            [
              78.0121841430664,
              22.72198486328125
            ],
            [
              79.3768081665039,
              22.914846420288086
            ],
            [
              79.45128631591797,
              22.914846420288086
            ]
          ]
        ]
      }
    }
  ]
}
