{
  "type": "FeatureCollection",
  "features": [
    {
      "type": "Feature",
      "properties": {
        "Name": "Karkota Dynasty",
        "FromYear": 602,
        "ToYear": 625,
        "Area": 127210.62690424577,
        "Type": "POLITY",
        "Wikipedia": "Karkota dynasty",
        "Wikidata": "Q466433",
        "SeshatID": "",
        "Components": "",
        "MemberOf": "",
        "displayYear": 617,
        "sourceYear": 617,
        "mappedTerritoryId": "cliopatria_karkota_dynasty"
      },
      "geometry": {
        "type": "Polygon",
        "coordinates": [
          [
            [
              72.26608276367188,
              36.67487716674805
            ],
            [
              72.3352279663086,
              36.932613372802734
            ],
            [
              71.89447021484375,
              36.73930740356445
            ],
            [
              71.58341979980469,
              36.73930740356445
            ],
            [
              71.46198272705078,
              36.8681755065918
            ],
            [
              71.56851959228516,
              37.835243225097656
            ],
            [
              71.27379608154297,
              37.89975357055664
            ],
            [
              71.3639907836914,
              38.22237777709961
            ],
            [
              71.18379211425781,
              38.416015625
            ],
            [
              70.71366119384766,
              38.416015625
            ],
            [
              70.4245834350586,
              38.22237777709961
            ],
            [
              70.1970443725586,
              37.96426773071289
            ],
            [
              70.26583862304688,
              37.641746520996094
            ],
            [
              70.07515716552734,
              37.51277160644531
            ],
            [
              69.5460205078125,
              37.5772590637207
            ],
            [
              69.3497543334961,
              37.12596130371094
            ],
            [
              69.1160659790039,
              37.12596130371094
            ],
            [
              69.0102767944336,
              37.3193473815918
            ],
            [
              68.7763900756836,
              37.3193473815918
            ],
            [
              68.1487045288086,
              36.9970588684082
            ],
            [
              67.91515350341797,
              36.9970588684082
            ],
            [
              67.74652099609375,
              37.254878997802734
            ],
            [
              67.12300109863281,
              37.254878997802734
            ],
            [
              66.99945068359375,
              37.38381576538086
            ],
            [
              66.51548767089844,
              37.3193473815918
            ],
            [
              65.62744903564453,
              37.51277160644531
            ],
            [
              65.58131408691406,
              37.641746520996094
            ],
            [
              64.7397232055664,
              38.028785705566406
            ],
            [
              64.81587219238281,
              37.38381576538086
            ],
            [
              64.94068908691406,
              37.254878997802734
            ],
            [
              64.76129913330078,
              36.15959167480469
            ],
            [
              64.8388671875,
              36.15959167480469
            ],
            [
              64.81400299072266,
              35.708900451660156
            ],
            [
              64.93988037109375,
              35.58015823364258
            ],
            [
              65.312255859375,
              35.51579284667969
            ],
            [
              65.41875457763672,
              35.644527435302734
            ],
            [
              66.74954986572266,
              35.708900451660156
            ],
            [
              66.9497299194336,
              35.902034759521484
            ],
            [
              67.5696029663086,
              35.902034759521484
            ],
            [
              68.003662109375,
              35.77327346801758
            ],
            [
              68.05038452148438,
              35.644527435302734
            ],
            [
              68.2825927734375,
              35.644527435302734
            ],
            [
              68.2519302368164,
              35.51579284667969
            ],
            [
              68.4533920288086,
              35.38706970214844
            ],
            [
              68.99462127685547,
              35.38706970214844
            ],
            [
              69.27317810058594,
              35.58015823364258
            ],
            [
              70.09461212158203,
              35.77327346801758
            ],
            [
              70.06281280517578,
              35.644527435302734
            ],
            [
              70.27912139892578,
              35.58015823364258
            ],
            [
              70.3863525390625,
              35.38706970214844
            ],
            [
              70.77294921875,
              35.38706970214844
            ],
            [
              70.95951843261719,
              35.51579284667969
            ],
            [
              71.07272338867188,
              35.9664192199707
            ],
            [
              71.244140625,
              36.03080368041992
            ],
            [
              71.26058959960938,
              36.09519577026367
            ],
            [
              71.57656860351562,
              36.417205810546875
            ],
            [
              71.98176574707031,
              36.48161697387695
            ],
            [
              72.18833923339844,
              36.67487716674805
            ],
            [
              72.26608276367188,
              36.67487716674805
            ]
          ]
        ]
      }
    }
  ]
}
