{
  "type": "FeatureCollection",
  "features": [
    {
      "type": "Feature",
      "properties": {
        "Name": "Kingdom of the Franks",
        "FromYear": 510,
        "ToYear": 522,
        "Area": 536852.7698019133,
        "Type": "POLITY",
        "Wikipedia": "Francia",
        "Wikidata": "Q146246",
        "SeshatID": "fr_merovingian_emp_1",
        "Components": "",
        "MemberOf": "(Merovingian Empire);(Kingdom of the Franks)",
        "displayYear": 510,
        "sourceYear": 510,
        "mappedTerritoryId": "cliopatria_kingdom_of_the_franks"
      },
      "geometry": {
        "type": "MultiPolygon",
        "coordinates": [
          [
            [
              [
                -1.767988562583923,
                43.342071533203125
              ],
              [
                -1.848402380943298,
                43.342071533203125
              ],
              [
                -1.853058218955994,
                43.407203674316406
              ],
              [
                -1.772614240646362,
                43.407203674316406
              ],
              [
                -1.767988562583923,
                43.342071533203125
              ]
            ]
          ],
          [
            [
              [
                10.944150924682617,
                49.2500114440918
              ],
              [
                11.110798835754395,
                49.18375015258789
              ],
              [
                11.026754379272461,
                48.852684020996094
              ],
              [
                11.026633262634277,
                48.786521911621094
              ],
              [
                10.11336898803711,
                48.455936431884766
              ],
              [
                9.950777053833008,
                47.86185836791992
              ],
              [
                9.868124008178711,
                47.86185836791992
              ],
              [
                9.951909065246582,
                47.664100646972656
              ],
              [
                9.376555442810059,
                47.4006233215332
              ],
              [
                9.295450210571289,
                47.26897048950195
              ],
              [
                9.130768775939941,
                47.26897048950195
              ],
              [
                8.88620662689209,
                47.07159423828125
              ],
              [
                8.887835502624512,
                46.94007873535156
              ],
              [
                8.723495483398438,
                46.94007873535156
              ],
              [
                8.641324996948242,
                46.94007873535156
              ],
              [
                8.559154510498047,
                46.94007873535156
              ],
              [
                8.476984977722168,
                46.94007873535156
              ],
              [
                8.394814491271973,
                46.94007873535156
              ],
              [
                8.393797874450684,
                47.005828857421875
              ],
              [
                8.311593055725098,
                47.005828857421875
              ],
              [
                8.061505317687988,
                47.20316696166992
              ],
              [
                7.483957767486572,
                47.26897048950195
              ],
              [
                7.314839363098145,
                47.46647262573242
              ],
              [
                7.149951457977295,
                47.46647262573242
              ],
              [
                6.975266933441162,
                47.86185836791992
              ],
              [
                6.310186386108398,
                47.993770599365234
              ],
              [
                5.818123817443848,
                47.86185836791992
              ],
              [
                5.822384834289551,
                47.730003356933594
              ],
              [
                5.576864242553711,
                47.664100646972656
              ],
              [
                5.594502449035645,
                47.13737487792969
              ],
              [
                5.514444828033447,
                47.07159423828125
              ],
              [
                5.180784702301025,
                47.20316696166992
              ],
              [
                5.176053524017334,
                47.33478927612305
              ],
              [
                4.759079456329346,
                47.46647262573242
              ],
              [
                4.666224002838135,
                47.730003356933594
              ],
              [
                3.922977447509766,
                47.730003356933594
              ],
              [
                2.945314645767212,
                47.46647262573242
              ],
              [
                3.034306049346924,
                47.33478927612305
              ],
              [
                2.96506404876709,
                47.07159423828125
              ],
              [
                3.227499008178711,
                46.74290466308594
              ],
              [
                3.076056957244873,
                46.480194091796875
              ],
              [
                3.858186483383179,
                45.431331634521484
              ],
              [
                3.869040966033936,
                45.169586181640625
              ],
              [
                4.039471626281738,
                44.973392486572266
              ],
              [
                3.968777418136597,
                44.71194839477539
              ],
              [
                4.133441925048828,
                44.64661407470703
              ],
              [
                4.057530879974365,
                44.5159797668457
              ],
              [
                3.814627170562744,
                44.5159797668457
              ],
              [
                3.429201602935791,
                44.05907440185547
              ],
              [
                3.025451898574829,
                44.05907440185547
              ],
              [
                2.795101165771484,
                43.79821014404297
              ],
              [
                2.633847713470459,
                43.79821014404297
              ],
              [
                2.095041275024414,
                43.276947021484375
              ],
              [
                1.950274229049683,
                42.95146560668945
              ],
              [
                1.789806246757507,
                42.95146560668945
              ],
              [
                1.485537886619568,
                42.62621307373047
              ],
              [
                1.074691534042358,
                42.82133865356445
              ],
              [
                0.040142297744751,
                42.691246032714844
              ],
              [
                -0.942404747009277,
                43.016544342041016
              ],
              [
                -1.022668600082397,
                43.016544342041016
              ],
              [
                -1.423987507820129,
                43.016544342041016
              ],
              [
                -1.517712950706482,
                43.211830139160156
              ],
              [
                -1.441840410232544,
                43.276947021484375
              ],
              [
                -1.767988562583923,
                43.342071533203125
              ],
              [
                -1.459883332252502,
                43.53750228881836
              ],
              [
                -1.402047991752625,
                43.86341094970703
              ],
              [
                -1.321390628814697,
                43.86341094970703
              ],
              [
                -1.348801136016846,
                44.25482940673828
              ],
              [
                -1.267958283424377,
                44.25482940673828
              ],
              [
                -1.286344885826111,
                44.5159797668457
              ],
              [
                -1.205376982688904,
                44.5159797668457
              ],
              [
                -1.251859068870544,
                45.169586181640625
              ],
              [
                -1.170574903488159,
                45.169586181640625
              ],
              [
                -1.189373373985291,
                45.431331634521484
              ],
              [
                -1.031213998794556,
                45.496795654296875
              ],
              [
                -1.045281529426575,
                45.693260192871094
              ],
              [
                -1.213142395019531,
                45.75876998901367
              ],
              [
                -1.141096234321594,
                45.889827728271484
              ],
              [
                -1.222735166549683,
                45.889827728271484
              ],
              [
                -1.251809358596802,
                46.283294677734375
              ],
              [
                -1.666043281555176,
                46.348915100097656
              ],
              [
                -2.014399528503418,
                46.61152267456055
              ],
              [
                -2.024919986724854,
                46.74290466308594
              ],
              [
                -2.194406032562256,
                46.808616638183594
              ],
              [
                -2.139080047607422,
                47.13737487792969
              ],
              [
                -2.232228517532349,
                47.26897048950195
              ],
              [
                -2.561590671539307,
                47.26897048950195
              ],
              [
                -2.578423976898193,
                47.46647262573242
              ],
              [
                -2.831500053405762,
                47.53233337402344
              ],
              [
                -2.837259292602539,
                47.598209381103516
              ],
              [
                -2.447182655334473,
                47.86185836791992
              ],
              [
                -1.796727180480957,
                47.993770599365234
              ],
              [
                -1.647326707839966,
                48.191749572753906
              ],
              [
                -1.652703642845154,
                48.257774353027344
              ],
              [
                -1.668919563293457,
                48.455936431884766
              ],
              [
                -1.508333325386047,
                48.52202224731445
              ],
              [
                -1.602181315422058,
                48.654239654541016
              ],
              [
                -1.607621908187866,
                48.72037124633789
              ],
              [
                -1.718345284461975,
                49.051273345947266
              ],
              [
                -1.635041356086731,
                49.051273345947266
              ],
              [
                -1.651668906211853,
                49.2500114440918
              ],
              [
                -1.913302421569824,
                49.38258361816406
              ],
              [
                -2.031550645828247,
                49.78071212768555
              ],
              [
                -1.361783027648926,
                49.78071212768555
              ],
              [
                -1.250783205032349,
                49.44889450073242
              ],
              [
                0.007001183927059,
                49.38258361816406
              ],
              [
                -0.012448177672923,
                49.64793395996094
              ],
              [
                0.224112883210182,
                49.84712600708008
              ],
              [
                1.052847385406494,
                49.98000717163086
              ],
              [
                1.454967975616455,
                50.2459831237793
              ],
              [
                1.424705147743225,
                50.71213912963867
              ],
              [
                1.656218767166138,
                51.04566955566406
              ],
              [
                2.577829360961914,
                51.17921447753906
              ],
              [
                3.155481338500977,
                51.44654083251953
              ],
              [
                3.409677743911743,
                51.44654083251953
              ],
              [
                3.416590452194214,
                51.31283950805664
              ],
              [
                4.260037899017334,
                51.37968063354492
              ],
              [
                4.159882545471191,
                51.71418380737305
              ],
              [
                4.496551513671875,
                51.78114318847656
              ],
              [
                4.487694263458252,
                51.98215103149414
              ],
              [
                4.652082920074463,
                52.11625671386719
              ],
              [
                4.55810546875,
                52.31757736206055
              ],
              [
                4.811166763305664,
                52.38472366333008
              ],
              [
                4.885351657867432,
                52.653533935546875
              ],
              [
                5.390830039978027,
                52.85536575317383
              ],
              [
                5.385728359222412,
                52.99003219604492
              ],
              [
                5.559673309326172,
                52.92268753051758
              ],
              [
                5.654990673065186,
                52.653533935546875
              ],
              [
                5.994833469390869,
                52.720787048339844
              ],
              [
                6.076033592224121,
                52.85536575317383
              ],
              [
                6.249425888061523,
                52.78806686401367
              ],
              [
                6.330934524536133,
                52.92268753051758
              ],
              [
                6.245238780975342,
                52.92268753051758
              ],
              [
                6.241037368774414,
                53.057395935058594
              ],
              [
                6.412610530853271,
                53.057395935058594
              ],
              [
                6.494455337524414,
                53.192195892333984
              ],
              [
                6.666211605072021,
                53.192195892333984
              ],
              [
                6.93080472946167,
                52.92268753051758
              ],
              [
                7.016500473022461,
                52.92268753051758
              ],
              [
                6.948029518127441,
                52.250450134277344
              ],
              [
                6.697800159454346,
                52.0491943359375
              ],
              [
                6.612682342529297,
                52.0491943359375
              ],
              [
                6.614560127258301,
                51.98215103149414
              ],
              [
                6.699635028839111,
                51.98215103149414
              ],
              [
                7.301267147064209,
                51.71418380737305
              ],
              [
                7.392090797424316,
                51.44654083251953
              ],
              [
                7.648990631103516,
                51.31283950805664
              ],
              [
                7.651692390441895,
                51.17921447753906
              ],
              [
                8.335354804992676,
                50.71213912963867
              ],
              [
                8.837132453918457,
                51.04566955566406
              ],
              [
                9.427069664001465,
                51.24601745605469
              ],
              [
                9.345601081848145,
                50.84549331665039
              ],
              [
                9.178116798400879,
                50.71213912963867
              ],
              [
                9.266509056091309,
                50.2459831237793
              ],
              [
                9.520442008972168,
                49.98000717163086
              ],
              [
                9.439866065979004,
                49.58156967163086
              ],
              [
                9.690682411193848,
                49.58156967163086
              ],
              [
                9.775094032287598,
                49.44889450073242
              ],
              [
                10.527070999145508,
                49.2500114440918
              ],
              [
                10.860734939575195,
                49.2500114440918
              ],
              [
                10.944150924682617,
                49.2500114440918
              ]
            ]
          ]
        ]
      }
    }
  ]
}
