{
  "type": "FeatureCollection",
  "features": [
    {
      "type": "Feature",
      "properties": {
        "Name": "Yenisei Kyrgyz",
        "FromYear": 793,
        "ToYear": 839,
        "Area": 167264.22709607647,
        "Type": "POLITY",
        "Wikipedia": "Yenisei Kyrgyz",
        "Wikidata": "Q83142",
        "SeshatID": "",
        "Components": "",
        "MemberOf": "",
        "displayYear": 820,
        "sourceYear": 820,
        "mappedTerritoryId": "cliopatria_yenisei_kyrgyz"
      },
      "geometry": {
        "type": "Polygon",
        "coordinates": [
          [
            [
              98.77336120605469,
              54.341712951660156
            ],
            [
              98.82280731201172,
              54.4095458984375
            ],
            [
              98.40117645263672,
              54.545284271240234
            ],
            [
              98.45075988769531,
              54.613189697265625
            ],
            [
              96.82202911376953,
              54.88506317138672
            ],
            [
              96.87127685546875,
              54.95309066772461
            ],
            [
              96.60991668701172,
              54.95309066772461
            ],
            [
              96.6591567993164,
              55.021148681640625
            ],
            [
              94.38408660888672,
              54.88506317138672
            ],
            [
              93.1982421875,
              54.681121826171875
            ],
            [
              92.14012908935547,
              54.27390670776367
            ],
            [
              91.47919464111328,
              53.799922943115234
            ],
            [
              91.43480682373047,
              53.732303619384766
            ],
            [
              91.52105712890625,
              53.732303619384766
            ],
            [
              90.86997985839844,
              52.85536575317383
            ],
            [
              89.90263366699219,
              51.98215103149414
            ],
            [
              89.86211395263672,
              51.91512680053711
            ],
            [
              90.1172103881836,
              51.91512680053711
            ],
            [
              90.07669830322266,
              51.84812545776367
            ],
            [
              90.24667358398438,
              51.84812545776367
            ],
            [
              90.20621490478516,
              51.78114318847656
            ],
            [
              90.63094329833984,
              51.78114318847656
            ],
            [
              90.59040069580078,
              51.71418380737305
            ],
            [
              90.76020812988281,
              51.71418380737305
            ],
            [
              90.7197265625,
              51.64724349975586
            ],
            [
              91.1440200805664,
              51.64724349975586
            ],
            [
              91.10346221923828,
              51.580322265625
            ],
            [
              92.37571716308594,
              51.580322265625
            ],
            [
              94.58428192138672,
              52.250450134277344
            ],
            [
              96.38236236572266,
              52.51908493041992
            ],
            [
              97.92002868652344,
              52.51908493041992
            ],
            [
              97.87442779541016,
              52.4518928527832
            ],
            [
              98.29542541503906,
              52.31757736206055
            ],
            [
              98.25,
              52.250450134277344
            ],
            [
              99.01121520996094,
              52.11625671386719
            ],
            [
              99.27970886230469,
              52.38472366333008
            ],
            [
              100.07284545898438,
              52.78806686401367
            ],
            [
              100.54847717285156,
              52.85536575317383
            ],
            [
              100.64414978027344,
              52.99003219604492
            ],
            [
              100.55840301513672,
              52.99003219604492
            ],
            [
              100.6064224243164,
              53.057395935058594
            ],
            [
              100.3112564086914,
              53.124786376953125
            ],
            [
              100.32173919677734,
              53.25962829589844
            ],
            [
              100.14989471435547,
              53.25962829589844
            ],
            [
              100.25784301757812,
              53.52959060668945
            ],
            [
              100.13436889648438,
              53.597137451171875
            ],
            [
              100.18326568603516,
              53.664710998535156
            ],
            [
              100.01085662841797,
              53.664710998535156
            ],
            [
              100.0226058959961,
              53.799922943115234
            ],
            [
              99.85001373291016,
              53.799922943115234
            ],
            [
              99.89910888671875,
              53.86756134033203
            ],
            [
              99.72642517089844,
              53.86756134033203
            ],
            [
              99.77557373046875,
              53.93522644042969
            ],
            [
              99.60279083251953,
              53.93522644042969
            ],
            [
              99.65199279785156,
              54.00291442871094
            ],
            [
              98.86003875732422,
              54.341712951660156
            ],
            [
              98.77336120605469,
              54.341712951660156
            ]
          ]
        ]
      }
    }
  ]
}
