{
  "type": "FeatureCollection",
  "features": [
    {
      "type": "Feature",
      "properties": {
        "Name": "Sultanate of Oman",
        "FromYear": 1757,
        "ToYear": 1798,
        "Area": 120599.38490825157,
        "Type": "POLITY",
        "Wikipedia": "Oman",
        "Wikidata": "Q842",
        "SeshatID": "om_busaidi_imamate_1",
        "Components": "",
        "MemberOf": "",
        "displayYear": 1759,
        "sourceYear": 1759,
        "mappedTerritoryId": "cliopatria_sultanate_of_oman"
      },
      "geometry": {
        "type": "MultiPolygon",
        "coordinates": [
          [
            [
              [
                39.67397689819336,
                -8.007437705993652
              ],
              [
                39.52798080444336,
                -8.007437705993652
              ],
              [
                39.52406311035156,
                -7.8145751953125
              ],
              [
                39.66746139526367,
                -7.685999870300293
              ],
              [
                39.81342697143555,
                -7.685999870300293
              ],
              [
                39.81732940673828,
                -7.878862857818604
              ],
              [
                39.74433898925781,
                -7.878862857818604
              ],
              [
                39.67397689819336,
                -8.007437705993652
              ]
            ]
          ],
          [
            [
              [
                39.3474235534668,
                -6.143096923828125
              ],
              [
                39.493255615234375,
                -6.143096923828125
              ],
              [
                39.42695236206055,
                -6.528822898864746
              ],
              [
                39.05683135986328,
                -6.207384586334229
              ],
              [
                39.12240219116211,
                -5.757371425628662
              ],
              [
                39.26820755004883,
                -5.757371425628662
              ],
              [
                39.34318161010742,
                -5.885946750640869
              ],
              [
                39.34423065185547,
                -5.950234413146973
              ],
              [
                39.3474235534668,
                -6.143096923828125
              ]
            ]
          ],
          [
            [
              [
                38.757896423339844,
                -5.757371425628662
              ],
              [
                38.76729965209961,
                -6.335959911346436
              ],
              [
                39.21040725708008,
                -6.657398223876953
              ],
              [
                39.21268844604492,
                -6.78597354888916
              ],
              [
                39.43267822265625,
                -6.850261211395264
              ],
              [
                39.438602447509766,
                -7.171699047088623
              ],
              [
                39.22581481933594,
                -7.493137359619141
              ],
              [
                39.2308349609375,
                -7.750287532806396
              ],
              [
                39.37808609008789,
                -7.8145751953125
              ],
              [
                39.384620666503906,
                -8.13601303100586
              ],
              [
                39.242618560791016,
                -8.328875541687012
              ],
              [
                39.16693115234375,
                -8.200301170349121
              ],
              [
                39.02091598510742,
                -8.200301170349121
              ],
              [
                39.09129333496094,
                -8.071725845336914
              ],
              [
                38.86970901489258,
                -7.943150520324707
              ],
              [
                38.93148422241211,
                -7.364562034606934
              ],
              [
                39.0726203918457,
                -7.10741138458252
              ],
              [
                38.40591049194336,
                -6.528822898864746
              ],
              [
                38.247589111328125,
                -5.757371425628662
              ],
              [
                38.39339065551758,
                -5.757371425628662
              ],
              [
                38.8128547668457,
                -4.535906314849854
              ],
              [
                39.24481201171875,
                -4.150180339813232
              ],
              [
                39.31350326538086,
                -3.828742265701294
              ],
              [
                39.748905181884766,
                -3.700166940689087
              ],
              [
                39.75136947631836,
                -3.893029928207397
              ],
              [
                39.53620529174805,
                -4.150180339813232
              ],
              [
                39.39663314819336,
                -4.600193977355957
              ],
              [
                39.10698318481445,
                -4.728769302368164
              ],
              [
                39.04254150390625,
                -5.307357788085938
              ],
              [
                38.899696350097656,
                -5.500220775604248
              ],
              [
                38.90068435668945,
                -5.564508438110352
              ],
              [
                38.757896423339844,
                -5.757371425628662
              ]
            ]
          ],
          [
            [
              [
                39.76653289794922,
                -4.98591947555542
              ],
              [
                39.70050048828125,
                -5.435933113098145
              ],
              [
                39.55472183227539,
                -5.435933113098145
              ],
              [
                39.54981994628906,
                -5.114494800567627
              ],
              [
                39.54886245727539,
                -5.050207138061523
              ],
              [
                39.546966552734375,
                -4.921631813049316
              ],
              [
                39.76653289794922,
                -4.98591947555542
              ]
            ]
          ],
          [
            [
              [
                57.49265670776367,
                23.879167556762695
              ],
              [
                58.811527252197266,
                23.622013092041016
              ],
              [
                59.08000183105469,
                23.30057144165039
              ],
              [
                59.0682487487793,
                23.171995162963867
              ],
              [
                59.280067443847656,
                23.043420791625977
              ],
              [
                59.2684440612793,
                22.914846420288086
              ],
              [
                59.543212890625,
                22.657697677612305
              ],
              [
                59.903873443603516,
                22.529123306274414
              ],
              [
                59.864044189453125,
                22.079116821289062
              ],
              [
                59.436954498291016,
                21.43625259399414
              ],
              [
                59.203243255615234,
                21.307680130004883
              ],
              [
                59.21412658691406,
                21.43625259399414
              ],
              [
                58.86445999145508,
                21.693397521972656
              ],
              [
                58.8753776550293,
                21.821969985961914
              ],
              [
                58.244510650634766,
                22.271976470947266
              ],
              [
                58.0213508605957,
                22.271976470947266
              ],
              [
                58.01045608520508,
                22.143402099609375
              ],
              [
                57.79275894165039,
                22.20768928527832
              ],
              [
                57.335784912109375,
                22.079116821289062
              ],
              [
                56.98528289794922,
                22.33626365661621
              ],
              [
                56.83116149902344,
                22.271976470947266
              ],
              [
                56.84720230102539,
                22.46483612060547
              ],
              [
                56.62931442260742,
                22.529123306274414
              ],
              [
                56.43838119506836,
                22.914846420288086
              ],
              [
                56.225830078125,
                23.043420791625977
              ],
              [
                56.173316955566406,
                23.30057144165039
              ],
              [
                55.88624954223633,
                23.429147720336914
              ],
              [
                55.70759963989258,
                23.943456649780273
              ],
              [
                55.558345794677734,
                23.943456649780273
              ],
              [
                55.650272369384766,
                24.136323928833008
              ],
              [
                55.398826599121094,
                24.650644302368164
              ],
              [
                55.41706466674805,
                24.843517303466797
              ],
              [
                55.124107360839844,
                24.907808303833008
              ],
              [
                55.06784439086914,
                25.100683212280273
              ],
              [
                55.311214447021484,
                25.29355812072754
              ],
              [
                55.41188049316406,
                25.55072784423828
              ],
              [
                55.9695930480957,
                25.8721923828125
              ],
              [
                56.07905960083008,
                26.19365882873535
              ],
              [
                56.32533645629883,
                26.386537551879883
              ],
              [
                56.543277740478516,
                26.32224464416504
              ],
              [
                56.39881896972656,
                25.67931365966797
              ],
              [
                56.42084503173828,
                25.164974212646484
              ],
              [
                56.495662689208984,
                25.164974212646484
              ],
              [
                56.401641845703125,
                24.97209930419922
              ],
              [
                56.54487228393555,
                24.907808303833008
              ],
              [
                56.73170471191406,
                24.522062301635742
              ],
              [
                56.72557830810547,
                24.457773208618164
              ],
              [
                57.06272888183594,
                24.07203483581543
              ],
              [
                57.49265670776367,
                23.879167556762695
              ]
            ]
          ]
        ]
      }
    }
  ]
}
