{
  "type": "FeatureCollection",
  "features": [
    {
      "type": "Feature",
      "properties": {
        "Name": "Ottoman Empire",
        "FromYear": 1395,
        "ToYear": 1401,
        "Area": 403705.80835282826,
        "Type": "POLITY",
        "Wikipedia": "Ottoman Empire",
        "Wikidata": "Q12560",
        "SeshatID": "tr_ottoman_emirate",
        "Components": "",
        "MemberOf": "",
        "displayYear": 1400,
        "sourceYear": 1400,
        "mappedTerritoryId": "ottoman_empire"
      },
      "geometry": {
        "type": "MultiPolygon",
        "coordinates": [
          [
            [
              [
                39.73749542236328,
                39.90232849121094
              ],
              [
                40.04360580444336,
                39.8376350402832
              ],
              [
                41.059410095214844,
                39.77294921875
              ],
              [
                41.02999496459961,
                39.57893371582031
              ],
              [
                40.76475524902344,
                39.38497543334961
              ],
              [
                40.74570846557617,
                39.25570297241211
              ],
              [
                38.87467575073242,
                38.80344009399414
              ],
              [
                38.84877014160156,
                38.60969924926758
              ],
              [
                36.82565689086914,
                38.738853454589844
              ],
              [
                36.480289459228516,
                38.48057174682617
              ],
              [
                36.15907287597656,
                38.416015625
              ],
              [
                36.050289154052734,
                38.157840728759766
              ],
              [
                35.722381591796875,
                38.028785705566406
              ],
              [
                35.622135162353516,
                37.835243225097656
              ],
              [
                35.54399108886719,
                37.835243225097656
              ],
              [
                35.46584701538086,
                37.835243225097656
              ],
              [
                35.47311782836914,
                37.89975357055664
              ],
              [
                35.39495086669922,
                37.89975357055664
              ],
              [
                35.345943450927734,
                38.157840728759766
              ],
              [
                35.204063415527344,
                38.28691864013672
              ],
              [
                34.890830993652344,
                38.28691864013672
              ],
              [
                34.677574157714844,
                38.48057174682617
              ],
              [
                35.05714797973633,
                39.70827102661133
              ],
              [
                34.43406677246094,
                39.77294921875
              ],
              [
                34.37062454223633,
                39.90232849121094
              ],
              [
                33.56645965576172,
                39.77294921875
              ],
              [
                33.76963806152344,
                40.16116714477539
              ],
              [
                33.94318771362305,
                40.29063034057617
              ],
              [
                34.59186935424805,
                40.42012023925781
              ],
              [
                34.87857437133789,
                40.80876541137695
              ],
              [
                36.076725006103516,
                40.873565673828125
              ],
              [
                36.15604782104492,
                40.873565673828125
              ],
              [
                36.23536682128906,
                40.873565673828125
              ],
              [
                36.244178771972656,
                40.93837356567383
              ],
              [
                36.411773681640625,
                41.00318908691406
              ],
              [
                36.47333526611328,
                40.873565673828125
              ],
              [
                36.63197708129883,
                40.873565673828125
              ],
              [
                36.878971099853516,
                40.93837356567383
              ],
              [
                37.16904830932617,
                40.74397277832031
              ],
              [
                37.8731689453125,
                40.6791877746582
              ],
              [
                38.21356201171875,
                40.29063034057617
              ],
              [
                38.84621047973633,
                40.29063034057617
              ],
              [
                38.98551940917969,
                40.16116714477539
              ],
              [
                39.67759704589844,
                40.031734466552734
              ],
              [
                39.73749542236328,
                39.90232849121094
              ]
            ]
          ],
          [
            [
              [
                29.046321868896484,
                40.355369567871094
              ],
              [
                28.900379180908203,
                40.4848747253418
              ],
              [
                28.91274642944336,
                40.614410400390625
              ],
              [
                29.480079650878906,
                40.74397277832031
              ],
              [
                29.493009567260742,
                40.873565673828125
              ],
              [
                29.24864959716797,
                40.80876541137695
              ],
              [
                29.10276222229004,
                40.93837356567383
              ],
              [
                29.042552947998047,
                41.132843017578125
              ],
              [
                29.20789337158203,
                41.19768524169922
              ],
              [
                30.47923469543457,
                41.19768524169922
              ],
              [
                30.62422752380371,
                41.06801223754883
              ],
              [
                31.1800537109375,
                41.06801223754883
              ],
              [
                31.613718032836914,
                41.39224624633789
              ],
              [
                31.693260192871094,
                41.39224624633789
              ],
              [
                31.981510162353516,
                41.132843017578125
              ],
              [
                32.30678939819336,
                41.19768524169922
              ],
              [
                32.37110900878906,
                41.06801223754883
              ],
              [
                32.601707458496094,
                41.00318908691406
              ],
              [
                32.55658721923828,
                40.614410400390625
              ],
              [
                32.635799407958984,
                40.614410400390625
              ],
              [
                32.613521575927734,
                40.42012023925781
              ],
              [
                32.764366149902344,
                40.355369567871094
              ],
              [
                32.75697326660156,
                40.29063034057617
              ],
              [
                32.67789077758789,
                40.29063034057617
              ],
              [
                32.67055130004883,
                40.225894927978516
              ],
              [
                32.74960708618164,
                40.225894927978516
              ],
              [
                32.74226760864258,
                40.16116714477539
              ],
              [
                32.77772903442383,
                39.77294921875
              ],
              [
                32.65647506713867,
                39.38497543334961
              ],
              [
                32.49903106689453,
                39.38497543334961
              ],
              [
                32.485225677490234,
                39.25570297241211
              ],
              [
                31.613252639770508,
                39.19107437133789
              ],
              [
                31.154281616210938,
                39.320335388183594
              ],
              [
                31.180400848388672,
                39.57893371582031
              ],
              [
                30.950529098510742,
                39.64360046386719
              ],
              [
                29.3012752532959,
                39.70827102661133
              ],
              [
                28.895294189453125,
                39.57893371582031
              ],
              [
                28.776309967041016,
                39.1264533996582
              ],
              [
                28.61906623840332,
                39.1264533996582
              ],
              [
                28.523780822753906,
                38.93262481689453
              ],
              [
                26.952821731567383,
                38.93262481689453
              ],
              [
                26.95786476135254,
                38.997230529785156
              ],
              [
                26.879291534423828,
                38.997230529785156
              ],
              [
                26.894468307495117,
                39.19107437133789
              ],
              [
                26.742225646972656,
                39.25570297241211
              ],
              [
                26.84657859802246,
                39.57893371582031
              ],
              [
                26.132457733154297,
                39.51427459716797
              ],
              [
                26.2723331451416,
                40.29063034057617
              ],
              [
                26.604726791381836,
                40.4848747253418
              ],
              [
                26.683887481689453,
                40.4848747253418
              ],
              [
                26.673099517822266,
                40.355369567871094
              ],
              [
                27.46982192993164,
                40.42012023925781
              ],
              [
                27.537628173828125,
                40.29063034057617
              ],
              [
                27.695789337158203,
                40.29063034057617
              ],
              [
                27.792133331298828,
                40.4848747253418
              ],
              [
                27.944623947143555,
                40.42012023925781
              ],
              [
                27.938817977905273,
                40.355369567871094
              ],
              [
                29.046321868896484,
                40.355369567871094
              ]
            ]
          ],
          [
            [
              [
                26.145538330078125,
                40.6791877746582
              ],
              [
                26.22477912902832,
                40.6791877746582
              ],
              [
                26.21947479248047,
                40.614410400390625
              ],
              [
                26.140260696411133,
                40.614410400390625
              ],
              [
                26.145538330078125,
                40.6791877746582
              ]
            ]
          ],
          [
            [
              [
                29.04557228088379,
                44.973392486572266
              ],
              [
                28.802005767822266,
                44.973392486572266
              ],
              [
                28.84072494506836,
                44.58129119873047
              ],
              [
                28.576906204223633,
                44.38538360595703
              ],
              [
                28.53555679321289,
                43.99384307861328
              ],
              [
                28.616275787353516,
                43.99384307861328
              ],
              [
                28.48109245300293,
                43.472347259521484
              ],
              [
                28.159194946289062,
                43.472347259521484
              ],
              [
                28.22636604309082,
                43.342071533203125
              ],
              [
                27.89820098876953,
                43.276947021484375
              ],
              [
                27.80489730834961,
                43.146724700927734
              ],
              [
                27.84662628173828,
                42.75628662109375
              ],
              [
                27.513538360595703,
                42.62621307373047
              ],
              [
                27.494890213012695,
                42.43117141723633
              ],
              [
                27.796031951904297,
                42.236209869384766
              ],
              [
                27.783546447753906,
                42.10627746582031
              ],
              [
                28.004253387451172,
                41.911441802978516
              ],
              [
                27.979368209838867,
                41.65177917480469
              ],
              [
                28.21833038330078,
                41.65177917480469
              ],
              [
                28.27918243408203,
                41.45711898803711
              ],
              [
                28.432037353515625,
                41.39224624633789
              ],
              [
                28.077255249023438,
                41.00318908691406
              ],
              [
                27.527481079101562,
                41.06801223754883
              ],
              [
                27.017187118530273,
                40.6791877746582
              ],
              [
                26.921367645263672,
                40.4848747253418
              ],
              [
                26.62644386291504,
                40.74397277832031
              ],
              [
                26.22477912902832,
                40.6791877746582
              ],
              [
                26.16149139404297,
                40.873565673828125
              ],
              [
                25.849451065063477,
                40.93837356567383
              ],
              [
                24.34656524658203,
                41.00318908691406
              ],
              [
                24.010608673095703,
                40.74397277832031
              ],
              [
                23.698017120361328,
                40.80876541137695
              ],
              [
                23.684629440307617,
                40.614410400390625
              ],
              [
                23.83857536315918,
                40.54964065551758
              ],
              [
                23.73737335205078,
                40.225894927978516
              ],
              [
                23.11326789855957,
                40.355369567871094
              ],
              [
                23.209346771240234,
                40.614410400390625
              ],
              [
                23.1301326751709,
                40.614410400390625
              ],
              [
                23.134389877319336,
                40.6791877746582
              ],
              [
                23.142953872680664,
                40.80876541137695
              ],
              [
                22.667186737060547,
                40.80876541137695
              ],
              [
                22.421222686767578,
                40.6791877746582
              ],
              [
                22.413206100463867,
                40.54964065551758
              ],
              [
                22.567543029785156,
                40.4848747253418
              ],
              [
                22.563520431518555,
                40.42012023925781
              ],
              [
                22.543659210205078,
                40.0964469909668
              ],
              [
                22.701663970947266,
                40.0964469909668
              ],
              [
                22.610868453979492,
                39.90232849121094
              ],
              [
                23.135168075561523,
                39.449623107910156
              ],
              [
                22.816326141357422,
                39.38497543334961
              ],
              [
                22.797286987304688,
                39.06184005737305
              ],
              [
                22.95830535888672,
                39.1264533996582
              ],
              [
                23.02161979675293,
                38.8680305480957
              ],
              [
                22.943096160888672,
                38.8680305480957
              ],
              [
                22.3934326171875,
                38.8680305480957
              ],
              [
                22.525287628173828,
                38.416015625
              ],
              [
                22.446931838989258,
                38.416015625
              ],
              [
                22.368576049804688,
                38.416015625
              ],
              [
                22.29022216796875,
                38.416015625
              ],
              [
                22.28675079345703,
                38.351463317871094
              ],
              [
                22.208419799804688,
                38.351463317871094
              ],
              [
                22.21186637878418,
                38.416015625
              ],
              [
                22.13351058959961,
                38.416015625
              ],
              [
                22.055156707763672,
                38.416015625
              ],
              [
                21.990440368652344,
                38.67427444458008
              ],
              [
                22.068891525268555,
                38.67427444458008
              ],
              [
                22.16851043701172,
                39.06184005737305
              ],
              [
                21.721254348754883,
                39.51427459716797
              ],
              [
                21.214691162109375,
                40.355369567871094
              ],
              [
                20.998435974121094,
                40.74397277832031
              ],
              [
                20.59868621826172,
                40.6791877746582
              ],
              [
                20.60896110534668,
                40.873565673828125
              ],
              [
                20.529638290405273,
                40.873565673828125
              ],
              [
                20.467424392700195,
                41.19768524169922
              ],
              [
                20.546884536743164,
                41.19768524169922
              ],
              [
                20.5573787689209,
                41.39224624633789
              ],
              [
                20.4813289642334,
                41.45711898803711
              ],
              [
                20.578678131103516,
                41.781593322753906
              ],
              [
                20.83629035949707,
                42.10627746582031
              ],
              [
                21.235557556152344,
                42.10627746582031
              ],
              [
                21.323223114013672,
                42.236209869384766
              ],
              [
                22.370676040649414,
                42.36617660522461
              ],
              [
                22.539382934570312,
                42.496177673339844
              ],
              [
                22.481321334838867,
                42.82133865356445
              ],
              [
                22.56149673461914,
                42.82133865356445
              ],
              [
                22.579370498657227,
                43.08163070678711
              ],
              [
                22.909780502319336,
                43.211830139160156
              ],
              [
                23.30677604675293,
                43.146724700927734
              ],
              [
                23.452987670898438,
                42.95146560668945
              ],
              [
                24.260427474975586,
                43.016544342041016
              ],
              [
                24.7954044342041,
                43.6678352355957
              ],
              [
                25.434297561645508,
                43.6026611328125
              ],
              [
                25.84855079650879,
                43.73301696777344
              ],
              [
                26.281423568725586,
                44.05907440185547
              ],
              [
                27.492671966552734,
                44.05907440185547
              ],
              [
                27.828874588012695,
                44.18956756591797
              ],
              [
                27.943035125732422,
                44.5159797668457
              ],
              [
                27.787734985351562,
                44.58129119873047
              ],
              [
                27.801036834716797,
                44.71194839477539
              ],
              [
                27.969886779785156,
                44.77729415893555
              ],
              [
                27.99687957763672,
                45.03877639770508
              ],
              [
                27.847858428955078,
                45.169586181640625
              ],
              [
                27.861310958862305,
                45.300437927246094
              ],
              [
                28.037626266479492,
                45.431331634521484
              ],
              [
                28.281864166259766,
                45.431331634521484
              ],
              [
                28.34939956665039,
                45.300437927246094
              ],
              [
                28.667741775512695,
                45.23500442504883
              ],
              [
                29.095985412597656,
                45.431331634521484
              ],
              [
                29.58445930480957,
                45.431331634521484
              ],
              [
                29.57703399658203,
                45.36587905883789
              ],
              [
                29.658414840698242,
                45.36587905883789
              ],
              [
                29.525348663330078,
                44.908016204833984
              ],
              [
                29.112377166748047,
                44.842647552490234
              ],
              [
                29.10519790649414,
                44.77729415893555
              ],
              [
                29.024105072021484,
                44.77729415893555
              ],
              [
                29.04557228088379,
                44.973392486572266
              ]
            ]
          ]
        ]
      }
    }
  ]
}
