{
  "type": "FeatureCollection",
  "features": [
    {
      "type": "Feature",
      "properties": {
        "Name": "United Principalities of Moldavia and Wallachia",
        "FromYear": 1916,
        "ToYear": 1916,
        "Area": 155631.27607241215,
        "Type": "POLITY",
        "Wikipedia": "United Principalities of Moldavia and Wallachia",
        "Wikidata": "Q958291",
        "SeshatID": "",
        "Components": "",
        "MemberOf": "",
        "displayYear": 1916,
        "sourceYear": 1916,
        "mappedTerritoryId": "cliopatria_united_principalities_of_moldavia_and_wallachia"
      },
      "geometry": {
        "type": "Polygon",
        "coordinates": [
          [
            [
              29.58445930480957,
              45.431331634521484
            ],
            [
              29.095985412597656,
              45.431331634521484
            ],
            [
              28.505107879638672,
              45.23500442504883
            ],
            [
              28.125896453857422,
              45.496795654296875
            ],
            [
              28.120285034179688,
              46.21768569946289
            ],
            [
              28.24434471130371,
              46.61152267456055
            ],
            [
              28.094419479370117,
              46.74290466308594
            ],
            [
              28.108566284179688,
              46.87434005737305
            ],
            [
              27.876171112060547,
              47.005828857421875
            ],
            [
              27.890256881713867,
              47.13737487792969
            ],
            [
              27.431140899658203,
              47.46647262573242
            ],
            [
              27.23225212097168,
              47.92780685424805
            ],
            [
              26.853185653686523,
              48.257774353027344
            ],
            [
              26.438854217529297,
              48.257774353027344
            ],
            [
              26.08112907409668,
              47.993770599365234
            ],
            [
              26.068124771118164,
              47.86185836791992
            ],
            [
              26.30950927734375,
              47.79592514038086
            ],
            [
              26.378965377807617,
              47.664100646972656
            ],
            [
              25.959848403930664,
              47.598209381103516
            ],
            [
              25.769779205322266,
              47.33478927612305
            ],
            [
              25.45248794555664,
              47.46647262573242
            ],
            [
              25.022497177124023,
              47.26897048950195
            ],
            [
              25.222003936767578,
              46.74290466308594
            ],
            [
              24.958518981933594,
              46.54585266113281
            ],
            [
              24.947065353393555,
              46.414546966552734
            ],
            [
              24.783260345458984,
              46.414546966552734
            ],
            [
              24.766368865966797,
              46.21768569946289
            ],
            [
              23.84561538696289,
              45.95537567138672
            ],
            [
              23.585298538208008,
              45.75876998901367
            ],
            [
              23.47352409362793,
              45.36587905883789
            ],
            [
              23.138248443603516,
              45.23500442504883
            ],
            [
              22.650352478027344,
              45.23500442504883
            ],
            [
              22.531999588012695,
              44.71194839477539
            ],
            [
              22.68478775024414,
              44.58129119873047
            ],
            [
              22.518192291259766,
              44.5159797668457
            ],
            [
              22.50443458557129,
              44.32010269165039
            ],
            [
              22.65691566467285,
              44.18956756591797
            ],
            [
              22.894636154174805,
              44.12431716918945
            ],
            [
              22.951791763305664,
              43.79821014404297
            ],
            [
              23.601760864257812,
              43.86341094970703
            ],
            [
              24.15087890625,
              43.6678352355957
            ],
            [
              24.881397247314453,
              43.73301696777344
            ],
            [
              25.434297561645508,
              43.6026611328125
            ],
            [
              25.84855079650879,
              43.73301696777344
            ],
            [
              26.113985061645508,
              43.99384307861328
            ],
            [
              26.356142044067383,
              43.99384307861328
            ],
            [
              26.89630126953125,
              43.73301696777344
            ],
            [
              27.299280166625977,
              43.73301696777344
            ],
            [
              27.647647857666016,
              43.99384307861328
            ],
            [
              27.88980484008789,
              43.99384307861328
            ],
            [
              28.508222579956055,
              43.73301696777344
            ],
            [
              28.515037536621094,
              43.79821014404297
            ],
            [
              28.616275787353516,
              43.99384307861328
            ],
            [
              28.53555679321289,
              43.99384307861328
            ],
            [
              28.576906204223633,
              44.38538360595703
            ],
            [
              28.84072494506836,
              44.58129119873047
            ],
            [
              28.802005767822266,
              44.973392486572266
            ],
            [
              29.04557228088379,
              44.973392486572266
            ],
            [
              29.024105072021484,
              44.77729415893555
            ],
            [
              29.525348663330078,
              44.908016204833984
            ],
            [
              29.658414840698242,
              45.36587905883789
            ],
            [
              29.57703399658203,
              45.36587905883789
            ],
            [
              29.58445930480957,
              45.431331634521484
            ]
          ]
        ]
      }
    }
  ]
}
