{
  "type": "FeatureCollection",
  "features": [
    {
      "type": "Feature",
      "properties": {
        "Name": "People's Republic of Angola",
        "FromYear": 1976,
        "ToYear": 2023,
        "Area": 1257376.1786578808,
        "Type": "POLITY",
        "Wikipedia": "Angola",
        "Wikidata": "Q916",
        "SeshatID": "",
        "Components": "",
        "MemberOf": "",
        "displayYear": 1997,
        "sourceYear": 1997,
        "mappedTerritoryId": "cliopatria_people_s_republic_of_angola"
      },
      "geometry": {
        "type": "MultiPolygon",
        "coordinates": [
          [
            [
              [
                15.86742877960205,
                -5.885946750640869
              ],
              [
                16.377771377563477,
                -5.885946750640869
              ],
              [
                16.59736442565918,
                -6.078809261322021
              ],
              [
                16.672962188720703,
                -6.657398223876953
              ],
              [
                16.893329620361328,
                -6.978836059570312
              ],
              [
                16.894908905029297,
                -7.30027437210083
              ],
              [
                17.26311683654785,
                -7.943150520324707
              ],
              [
                17.55617332458496,
                -8.13601303100586
              ],
              [
                17.92119789123535,
                -8.13601303100586
              ],
              [
                18.35804557800293,
                -7.943150520324707
              ],
              [
                19.161849975585938,
                -8.071725845336914
              ],
              [
                19.306983947753906,
                -7.943150520324707
              ],
              [
                19.304420471191406,
                -7.557425022125244
              ],
              [
                19.449522018432617,
                -7.428849697113037
              ],
              [
                19.519962310791016,
                -7.043123722076416
              ],
              [
                20.103588104248047,
                -7.043123722076416
              ],
              [
                20.39450454711914,
                -6.914548873901367
              ],
              [
                20.543149948120117,
                -7.30027437210083
              ],
              [
                21.63762092590332,
                -7.30027437210083
              ],
              [
                21.784584045410156,
                -7.428849697113037
              ],
              [
                21.71799659729004,
                -8.200301170349121
              ],
              [
                21.865686416625977,
                -8.393163681030273
              ],
              [
                21.730112075805664,
                -9.550339698791504
              ],
              [
                22.25020408630371,
                -10.386076927185059
              ],
              [
                22.112228393554688,
                -11.157526969909668
              ],
              [
                22.33251190185547,
                -11.22181510925293
              ],
              [
                22.404237747192383,
                -11.093239784240723
              ],
              [
                23.2092227935791,
                -11.093239784240723
              ],
              [
                23.866222381591797,
                -10.964664459228516
              ],
              [
                24.01503562927246,
                -11.157526969909668
              ],
              [
                24.018394470214844,
                -11.414677619934082
              ],
              [
                23.876253128051758,
                -11.736114501953125
              ],
              [
                23.959379196166992,
                -12.443277359008789
              ],
              [
                23.81560707092285,
                -12.636139869689941
              ],
              [
                23.820371627807617,
                -12.9575777053833
              ],
              [
                21.914846420288086,
                -13.021865844726562
              ],
              [
                21.966196060180664,
                -16.364831924438477
              ],
              [
                22.119281768798828,
                -16.68627166748047
              ],
              [
                23.244083404541016,
                -17.650590896606445
              ],
              [
                21.553504943847656,
                -18.03631591796875
              ],
              [
                20.519636154174805,
                -18.03631591796875
              ],
              [
                20.22223663330078,
                -17.90774154663086
              ],
              [
                18.892393112182617,
                -17.84345245361328
              ],
              [
                18.595428466796875,
                -17.71487808227539
              ],
              [
                18.296184539794922,
                -17.3934383392334
              ],
              [
                13.944053649902344,
                -17.457727432250977
              ],
              [
                13.426403045654297,
                -17.20057487487793
              ],
              [
                13.278044700622559,
                -17.00771141052246
              ],
              [
                12.835689544677734,
                -17.00771141052246
              ],
              [
                12.467879295349121,
                -17.264863967895508
              ],
              [
                11.582809448242188,
                -17.264863967895508
              ],
              [
                11.582695960998535,
                -17.20057487487793
              ],
              [
                11.653518676757812,
                -15.721952438354492
              ],
              [
                11.873973846435547,
                -15.593376159667969
              ],
              [
                11.873255729675293,
                -15.271936416625977
              ],
              [
                12.165647506713867,
                -14.564769744873047
              ],
              [
                12.164626121520996,
                -14.114755630493164
              ],
              [
                12.383813858032227,
                -13.664741516113281
              ],
              [
                12.383223533630371,
                -13.407590866088867
              ],
              [
                12.822331428527832,
                -13.021865844726562
              ],
              [
                12.894619941711426,
                -12.636139869689941
              ],
              [
                13.333992004394531,
                -12.50756549835205
              ],
              [
                13.697819709777832,
                -11.736114501953125
              ],
              [
                13.695167541503906,
                -10.90037727355957
              ],
              [
                13.47437572479248,
                -10.45036506652832
              ],
              [
                13.254453659057617,
                -10.257502555847168
              ],
              [
                13.253776550292969,
                -10.000351905822754
              ],
              [
                13.033821105957031,
                -9.743202209472656
              ],
              [
                13.032878875732422,
                -9.357477188110352
              ],
              [
                12.88643741607666,
                -9.228901863098145
              ],
              [
                12.885685920715332,
                -8.907464027404785
              ],
              [
                13.250408172607422,
                -8.714601516723633
              ],
              [
                13.249395370483398,
                -8.328875541687012
              ],
              [
                12.882939338684082,
                -7.750287532806396
              ],
              [
                12.735306739807129,
                -7.043123722076416
              ],
              [
                12.223407745361328,
                -6.464535236358643
              ],
              [
                12.222415924072266,
                -6.014522075653076
              ],
              [
                12.80553913116455,
                -5.950234413146973
              ],
              [
                12.805374145507812,
                -5.885946750640869
              ],
              [
                15.794523239135742,
                -5.885946750640869
              ],
              [
                15.86742877960205,
                -5.885946750640869
              ]
            ]
          ],
          [
            [
              [
                12.07516098022461,
                -5.371645450592041
              ],
              [
                11.92880630493164,
                -5.114494800567627
              ],
              [
                11.928659439086914,
                -5.050207138061523
              ],
              [
                12.6556978225708,
                -4.407330989837646
              ],
              [
                12.947854042053223,
                -4.664481639862061
              ],
              [
                12.438632011413574,
                -4.98591947555542
              ],
              [
                12.440226554870605,
                -5.628796100616455
              ],
              [
                12.076172828674316,
                -5.821659088134766
              ],
              [
                12.076030731201172,
                -5.757371425628662
              ],
              [
                12.003129005432129,
                -5.757371425628662
              ],
              [
                12.002988815307617,
                -5.693083763122559
              ],
              [
                12.002846717834473,
                -5.628796100616455
              ],
              [
                12.07516098022461,
                -5.371645450592041
              ]
            ]
          ]
        ]
      }
    }
  ]
}
