{"type": "FeatureCollection", "features": [{"type": "Feature", "properties": {"name": "Indo-Scythians", "displayYear": -1, "fromYear": -27, "toYear": 0, "wikipedia": "Indo-Scythians", "seshatId": "", "areaKm2": 1320277.890356181, "source": "Seshat Cliopatria"}, "geometry": {"type": "Polygon", "coordinates": [[[71.47920227050781, 34.164703369140625], [70.9558334350586, 34.22901916503906], [70.77163696289062, 34.10039138793945], [70.81841278076172, 33.971771240234375], [70.57282257080078, 33.90746307373047], [69.98755645751953, 34.03607940673828], [69.73943328857422, 34.2933349609375], [66.81427001953125, 34.2933349609375], [66.68873596191406, 34.42197799682617], [66.0379867553711, 34.614952087402344], [66.06645965576172, 34.743614196777344], [65.92647552490234, 34.80794906616211], [65.61793518066406, 34.80794906616211], [65.41487121582031, 34.93662643432617], [65.09204864501953, 34.87228775024414], [64.57353210449219, 34.614952087402344], [64.3238754272461, 34.164703369140625], [63.872615814208984, 33.84315490722656], [63.426448822021484, 32.36451721191406], [63.185020446777344, 32.30024337768555], [63.16080093383789, 32.171695709228516], [62.81953811645508, 31.978878021240234], [62.42121505737305, 31.464719772338867], [61.941524505615234, 31.336183547973633], [61.87461853027344, 30.950578689575195], [60.93583679199219, 29.857990264892578], [62.3036994934082, 29.40805435180664], [64.11966705322266, 29.40805435180664], [64.52979278564453, 29.600887298583984], [65.12470245361328, 29.536611557006836], [65.76306915283203, 29.729440689086914], [66.8879623413086, 29.665164947509766], [66.99494171142578, 29.40805435180664], [67.13524627685547, 29.34377670288086], [66.93125915527344, 28.572391510009766], [67.0067367553711, 28.572391510009766], [66.9654541015625, 28.315250396728516], [67.04087829589844, 28.315250396728516], [67.04571533203125, 27.865236282348633], [67.12104034423828, 27.865236282348633], [67.06233215332031, 27.4794979095459], [67.17454528808594, 27.222335815429688], [67.19660949707031, 26.32224464416504], [67.50210571289062, 25.807899475097656], [67.1120834350586, 25.100683212280273], [66.63977813720703, 24.907808303833008], [66.63204956054688, 24.843517303466797], [67.14765930175781, 24.779226303100586], [67.32612609863281, 24.393482208251953], [67.28907775878906, 24.07203483581543], [67.43836975097656, 24.07203483581543], [67.49114990234375, 23.879167556762695], [67.63314819335938, 23.814878463745117], [68.15538787841797, 23.814878463745117], [68.12652587890625, 23.557723999023438], [68.35022735595703, 23.557723999023438], [68.3359375, 23.429147720336914], [68.55245971679688, 23.36486053466797], [68.80825805664062, 22.97913360595703], [69.45060729980469, 22.72198486328125], [70.36528778076172, 22.914846420288086], [70.26250457763672, 22.657697677612305], [69.86946868896484, 22.46483612060547], [69.49740600585938, 22.46483612060547], [69.40931701660156, 22.33626365661621], [68.97650909423828, 22.46483612060547], [68.94945526123047, 22.20768928527832], [69.34872436523438, 21.7576847076416], [69.49736022949219, 21.7576847076416], [69.90315246582031, 21.371967315673828], [69.88987731933594, 21.24339485168457], [70.29546356201172, 20.857677459716797], [70.72064208984375, 20.664819717407227], [71.09152221679688, 20.664819717407227], [72.10365295410156, 21.114822387695312], [72.27970123291016, 21.371967315673828], [72.3214340209961, 21.7576847076416], [72.17279815673828, 21.7576847076416], [72.11245727539062, 21.88625717163086], [72.34249877929688, 21.950544357299805], [72.37797546386719, 22.271976470947266], [72.52674865722656, 22.271976470947266], [72.4911880493164, 21.950544357299805], [72.5655288696289, 21.950544357299805], [72.54438781738281, 21.7576847076416], [72.68598937988281, 21.693397521972656], [72.76029968261719, 21.693397521972656], [73.21324920654297, 21.7576847076416], [73.55363464355469, 22.143402099609375], [74.0291976928711, 22.400548934936523], [74.59017181396484, 23.36486053466797], [76.02253723144531, 24.07203483581543], [76.7115249633789, 24.200613021850586], [77.29630279541016, 24.650644302368164], [77.84703063964844, 24.843517303466797], [78.22086334228516, 24.843517303466797], [78.31441497802734, 24.97209930419922], [78.32389068603516, 25.03639030456543], [78.33210754394531, 26.515121459960938], [78.25704956054688, 26.515121459960938], [78.26969146728516, 27.029460906982422], [78.14181518554688, 27.158044815063477], [78.12367248535156, 27.4794979095459], [77.84578704833984, 27.608078002929688], [77.73025512695312, 27.800947189331055], [77.44073486328125, 27.865236282348633], [77.3890151977539, 27.993812561035156], [76.79796600341797, 28.058101654052734], [76.74629974365234, 28.186676025390625], [76.31769561767578, 28.315250396728516], [76.2662353515625, 28.44382095336914], [75.69866180419922, 28.636676788330078], [75.6596450805664, 28.829526901245117], [75.09201049804688, 29.022375106811523], [75.05352783203125, 29.21521759033203], [74.76345825195312, 29.279497146606445], [74.46049499511719, 29.665164947509766], [74.30904388427734, 29.665164947509766], [74.37308502197266, 29.986536026000977], [74.1087875366211, 30.179353713989258], [74.13499450683594, 30.307893753051758], [73.82168579101562, 30.629240036010742], [73.8350601196289, 30.69350814819336], [73.16456604003906, 30.757776260375977], [72.74849700927734, 30.950578689575195], [72.41378784179688, 31.528987884521484], [72.57339477539062, 31.91460609436035], [73.58538818359375, 33.00732421875], [73.60047912597656, 33.07160949707031], [73.52386474609375, 33.07160949707031], [73.52361297607422, 33.71455001831055], [73.35548400878906, 33.971771240234375], [73.38923645019531, 34.42197799682617], [72.85011291503906, 34.42197799682617], [72.58761596679688, 34.2933349609375], [71.55614471435547, 34.164703369140625], [71.47920227050781, 34.164703369140625]], [[71.33426666259766, 20.857677459716797], [71.32752227783203, 20.793392181396484], [71.25333404541016, 20.793392181396484], [71.26007080078125, 20.857677459716797], [71.33426666259766, 20.857677459716797]], [[72.5562515258789, 33.52165222167969], [72.57144165039062, 33.5859489440918], [72.64820861816406, 33.5859489440918], [72.63299560546875, 33.52165222167969], [72.5562515258789, 33.52165222167969]]]}}]}