{
  "type": "FeatureCollection",
  "features": [
    {
      "type": "Feature",
      "properties": {
        "Name": "Serbian Empire",
        "FromYear": 1363,
        "ToYear": 1374,
        "Area": 184871.09352326396,
        "Type": "POLITY",
        "Wikipedia": "Serbian Empire",
        "Wikidata": "Q1406298",
        "SeshatID": "rs_serbia_k",
        "Components": "",
        "MemberOf": "",
        "displayYear": 1368,
        "sourceYear": 1368,
        "mappedTerritoryId": "cliopatria_serbian_empire"
      },
      "geometry": {
        "type": "MultiPolygon",
        "coordinates": [
          [
            [
              [
                20.148855209350586,
                39.57893371582031
              ],
              [
                20.070056915283203,
                39.57893371582031
              ],
              [
                20.073074340820312,
                39.64360046386719
              ],
              [
                20.151897430419922,
                39.64360046386719
              ],
              [
                20.148855209350586,
                39.57893371582031
              ]
            ]
          ],
          [
            [
              [
                21.951416015625,
                44.5159797668457
              ],
              [
                22.360790252685547,
                44.58129119873047
              ],
              [
                22.23502540588379,
                43.92862319946289
              ],
              [
                22.15433692932129,
                43.92862319946289
              ],
              [
                22.123620986938477,
                43.472347259521484
              ],
              [
                22.199708938598633,
                43.407203674316406
              ],
              [
                21.949810028076172,
                43.276947021484375
              ],
              [
                21.932777404785156,
                43.016544342041016
              ],
              [
                22.16062355041504,
                42.82133865356445
              ],
              [
                22.299301147460938,
                42.496177673339844
              ],
              [
                22.463727951049805,
                42.56119155883789
              ],
              [
                22.450645446777344,
                42.36617660522461
              ],
              [
                22.370676040649414,
                42.36617660522461
              ],
              [
                22.437664031982422,
                42.17123794555664
              ],
              [
                22.82819366455078,
                42.041324615478516
              ],
              [
                22.890289306640625,
                41.781593322753906
              ],
              [
                23.26180648803711,
                41.39224624633789
              ],
              [
                23.654922485351562,
                41.32738494873047
              ],
              [
                24.34656524658203,
                41.00318908691406
              ],
              [
                24.34181785583496,
                40.93837356567383
              ],
              [
                24.010608673095703,
                40.74397277832031
              ],
              [
                23.698017120361328,
                40.80876541137695
              ],
              [
                23.684629440307617,
                40.614410400390625
              ],
              [
                23.83857536315918,
                40.54964065551758
              ],
              [
                23.73737335205078,
                40.225894927978516
              ],
              [
                23.11326789855957,
                40.355369567871094
              ],
              [
                23.11745834350586,
                40.42012023925781
              ],
              [
                23.196592330932617,
                40.42012023925781
              ],
              [
                23.209346771240234,
                40.614410400390625
              ],
              [
                23.1301326751709,
                40.614410400390625
              ],
              [
                23.142953872680664,
                40.80876541137695
              ],
              [
                22.5045223236084,
                40.74397277832031
              ],
              [
                22.413206100463867,
                40.54964065551758
              ],
              [
                22.567543029785156,
                40.4848747253418
              ],
              [
                22.563520431518555,
                40.42012023925781
              ],
              [
                22.543659210205078,
                40.0964469909668
              ],
              [
                22.701663970947266,
                40.0964469909668
              ],
              [
                22.610868453979492,
                39.90232849121094
              ],
              [
                23.135168075561523,
                39.449623107910156
              ],
              [
                22.816326141357422,
                39.38497543334961
              ],
              [
                22.797286987304688,
                39.06184005737305
              ],
              [
                22.95830535888672,
                39.1264533996582
              ],
              [
                23.02161979675293,
                38.8680305480957
              ],
              [
                22.943096160888672,
                38.8680305480957
              ],
              [
                22.161396026611328,
                38.93262481689453
              ],
              [
                21.990440368652344,
                38.67427444458008
              ],
              [
                21.59157943725586,
                38.54513168334961
              ],
              [
                21.506669998168945,
                38.416015625
              ],
              [
                21.428316116333008,
                38.416015625
              ],
              [
                21.19325065612793,
                38.416015625
              ],
              [
                21.12431526184082,
                38.60969924926758
              ],
              [
                20.895233154296875,
                38.738853454589844
              ],
              [
                20.907787322998047,
                38.997230529785156
              ],
              [
                21.14027214050293,
                38.93262481689453
              ],
              [
                21.14674949645996,
                39.06184005737305
              ],
              [
                20.832361221313477,
                39.06184005737305
              ],
              [
                20.605867385864258,
                39.25570297241211
              ],
              [
                20.448524475097656,
                39.25570297241211
              ],
              [
                20.2307186126709,
                39.64360046386719
              ],
              [
                19.918411254882812,
                39.70827102661133
              ],
              [
                20.009418487548828,
                39.9670295715332
              ],
              [
                19.62952995300293,
                40.29063034057617
              ],
              [
                19.55044937133789,
                40.29063034057617
              ],
              [
                19.64165687561035,
                40.54964065551758
              ],
              [
                19.48629379272461,
                40.614410400390625
              ],
              [
                19.489315032958984,
                40.6791877746582
              ],
              [
                19.336807250976562,
                40.80876541137695
              ],
              [
                19.498455047607422,
                40.873565673828125
              ],
              [
                19.431371688842773,
                41.132843017578125
              ],
              [
                19.6760196685791,
                41.26253128051758
              ],
              [
                19.682415008544922,
                41.39224624633789
              ],
              [
                19.450061798095703,
                41.521995544433594
              ],
              [
                19.54244041442871,
                41.781593322753906
              ],
              [
                18.85202980041504,
                42.36617660522461
              ],
              [
                18.69209098815918,
                42.36617660522461
              ],
              [
                18.226377487182617,
                42.691246032714844
              ],
              [
                18.23491859436035,
                42.88639831542969
              ],
              [
                18.237777709960938,
                42.95146560668945
              ],
              [
                18.246389389038086,
                43.146724700927734
              ],
              [
                18.672420501708984,
                43.6678352355957
              ],
              [
                18.83355140686035,
                43.6678352355957
              ],
              [
                19.00428581237793,
                43.86341094970703
              ],
              [
                19.162334442138672,
                43.79821014404297
              ],
              [
                19.491626739501953,
                43.92862319946289
              ],
              [
                19.498432159423828,
                44.05907440185547
              ],
              [
                19.107723236083984,
                44.32010269165039
              ],
              [
                19.296220779418945,
                44.842647552490234
              ],
              [
                19.624204635620117,
                44.908016204833984
              ],
              [
                19.856950759887695,
                44.71194839477539
              ],
              [
                20.350849151611328,
                44.842647552490234
              ],
              [
                20.829694747924805,
                44.71194839477539
              ],
              [
                21.080976486206055,
                44.842647552490234
              ],
              [
                21.40547752380371,
                44.842647552490234
              ],
              [
                21.79811668395996,
                44.64661407470703
              ],
              [
                21.879146575927734,
                44.64661407470703
              ],
              [
                21.951416015625,
                44.5159797668457
              ]
            ]
          ],
          [
            [
              [
                22.360790252685547,
                44.58129119873047
              ],
              [
                22.36532974243164,
                44.64661407470703
              ],
              [
                22.446361541748047,
                44.64661407470703
              ],
              [
                22.441789627075195,
                44.58129119873047
              ],
              [
                22.360790252685547,
                44.58129119873047
              ]
            ]
          ]
        ]
      }
    }
  ]
}
