{
  "type": "FeatureCollection",
  "features": [
    {
      "type": "Feature",
      "properties": {
        "Name": "Golconda Sultanate",
        "FromYear": 1612,
        "ToYear": 1639,
        "Area": 169354.3512926812,
        "Type": "POLITY",
        "Wikipedia": "Qutb Shahi dynasty",
        "Wikidata": "Q1148042",
        "SeshatID": "",
        "Components": "",
        "MemberOf": "",
        "displayYear": 1620,
        "sourceYear": 1620,
        "mappedTerritoryId": "cliopatria_golconda_sultanate"
      },
      "geometry": {
        "type": "Polygon",
        "coordinates": [
          [
            [
              80.59111785888672,
              18.864791870117188
            ],
            [
              81.73970794677734,
              19.186227798461914
            ],
            [
              82.40560913085938,
              19.186227798461914
            ],
            [
              83.27739715576172,
              19.057653427124023
            ],
            [
              83.91075134277344,
              18.800504684448242
            ],
            [
              83.98468780517578,
              18.800504684448242
            ],
            [
              84.38772583007812,
              18.479066848754883
            ],
            [
              84.37962341308594,
              18.414779663085938
            ],
            [
              84.0519027709961,
              18.157629013061523
            ],
            [
              83.66666412353516,
              18.029054641723633
            ],
            [
              83.5611572265625,
              17.77190399169922
            ],
            [
              83.15304565429688,
              17.450464248657227
            ],
            [
              82.4507827758789,
              17.129026412963867
            ],
            [
              82.34681701660156,
              16.87187385559082
            ],
            [
              82.42052459716797,
              16.87187385559082
            ],
            [
              82.3832015991211,
              16.550434112548828
            ],
            [
              82.22111511230469,
              16.421857833862305
            ],
            [
              81.32273864746094,
              16.293283462524414
            ],
            [
              81.11875915527344,
              15.77897834777832
            ],
            [
              80.89799499511719,
              15.77897834777832
            ],
            [
              80.94022369384766,
              16.16470718383789
            ],
            [
              80.80007934570312,
              16.228994369506836
            ],
            [
              80.75514221191406,
              16.486146926879883
            ],
            [
              80.34205627441406,
              16.743297576904297
            ],
            [
              79.8998794555664,
              16.743297576904297
            ],
            [
              79.42914581298828,
              16.486146926879883
            ],
            [
              79.20814514160156,
              16.486146926879883
            ],
            [
              79.22234344482422,
              16.614723205566406
            ],
            [
              78.69951629638672,
              16.550434112548828
            ],
            [
              78.47148132324219,
              16.486146926879883
            ],
            [
              78.37003326416016,
              16.228994369506836
            ],
            [
              78.29639434814453,
              16.228994369506836
            ],
            [
              78.08927154541016,
              16.35757064819336
            ],
            [
              77.8614273071289,
              16.293283462524414
            ],
            [
              77.80156707763672,
              16.421857833862305
            ],
            [
              77.90308380126953,
              16.67901039123535
            ],
            [
              77.78385162353516,
              16.9361629486084
            ],
            [
              77.81947326660156,
              17.257600784301758
            ],
            [
              78.02496337890625,
              17.77190399169922
            ],
            [
              78.03960418701172,
              18.543354034423828
            ],
            [
              78.11351013183594,
              18.543354034423828
            ],
            [
              78.14332580566406,
              18.800504684448242
            ],
            [
              77.97372436523438,
              19.25051498413086
            ],
            [
              78.4327621459961,
              19.379087448120117
            ],
            [
              79.24691009521484,
              19.379087448120117
            ],
            [
              79.30567932128906,
              19.25051498413086
            ],
            [
              79.80831146240234,
              19.12194061279297
            ],
            [
              79.99952697753906,
              18.864791870117188
            ],
            [
              80.36156463623047,
              18.800504684448242
            ],
            [
              80.43550872802734,
              18.800504684448242
            ],
            [
              80.50944519042969,
              18.800504684448242
            ],
            [
              80.58338928222656,
              18.800504684448242
            ],
            [
              80.59111785888672,
              18.864791870117188
            ]
          ]
        ]
      }
    }
  ]
}
