{"type": "FeatureCollection", "features": [{"type": "Feature", "properties": {"name": "Kazakh Khanate", "displayYear": 1530, "fromYear": 1529, "toYear": 1555, "wikipedia": "Kazakh Khanate", "seshatId": "kz_kazakh_khanate_1", "areaKm2": 2373883.9664334664, "source": "Seshat Cliopatria"}, "geometry": {"type": "MultiPolygon", "coordinates": [[[[53.16569900512695, 45.95537567138672], [53.08402633666992, 45.95537567138672], [53.100955963134766, 46.02093505859375], [53.18265914916992, 46.02093505859375], [53.16569900512695, 45.95537567138672]]], [[[56.638450622558594, 51.98215103149414], [57.44123840332031, 51.84812545776367], [57.56341552734375, 51.71418380737305], [57.84210968017578, 51.78114318847656], [57.96393966674805, 51.64724349975586], [58.38823699951172, 51.64724349975586], [58.35177993774414, 51.78114318847656], [58.921852111816406, 51.71418380737305], [59.93108367919922, 51.91512680053711], [59.896602630615234, 52.0491943359375], [60.1179084777832, 52.18334197998047], [60.796592712402344, 53.25962829589844], [61.13654327392578, 53.462066650390625], [61.10559844970703, 53.597137451171875], [61.82125473022461, 53.86756134033203], [61.79161071777344, 54.00291442871094], [61.878047943115234, 54.00291442871094], [61.9644889831543, 54.00291442871094], [63.23320388793945, 54.138362884521484], [63.20387649536133, 54.07062530517578], [63.86614990234375, 54.00291442871094], [63.83662033081055, 53.93522644042969], [64.0093994140625, 53.93522644042969], [63.979862213134766, 53.86756134033203], [64.15254974365234, 53.86756134033203], [64.12300872802734, 53.799922943115234], [64.29560089111328, 53.799922943115234], [64.40899658203125, 53.664710998535156], [65.29736328125, 53.52959060668945], [65.26757049560547, 53.462066650390625], [66.27006530761719, 53.39456558227539], [66.38166809082031, 53.25962829589844], [67.92168426513672, 53.057395935058594], [67.89102935791016, 52.99003219604492], [69.31729888916016, 52.92268753051758], [73.42745971679688, 53.25962829589844], [74.08053588867188, 53.52959060668945], [74.3388671875, 53.52959060668945], [75.52112579345703, 54.138362884521484], [76.86874389648438, 54.545284271240234], [77.51434326171875, 54.613189697265625], [77.47651672363281, 54.545284271240234], [77.65016174316406, 54.545284271240234], [77.66136169433594, 54.4095458984375], [76.9448013305664, 53.732303619384766], [76.57110595703125, 53.192195892333984], [76.9089584350586, 52.85536575317383], [76.83877563476562, 52.720787048339844], [77.14268493652344, 52.31757736206055], [77.31327819824219, 52.31757736206055], [77.3801498413086, 52.11625671386719], [77.7369613647461, 51.98215103149414], [77.8042221069336, 51.78114318847656], [78.16050720214844, 51.64724349975586], [78.41471862792969, 51.31283950805664], [78.75331115722656, 51.31283950805664], [78.719482421875, 51.24601745605469], [79.32836151123047, 51.112430572509766], [79.42976379394531, 50.97892379760742], [80.20793151855469, 51.17921447753906], [81.39183044433594, 51.17921447753906], [81.3569107055664, 51.112430572509766], [82.38516235351562, 50.97892379760742], [82.48384094238281, 50.84549331665039], [83.88231658935547, 50.77880859375], [84.2249526977539, 50.312522888183594], [84.74308013916016, 50.17946243286133], [84.82704162597656, 50.17946243286133], [84.48635864257812, 49.84712600708008], [83.91607666015625, 49.71431350708008], [83.76524353027344, 49.58156967163086], [84.3668212890625, 49.44889450073242], [84.3333740234375, 49.38258361816406], [85.30089569091797, 48.98506164550781], [85.40108489990234, 48.852684020996094], [85.33519744873047, 48.72037124633789], [85.51888275146484, 48.5881233215332], [85.47171020507812, 48.323814392089844], [85.55461120605469, 48.323814392089844], [85.63751220703125, 48.323814392089844], [85.47667694091797, 47.993770599365234], [85.55940246582031, 47.993770599365234], [85.5149154663086, 47.730003356933594], [85.2868423461914, 47.598209381103516], [84.70054626464844, 46.87434005737305], [84.22964477539062, 46.74290466308594], [84.25971984863281, 46.808616638183594], [83.79705047607422, 46.87434005737305], [83.85716247558594, 47.005828857421875], [83.61055755615234, 47.005828857421875], [83.640625, 47.07159423828125], [83.03512573242188, 47.005828857421875], [82.54325866699219, 46.08650588989258], [82.21221923828125, 45.889827728271484], [81.82308197021484, 45.36587905883789], [79.95085144042969, 44.973392486572266], [79.97791290283203, 44.842647552490234], [80.41033935546875, 44.71194839477539], [80.30226135253906, 44.45067596435547], [80.38319396972656, 44.45067596435547], [80.35716247558594, 43.99384307861328], [80.73538970947266, 43.53750228881836], [80.68252563476562, 43.407203674316406], [80.79065704345703, 43.276947021484375], [80.63168334960938, 43.08163070678711], [80.47109985351562, 43.08163070678711], [80.47344207763672, 42.88639831542969], [80.28723907470703, 42.82133865356445], [80.18842315673828, 42.36617660522461], [80.16311645507812, 42.30118942260742], [80.00323486328125, 42.30118942260742], [79.97380065917969, 42.43117141723633], [79.43895721435547, 42.496177673339844], [79.40936279296875, 42.62621307373047], [79.24919128417969, 42.62621307373047], [79.0846176147461, 42.82133865356445], [78.38813018798828, 42.88639831542969], [76.49468231201172, 42.75628662109375], [75.80548858642578, 42.62621307373047], [75.41389465332031, 42.43117141723633], [74.93390655517578, 42.43117141723633], [74.46417999267578, 42.236209869384766], [74.27069854736328, 42.36617660522461], [73.95082092285156, 42.36617660522461], [73.9048080444336, 42.236209869384766], [73.37991333007812, 42.10627746582031], [72.74108123779297, 42.10627746582031], [72.30657958984375, 42.236209869384766], [70.81197357177734, 41.586883544921875], [70.7483901977539, 41.39224624633789], [70.54735565185547, 41.26253128051758], [69.3732681274414, 41.06801223754883], [68.71808624267578, 40.4848747253418], [68.28358459472656, 40.355369567871094], [63.73413848876953, 42.43117141723633], [62.18339538574219, 43.146724700927734], [62.20269012451172, 43.211830139160156], [62.00017166137695, 43.342071533203125], [62.03888702392578, 43.472347259521484], [62.05830383300781, 43.53750228881836], [61.97780227661133, 43.53750228881836], [61.7556266784668, 43.6026611328125], [61.10081481933594, 44.38538360595703], [60.877498626708984, 44.45067596435547], [60.896934509277344, 44.5159797668457], [61.38047409057617, 44.77729415893555], [61.42001724243164, 44.908016204833984], [61.582332611083984, 44.908016204833984], [61.72218704223633, 45.36587905883789], [61.33523941040039, 45.431331634521484], [61.33386993408203, 45.693260192871094], [61.25232696533203, 45.693260192871094], [61.332855224609375, 45.95537567138672], [61.251182556152344, 45.95537567138672], [61.5778694152832, 46.480194091796875], [61.64111328125, 46.94007873535156], [61.230262756347656, 46.94007873535156], [61.086177825927734, 46.74290466308594], [60.94255828857422, 46.808616638183594], [60.98374938964844, 46.94007873535156], [60.12153244018555, 46.808616638183594], [59.83735275268555, 46.414546966552734], [59.49004364013672, 46.348915100097656], [59.310482025146484, 46.02093505859375], [58.637691497802734, 45.95537567138672], [58.485809326171875, 45.431331634521484], [58.266788482666016, 45.23500442504883], [57.96378707885742, 44.45067596435547], [58.04472351074219, 44.45067596435547], [57.98990249633789, 44.25482940673828], [58.070743560791016, 44.25482940673828], [57.96183395385742, 43.86341094970703], [58.18568420410156, 43.79821014404297], [58.3550910949707, 43.53750228881836], [58.337066650390625, 43.472347259521484], [57.3291130065918, 43.016544342041016], [57.24884796142578, 43.016544342041016], [56.34893035888672, 42.95146560668945], [55.99432373046875, 42.82133865356445], [55.529911041259766, 42.88639831542969], [52.74067687988281, 42.62621307373047], [52.78733444213867, 42.82133865356445], [52.41746520996094, 42.95146560668945], [51.936058044433594, 42.95146560668945], [51.772151947021484, 43.276947021484375], [51.43531036376953, 43.211830139160156], [51.30513381958008, 43.342071533203125], [51.31692886352539, 43.73301696777344], [51.040714263916016, 43.92862319946289], [51.07164001464844, 44.05907440185547], [50.87572479248047, 44.25482940673828], [50.19388198852539, 44.45067596435547], [50.224510192871094, 44.58129119873047], [50.40192413330078, 44.64661407470703], [50.85692596435547, 44.5159797668457], [51.42369842529297, 44.5159797668457], [51.47117233276367, 44.71194839477539], [51.016197204589844, 44.842647552490234], [51.0634765625, 45.03877639770508], [51.468292236328125, 45.36587905883789], [51.87519073486328, 45.36587905883789], [52.086769104003906, 45.23500442504883], [53.8757209777832, 45.23500442504883], [53.80810546875, 44.973392486572266], [54.29523849487305, 44.973392486572266], [54.363616943359375, 45.23500442504883], [54.21808624267578, 45.300437927246094], [54.286781311035156, 45.56227111816406], [53.87939453125, 45.56227111816406], [53.66555404663086, 45.36587905883789], [53.42141342163086, 45.36587905883789], [53.06462860107422, 45.56227111816406], [53.067134857177734, 45.889827728271484], [53.247371673583984, 45.95537567138672], [53.34987258911133, 46.348915100097656], [53.26800537109375, 46.348915100097656], [53.25496292114258, 46.61152267456055], [53.27227020263672, 46.677207946777344], [54.01707458496094, 47.005828857421875], [55.04006576538086, 47.13737487792969], [55.06055450439453, 47.79592514038086], [55.73467254638672, 48.1257438659668], [55.622188568115234, 48.5881233215332], [55.53914260864258, 48.5881233215332], [55.57847595214844, 48.72037124633789], [55.495357513427734, 48.72037124633789], [55.53488540649414, 48.852684020996094], [55.451690673828125, 48.852684020996094], [55.49142074584961, 48.98506164550781], [55.238059997558594, 49.2500114440918], [55.50654983520508, 49.58156967163086], [56.26069259643555, 50.11296081542969], [56.306705474853516, 50.51224899291992], [55.9954833984375, 50.84549331665039], [56.236942291259766, 51.31283950805664], [56.55982208251953, 51.51342010498047], [56.62948989868164, 51.71418380737305], [56.54458999633789, 51.71418380737305], [56.553375244140625, 51.98215103149414], [56.638450622558594, 51.98215103149414]], [[73.40199279785156, 45.693260192871094], [73.32756042480469, 45.496795654296875], [73.74162292480469, 45.300437927246094], [73.94288635253906, 44.973392486572266], [74.13007354736328, 45.03877639770508], [74.25473022460938, 45.36587905883789], [74.1169662475586, 45.431331634521484], [74.3186264038086, 45.95537567138672], [74.7525863647461, 46.02093505859375], [74.88140106201172, 46.348915100097656], [75.31684112548828, 46.414546966552734], [75.4511947631836, 46.54585266113281], [77.39138793945312, 46.480194091796875], [77.36439514160156, 46.414546966552734], [77.82868194580078, 46.348915100097656], [77.8016128540039, 46.283294677734375], [78.456298828125, 46.283294677734375], [78.97484588623047, 46.348915100097656], [79.0855941772461, 46.61152267456055], [79.24960327148438, 46.61152267456055], [79.33355712890625, 46.808616638183594], [78.70458984375, 46.87434005737305], [78.10157012939453, 46.61152267456055], [77.91033172607422, 46.74290466308594], [76.73442077636719, 46.677207946777344], [76.76136779785156, 46.74290466308594], [76.35102081298828, 46.74290466308594], [76.32263946533203, 46.87434005737305], [74.59777069091797, 46.87434005737305], [74.43742370605469, 46.677207946777344], [73.95010375976562, 46.480194091796875], [73.87349700927734, 46.283294677734375], [73.62798309326172, 46.283294677734375], [73.52702331542969, 46.02093505859375], [73.71565246582031, 46.08650588989258], [73.64013671875, 45.889827728271484], [73.50191497802734, 45.95537567138672], [73.4269027709961, 45.75876998901367], [73.40199279785156, 45.693260192871094]], [[53.140480041503906, 44.58129119873047], [53.09119415283203, 44.38538360595703], [53.33391189575195, 44.38538360595703], [53.743751525878906, 45.03877639770508], [53.41886901855469, 45.03877639770508], [53.15696334838867, 44.64661407470703], [53.140480041503906, 44.58129119873047]]]]}}]}