{
  "type": "FeatureCollection",
  "features": [
    {
      "type": "Feature",
      "properties": {
        "Name": "Sultanate of Muscat and Oman",
        "FromYear": 1936,
        "ToYear": 1945,
        "Area": 307517.45883591246,
        "Type": "POLITY",
        "Wikipedia": "Muscat and Oman",
        "Wikidata": "Q157734",
        "SeshatID": "",
        "Components": "",
        "MemberOf": "",
        "displayYear": 1940,
        "sourceYear": 1940,
        "mappedTerritoryId": "cliopatria_sultanate_of_muscat_and_oman"
      },
      "geometry": {
        "type": "MultiPolygon",
        "coordinates": [
          [
            [
              [
                58.772953033447266,
                20.60053253173828
              ],
              [
                59.00082778930664,
                20.664819717407227
              ],
              [
                58.97935485839844,
                20.40767478942871
              ],
              [
                58.81501007080078,
                20.214815139770508
              ],
              [
                58.666770935058594,
                20.214815139770508
              ],
              [
                58.76761245727539,
                20.53624725341797
              ],
              [
                58.772953033447266,
                20.60053253173828
              ]
            ]
          ],
          [
            [
              [
                58.37001419067383,
                23.68630027770996
              ],
              [
                58.27181625366211,
                23.429147720336914
              ],
              [
                58.40342330932617,
                23.236284255981445
              ],
              [
                58.477943420410156,
                23.236284255981445
              ],
              [
                58.54088592529297,
                23.107707977294922
              ],
              [
                58.90760040283203,
                23.043420791625977
              ],
              [
                59.045021057128906,
                22.914846420288086
              ],
              [
                59.27424621582031,
                22.97913360595703
              ],
              [
                59.2684440612793,
                22.914846420288086
              ],
              [
                59.543212890625,
                22.657697677612305
              ],
              [
                59.903873443603516,
                22.529123306274414
              ],
              [
                59.864044189453125,
                22.079116821289062
              ],
              [
                59.436954498291016,
                21.43625259399414
              ],
              [
                58.799705505371094,
                20.921964645385742
              ],
              [
                58.608638763427734,
                20.40767478942871
              ],
              [
                58.30677032470703,
                20.343387603759766
              ],
              [
                58.24849319458008,
                20.53624725341797
              ],
              [
                58.10017395019531,
                20.53624725341797
              ],
              [
                57.93083953857422,
                20.279102325439453
              ],
              [
                57.79355239868164,
                19.507661819458008
              ],
              [
                57.867584228515625,
                19.507661819458008
              ],
              [
                57.899253845214844,
                18.993366241455078
              ],
              [
                56.99609375,
                18.800504684448242
              ],
              [
                56.75362777709961,
                18.543354034423828
              ],
              [
                56.64381790161133,
                18.093341827392578
              ],
              [
                56.40702438354492,
                17.90047836303711
              ],
              [
                55.58990478515625,
                17.836191177368164
              ],
              [
                55.348690032958984,
                17.57904052734375
              ],
              [
                55.31448745727539,
                17.129026412963867
              ],
              [
                55.15735626220703,
                17.000450134277344
              ],
              [
                54.493831634521484,
                17.000450134277344
              ],
              [
                54.420108795166016,
                17.000450134277344
              ],
              [
                54.29164123535156,
                17.257600784301758
              ],
              [
                54.070377349853516,
                17.257600784301758
              ],
              [
                53.89468002319336,
                16.87187385559082
              ],
              [
                53.89002227783203,
                16.807586669921875
              ],
              [
                53.291236877441406,
                16.67901039123535
              ],
              [
                53.21754837036133,
                16.67901039123535
              ],
              [
                52.8257942199707,
                17.38617706298828
              ],
              [
                52.8304328918457,
                17.450464248657227
              ],
              [
                52.49862289428711,
                17.964767456054688
              ],
              [
                52.51263427734375,
                18.157629013061523
              ],
              [
                52.12529373168945,
                18.929079055786133
              ],
              [
                52.814613342285156,
                19.25051498413086
              ],
              [
                54.70897674560547,
                19.8290958404541
              ],
              [
                55.17327117919922,
                20.08624267578125
              ],
              [
                55.30194854736328,
                20.793392181396484
              ],
              [
                55.76905822753906,
                22.014829635620117
              ],
              [
                55.62548828125,
                22.079116821289062
              ],
              [
                55.635799407958984,
                22.20768928527832
              ],
              [
                55.49220275878906,
                22.271976470947266
              ],
              [
                55.3001594543457,
                22.657697677612305
              ],
              [
                55.35348129272461,
                23.30057144165039
              ],
              [
                55.61030197143555,
                23.68630027770996
              ],
              [
                55.558345794677734,
                23.943456649780273
              ],
              [
                56.0177001953125,
                24.07203483581543
              ],
              [
                55.823150634765625,
                24.393482208251953
              ],
              [
                55.85334396362305,
                24.714935302734375
              ],
              [
                55.8594856262207,
                24.779226303100586
              ],
              [
                55.95291519165039,
                24.97209930419922
              ],
              [
                56.09621047973633,
                24.907808303833008
              ],
              [
                56.08375549316406,
                24.779226303100586
              ],
              [
                56.23326873779297,
                24.779226303100586
              ],
              [
                56.401641845703125,
                24.97209930419922
              ],
              [
                56.4764289855957,
                24.97209930419922
              ],
              [
                56.78811264038086,
                24.329193115234375
              ],
              [
                57.06272888183594,
                24.07203483581543
              ],
              [
                57.355316162109375,
                24.00774574279785
              ],
              [
                57.34935760498047,
                23.943456649780273
              ],
              [
                58.29542922973633,
                23.68630027770996
              ],
              [
                58.37001419067383,
                23.68630027770996
              ]
            ]
          ],
          [
            [
              [
                56.392086029052734,
                25.615020751953125
              ],
              [
                56.249000549316406,
                25.67931365966797
              ],
              [
                56.28312683105469,
                26.000778198242188
              ],
              [
                56.06513595581055,
                26.06507110595703
              ],
              [
                56.072078704833984,
                26.129364013671875
              ],
              [
                56.32533645629883,
                26.386537551879883
              ],
              [
                56.47541046142578,
                26.386537551879883
              ],
              [
                56.53614807128906,
                26.257951736450195
              ],
              [
                56.52906036376953,
                26.19365882873535
              ],
              [
                56.39881896972656,
                25.67931365966797
              ],
              [
                56.392086029052734,
                25.615020751953125
              ]
            ]
          ]
        ]
      }
    }
  ]
}
