{
  "type": "FeatureCollection",
  "features": [
    {
      "type": "Feature",
      "properties": {
        "Name": "Aq Qoyunlu",
        "FromYear": 1475,
        "ToYear": 1501,
        "Area": 1701512.0044218383,
        "Type": "POLITY",
        "Wikipedia": "Aq Qoyunlu",
        "Wikidata": "Q555994",
        "SeshatID": "ir_ak_koyunlu",
        "Components": "",
        "MemberOf": "",
        "displayYear": 1500,
        "sourceYear": 1500,
        "mappedTerritoryId": "cliopatria_aq_qoyunlu"
      },
      "geometry": {
        "type": "Polygon",
        "coordinates": [
          [
            [
              46.99855422973633,
              39.90232849121094
            ],
            [
              46.876380920410156,
              40.0964469909668
            ],
            [
              46.65127944946289,
              40.16116714477539
            ],
            [
              46.608158111572266,
              40.355369567871094
            ],
            [
              45.6942253112793,
              40.54964065551758
            ],
            [
              45.28659439086914,
              40.4848747253418
            ],
            [
              45.15159606933594,
              40.614410400390625
            ],
            [
              44.75552749633789,
              40.614410400390625
            ],
            [
              44.62021255493164,
              40.74397277832031
            ],
            [
              44.29167175292969,
              40.6791877746582
            ],
            [
              44.235355377197266,
              40.80876541137695
            ],
            [
              43.929588317871094,
              40.873565673828125
            ],
            [
              43.77094650268555,
              40.873565673828125
            ],
            [
              43.73698806762695,
              40.6791877746582
            ],
            [
              43.872920989990234,
              40.54964065551758
            ],
            [
              43.828311920166016,
              40.29063034057617
            ],
            [
              43.8172607421875,
              40.225894927978516
            ],
            [
              43.479278564453125,
              40.0964469909668
            ],
            [
              43.17402648925781,
              40.16116714477539
            ],
            [
              42.83665084838867,
              40.031734466552734
            ],
            [
              42.46882247924805,
              39.70827102661133
            ],
            [
              42.0745849609375,
              39.70827102661133
            ],
            [
              41.55276107788086,
              39.90232849121094
            ],
            [
              41.237060546875,
              39.90232849121094
            ],
            [
              41.3665657043457,
              40.225894927978516
            ],
            [
              41.149749755859375,
              40.355369567871094
            ],
            [
              40.734127044677734,
              40.225894927978516
            ],
            [
              40.03242492675781,
              40.29063034057617
            ],
            [
              39.933860778808594,
              40.16116714477539
            ],
            [
              39.77580261230469,
              40.16116714477539
            ],
            [
              39.649112701416016,
              39.8376350402832
            ],
            [
              39.926841735839844,
              39.57893371582031
            ],
            [
              39.90812683105469,
              39.449623107910156
            ],
            [
              40.06562042236328,
              39.449623107910156
            ],
            [
              40.17645263671875,
              39.1264533996582
            ],
            [
              38.87467575073242,
              38.80344009399414
            ],
            [
              38.84877014160156,
              38.60969924926758
            ],
            [
              39.310611724853516,
              38.54513168334961
            ],
            [
              39.36298370361328,
              38.351463317871094
            ],
            [
              39.441314697265625,
              38.351463317871094
            ],
            [
              39.50235366821289,
              38.22237777709961
            ],
            [
              39.16379165649414,
              38.028785705566406
            ],
            [
              39.06048583984375,
              37.835243225097656
            ],
            [
              38.39500427246094,
              37.51277160644531
            ],
            [
              38.082881927490234,
              37.51277160644531
            ],
            [
              37.95802688598633,
              37.12596130371094
            ],
            [
              38.378692626953125,
              36.73930740356445
            ],
            [
              38.2552375793457,
              36.3527946472168
            ],
            [
              38.09247970581055,
              36.28839111328125
            ],
            [
              38.13286590576172,
              35.9664192199707
            ],
            [
              39.13278579711914,
              35.902034759521484
            ],
            [
              39.88418197631836,
              35.708900451660156
            ],
            [
              40.37117385864258,
              35.258358001708984
            ],
            [
              40.35566711425781,
              35.12965774536133
            ],
            [
              40.51013946533203,
              35.12965774536133
            ],
            [
              40.54866027832031,
              34.80794906616211
            ],
            [
              40.7723274230957,
              34.743614196777344
            ],
            [
              40.96498489379883,
              34.42197799682617
            ],
            [
              41.04199981689453,
              34.42197799682617
            ],
            [
              41.426979064941406,
              33.77885055541992
            ],
            [
              41.86487579345703,
              33.5859489440918
            ],
            [
              42.064544677734375,
              33.32876968383789
            ],
            [
              42.578269958496094,
              33.13589859008789
            ],
            [
              42.708534240722656,
              32.94303894042969
            ],
            [
              43.152584075927734,
              32.81447219848633
            ],
            [
              44.459014892578125,
              31.593257904052734
            ],
            [
              44.44402313232422,
              31.464719772338867
            ],
            [
              44.657562255859375,
              31.336183547973633
            ],
            [
              44.63529586791992,
              31.143381118774414
            ],
            [
              44.79490280151367,
              31.20764923095703
            ],
            [
              45.39815139770508,
              30.500701904296875
            ],
            [
              45.55000686645508,
              30.500701904296875
            ],
            [
              46.09901428222656,
              29.986536026000977
            ],
            [
              46.53215789794922,
              29.79371452331543
            ],
            [
              46.58648681640625,
              29.600887298583984
            ],
            [
              46.74504852294922,
              29.665164947509766
            ],
            [
              46.868003845214844,
              29.40805435180664
            ],
            [
              47.10211944580078,
              29.472333908081055
            ],
            [
              47.23920822143555,
              29.34377670288086
            ],
            [
              47.768760681152344,
              29.34377670288086
            ],
            [
              47.8662223815918,
              29.536611557006836
            ],
            [
              48.40353012084961,
              29.600887298583984
            ],
            [
              48.36544418334961,
              29.922264099121094
            ],
            [
              48.903682708740234,
              29.986536026000977
            ],
            [
              48.987266540527344,
              30.050809860229492
            ],
            [
              48.942848205566406,
              30.307893753051758
            ],
            [
              49.585899353027344,
              29.986536026000977
            ],
            [
              50.0648078918457,
              30.179353713989258
            ],
            [
              50.23628234863281,
              29.729440689086914
            ],
            [
              50.65126037597656,
              29.40805435180664
            ],
            [
              50.620323181152344,
              29.150936126708984
            ],
            [
              50.9150390625,
              29.08665657043457
            ],
            [
              50.80903244018555,
              28.829526901245117
            ],
            [
              51.028076171875,
              28.765243530273438
            ],
            [
              51.06624984741211,
              28.44382095336914
            ],
            [
              51.331298828125,
              28.12238883972168
            ],
            [
              51.31684494018555,
              27.993812561035156
            ],
            [
              51.5966796875,
              27.800947189331055
            ],
            [
              52.04855728149414,
              27.800947189331055
            ],
            [
              52.478694915771484,
              27.608078002929688
            ],
            [
              52.736968994140625,
              27.222335815429688
            ],
            [
              53.46059036254883,
              26.96516990661621
            ],
            [
              53.65812301635742,
              26.70800018310547
            ],
            [
              54.25889205932617,
              26.70800018310547
            ],
            [
              54.463233947753906,
              26.515121459960938
            ],
            [
              54.83156204223633,
              26.450830459594727
            ],
            [
              55.242313385009766,
              26.772293090820312
            ],
            [
              55.542747497558594,
              26.772293090820312
            ],
            [
              55.31023025512695,
              26.70800018310547
            ],
            [
              55.28888702392578,
              26.515121459960938
            ],
            [
              55.439002990722656,
              26.515121459960938
            ],
            [
              55.60341262817383,
              26.643707275390625
            ],
            [
              56.06119155883789,
              26.70800018310547
            ],
            [
              56.30864334106445,
              26.900876998901367
            ],
            [
              56.32361602783203,
              27.029460906982422
            ],
            [
              56.098140716552734,
              27.029460906982422
            ],
            [
              56.188377380371094,
              27.158044815063477
            ],
            [
              56.714656829833984,
              27.158044815063477
            ],
            [
              57.05242156982422,
              26.836584091186523
            ],
            [
              57.11480712890625,
              26.06507110595703
            ],
            [
              57.37953567504883,
              25.743606567382812
            ],
            [
              57.67921447753906,
              25.743606567382812
            ],
            [
              57.7402229309082,
              25.615020751953125
            ],
            [
              57.957984924316406,
              25.55072784423828
            ],
            [
              58.78172302246094,
              25.55072784423828
            ],
            [
              59.060218811035156,
              25.357851028442383
            ],
            [
              60.63211441040039,
              25.357851028442383
            ],
            [
              60.617828369140625,
              25.229267120361328
            ],
            [
              60.98484420776367,
              25.164974212646484
            ],
            [
              61.059661865234375,
              25.164974212646484
            ],
            [
              61.06563949584961,
              25.8721923828125
            ],
            [
              60.82746124267578,
              26.386537551879883
            ],
            [
              60.80031204223633,
              26.772293090820312
            ],
            [
              60.68276596069336,
              27.029460906982422
            ],
            [
              60.54069900512695,
              27.093751907348633
            ],
            [
              60.55732345581055,
              27.222335815429688
            ],
            [
              60.415283203125,
              27.2866268157959
            ],
            [
              60.432106018066406,
              27.41520881652832
            ],
            [
              60.29008865356445,
              27.4794979095459
            ],
            [
              60.3071174621582,
              27.608078002929688
            ],
            [
              60.165122985839844,
              27.6723690032959
            ],
            [
              60.182350158691406,
              27.800947189331055
            ],
            [
              60.040374755859375,
              27.865236282348633
            ],
            [
              60.057804107666016,
              27.993812561035156
            ],
            [
              59.91584777832031,
              28.058101654052734
            ],
            [
              59.933475494384766,
              28.186676025390625
            ],
            [
              59.79153823852539,
              28.25096321105957
            ],
            [
              59.570953369140625,
              28.829526901245117
            ],
            [
              59.42906951904297,
              28.893810272216797
            ],
            [
              59.27709197998047,
              29.40805435180664
            ],
            [
              58.95608901977539,
              29.79371452331543
            ],
            [
              58.86323547363281,
              30.179353713989258
            ],
            [
              58.533634185791016,
              30.500701904296875
            ],
            [
              58.31095504760742,
              31.014846801757812
            ],
            [
              58.10334396362305,
              31.143381118774414
            ],
            [
              57.93557357788086,
              31.978878021240234
            ],
            [
              57.85926055908203,
              31.978878021240234
            ],
            [
              57.89165115356445,
              32.171695709228516
            ],
            [
              57.54278564453125,
              32.81447219848633
            ],
            [
              57.5875358581543,
              33.07160949707031
            ],
            [
              57.20674514770508,
              33.52165222167969
            ],
            [
              57.22960662841797,
              33.65024948120117
            ],
            [
              57.08747863769531,
              33.71455001831055
            ],
            [
              57.12201690673828,
              33.90746307373047
            ],
            [
              56.88410568237305,
              34.2933349609375
            ],
            [
              56.854068756103516,
              34.55062484741211
            ],
            [
              56.082427978515625,
              35.38706970214844
            ],
            [
              55.14817810058594,
              35.77327346801758
            ],
            [
              54.118202209472656,
              35.644527435302734
            ],
            [
              52.879783630371094,
              35.644527435302734
            ],
            [
              52.59257125854492,
              35.77327346801758
            ],
            [
              52.73810577392578,
              36.15959167480469
            ],
            [
              52.98234176635742,
              36.2239875793457
            ],
            [
              53.18416976928711,
              36.48161697387695
            ],
            [
              53.16550827026367,
              36.80373764038086
            ],
            [
              53.08772277832031,
              36.80373764038086
            ],
            [
              52.18585205078125,
              36.5460319519043
            ],
            [
              51.26472473144531,
              36.61045455932617
            ],
            [
              50.53199768066406,
              36.8681755065918
            ],
            [
              50.632293701171875,
              36.9970588684082
            ],
            [
              50.56571960449219,
              37.06150817871094
            ],
            [
              50.320892333984375,
              36.9970588684082
            ],
            [
              49.85409164428711,
              37.44829177856445
            ],
            [
              49.08510208129883,
              37.51277160644531
            ],
            [
              48.82852554321289,
              37.835243225097656
            ],
            [
              48.82062911987305,
              38.67427444458008
            ],
            [
              48.74217987060547,
              38.67427444458008
            ],
            [
              48.91546630859375,
              39.19107437133789
            ],
            [
              49.16353225708008,
              39.25570297241211
            ],
            [
              49.17570495605469,
              39.320335388183594
            ],
            [
              49.030479431152344,
              39.38497543334961
            ],
            [
              49.000797271728516,
              39.64360046386719
            ],
            [
              48.77663040161133,
              39.70827102661133
            ],
            [
              48.722476959228516,
              39.8376350402832
            ],
            [
              47.3692626953125,
              39.77294921875
            ],
            [
              47.31425094604492,
              39.90232849121094
            ],
            [
              47.077476501464844,
              39.90232849121094
            ],
            [
              46.99855422973633,
              39.90232849121094
            ]
          ]
        ]
      }
    }
  ]
}
