{
  "type": "FeatureCollection",
  "features": [
    {
      "type": "Feature",
      "properties": {
        "Name": "Ostrogoths",
        "FromYear": 480,
        "ToYear": 489,
        "Area": 138154.4182414992,
        "Type": "POLITY",
        "Wikipedia": "Ostrogoths",
        "Wikidata": "Q103122",
        "SeshatID": "",
        "Components": "",
        "MemberOf": "",
        "displayYear": 480,
        "sourceYear": 480,
        "mappedTerritoryId": "cliopatria_ostrogoths"
      },
      "geometry": {
        "type": "MultiPolygon",
        "coordinates": [
          [
            [
              [
                19.08556365966797,
                45.496795654296875
              ],
              [
                19.004117965698242,
                45.496795654296875
              ],
              [
                19.007373809814453,
                45.56227111816406
              ],
              [
                19.088850021362305,
                45.56227111816406
              ],
              [
                19.08556365966797,
                45.496795654296875
              ]
            ]
          ],
          [
            [
              [
                19.26919937133789,
                47.46647262573242
              ],
              [
                19.090551376342773,
                47.20316696166992
              ],
              [
                19.165966033935547,
                47.07159423828125
              ],
              [
                18.83371925354004,
                47.005828857421875
              ],
              [
                18.823881149291992,
                46.808616638183594
              ],
              [
                18.905982971191406,
                46.808616638183594
              ],
              [
                18.896116256713867,
                46.61152267456055
              ],
              [
                19.05011558532715,
                46.414546966552734
              ],
              [
                18.951833724975586,
                46.08650588989258
              ],
              [
                18.87009620666504,
                46.08650588989258
              ],
              [
                18.948575973510742,
                46.02093505859375
              ],
              [
                18.85401725769043,
                45.75876998901367
              ],
              [
                19.01063346862793,
                45.62776184082031
              ],
              [
                18.92267417907715,
                45.496795654296875
              ],
              [
                19.004117965698242,
                45.496795654296875
              ],
              [
                18.997617721557617,
                45.36587905883789
              ],
              [
                19.23841667175293,
                45.300437927246094
              ],
              [
                20.295940399169922,
                45.300437927246094
              ],
              [
                20.292184829711914,
                45.23500442504883
              ],
              [
                19.938013076782227,
                44.71194839477539
              ],
              [
                19.92363166809082,
                44.45067596435547
              ],
              [
                19.670358657836914,
                44.25482940673828
              ],
              [
                19.659931182861328,
                44.05907440185547
              ],
              [
                19.410938262939453,
                43.92862319946289
              ],
              [
                19.474700927734375,
                43.6026611328125
              ],
              [
                19.31032371520996,
                43.53750228881836
              ],
              [
                19.22981834411621,
                43.53750228881836
              ],
              [
                17.855730056762695,
                43.407203674316406
              ],
              [
                17.222238540649414,
                43.6678352355957
              ],
              [
                17.146665573120117,
                43.79821014404297
              ],
              [
                16.427703857421875,
                43.99384307861328
              ],
              [
                16.355798721313477,
                44.25482940673828
              ],
              [
                16.19411277770996,
                44.25482940673828
              ],
              [
                16.04285430908203,
                44.58129119873047
              ],
              [
                15.884906768798828,
                44.71194839477539
              ],
              [
                15.64172077178955,
                44.71194839477539
              ],
              [
                15.647515296936035,
                44.908016204833984
              ],
              [
                15.485201835632324,
                44.908016204833984
              ],
              [
                15.167534828186035,
                45.169586181640625
              ],
              [
                14.933539390563965,
                45.56227111816406
              ],
              [
                14.609147071838379,
                45.62776184082031
              ],
              [
                14.613694190979004,
                45.82429504394531
              ],
              [
                14.86174488067627,
                45.95537567138672
              ],
              [
                14.864981651306152,
                46.08650588989258
              ],
              [
                15.610227584838867,
                46.414546966552734
              ],
              [
                15.780038833618164,
                46.61152267456055
              ],
              [
                15.984451293945312,
                47.86185836791992
              ],
              [
                16.06710433959961,
                47.86185836791992
              ],
              [
                16.16116714477539,
                48.191749572753906
              ],
              [
                16.163476943969727,
                48.257774353027344
              ],
              [
                16.826404571533203,
                48.257774353027344
              ],
              [
                16.823808670043945,
                48.191749572753906
              ],
              [
                16.906639099121094,
                48.191749572753906
              ],
              [
                16.909269332885742,
                48.257774353027344
              ],
              [
                16.992136001586914,
                48.257774353027344
              ],
              [
                16.989469528198242,
                48.191749572753906
              ],
              [
                17.07229995727539,
                48.191749572753906
              ],
              [
                17.066926956176758,
                48.059749603271484
              ],
              [
                17.634624481201172,
                47.79592514038086
              ],
              [
                18.626039505004883,
                47.79592514038086
              ],
              [
                18.71535873413086,
                47.92780685424805
              ],
              [
                18.877307891845703,
                47.86185836791992
              ],
              [
                18.87389373779297,
                47.79592514038086
              ],
              [
                19.26919937133789,
                47.46647262573242
              ]
            ]
          ]
        ]
      }
    }
  ]
}
