{
  "type": "FeatureCollection",
  "features": [
    {
      "type": "Feature",
      "properties": {
        "Name": "Yuezhi",
        "FromYear": -203,
        "ToYear": -171,
        "Area": 900302.0695880828,
        "Type": "POLITY",
        "Wikipedia": "Yuezhi",
        "Wikidata": "Q467985",
        "SeshatID": "",
        "Components": "",
        "MemberOf": "",
        "displayYear": -180,
        "sourceYear": -180,
        "mappedTerritoryId": "cliopatria_yuezhi"
      },
      "geometry": {
        "type": "Polygon",
        "coordinates": [
          [
            [
              78.65043640136719,
              45.169586181640625
            ],
            [
              79.54490661621094,
              44.973392486572266
            ],
            [
              79.51801300048828,
              44.908016204833984
            ],
            [
              79.95085144042969,
              44.973392486572266
            ],
            [
              80.05903625488281,
              44.842647552490234
            ],
            [
              80.38353729248047,
              44.842647552490234
            ],
            [
              80.49140167236328,
              44.71194839477539
            ],
            [
              80.32920837402344,
              44.5159797668457
            ],
            [
              80.4101791381836,
              44.5159797668457
            ],
            [
              80.38385772705078,
              44.05907440185547
            ],
            [
              80.76190948486328,
              43.6026611328125
            ],
            [
              80.7365951538086,
              43.342071533203125
            ],
            [
              80.87104034423828,
              43.276947021484375
            ],
            [
              80.79227447509766,
              43.08163070678711
            ],
            [
              81.08898162841797,
              42.82133865356445
            ],
            [
              81.03951263427734,
              42.496177673339844
            ],
            [
              81.11953735351562,
              42.496177673339844
            ],
            [
              81.12239837646484,
              42.30118942260742
            ],
            [
              82.56132507324219,
              42.30118942260742
            ],
            [
              84.10846710205078,
              42.75628662109375
            ],
            [
              85.79151153564453,
              42.75628662109375
            ],
            [
              85.76380920410156,
              42.691246032714844
            ],
            [
              88.10537719726562,
              42.36617660522461
            ],
            [
              88.07719421386719,
              42.30118942260742
            ],
            [
              88.84820556640625,
              42.236209869384766
            ],
            [
              88.81988525390625,
              42.17123794555664
            ],
            [
              89.64155578613281,
              42.041324615478516
            ],
            [
              89.61315155029297,
              41.97637939453125
            ],
            [
              90.22297668457031,
              41.911441802978516
            ],
            [
              90.19451141357422,
              41.84651184082031
            ],
            [
              90.43372344970703,
              41.84651184082031
            ],
            [
              90.5362319946289,
              41.71668243408203
            ],
            [
              90.77527618408203,
              41.71668243408203
            ],
            [
              91.27023315429688,
              41.39224624633789
            ],
            [
              92.34925842285156,
              41.132843017578125
            ],
            [
              92.32095336914062,
              41.06801223754883
            ],
            [
              92.47976684570312,
              41.06801223754883
            ],
            [
              92.45149993896484,
              41.00318908691406
            ],
            [
              92.6102523803711,
              41.00318908691406
            ],
            [
              93.23443603515625,
              40.614410400390625
            ],
            [
              93.47207641601562,
              40.614410400390625
            ],
            [
              93.44406127929688,
              40.54964065551758
            ],
            [
              93.09048461914062,
              39.90232849121094
            ],
            [
              93.06360626220703,
              39.8376350402832
            ],
            [
              90.80880737304688,
              39.1264533996582
            ],
            [
              88.7458267211914,
              38.8680305480957
            ],
            [
              87.66171264648438,
              38.48057174682617
            ],
            [
              86.44012451171875,
              38.351463317871094
            ],
            [
              86.08140563964844,
              38.22237777709961
            ],
            [
              85.81294250488281,
              37.89975357055664
            ],
            [
              85.35621643066406,
              37.706241607666016
            ],
            [
              85.1133804321289,
              37.44829177856445
            ],
            [
              82.1014175415039,
              36.80373764038086
            ],
            [
              81.71249389648438,
              36.80373764038086
            ],
            [
              81.26437377929688,
              36.61045455932617
            ],
            [
              81.03121185302734,
              36.61045455932617
            ],
            [
              80.37127685546875,
              36.9970588684082
            ],
            [
              79.39822387695312,
              37.12596130371094
            ],
            [
              79.14535522460938,
              37.3193473815918
            ],
            [
              78.42435455322266,
              37.51277160644531
            ],
            [
              78.38568878173828,
              37.641746520996094
            ],
            [
              78.09307098388672,
              37.706241607666016
            ],
            [
              77.80143737792969,
              38.028785705566406
            ],
            [
              77.84146118164062,
              38.157840728759766
            ],
            [
              77.6670150756836,
              38.351463317871094
            ],
            [
              77.5103530883789,
              38.351463317871094
            ],
            [
              77.41437530517578,
              38.54513168334961
            ],
            [
              77.257568359375,
              38.54513168334961
            ],
            [
              77.02529907226562,
              38.80344009399414
            ],
            [
              75.79206848144531,
              39.1264533996582
            ],
            [
              73.8477783203125,
              39.449623107910156
            ],
            [
              73.76902770996094,
              39.449623107910156
            ],
            [
              73.92901611328125,
              39.70827102661133
            ],
            [
              73.85016632080078,
              39.70827102661133
            ],
            [
              73.95331573486328,
              40.031734466552734
            ],
            [
              73.81617736816406,
              40.0964469909668
            ],
            [
              73.85803985595703,
              40.225894927978516
            ],
            [
              73.68400573730469,
              40.42012023925781
            ],
            [
              73.5257339477539,
              40.42012023925781
            ],
            [
              73.48890686035156,
              40.54964065551758
            ],
            [
              73.33053588867188,
              40.54964065551758
            ],
            [
              73.29378509521484,
              40.6791877746582
            ],
            [
              73.13530731201172,
              40.6791877746582
            ],
            [
              73.09864044189453,
              40.80876541137695
            ],
            [
              73.12003326416016,
              40.873565673828125
            ],
            [
              73.34345245361328,
              41.06801223754883
            ],
            [
              73.5816650390625,
              41.06801223754883
            ],
            [
              73.88578796386719,
              41.26253128051758
            ],
            [
              74.46449279785156,
              41.32738494873047
            ],
            [
              74.58887481689453,
              41.45711898803711
            ],
            [
              74.82758331298828,
              41.45711898803711
            ],
            [
              74.8729019165039,
              41.586883544921875
            ],
            [
              75.08900451660156,
              41.521995544433594
            ],
            [
              76.00094604492188,
              41.84651184082031
            ],
            [
              76.2073974609375,
              41.97637939453125
            ],
            [
              76.27835845947266,
              42.17123794555664
            ],
            [
              76.14231872558594,
              42.236209869384766
            ],
            [
              76.15782928466797,
              42.496177673339844
            ],
            [
              75.81388854980469,
              42.43117141723633
            ],
            [
              75.70149993896484,
              42.56119155883789
            ],
            [
              75.87763214111328,
              42.82133865356445
            ],
            [
              75.76555633544922,
              42.95146560668945
            ],
            [
              75.38846588134766,
              43.016544342041016
            ],
            [
              75.13961791992188,
              43.211830139160156
            ],
            [
              75.20498657226562,
              43.6026611328125
            ],
            [
              74.7947998046875,
              43.79821014404297
            ],
            [
              74.99827575683594,
              44.12431716918945
            ],
            [
              74.56269836425781,
              44.25482940673828
            ],
            [
              74.44326782226562,
              44.58129119873047
            ],
            [
              74.28126525878906,
              44.58129119873047
            ],
            [
              74.24962615966797,
              44.71194839477539
            ],
            [
              73.97464752197266,
              44.842647552490234
            ],
            [
              73.96763610839844,
              45.03877639770508
            ],
            [
              74.13007354736328,
              45.03877639770508
            ],
            [
              74.25473022460938,
              45.36587905883789
            ],
            [
              74.1169662475586,
              45.431331634521484
            ],
            [
              74.3186264038086,
              45.95537567138672
            ],
            [
              74.7525863647461,
              46.02093505859375
            ],
            [
              74.88140106201172,
              46.348915100097656
            ],
            [
              75.31684112548828,
              46.414546966552734
            ],
            [
              75.4511947631836,
              46.54585266113281
            ],
            [
              77.39138793945312,
              46.480194091796875
            ],
            [
              77.36439514160156,
              46.414546966552734
            ],
            [
              77.74681091308594,
              46.348915100097656
            ],
            [
              77.7476577758789,
              46.1520881652832
            ],
            [
              77.88424682617188,
              46.08650588989258
            ],
            [
              77.83050537109375,
              45.95537567138672
            ],
            [
              78.02180480957031,
              45.82429504394531
            ],
            [
              77.99649810791016,
              45.56227111816406
            ],
            [
              78.35040283203125,
              45.431331634521484
            ],
            [
              78.56915283203125,
              45.169586181640625
            ],
            [
              78.65043640136719,
              45.169586181640625
            ]
          ]
        ]
      }
    }
  ]
}
