{"type": "FeatureCollection", "features": [{"type": "Feature", "properties": {"name": "Ethiopian Empire", "displayYear": 1279, "fromYear": 1272, "toYear": 1284, "wikipedia": "Ethiopian Empire", "seshatId": "et_ethiopian_k", "areaKm2": 209415.395444029, "source": "Seshat Cliopatria"}, "geometry": {"type": "MultiPolygon", "coordinates": [[[[36.72355651855469, 11.407415390014648], [36.650352478027344, 11.407415390014648], [36.65250778198242, 11.47170352935791], [36.72571563720703, 11.47170352935791], [36.72355651855469, 11.407415390014648]]], [[[39.869503021240234, 14.943235397338867], [39.66884994506836, 13.721768379211426], [39.81021499633789, 13.593193054199219], [39.72618103027344, 13.336042404174805], [39.79953384399414, 13.336042404174805], [39.786434173583984, 13.014603614807129], [39.852020263671875, 12.821741104125977], [39.996070861816406, 12.757453918457031], [40.51822280883789, 11.085978507995605], [40.483924865722656, 10.121665954589844], [40.55704116821289, 10.121665954589844], [40.608177185058594, 9.478790283203125], [40.46202087402344, 9.478790283203125], [40.457725524902344, 9.350214958190918], [40.08393859863281, 9.09306526184082], [40.07976531982422, 8.964489936828613], [39.568424224853516, 8.964489936828613], [39.49949264526367, 9.09306526184082], [39.27827453613281, 9.028778076171875], [39.282386779785156, 9.157352447509766], [38.35723876953125, 9.928803443908691], [38.36143493652344, 10.057377815246582], [38.14840316772461, 10.250240325927734], [37.92693328857422, 10.185953140258789], [38.0042610168457, 10.314528465270996], [36.93454360961914, 11.15026569366455], [36.8677978515625, 11.343128204345703], [36.71925735473633, 11.278841018676758], [36.796756744384766, 11.407415390014648], [36.75226593017578, 12.24315357208252], [36.9056510925293, 12.436016082763672], [36.99528503417969, 12.886029243469238], [37.224849700927734, 13.143178939819336], [37.1588134765625, 13.336042404174805], [37.305519104003906, 13.336042404174805], [37.621700286865234, 13.914630889892578], [37.558677673339844, 14.171781539916992], [37.873897552490234, 14.686083793640137], [38.13703918457031, 15.650403022766113], [38.287139892578125, 15.714691162109375], [38.53202438354492, 16.228994369506836], [38.682373046875, 16.293283462524414], [39.082115173339844, 16.9361629486084], [39.22315979003906, 16.807586669921875], [39.33268356323242, 16.036130905151367], [39.47370147705078, 15.907554626464844], [39.53190612792969, 15.586114883422852], [39.743446350097656, 15.393251419067383], [39.73439025878906, 15.200387001037598], [39.881446838378906, 15.200387001037598], [39.87247085571289, 15.007523536682129], [39.869503021240234, 14.943235397338867]]], [[[38.139976501464844, 15.714691162109375], [38.14292526245117, 15.77897834777832], [38.216514587402344, 15.77897834777832], [38.213558197021484, 15.714691162109375], [38.139976501464844, 15.714691162109375]]]]}}]}