{
  "type": "FeatureCollection",
  "features": [
    {
      "type": "Feature",
      "properties": {
        "Name": "British Africa",
        "FromYear": 1920,
        "ToYear": 1921,
        "Area": 11262132.912498204,
        "Type": "POLITY",
        "Wikipedia": "Scramble for Africa",
        "Wikidata": "Q179848",
        "SeshatID": "gb_british_emp_2",
        "Components": "",
        "MemberOf": "(British Empire)",
        "displayYear": 1921,
        "sourceYear": 1921,
        "mappedTerritoryId": "cliopatria_british_africa"
      },
      "geometry": {
        "type": "MultiPolygon",
        "coordinates": [
          [
            [
              [
                34.912071228027344,
                -13.664741516113281
              ],
              [
                34.985450744628906,
                -13.664741516113281
              ],
              [
                34.987361907958984,
                -13.729029655456543
              ],
              [
                34.91397476196289,
                -13.729029655456543
              ],
              [
                34.912071228027344,
                -13.664741516113281
              ]
            ]
          ],
          [
            [
              [
                34.910179138183594,
                -13.600454330444336
              ],
              [
                34.912071228027344,
                -13.664741516113281
              ],
              [
                34.838687896728516,
                -13.664741516113281
              ],
              [
                34.8368034362793,
                -13.600454330444336
              ],
              [
                34.910179138183594,
                -13.600454330444336
              ]
            ]
          ],
          [
            [
              [
                35.073753356933594,
                29.536611557006836
              ],
              [
                34.75225830078125,
                29.279497146606445
              ],
              [
                34.71140670776367,
                28.700960159301758
              ],
              [
                34.54724884033203,
                28.508106231689453
              ],
              [
                34.517303466796875,
                28.058101654052734
              ],
              [
                34.35825729370117,
                27.92952537536621
              ],
              [
                34.345943450927734,
                27.736658096313477
              ],
              [
                33.90217590332031,
                27.865236282348633
              ],
              [
                33.553810119628906,
                28.315250396728516
              ],
              [
                33.40296936035156,
                28.315250396728516
              ],
              [
                33.18891525268555,
                28.508106231689453
              ],
              [
                33.213871002197266,
                28.893810272216797
              ],
              [
                32.857112884521484,
                29.21521759033203
              ],
              [
                32.58876037597656,
                29.729440689086914
              ],
              [
                32.60188293457031,
                29.922264099121094
              ],
              [
                32.44160079956055,
                29.79371452331543
              ],
              [
                32.428688049316406,
                29.600887298583984
              ],
              [
                32.638694763183594,
                29.34377670288086
              ],
              [
                32.68916320800781,
                28.958093643188477
              ],
              [
                32.83612823486328,
                28.893810272216797
              ],
              [
                33.10531997680664,
                28.379535675048828
              ],
              [
                33.60887145996094,
                27.993812561035156
              ],
              [
                33.585105895996094,
                27.608078002929688
              ],
              [
                33.7991943359375,
                27.41520881652832
              ],
              [
                33.92659378051758,
                27.029460906982422
              ],
              [
                34.07311248779297,
                26.96516990661621
              ],
              [
                34.05074691772461,
                26.57941436767578
              ],
              [
                34.197208404541016,
                26.515121459960938
              ],
              [
                34.461280822753906,
                25.8721923828125
              ],
              [
                34.60763931274414,
                25.807899475097656
              ],
              [
                35.145530700683594,
                24.650644302368164
              ],
              [
                35.860408782958984,
                24.00774574279785
              ],
              [
                35.85411834716797,
                23.879167556762695
              ],
              [
                35.558753967285156,
                23.943456649780273
              ],
              [
                35.546443939208984,
                23.68630027770996
              ],
              [
                35.808685302734375,
                22.914846420288086
              ],
              [
                36.24660110473633,
                22.72198486328125
              ],
              [
                36.960968017578125,
                22.079116821289062
              ],
              [
                36.943214416503906,
                21.693397521972656
              ],
              [
                37.36817932128906,
                21.24339485168457
              ],
              [
                37.36223220825195,
                21.114822387695312
              ],
              [
                37.21376419067383,
                21.114822387695312
              ],
              [
                37.20489501953125,
                20.921964645385742
              ],
              [
                37.34142303466797,
                20.664819717407227
              ],
              [
                37.243438720703125,
                20.150527954101562
              ],
              [
                37.31755065917969,
                20.150527954101562
              ],
              [
                37.410865783691406,
                18.993366241455078
              ],
              [
                37.555702209472656,
                18.929079055786133
              ],
              [
                37.54951477050781,
                18.800504684448242
              ],
              [
                37.8421516418457,
                18.736217498779297
              ],
              [
                38.192813873291016,
                18.350492477416992
              ],
              [
                38.55583190917969,
                18.2219181060791
              ],
              [
                38.69392395019531,
                18.029054641723633
              ],
              [
                38.690711975097656,
                17.964767456054688
              ],
              [
                38.530277252197266,
                17.707616806030273
              ],
              [
                37.70293045043945,
                17.38617706298828
              ],
              [
                37.54316329956055,
                17.129026412963867
              ],
              [
                37.38962936401367,
                17.000450134277344
              ],
              [
                37.168453216552734,
                17.000450134277344
              ],
              [
                37.0120735168457,
                16.807586669921875
              ],
              [
                37.06218719482422,
                16.293283462524414
              ],
              [
                36.90909957885742,
                16.16470718383789
              ],
              [
                36.651676177978516,
                15.328963279724121
              ],
              [
                36.49644470214844,
                15.136098861694336
              ],
              [
                36.60921859741211,
                14.300357818603516
              ],
              [
                36.51567459106445,
                13.786055564880371
              ],
              [
                36.28096389770508,
                13.40032958984375
              ],
              [
                36.18421173095703,
                12.757453918457031
              ],
              [
                35.81542205810547,
                12.69316577911377
              ],
              [
                35.43568420410156,
                12.307440757751465
              ],
              [
                35.35377502441406,
                12.050291061401367
              ],
              [
                35.20514678955078,
                11.986002922058105
              ],
              [
                34.94656753540039,
                10.764540672302246
              ],
              [
                34.725128173828125,
                10.7002534866333
              ],
              [
                34.65589904785156,
                10.828827857971191
              ],
              [
                34.50957489013672,
                10.828827857971191
              ],
              [
                34.357418060302734,
                10.635965347290039
              ],
              [
                34.342124938964844,
                10.121665954589844
              ],
              [
                34.192134857177734,
                9.993090629577637
              ],
              [
                34.1846923828125,
                9.735940933227539
              ],
              [
                34.032997131347656,
                9.543078422546387
              ],
              [
                34.09336853027344,
                9.09306526184082
              ],
              [
                34.16642379760742,
                9.09306526184082
              ],
              [
                34.15392303466797,
                8.643052101135254
              ],
              [
                33.85480880737305,
                8.385902404785156
              ],
              [
                33.27238464355469,
                8.450189590454102
              ],
              [
                33.04484558105469,
                8.128751754760742
              ],
              [
                33.03813552856445,
                7.871601104736328
              ],
              [
                33.325077056884766,
                7.678738594055176
              ],
              [
                33.68999099731445,
                7.678738594055176
              ],
              [
                34.04645538330078,
                7.357300281524658
              ],
              [
                34.11272430419922,
                7.100150108337402
              ],
              [
                34.75592803955078,
                6.585848808288574
              ],
              [
                35.0943717956543,
                5.557246685028076
              ],
              [
                35.8135986328125,
                5.171521186828613
              ],
              [
                35.73115539550781,
                4.785795211791992
              ],
              [
                36.01472091674805,
                4.464356899261475
              ],
              [
                37.10439682006836,
                4.335781574249268
              ],
              [
                37.60165786743164,
                3.821480512619019
              ],
              [
                37.961124420166016,
                3.628617763519287
              ],
              [
                39.26736831665039,
                3.435754776000977
              ],
              [
                39.48585510253906,
                3.435754776000977
              ],
              [
                39.5634880065918,
                3.628617763519287
              ],
              [
                40.08477783203125,
                4.078630924224854
              ],
              [
                40.5997200012207,
                4.271493911743164
              ],
              [
                40.74542236328125,
                4.271493911743164
              ],
              [
                40.95726776123047,
                4.01434326171875
              ],
              [
                41.24530792236328,
                3.885768175125122
              ],
              [
                41.75687789916992,
                3.950055837631226
              ],
              [
                41.30010986328125,
                3.178604364395142
              ],
              [
                40.928016662597656,
                2.857166290283203
              ],
              [
                40.88401794433594,
                -0.871512532234192
              ],
              [
                41.473365783691406,
                -1.642963409423828
              ],
              [
                41.4739990234375,
                -1.707250952720642
              ],
              [
                41.40313720703125,
                -1.900113701820374
              ],
              [
                41.040462493896484,
                -2.028688907623291
              ],
              [
                41.04179763793945,
                -2.157264232635498
              ],
              [
                40.60911178588867,
                -2.542989730834961
              ],
              [
                40.17366409301758,
                -2.671565055847168
              ],
              [
                40.1030158996582,
                -2.864427804946899
              ],
              [
                40.17881393432617,
                -3.121578216552734
              ],
              [
                39.8193359375,
                -3.507303953170776
              ],
              [
                39.75136947631836,
                -3.893029928207397
              ],
              [
                39.53620529174805,
                -4.150180339813232
              ],
              [
                39.39663314819336,
                -4.600193977355957
              ],
              [
                39.10698318481445,
                -4.728769302368164
              ],
              [
                39.04254150390625,
                -5.307357788085938
              ],
              [
                38.757896423339844,
                -5.757371425628662
              ],
              [
                38.76729965209961,
                -6.335959911346436
              ],
              [
                39.21040725708008,
                -6.657398223876953
              ],
              [
                39.21268844604492,
                -6.78597354888916
              ],
              [
                39.43267822265625,
                -6.850261211395264
              ],
              [
                39.438602447509766,
                -7.171699047088623
              ],
              [
                39.22581481933594,
                -7.493137359619141
              ],
              [
                39.2308349609375,
                -7.750287532806396
              ],
              [
                39.37808609008789,
                -7.8145751953125
              ],
              [
                39.24669647216797,
                -8.52173900604248
              ],
              [
                39.398338317871094,
                -8.778888702392578
              ],
              [
                39.40552520751953,
                -9.100326538085938
              ],
              [
                39.551639556884766,
                -9.100326538085938
              ],
              [
                39.719295501708984,
                -10.000351905822754
              ],
              [
                40.385597229003906,
                -10.321789741516113
              ],
              [
                40.315860748291016,
                -10.45036506652832
              ],
              [
                40.317569732666016,
                -10.514652252197266
              ],
              [
                39.52669906616211,
                -11.028952598571777
              ],
              [
                38.726924896240234,
                -11.22181510925293
              ],
              [
                38.512569427490234,
                -11.414677619934082
              ],
              [
                37.850337982177734,
                -11.286102294921875
              ],
              [
                37.27836990356445,
                -11.800402641296387
              ],
              [
                36.98033142089844,
                -11.607540130615234
              ],
              [
                36.399600982666016,
                -11.800402641296387
              ],
              [
                36.030147552490234,
                -11.67182731628418
              ],
              [
                35.87886047363281,
                -11.478964805603027
              ],
              [
                35.659236907958984,
                -11.478964805603027
              ],
              [
                35.37115478515625,
                -11.67182731628418
              ],
              [
                34.93026351928711,
                -11.607540130615234
              ],
              [
                34.928707122802734,
                -11.543251991271973
              ],
              [
                34.84939193725586,
                -11.286102294921875
              ],
              [
                34.55073165893555,
                -11.028952598571777
              ],
              [
                34.616722106933594,
                -10.707514762878418
              ],
              [
                34.46901321411133,
                -10.643227577209473
              ],
              [
                34.53120422363281,
                -10.128927230834961
              ],
              [
                34.37712478637695,
                -9.743202209472656
              ],
              [
                34.15281295776367,
                -9.486052513122559
              ],
              [
                33.78865051269531,
                -9.550339698791504
              ],
              [
                33.80003356933594,
                -10.128927230834961
              ],
              [
                34.097816467285156,
                -10.386076927185059
              ],
              [
                34.03426742553711,
                -10.836090087890625
              ],
              [
                34.10742950439453,
                -10.836090087890625
              ],
              [
                34.12639236450195,
                -11.67182731628418
              ],
              [
                33.84422302246094,
                -12.12183952331543
              ],
              [
                33.9222297668457,
                -12.314702033996582
              ],
              [
                33.85055923461914,
                -12.378990173339844
              ],
              [
                34.15358352661133,
                -12.764715194702148
              ],
              [
                34.17459487915039,
                -13.536166191101074
              ],
              [
                34.47364807128906,
                -13.729029655456543
              ],
              [
                34.40975570678711,
                -14.050468444824219
              ],
              [
                34.49100875854492,
                -14.307619094848633
              ],
              [
                34.856201171875,
                -14.243330955505371
              ],
              [
                35.00917053222656,
                -14.43619441986084
              ],
              [
                35.22952651977539,
                -14.43619441986084
              ],
              [
                35.14194107055664,
                -13.986180305480957
              ],
              [
                35.13996887207031,
                -13.921893119812012
              ],
              [
                35.517112731933594,
                -14.243330955505371
              ],
              [
                35.827911376953125,
                -14.757633209228516
              ],
              [
                35.83453369140625,
                -14.9504976272583
              ],
              [
                35.76102828979492,
                -14.9504976272583
              ],
              [
                35.79340744018555,
                -15.850528717041016
              ],
              [
                35.07880783081055,
                -16.429121017456055
              ],
              [
                35.090999603271484,
                -16.750560760498047
              ],
              [
                35.24087142944336,
                -16.814847946166992
              ],
              [
                35.179630279541016,
                -17.136287689208984
              ],
              [
                35.03215026855469,
                -17.136287689208984
              ],
              [
                35.02469253540039,
                -16.943424224853516
              ],
              [
                34.4182243347168,
                -16.493408203125
              ],
              [
                34.2592658996582,
                -16.171968460083008
              ],
              [
                34.241172790527344,
                -15.65766429901123
              ],
              [
                34.5200309753418,
                -15.207649230957031
              ],
              [
                34.503135681152344,
                -14.69334602355957
              ],
              [
                34.27464294433594,
                -14.43619441986084
              ],
              [
                33.47053146362305,
                -14.564769744873047
              ],
              [
                33.3140754699707,
                -14.243330955505371
              ],
              [
                32.9414176940918,
                -14.050468444824219
              ],
              [
                32.7982063293457,
                -14.179043769836426
              ],
              [
                32.140907287597656,
                -14.307619094848633
              ],
              [
                31.997604370117188,
                -14.43619441986084
              ],
              [
                30.1030330657959,
                -15.014784812927246
              ],
              [
                30.187198638916016,
                -15.4005126953125
              ],
              [
                30.337955474853516,
                -15.529088973999023
              ],
              [
                30.271799087524414,
                -15.786240577697754
              ],
              [
                30.351057052612305,
                -15.979104042053223
              ],
              [
                31.311996459960938,
                -16.10767936706543
              ],
              [
                31.688365936279297,
                -16.364831924438477
              ],
              [
                32.35554122924805,
                -16.493408203125
              ],
              [
                32.882354736328125,
                -16.814847946166992
              ],
              [
                32.822200775146484,
                -17.20057487487793
              ],
              [
                32.89594650268555,
                -17.20057487487793
              ],
              [
                32.914390563964844,
                -17.71487808227539
              ],
              [
                32.988197326660156,
                -17.71487808227539
              ],
              [
                32.94252014160156,
                -18.486328125
              ],
              [
                32.806453704833984,
                -18.80776596069336
              ],
              [
                32.66090393066406,
                -18.872053146362305
              ],
              [
                32.765296936035156,
                -19.70778465270996
              ],
              [
                32.91575241088867,
                -19.772069931030273
              ],
              [
                32.922786712646484,
                -19.96493148803711
              ],
              [
                32.7166862487793,
                -20.414936065673828
              ],
              [
                32.42918395996094,
                -20.672080993652344
              ],
              [
                32.30568313598633,
                -21.379228591918945
              ],
              [
                31.58287811279297,
                -21.957805633544922
              ],
              [
                31.587352752685547,
                -22.08637809753418
              ],
              [
                31.15446662902832,
                -22.472097396850586
              ],
              [
                31.47768783569336,
                -23.179258346557617
              ],
              [
                31.49466896057129,
                -23.629274368286133
              ],
              [
                31.7285213470459,
                -23.886428833007812
              ],
              [
                31.82691192626953,
                -24.46503448486328
              ],
              [
                31.9016170501709,
                -24.46503448486328
              ],
              [
                31.85214614868164,
                -25.04365348815918
              ],
              [
                31.950843811035156,
                -25.55799102783203
              ],
              [
                31.741628646850586,
                -25.87945556640625
              ],
              [
                31.979326248168945,
                -26.136627197265625
              ],
              [
                32.01644515991211,
                -26.843847274780273
              ],
              [
                32.77128982543945,
                -26.908138275146484
              ],
              [
                32.77493667602539,
                -26.972431182861328
              ],
              [
                32.46742248535156,
                -28.129650115966797
              ],
              [
                32.39204025268555,
                -28.129650115966797
              ],
              [
                32.40810012817383,
                -28.386796951293945
              ],
              [
                32.20628356933594,
                -28.772504806518555
              ],
              [
                31.471363067626953,
                -29.093917846679688
              ],
              [
                31.479625701904297,
                -29.22247886657715
              ],
              [
                31.050657272338867,
                -29.6081485748291
              ],
              [
                30.92886734008789,
                -30.058069229125977
              ],
              [
                30.709970474243164,
                -30.186613082885742
              ],
              [
                30.512697219848633,
                -30.636499404907227
              ],
              [
                30.226333618164062,
                -30.893569946289062
              ],
              [
                30.235191345214844,
                -31.022106170654297
              ],
              [
                29.0786075592041,
                -31.921865463256836
              ],
              [
                29.08751678466797,
                -32.05040740966797
              ],
              [
                28.795475006103516,
                -32.243228912353516
              ],
              [
                28.80441665649414,
                -32.37178039550781
              ],
              [
                28.579601287841797,
                -32.43605422973633
              ],
              [
                28.295957565307617,
                -32.757450103759766
              ],
              [
                28.142902374267578,
                -32.757450103759766
              ],
              [
                27.930932998657227,
                -33.014583587646484
              ],
              [
                27.777732849121094,
                -33.014583587646484
              ],
              [
                27.05025863647461,
                -33.59321212768555
              ],
              [
                26.602413177490234,
                -33.78611755371094
              ],
              [
                25.68050765991211,
                -33.78611755371094
              ],
              [
                25.534900665283203,
                -33.91472625732422
              ],
              [
                25.623991012573242,
                -34.1076545715332
              ],
              [
                24.923879623413086,
                -33.979034423828125
              ],
              [
                24.55475616455078,
                -34.23628616333008
              ],
              [
                24.24691390991211,
                -34.23628616333008
              ],
              [
                23.77424430847168,
                -34.04334259033203
              ],
              [
                23.312828063964844,
                -34.04334259033203
              ],
              [
                23.2429141998291,
                -34.17197036743164
              ],
              [
                22.16250991821289,
                -34.1076545715332
              ],
              [
                21.86113166809082,
                -34.23628616333008
              ],
              [
                21.793655395507812,
                -34.42924118041992
              ],
              [
                21.642757415771484,
                -34.49356460571289
              ],
              [
                20.410131454467773,
                -34.49356460571289
              ],
              [
                19.96156883239746,
                -34.815216064453125
              ],
              [
                19.421598434448242,
                -34.815216064453125
              ],
              [
                19.339284896850586,
                -34.68655014038086
              ],
              [
                19.185089111328125,
                -34.68655014038086
              ],
              [
                19.177505493164062,
                -34.49356460571289
              ],
              [
                18.6358585357666,
                -34.42924118041992
              ],
              [
                18.547183990478516,
                -34.1076545715332
              ],
              [
                18.39561653137207,
                -34.17197036743164
              ],
              [
                18.40249252319336,
                -34.36492156982422
              ],
              [
                18.171493530273438,
                -34.36492156982422
              ],
              [
                18.221874237060547,
                -33.59321212768555
              ],
              [
                17.906478881835938,
                -33.336029052734375
              ],
              [
                17.821664810180664,
                -33.07887268066406
              ],
              [
                17.668426513671875,
                -33.07887268066406
              ],
              [
                17.73320960998535,
                -32.69316864013672
              ],
              [
                18.04127311706543,
                -32.757450103759766
              ],
              [
                18.11372184753418,
                -32.62888717651367
              ],
              [
                18.105669021606445,
                -32.37178039550781
              ],
              [
                18.182086944580078,
                -32.37178039550781
              ],
              [
                18.091903686523438,
                -31.921865463256836
              ],
              [
                17.061403274536133,
                -30.379423141479492
              ],
              [
                16.734535217285156,
                -29.286758422851562
              ],
              [
                16.503910064697266,
                -29.093917846679688
              ],
              [
                16.344560623168945,
                -28.643938064575195
              ],
              [
                16.116992950439453,
                -28.579652786254883
              ],
              [
                15.581916809082031,
                -28.129650115966797
              ],
              [
                15.120694160461426,
                -27.422470092773438
              ],
              [
                15.116925239562988,
                -27.101015090942383
              ],
              [
                14.965174674987793,
                -26.972431182861328
              ],
              [
                14.960474967956543,
                -26.522384643554688
              ],
              [
                14.809735298156738,
                -26.458091735839844
              ],
              [
                14.647401809692383,
                -24.915069580078125
              ],
              [
                14.34538745880127,
                -24.400745391845703
              ],
              [
                14.3369140625,
                -22.472097396850586
              ],
              [
                14.112373352050781,
                -22.08637809753418
              ],
              [
                13.888911247253418,
                -21.957805633544922
              ],
              [
                13.664557456970215,
                -21.443513870239258
              ],
              [
                13.515851974487305,
                -21.379228591918945
              ],
              [
                13.217765808105469,
                -20.864938735961914
              ],
              [
                13.142755508422852,
                -20.47922134399414
              ],
              [
                12.696581840515137,
                -19.772069931030273
              ],
              [
                12.696157455444336,
                -19.57921028137207
              ],
              [
                12.547811508178711,
                -19.45063591003418
              ],
              [
                12.324588775634766,
                -18.872053146362305
              ],
              [
                11.732276916503906,
                -18.35775375366211
              ],
              [
                11.657593727111816,
                -17.84345245361328
              ],
              [
                11.583768844604492,
                -17.84345245361328
              ],
              [
                11.582921028137207,
                -17.329151153564453
              ],
              [
                11.582809448242188,
                -17.264863967895508
              ],
              [
                12.467879295349121,
                -17.264863967895508
              ],
              [
                12.835689544677734,
                -17.00771141052246
              ],
              [
                13.278044700622559,
                -17.00771141052246
              ],
              [
                13.426403045654297,
                -17.20057487487793
              ],
              [
                13.944053649902344,
                -17.457727432250977
              ],
              [
                18.296184539794922,
                -17.3934383392334
              ],
              [
                18.595428466796875,
                -17.71487808227539
              ],
              [
                18.892393112182617,
                -17.84345245361328
              ],
              [
                20.22223663330078,
                -17.90774154663086
              ],
              [
                20.519636154174805,
                -18.03631591796875
              ],
              [
                21.553504943847656,
                -18.03631591796875
              ],
              [
                22.140670776367188,
                -17.84345245361328
              ],
              [
                23.17159080505371,
                -17.71487808227539
              ],
              [
                23.242769241333008,
                -17.586301803588867
              ],
              [
                22.119281768798828,
                -16.68627166748047
              ],
              [
                21.966196060180664,
                -16.364831924438477
              ],
              [
                21.914846420288086,
                -13.021865844726562
              ],
              [
                23.820371627807617,
                -12.9575777053833
              ],
              [
                23.81560707092285,
                -12.636139869689941
              ],
              [
                23.959379196166992,
                -12.443277359008789
              ],
              [
                23.876253128051758,
                -11.736114501953125
              ],
              [
                24.018394470214844,
                -11.414677619934082
              ],
              [
                24.01503562927246,
                -11.157526969909668
              ],
              [
                23.866222381591797,
                -10.964664459228516
              ],
              [
                24.01175308227539,
                -10.90037727355957
              ],
              [
                24.30777359008789,
                -11.157526969909668
              ],
              [
                24.385282516479492,
                -11.478964805603027
              ],
              [
                24.821836471557617,
                -11.286102294921875
              ],
              [
                25.18780517578125,
                -11.286102294921875
              ],
              [
                25.340776443481445,
                -11.736114501953125
              ],
              [
                25.781124114990234,
                -11.800402641296387
              ],
              [
                26.150360107421875,
                -11.993265151977539
              ],
              [
                26.7363224029541,
                -11.993265151977539
              ],
              [
                26.878524780273438,
                -11.736114501953125
              ],
              [
                27.09713363647461,
                -11.67182731628418
              ],
              [
                27.395530700683594,
                -11.993265151977539
              ],
              [
                27.47332763671875,
                -12.250414848327637
              ],
              [
                28.13511848449707,
                -12.378990173339844
              ],
              [
                28.358657836914062,
                -12.571852684020996
              ],
              [
                28.512941360473633,
                -12.9575777053833
              ],
              [
                28.810253143310547,
                -13.15044116973877
              ],
              [
                28.889101028442383,
                -13.407590866088867
              ],
              [
                29.546463012695312,
                -13.279016494750977
              ],
              [
                29.696054458618164,
                -13.407590866088867
              ],
              [
                29.744537353515625,
                -12.250414848327637
              ],
              [
                29.523456573486328,
                -12.186127662658691
              ],
              [
                29.308813095092773,
                -12.443277359008789
              ],
              [
                29.01569366455078,
                -12.443277359008789
              ],
              [
                28.34420394897461,
                -11.800402641296387
              ],
              [
                28.402864456176758,
                -10.964664459228516
              ],
              [
                28.61594581604004,
                -10.578939437866211
              ],
              [
                28.536609649658203,
                -10.193214416503906
              ],
              [
                28.601762771606445,
                -9.678915023803711
              ],
              [
                28.30282211303711,
                -9.228901863098145
              ],
              [
                28.808677673339844,
                -8.84317684173584
              ],
              [
                28.94931983947754,
                -8.457450866699219
              ],
              [
                30.333887100219727,
                -8.264588356018066
              ],
              [
                30.334827423095703,
                -8.328875541687012
              ],
              [
                30.338647842407227,
                -8.586026191711426
              ],
              [
                30.630760192871094,
                -8.586026191711426
              ],
              [
                30.706764221191406,
                -8.778888702392578
              ],
              [
                31.144994735717773,
                -8.778888702392578
              ],
              [
                31.064973831176758,
                -8.328875541687012
              ],
              [
                30.917978286743164,
                -8.264588356018066
              ],
              [
                30.840232849121094,
                -7.943150520324707
              ],
              [
                30.541946411132812,
                -7.493137359619141
              ],
              [
                30.38506507873535,
                -6.657398223876953
              ],
              [
                30.165456771850586,
                -6.59311056137085
              ],
              [
                30.09016990661621,
                -6.400247573852539
              ],
              [
                29.72477912902832,
                -6.335959911346436
              ],
              [
                29.72178077697754,
                -6.078809261322021
              ],
              [
                29.866865158081055,
                -6.014522075653076
              ],
              [
                29.861797332763672,
                -5.564508438110352
              ],
              [
                29.71461296081543,
                -5.435933113098145
              ],
              [
                29.709205627441406,
                -4.921631813049316
              ],
              [
                29.562808990478516,
                -4.857344150543213
              ],
              [
                29.558984756469727,
                -4.47161865234375
              ],
              [
                29.55836296081543,
                -4.407330989837646
              ],
              [
                29.92139434814453,
                -4.278755664825439
              ],
              [
                30.27956199645996,
                -3.635879278182983
              ],
              [
                30.569135665893555,
                -3.443016529083252
              ],
              [
                30.710798263549805,
                -2.993003129959106
              ],
              [
                30.41897201538086,
                -2.928715467453003
              ],
              [
                30.342952728271484,
                -2.542989730834961
              ],
              [
                30.77720832824707,
                -2.221551656723022
              ],
              [
                30.773244857788086,
                -1.707250952720642
              ],
              [
                30.332355499267578,
                -1.128662824630737
              ],
              [
                30.186782836914062,
                -1.128662824630737
              ],
              [
                29.897871017456055,
                -1.450100660324097
              ],
              [
                29.53302764892578,
                -1.321525454521179
              ],
              [
                29.457225799560547,
                -0.871512532234192
              ],
              [
                29.530006408691406,
                -0.871512532234192
              ],
              [
                29.6591796875,
                0.221375524997711
              ],
              [
                29.884164810180664,
                0.542813181877136
              ],
              [
                29.890840530395508,
                0.864250957965851
              ],
              [
                31.15127182006836,
                1.957139730453491
              ],
              [
                31.22819709777832,
                2.150002479553223
              ],
              [
                30.724071502685547,
                2.407152891159058
              ],
              [
                30.821918487548828,
                3.564330101013184
              ],
              [
                30.603418350219727,
                3.564330101013184
              ],
              [
                30.32048988342285,
                3.950055837631226
              ],
              [
                30.030515670776367,
                4.01434326171875
              ],
              [
                29.89183235168457,
                4.335781574249268
              ],
              [
                29.53456687927246,
                4.657219886779785
              ],
              [
                29.16329002380371,
                4.335781574249268
              ],
              [
                28.58320426940918,
                4.464356899261475
              ],
              [
                28.434749603271484,
                4.335781574249268
              ],
              [
                28.2161865234375,
                4.335781574249268
              ],
              [
                27.855979919433594,
                4.528644561767578
              ],
              [
                27.215042114257812,
                5.235808849334717
              ],
              [
                27.22317886352539,
                5.62153434753418
              ],
              [
                26.502262115478516,
                6.007260322570801
              ],
              [
                26.504953384399414,
                6.135835647583008
              ],
              [
                26.290231704711914,
                6.328698635101318
              ],
              [
                26.296966552734375,
                6.650136470794678
              ],
              [
                26.08084487915039,
                6.778711795806885
              ],
              [
                26.083538055419922,
                6.907287120819092
              ],
              [
                25.79710578918457,
                7.164437294006348
              ],
              [
                25.218721389770508,
                7.421587944030762
              ],
              [
                25.226688385009766,
                7.807313442230225
              ],
              [
                24.937376022338867,
                7.935888767242432
              ],
              [
                24.723649978637695,
                8.193038940429688
              ],
              [
                24.213891983032227,
                8.25732707977295
              ],
              [
                24.146059036254883,
                8.514476776123047
              ],
              [
                24.22038459777832,
                8.578764915466309
              ],
              [
                24.076921463012695,
                8.707340240478516
              ],
              [
                23.566953659057617,
                8.771627426147461
              ],
              [
                23.50156021118164,
                9.157352447509766
              ],
              [
                23.72589874267578,
                9.41450309753418
              ],
              [
                23.66318130493164,
                9.928803443908691
              ],
              [
                23.451618194580078,
                10.314528465270996
              ],
              [
                22.878021240234375,
                10.893115997314453
              ],
              [
                22.958913803100586,
                11.278841018676758
              ],
              [
                22.598047256469727,
                11.535990715026855
              ],
              [
                22.680299758911133,
                11.986002922058105
              ],
              [
                22.53510093688965,
                12.050291061401367
              ],
              [
                22.465726852416992,
                12.24315357208252
              ],
              [
                22.47354507446289,
                12.628878593444824
              ],
              [
                21.888460159301758,
                12.69316577911377
              ],
              [
                21.894859313964844,
                13.014603614807129
              ],
              [
                22.266767501831055,
                13.271754264831543
              ],
              [
                22.2054386138916,
                13.850343704223633
              ],
              [
                22.57798194885254,
                14.107494354248047
              ],
              [
                22.51580810546875,
                14.621796607971191
              ],
              [
                22.664186477661133,
                14.686083793640137
              ],
              [
                22.74348258972168,
                14.943235397338867
              ],
              [
                23.045000076293945,
                15.26467514038086
              ],
              [
                23.052614212036133,
                15.586114883422852
              ],
              [
                23.35001564025879,
                15.714691162109375
              ],
              [
                23.938671112060547,
                15.714691162109375
              ],
              [
                24.089113235473633,
                15.843266487121582
              ],
              [
                24.037635803222656,
                19.571949005126953
              ],
              [
                23.449888229370117,
                19.764808654785156
              ],
              [
                23.378820419311523,
                19.893383026123047
              ],
              [
                22.937223434448242,
                20.021955490112305
              ],
              [
                22.865962982177734,
                20.150527954101562
              ],
              [
                21.690279006958008,
                20.664819717407227
              ],
              [
                21.25114631652832,
                20.986249923706055
              ],
              [
                20.808090209960938,
                21.114822387695312
              ],
              [
                20.73607635498047,
                21.24339485168457
              ],
              [
                19.776775360107422,
                21.629112243652344
              ],
              [
                19.704429626464844,
                21.7576847076416
              ],
              [
                18.964805603027344,
                22.014829635620117
              ],
              [
                18.892210006713867,
                22.143402099609375
              ],
              [
                18.2996768951416,
                22.33626365661621
              ],
              [
                18.226879119873047,
                22.46483612060547
              ],
              [
                16.374088287353516,
                23.30057144165039
              ],
              [
                16.375261306762695,
                23.429147720336914
              ],
              [
                18.92595863342285,
                24.522062301635742
              ],
              [
                18.966373443603516,
                26.836584091186523
              ],
              [
                18.891252517700195,
                26.836584091186523
              ],
              [
                18.97939109802246,
                27.4794979095459
              ],
              [
                19.28318214416504,
                27.608078002929688
              ],
              [
                19.514863967895508,
                27.865236282348633
              ],
              [
                19.665517807006836,
                27.865236282348633
              ],
              [
                19.820816040039062,
                28.058101654052734
              ],
              [
                19.97154998779297,
                28.058101654052734
              ],
              [
                20.204238891601562,
                28.315250396728516
              ],
              [
                20.35508155822754,
                28.315250396728516
              ],
              [
                20.511127471923828,
                28.508106231689453
              ],
              [
                20.66205406188965,
                28.508106231689453
              ],
              [
                20.818435668945312,
                28.700960159301758
              ],
              [
                20.969446182250977,
                28.700960159301758
              ],
              [
                21.126171112060547,
                28.893810272216797
              ],
              [
                21.277267456054688,
                28.893810272216797
              ],
              [
                21.28118324279785,
                29.022375106811523
              ],
              [
                21.50590705871582,
                28.958093643188477
              ],
              [
                21.718536376953125,
                28.508106231689453
              ],
              [
                22.161165237426758,
                28.186676025390625
              ],
              [
                22.9129695892334,
                28.12238883972168
              ],
              [
                23.21887969970703,
                28.25096321105957
              ],
              [
                23.685270309448242,
                28.636676788330078
              ],
              [
                23.92885971069336,
                29.08665657043457
              ],
              [
                23.941450119018555,
                29.40805435180664
              ],
              [
                23.729698181152344,
                29.79371452331543
              ],
              [
                23.910633087158203,
                30.500701904296875
              ],
              [
                24.07367706298828,
                30.757776260375977
              ],
              [
                24.307418823242188,
                30.886310577392578
              ],
              [
                24.313230514526367,
                31.014846801757812
              ],
              [
                25.102048873901367,
                31.593257904052734
              ],
              [
                25.17825698852539,
                31.593257904052734
              ],
              [
                25.248035430908203,
                31.464719772338867
              ],
              [
                26.847702026367188,
                31.464719772338867
              ],
              [
                27.297456741333008,
                31.336183547973633
              ],
              [
                27.514896392822266,
                31.143381118774414
              ],
              [
                28.496395111083984,
                31.014846801757812
              ],
              [
                28.865032196044922,
                30.822044372558594
              ],
              [
                29.3970890045166,
                30.822044372558594
              ],
              [
                29.485143661499023,
                31.014846801757812
              ],
              [
                29.633193969726562,
                30.950578689575195
              ],
              [
                29.86956024169922,
                31.079113006591797
              ],
              [
                29.8017635345459,
                31.20764923095703
              ],
              [
                29.882049560546875,
                31.271915435791016
              ],
              [
                30.33879280090332,
                31.271915435791016
              ],
              [
                30.271244049072266,
                31.40045166015625
              ],
              [
                30.351730346679688,
                31.464719772338867
              ],
              [
                30.80877685546875,
                31.464719772338867
              ],
              [
                30.965608596801758,
                31.528987884521484
              ],
              [
                30.974620819091797,
                31.65752601623535
              ],
              [
                31.203296661376953,
                31.65752601623535
              ],
              [
                31.117990493774414,
                31.528987884521484
              ],
              [
                31.265825271606445,
                31.464719772338867
              ],
              [
                31.875221252441406,
                31.464719772338867
              ],
              [
                31.780553817749023,
                31.20764923095703
              ],
              [
                31.93739891052246,
                31.271915435791016
              ],
              [
                31.999635696411133,
                31.079113006591797
              ],
              [
                32.303932189941406,
                31.079113006591797
              ],
              [
                32.23719787597656,
                31.20764923095703
              ],
              [
                32.38941192626953,
                31.20764923095703
              ],
              [
                32.53215408325195,
                31.079113006591797
              ],
              [
                32.76515197753906,
                31.143381118774414
              ],
              [
                32.8316764831543,
                31.014846801757812
              ],
              [
                33.74934005737305,
                31.079113006591797
              ],
              [
                34.2972412109375,
                31.271915435791016
              ],
              [
                34.30759811401367,
                31.40045166015625
              ],
              [
                34.546607971191406,
                31.528987884521484
              ],
              [
                34.6388053894043,
                31.7217960357666
              ],
              [
                34.57329559326172,
                31.8503360748291
              ],
              [
                34.81304168701172,
                31.978878021240234
              ],
              [
                34.76983642578125,
                32.36451721191406
              ],
              [
                35.021759033203125,
                32.62162780761719
              ],
              [
                35.05632781982422,
                33.00732421875
              ],
              [
                35.21538543701172,
                33.07160949707031
              ],
              [
                35.22126770019531,
                33.13589859008789
              ],
              [
                35.44523620605469,
                33.07160949707031
              ],
              [
                35.7758674621582,
                33.32876968383789
              ],
              [
                35.910987854003906,
                33.13589859008789
              ],
              [
                35.792545318603516,
                32.685909271240234
              ],
              [
                35.71603775024414,
                32.685909271240234
              ],
              [
                35.639530181884766,
                32.685909271240234
              ],
              [
                35.59320831298828,
                32.171695709228516
              ],
              [
                35.66957092285156,
                32.171695709228516
              ],
              [
                35.50981140136719,
                31.20764923095703
              ],
              [
                35.504417419433594,
                31.143381118774414
              ],
              [
                35.39126968383789,
                30.69350814819336
              ],
              [
                35.22385025024414,
                30.500701904296875
              ],
              [
                35.073753356933594,
                29.536611557006836
              ]
            ]
          ],
          [
            [
              [
                0.487985253334045,
                9.221640586853027
              ],
              [
                0.413348734378815,
                8.578764915466309
              ],
              [
                0.704814195632935,
                8.385902404785156
              ],
              [
                0.554739773273468,
                7.421587944030762
              ],
              [
                0.69967246055603,
                7.228724956512451
              ],
              [
                0.552698075771332,
                7.035862445831299
              ],
              [
                0.550810694694519,
                6.714424133300781
              ],
              [
                1.129834055900574,
                6.071547985076904
              ],
              [
                1.129348993301392,
                6.007260322570801
              ],
              [
                0.908639550209045,
                5.750109672546387
              ],
              [
                0.10624348372221,
                5.685822010040283
              ],
              [
                -0.772451758384705,
                5.171521186828613
              ],
              [
                -1.502264022827148,
                5.042945861816406
              ],
              [
                -1.86923885345459,
                4.721507549285889
              ],
              [
                -2.233568429946899,
                4.721507549285889
              ],
              [
                -2.450636863708496,
                4.914370536804199
              ],
              [
                -2.88738751411438,
                4.978658199310303
              ],
              [
                -2.960261583328247,
                4.978658199310303
              ],
              [
                -2.959325551986694,
                5.10723352432251
              ],
              [
                -2.739772319793701,
                5.235808849334717
              ],
              [
                -2.738029479980469,
                5.492959022521973
              ],
              [
                -2.955893516540527,
                5.62153434753418
              ],
              [
                -3.026559114456177,
                6.007260322570801
              ],
              [
                -3.171709775924683,
                6.135835647583008
              ],
              [
                -3.241532325744629,
                6.842999458312988
              ],
              [
                -3.020807981491089,
                7.421587944030762
              ],
              [
                -2.87452220916748,
                7.550163269042969
              ],
              [
                -2.874063730239868,
                7.743025779724121
              ],
              [
                -2.508231639862061,
                8.193038940429688
              ],
              [
                -2.507708787918091,
                8.643052101135254
              ],
              [
                -2.726715087890625,
                8.964489936828613
              ],
              [
                -2.653800964355469,
                9.350214958190918
              ],
              [
                -2.726871490478516,
                9.350214958190918
              ],
              [
                -2.728187799453735,
                10.185953140258789
              ],
              [
                -2.875137090682983,
                10.443102836608887
              ],
              [
                -2.803768634796143,
                10.957403182983398
              ],
              [
                -0.8282870054245,
                11.021690368652344
              ],
              [
                -0.535349071025848,
                10.893115997314453
              ],
              [
                -0.316173881292343,
                11.085978507995605
              ],
              [
                -0.023454179987311,
                11.085978507995605
              ],
              [
                0.049905676394701,
                10.957403182983398
              ],
              [
                -0.023265460506082,
                10.957403182983398
              ],
              [
                -0.022916218265891,
                10.635965347290039
              ],
              [
                0.416020572185516,
                10.250240325927734
              ],
              [
                0.342371582984924,
                9.543078422546387
              ],
              [
                0.269289970397949,
                9.543078422546387
              ],
              [
                0.342187166213989,
                9.41450309753418
              ],
              [
                0.415261268615723,
                9.41450309753418
              ],
              [
                0.561295866966248,
                9.350214958190918
              ],
              [
                0.561048269271851,
                9.221640586853027
              ],
              [
                0.487985253334045,
                9.221640586853027
              ]
            ]
          ],
          [
            [
              [
                -10.392821311950684,
                8.128751754760742
              ],
              [
                -10.611357688903809,
                8.000176429748535
              ],
              [
                -10.756134033203125,
                7.614450931549072
              ],
              [
                -10.902092933654785,
                7.614450931549072
              ],
              [
                -11.338984489440918,
                7.228724956512451
              ],
              [
                -11.411490440368652,
                6.971574783325195
              ],
              [
                -11.557390213012695,
                6.971574783325195
              ],
              [
                -11.630340576171875,
                6.971574783325195
              ],
              [
                -12.214361190795898,
                7.164437294006348
              ],
              [
                -12.50695514678955,
                7.421587944030762
              ],
              [
                -12.945012092590332,
                7.485875606536865
              ],
              [
                -12.945784568786621,
                7.678738594055176
              ],
              [
                -12.727107048034668,
                7.743025779724121
              ],
              [
                -12.873078346252441,
                7.743025779724121
              ],
              [
                -12.947978019714355,
                8.128751754760742
              ],
              [
                -13.31415843963623,
                8.321614265441895
              ],
              [
                -13.31541919708252,
                8.514476776123047
              ],
              [
                -13.096779823303223,
                8.578764915466309
              ],
              [
                -13.316317558288574,
                8.643052101135254
              ],
              [
                -13.3172607421875,
                8.771627426147461
              ],
              [
                -13.171667098999023,
                8.835914611816406
              ],
              [
                -13.31876277923584,
                8.964489936828613
              ],
              [
                -13.319286346435547,
                9.028778076171875
              ],
              [
                -12.882011413574219,
                9.157352447509766
              ],
              [
                -12.449934959411621,
                9.86451530456543
              ],
              [
                -12.084430694580078,
                9.86451530456543
              ],
              [
                -11.939462661743164,
                9.993090629577637
              ],
              [
                -11.281484603881836,
                9.993090629577637
              ],
              [
                -10.913736343383789,
                9.735940933227539
              ],
              [
                -10.838627815246582,
                9.478790283203125
              ],
              [
                -10.692002296447754,
                9.41450309753418
              ],
              [
                -10.540809631347656,
                8.578764915466309
              ],
              [
                -10.613837242126465,
                8.578764915466309
              ],
              [
                -10.685644149780273,
                8.321614265441895
              ],
              [
                -10.24810791015625,
                8.450189590454102
              ],
              [
                -10.392821311950684,
                8.128751754760742
              ]
            ]
          ],
          [
            [
              [
                8.40315055847168,
                13.07889175415039
              ],
              [
                8.76948070526123,
                13.014603614807129
              ],
              [
                8.988409042358398,
                12.821741104125977
              ],
              [
                9.574493408203125,
                12.757453918457031
              ],
              [
                10.164381980895996,
                13.271754264831543
              ],
              [
                10.384861946105957,
                13.336042404174805
              ],
              [
                11.192243576049805,
                13.40032958984375
              ],
              [
                11.851381301879883,
                13.271754264831543
              ],
              [
                12.143057823181152,
                13.07889175415039
              ],
              [
                12.436383247375488,
                13.07889175415039
              ],
              [
                12.880118370056152,
                13.464617729187012
              ],
              [
                13.616464614868164,
                13.721768379211426
              ],
              [
                14.123007774353027,
                13.07889175415039
              ],
              [
                14.189059257507324,
                12.436016082763672
              ],
              [
                14.69894027709961,
                12.178865432739258
              ],
              [
                14.617207527160645,
                11.47170352935791
              ],
              [
                13.8082857131958,
                11.15026569366455
              ],
              [
                13.582919120788574,
                10.635965347290039
              ],
              [
                13.579967498779297,
                10.378815650939941
              ],
              [
                13.28304386138916,
                9.993090629577637
              ],
              [
                13.278571128845215,
                9.607365608215332
              ],
              [
                12.91019058227539,
                9.350214958190918
              ],
              [
                12.906442642211914,
                9.028778076171875
              ],
              [
                12.756562232971191,
                8.707340240478516
              ],
              [
                12.610492706298828,
                8.707340240478516
              ],
              [
                12.241597175598145,
                8.385902404785156
              ],
              [
                12.237802505493164,
                8.06446361541748
              ],
              [
                11.866700172424316,
                7.550163269042969
              ],
              [
                11.787454605102539,
                7.035862445831299
              ],
              [
                11.566218376159668,
                6.842999458312988
              ],
              [
                11.415517807006836,
                6.457273483276367
              ],
              [
                11.269660949707031,
                6.457273483276367
              ],
              [
                10.385770797729492,
                5.750109672546387
              ],
              [
                10.167067527770996,
                5.750109672546387
              ],
              [
                9.942658424377441,
                5.300096035003662
              ],
              [
                9.796062469482422,
                5.235808849334717
              ],
              [
                9.865591049194336,
                4.978658199310303
              ],
              [
                9.71729850769043,
                4.785795211791992
              ],
              [
                9.571562767028809,
                4.785795211791992
              ],
              [
                9.421545028686523,
                4.464356899261475
              ],
              [
                9.48822021484375,
                4.01434326171875
              ],
              [
                9.415375709533691,
                4.01434326171875
              ],
              [
                9.413575172424316,
                3.885768175125122
              ],
              [
                9.050261497497559,
                3.950055837631226
              ],
              [
                8.906341552734375,
                4.078630924224854
              ],
              [
                8.839529991149902,
                4.528644561767578
              ],
              [
                8.331167221069336,
                4.657219886779785
              ],
              [
                8.332807540893555,
                4.785795211791992
              ],
              [
                8.18379020690918,
                4.528644561767578
              ],
              [
                7.891526222229004,
                4.464356899261475
              ],
              [
                6.725000381469727,
                4.400069236755371
              ],
              [
                6.653730869293213,
                4.528644561767578
              ],
              [
                6.652144432067871,
                4.400069236755371
              ],
              [
                6.431980609893799,
                4.271493911743164
              ],
              [
                5.922014236450195,
                4.271493911743164
              ],
              [
                5.488726139068604,
                4.592932224273682
              ],
              [
                5.345950603485107,
                4.850082874298096
              ],
              [
                5.27870512008667,
                5.364383697509766
              ],
              [
                5.132930755615234,
                5.364383697509766
              ],
              [
                5.134938716888428,
                5.557246685028076
              ],
              [
                4.989804267883301,
                5.62153434753418
              ],
              [
                4.847793102264404,
                6.007260322570801
              ],
              [
                4.558522701263428,
                6.264410972595215
              ],
              [
                4.195046424865723,
                6.392985820770264
              ],
              [
                2.808943748474121,
                6.328698635101318
              ],
              [
                2.73602032661438,
                6.328698635101318
              ],
              [
                2.818030118942261,
                7.614450931549072
              ],
              [
                2.745050668716431,
                7.614450931549072
              ],
              [
                2.751929998397827,
                8.964489936828613
              ],
              [
                3.117725372314453,
                9.09306526184082
              ],
              [
                3.192554473876953,
                9.543078422546387
              ],
              [
                3.339632987976074,
                9.800228118896484
              ],
              [
                3.632693290710449,
                9.993090629577637
              ],
              [
                3.633700609207153,
                10.314528465270996
              ],
              [
                3.853660583496094,
                10.507390975952148
              ],
              [
                3.781901836395264,
                11.085978507995605
              ],
              [
                3.56268310546875,
                11.278841018676758
              ],
              [
                3.563173770904541,
                11.664566040039062
              ],
              [
                3.709814310073853,
                11.857428550720215
              ],
              [
                3.710121631622314,
                12.500303268432617
              ],
              [
                4.1499342918396,
                13.014603614807129
              ],
              [
                4.223119735717773,
                13.464617729187012
              ],
              [
                4.589862823486328,
                13.721768379211426
              ],
              [
                5.837568759918213,
                13.850343704223633
              ],
              [
                6.130897045135498,
                13.657480239868164
              ],
              [
                6.424422264099121,
                13.657480239868164
              ],
              [
                6.936327457427979,
                13.014603614807129
              ],
              [
                7.229846954345703,
                13.07889175415039
              ],
              [
                7.303178310394287,
                13.07889175415039
              ],
              [
                7.744143486022949,
                13.336042404174805
              ],
              [
                8.110910415649414,
                13.336042404174805
              ],
              [
                8.40315055847168,
                13.07889175415039
              ]
            ]
          ],
          [
            [
              [
                -15.362143516540527,
                13.336042404174805
              ],
              [
                -15.728910446166992,
                13.336042404174805
              ],
              [
                -15.725882530212402,
                13.207467079162598
              ],
              [
                -15.871064186096191,
                13.143178939819336
              ],
              [
                -16.749553680419922,
                13.07889175415039
              ],
              [
                -16.822885513305664,
                13.07889175415039
              ],
              [
                -16.830827713012695,
                13.40032958984375
              ],
              [
                -16.54062843322754,
                13.528904914855957
              ],
              [
                -16.542268753051758,
                13.593193054199219
              ],
              [
                -15.88029956817627,
                13.528904914855957
              ],
              [
                -15.515010833740234,
                13.593193054199219
              ],
              [
                -15.226210594177246,
                13.786055564880371
              ],
              [
                -14.859247207641602,
                13.786055564880371
              ],
              [
                -14.782773971557617,
                13.657480239868164
              ],
              [
                -14.264707565307617,
                13.464617729187012
              ],
              [
                -13.7511568069458,
                13.464617729187012
              ],
              [
                -14.039009094238281,
                13.207467079162598
              ],
              [
                -14.407129287719727,
                13.271754264831543
              ],
              [
                -14.480477333068848,
                13.271754264831543
              ],
              [
                -14.926488876342773,
                13.528904914855957
              ],
              [
                -15.146598815917969,
                13.528904914855957
              ],
              [
                -15.362143516540527,
                13.336042404174805
              ]
            ]
          ],
          [
            [
              [
                35.06267547607422,
                -13.793316841125488
              ],
              [
                35.136070251464844,
                -13.793316841125488
              ],
              [
                35.13801193237305,
                -13.85760498046875
              ],
              [
                35.064613342285156,
                -13.85760498046875
              ],
              [
                35.06267547607422,
                -13.793316841125488
              ]
            ]
          ],
          [
            [
              [
                39.52406311035156,
                -7.8145751953125
              ],
              [
                39.66746139526367,
                -7.685999870300293
              ],
              [
                39.81342697143555,
                -7.685999870300293
              ],
              [
                39.81732940673828,
                -7.878862857818604
              ],
              [
                39.74433898925781,
                -7.878862857818604
              ],
              [
                39.67397689819336,
                -8.007437705993652
              ],
              [
                39.52798080444336,
                -8.007437705993652
              ],
              [
                39.52406311035156,
                -7.8145751953125
              ]
            ]
          ],
          [
            [
              [
                39.42695236206055,
                -6.528822898864746
              ],
              [
                39.05683135986328,
                -6.207384586334229
              ],
              [
                39.12240219116211,
                -5.757371425628662
              ],
              [
                39.26820755004883,
                -5.757371425628662
              ],
              [
                39.34318161010742,
                -5.885946750640869
              ],
              [
                39.34423065185547,
                -5.950234413146973
              ],
              [
                39.3474235534668,
                -6.143096923828125
              ],
              [
                39.493255615234375,
                -6.143096923828125
              ],
              [
                39.42695236206055,
                -6.528822898864746
              ]
            ]
          ],
          [
            [
              [
                39.70050048828125,
                -5.435933113098145
              ],
              [
                39.55472183227539,
                -5.435933113098145
              ],
              [
                39.54981994628906,
                -5.114494800567627
              ],
              [
                39.54886245727539,
                -5.050207138061523
              ],
              [
                39.546966552734375,
                -4.921631813049316
              ],
              [
                39.76653289794922,
                -4.98591947555542
              ],
              [
                39.70050048828125,
                -5.435933113098145
              ]
            ]
          ],
          [
            [
              [
                55.42900085449219,
                -4.728769302368164
              ],
              [
                55.430362701416016,
                -4.793056964874268
              ],
              [
                55.20771789550781,
                -4.600193977355957
              ],
              [
                55.426307678222656,
                -4.600193977355957
              ],
              [
                55.42900085449219,
                -4.728769302368164
              ]
            ]
          ],
          [
            [
              [
                47.25631332397461,
                11.214552879333496
              ],
              [
                47.985382080078125,
                11.15026569366455
              ],
              [
                48.359859466552734,
                11.343128204345703
              ],
              [
                49.1650390625,
                11.343128204345703
              ],
              [
                49.23823547363281,
                11.343128204345703
              ],
              [
                49.437564849853516,
                10.893115997314453
              ],
              [
                49.44538116455078,
                9.350214958190918
              ],
              [
                49.06222915649414,
                8.900202751159668
              ],
              [
                48.69451904296875,
                8.835914611816406
              ],
              [
                48.24168014526367,
                8.450189590454102
              ],
              [
                48.2345085144043,
                8.25732707977295
              ],
              [
                47.85776901245117,
                7.935888767242432
              ],
              [
                46.83811569213867,
                8.000176429748535
              ],
              [
                46.69668197631836,
                8.128751754760742
              ],
              [
                43.809783935546875,
                9.09306526184082
              ],
              [
                43.59975051879883,
                9.350214958190918
              ],
              [
                43.38283157348633,
                9.41450309753418
              ],
              [
                43.25056457519531,
                9.800228118896484
              ],
              [
                43.035945892333984,
                9.928803443908691
              ],
              [
                42.76240539550781,
                10.443102836608887
              ],
              [
                42.85749435424805,
                11.021690368652344
              ],
              [
                43.08203125,
                11.15026569366455
              ],
              [
                43.243717193603516,
                11.535990715026855
              ],
              [
                43.31692886352539,
                11.535990715026855
              ],
              [
                43.67005920410156,
                11.214552879333496
              ],
              [
                43.73307418823242,
                10.957403182983398
              ],
              [
                44.083831787109375,
                10.571678161621094
              ],
              [
                44.371421813964844,
                10.443102836608887
              ],
              [
                44.885902404785156,
                10.507390975952148
              ],
              [
                44.959041595458984,
                10.507390975952148
              ],
              [
                45.25415802001953,
                10.571678161621094
              ],
              [
                45.706058502197266,
                10.893115997314453
              ],
              [
                46.578712463378906,
                10.764540672302246
              ],
              [
                47.25631332397461,
                11.214552879333496
              ]
            ]
          ],
          [
            [
              [
                54.50330352783203,
                12.628878593444824
              ],
              [
                54.49269104003906,
                12.436016082763672
              ],
              [
                54.192623138427734,
                12.307440757751465
              ],
              [
                53.533199310302734,
                12.307440757751465
              ],
              [
                53.390071868896484,
                12.37172794342041
              ],
              [
                53.39694595336914,
                12.500303268432617
              ],
              [
                53.32366180419922,
                12.500303268432617
              ],
              [
                53.48419189453125,
                12.757453918457031
              ],
              [
                54.21724319458008,
                12.757453918457031
              ],
              [
                54.50330352783203,
                12.628878593444824
              ]
            ]
          ]
        ]
      }
    }
  ]
}
