{
  "type": "FeatureCollection",
  "features": [
    {
      "type": "Feature",
      "properties": {
        "Name": "Warring States Japan",
        "FromYear": 1600,
        "ToYear": 1601,
        "Area": 165189.4517422463,
        "Type": "POLITY",
        "Wikipedia": "Azuchi-Momoyama period",
        "Wikidata": "Q204023",
        "SeshatID": "jp_azuchi_momoyama",
        "Components": "",
        "MemberOf": "",
        "displayYear": 1600,
        "sourceYear": 1600,
        "mappedTerritoryId": "cliopatria_warring_states_japan"
      },
      "geometry": {
        "type": "MultiPolygon",
        "coordinates": [
          [
            [
              [
                130.2698211669922,
                31.593257904052734
              ],
              [
                130.09951782226562,
                31.91460609436035
              ],
              [
                130.3128204345703,
                32.23596954345703
              ],
              [
                130.77125126534045,
                32.23596954345703
              ],
              [
                130.84285030069915,
                32.40125109524736
              ],
              [
                130.5211181640625,
                32.36451721191406
              ],
              [
                130.6051483154297,
                32.557350158691406
              ],
              [
                130.5086212158203,
                32.685909271240234
              ],
              [
                130.53697204589844,
                32.75019073486328
              ],
              [
                130.7950439453125,
                32.81447219848633
              ],
              [
                130.76654052734375,
                32.75019073486328
              ],
              [
                131.1206817626953,
                32.685909271240234
              ],
              [
                131.09228515625,
                32.62162780761719
              ],
              [
                131.08409118652344,
                32.428794860839844
              ],
              [
                131.07664489746094,
                32.23596954345703
              ],
              [
                131.10450744628906,
                32.30024337768555
              ],
              [
                131.25730895996094,
                32.30024337768555
              ],
              [
                131.27796936035156,
                32.171695709228516
              ],
              [
                131.5834197998047,
                32.171695709228516
              ],
              [
                131.5556182861328,
                32.107421875
              ],
              [
                131.63197326660156,
                32.107421875
              ],
              [
                131.5216827392578,
                31.8503360748291
              ],
              [
                131.59796142578125,
                31.8503360748291
              ],
              [
                131.40859985351562,
                31.40045166015625
              ],
              [
                131.1801300048828,
                31.40045166015625
              ],
              [
                131.20314025878906,
                31.271915435791016
              ],
              [
                130.79380798339844,
                31.014846801757812
              ],
              [
                130.64169311523438,
                31.014846801757812
              ],
              [
                130.69384765625,
                31.143381118774414
              ],
              [
                130.72006225585938,
                31.20764923095703
              ],
              [
                130.465576171875,
                31.143381118774414
              ],
              [
                130.1374053955078,
                31.271915435791016
              ],
              [
                130.2698211669922,
                31.593257904052734
              ]
            ]
          ],
          [
            [
              [
                128.929931640625,
                32.75019073486328
              ],
              [
                128.76983642578125,
                32.557350158691406
              ],
              [
                128.693359375,
                32.557350158691406
              ],
              [
                128.56813049316406,
                32.62162780761719
              ],
              [
                128.65182495117188,
                32.81447219848633
              ],
              [
                128.88145446777344,
                32.81447219848633
              ],
              [
                128.929931640625,
                32.75019073486328
              ]
            ]
          ],
          [
            [
              [
                130.4980926513672,
                33.00732421875
              ],
              [
                130.3448944091797,
                33.00732421875
              ],
              [
                130.37364196777344,
                33.07160949707031
              ],
              [
                130.29702758789062,
                33.07160949707031
              ],
              [
                130.28770446777344,
                32.878753662109375
              ],
              [
                130.44082641601562,
                32.878753662109375
              ],
              [
                130.327392578125,
                32.62162780761719
              ],
              [
                130.09791564941406,
                32.62162780761719
              ],
              [
                130.1543426513672,
                32.75019073486328
              ],
              [
                130.0012969970703,
                32.75019073486328
              ],
              [
                129.79196166992188,
                32.62162780761719
              ],
              [
                129.6951904296875,
                32.75019073486328
              ],
              [
                129.75177001953125,
                32.878753662109375
              ],
              [
                129.6270294189453,
                32.94303894042969
              ],
              [
                129.68408203125,
                33.07160949707031
              ],
              [
                129.55947875976562,
                33.13589859008789
              ],
              [
                129.5981903076172,
                33.393062591552734
              ],
              [
                129.8283233642578,
                33.393062591552734
              ],
              [
                129.91595458984375,
                33.5859489440918
              ],
              [
                130.3292694091797,
                33.65024948120117
              ],
              [
                130.4182586669922,
                33.84315490722656
              ],
              [
                130.60183715820312,
                33.90746307373047
              ],
              [
                130.67869567871094,
                33.90746307373047
              ],
              [
                130.70867919921875,
                33.971771240234375
              ],
              [
                130.86244201660156,
                33.971771240234375
              ],
              [
                130.87612915039062,
                34.164703369140625
              ],
              [
                130.7991943359375,
                34.164703369140625
              ],
              [
                130.9210968017578,
                34.42197799682617
              ],
              [
                131.4140167236328,
                34.48630142211914
              ],
              [
                131.4759063720703,
                34.614952087402344
              ],
              [
                132.56336975097656,
                35.258358001708984
              ],
              [
                132.69252014160156,
                35.51579284667969
              ],
              [
                134.27264404296875,
                35.58015823364258
              ],
              [
                134.7259063720703,
                35.708900451660156
              ],
              [
                134.80332946777344,
                35.708900451660156
              ],
              [
                134.88075256347656,
                35.708900451660156
              ],
              [
                134.9581756591797,
                35.708900451660156
              ],
              [
                135.0355987548828,
                35.708900451660156
              ],
              [
                134.9690704345703,
                35.58015823364258
              ],
              [
                135.1463623046875,
                35.32271194458008
              ],
              [
                135.45555114746094,
                35.32271194458008
              ],
              [
                135.63218688964844,
                35.51579284667969
              ],
              [
                135.7095489501953,
                35.51579284667969
              ],
              [
                136.0757598876953,
                35.77327346801758
              ],
              [
                135.91094970703125,
                35.902034759521484
              ],
              [
                136.00392150878906,
                36.2239875793457
              ],
              [
                136.45286560058594,
                36.48161697387695
              ],
              [
                136.48776245117188,
                36.5460319519043
              ],
              [
                136.8412322998047,
                36.48161697387695
              ],
              [
                136.8316650390625,
                36.03080368041992
              ],
              [
                137.06423950195312,
                36.03080368041992
              ],
              [
                137.03909301757812,
                35.837650299072266
              ],
              [
                137.49496459960938,
                35.9664192199707
              ],
              [
                137.66793823242188,
                35.708900451660156
              ],
              [
                137.58641052246094,
                35.258358001708984
              ],
              [
                136.9681854248047,
                35.258358001708984
              ],
              [
                136.8909149169922,
                35.258358001708984
              ],
              [
                136.59535217285156,
                34.679283142089844
              ],
              [
                136.794189453125,
                34.614952087402344
              ],
              [
                136.97329711914062,
                34.3576545715332
              ],
              [
                136.9092559814453,
                34.22901916503906
              ],
              [
                136.447509765625,
                34.22901916503906
              ],
              [
                135.8116912841797,
                33.393062591552734
              ],
              [
                135.4124755859375,
                33.52165222167969
              ],
              [
                135.35113525390625,
                33.71455001831055
              ],
              [
                135.02882385253906,
                33.84315490722656
              ],
              [
                135.15335083007812,
                34.10039138793945
              ],
              [
                135.01678466796875,
                34.2933349609375
              ],
              [
                135.3428955078125,
                34.48630142211914
              ],
              [
                135.43890380859375,
                34.679283142089844
              ],
              [
                135.0985107421875,
                34.614952087402344
              ],
              [
                134.90834045410156,
                34.22901916503906
              ],
              [
                134.64613342285156,
                34.164703369140625
              ],
              [
                134.6949462890625,
                34.42197799682617
              ],
              [
                134.94435119628906,
                34.614952087402344
              ],
              [
                134.54568481445312,
                34.743614196777344
              ],
              [
                134.46856689453125,
                34.743614196777344
              ],
              [
                134.4366455078125,
                34.679283142089844
              ],
              [
                133.61669921875,
                34.42197799682617
              ],
              [
                133.53968811035156,
                34.42197799682617
              ],
              [
                132.83045959472656,
                34.22901916503906
              ],
              [
                132.3225555419922,
                34.2933349609375
              ],
              [
                132.18563842773438,
                33.84315490722656
              ],
              [
                131.90847778320312,
                33.90746307373047
              ],
              [
                131.93878173828125,
                33.971771240234375
              ],
              [
                131.0930938720703,
                33.971771240234375
              ],
              [
                131.07992553710938,
                33.77885055541992
              ],
              [
                131.05007934570312,
                33.71455001831055
              ],
              [
                131.12689208984375,
                33.71455001831055
              ],
              [
                131.0971221923828,
                33.65024948120117
              ],
              [
                131.1739044189453,
                33.65024948120117
              ],
              [
                131.25070190429688,
                33.65024948120117
              ],
              [
                131.32748413085938,
                33.65024948120117
              ],
              [
                131.40426635742188,
                33.65024948120117
              ],
              [
                131.43411254882812,
                33.71455001831055
              ],
              [
                131.81813049316406,
                33.71455001831055
              ],
              [
                131.63987731933594,
                33.32876968383789
              ],
              [
                131.9171905517578,
                33.26447677612305
              ],
              [
                132.0592041015625,
                33.07160949707031
              ],
              [
                132.03005981445312,
                33.00732421875
              ],
              [
                131.4839324951172,
                32.81447219848633
              ],
              [
                131.51268005371094,
                32.878753662109375
              ],
              [
                131.2830047607422,
                32.878753662109375
              ],
              [
                131.36965942382812,
                33.07160949707031
              ],
              [
                131.2930450439453,
                33.07160949707031
              ],
              [
                131.3220977783203,
                33.13589859008789
              ],
              [
                131.24545288085938,
                33.13589859008789
              ],
              [
                131.2745819091797,
                33.20018768310547
              ],
              [
                130.78564453125,
                33.13589859008789
              ],
              [
                130.70901489257812,
                33.13589859008789
              ],
              [
                130.4980926513672,
                33.00732421875
              ]
            ],
            [
              [
                130.32583618164062,
                33.13589859008789
              ],
              [
                130.35457122230778,
                33.19982040111792
              ],
              [
                130.22039794921875,
                33.07160949707031
              ],
              [
                130.29702758789062,
                33.07160949707031
              ],
              [
                130.32583618164062,
                33.13589859008789
              ]
            ],
            [
              [
                130.48951721191406,
                33.32876968383789
              ],
              [
                130.42223440216716,
                33.26447677612305
              ],
              [
                130.4604034423828,
                33.26447677612305
              ],
              [
                130.48951721191406,
                33.32876968383789
              ]
            ]
          ],
          [
            [
              [
                129.59080505371094,
                33.71455001831055
              ],
              [
                129.7266845703125,
                33.84315490722656
              ],
              [
                129.80352783203125,
                33.84315490722656
              ],
              [
                129.88037109375,
                33.84315490722656
              ],
              [
                129.8212127685547,
                33.71455001831055
              ],
              [
                129.59080505371094,
                33.71455001831055
              ]
            ]
          ],
          [
            [
              [
                129.33734130859375,
                34.164703369140625
              ],
              [
                129.30746459960938,
                34.10039138793945
              ],
              [
                129.10653686523438,
                34.164703369140625
              ],
              [
                129.1664581298828,
                34.2933349609375
              ],
              [
                129.3973846435547,
                34.2933349609375
              ],
              [
                129.33734130859375,
                34.164703369140625
              ]
            ]
          ],
          [
            [
              [
                129.45777893066406,
                34.42197799682617
              ],
              [
                129.4275360107422,
                34.3576545715332
              ],
              [
                129.22671508789062,
                34.42197799682617
              ],
              [
                129.28733825683594,
                34.55062484741211
              ],
              [
                129.4414520263672,
                34.55062484741211
              ],
              [
                129.45777893066406,
                34.42197799682617
              ]
            ]
          ],
          [
            [
              [
                132.66111755371094,
                32.878753662109375
              ],
              [
                132.94363403320312,
                33.32876968383789
              ],
              [
                132.66659545898438,
                33.393062591552734
              ],
              [
                132.45388793945312,
                33.26447677612305
              ],
              [
                132.37722778320312,
                33.26447677612305
              ],
              [
                132.30055236816406,
                33.26447677612305
              ],
              [
                132.35975646972656,
                33.393062591552734
              ],
              [
                132.02334594726562,
                33.32876968383789
              ],
              [
                132.61639404296875,
                33.77885055541992
              ],
              [
                132.69322204589844,
                33.77885055541992
              ],
              [
                133.14015197753906,
                33.5859489440918
              ],
              [
                133.79933166503906,
                33.84315490722656
              ],
              [
                133.891845703125,
                33.71455001831055
              ],
              [
                134.27586364746094,
                33.71455001831055
              ],
              [
                134.368408203125,
                33.5859489440918
              ],
              [
                134.3380126953125,
                33.52165222167969
              ],
              [
                134.2173614501953,
                33.26447677612305
              ],
              [
                133.9873504638672,
                33.26447677612305
              ],
              [
                133.8473358154297,
                33.45735549926758
              ],
              [
                133.54042053222656,
                33.45735549926758
              ],
              [
                133.16134643554688,
                33.13589859008789
              ],
              [
                133.13185119628906,
                33.07160949707031
              ],
              [
                133.03335571289062,
                32.685909271240234
              ],
              [
                132.63209533691406,
                32.81447219848633
              ],
              [
                132.66111755371094,
                32.878753662109375
              ]
            ]
          ],
          [
            [
              [
                133.36585998535156,
                36.2239875793457
              ],
              [
                133.33229064941406,
                36.15959167480469
              ],
              [
                133.09957885742188,
                36.15959167480469
              ],
              [
                133.20040893554688,
                36.3527946472168
              ],
              [
                133.4333038330078,
                36.3527946472168
              ],
              [
                133.36585998535156,
                36.2239875793457
              ]
            ]
          ],
          [
            [
              [
                138.5218963623047,
                36.28839111328125
              ],
              [
                138.1338348388672,
                36.28839111328125
              ],
              [
                138.12644958496094,
                36.417205810546875
              ],
              [
                138.16172790527344,
                36.48161697387695
              ],
              [
                138.58560180664062,
                36.5460319519043
              ],
              [
                138.6700439453125,
                36.417205810546875
              ],
              [
                138.5218963623047,
                36.28839111328125
              ]
            ]
          ],
          [
            [
              [
                137.052978515625,
                36.8681755065918
              ],
              [
                136.74867248535156,
                36.73930740356445
              ],
              [
                136.6284942626953,
                36.80373764038086
              ],
              [
                136.69952392578125,
                36.932613372802734
              ],
              [
                136.61524963378906,
                37.06150817871094
              ],
              [
                136.651123046875,
                37.12596130371094
              ],
              [
                136.99330139160156,
                37.3193473815918
              ],
              [
                137.1908416748047,
                37.254878997802734
              ],
              [
                137.15460205078125,
                37.1904182434082
              ],
              [
                137.07669067382812,
                37.1904182434082
              ],
              [
                136.96270751953125,
                37.12596130371094
              ],
              [
                137.12445068359375,
                36.9970588684082
              ],
              [
                137.052978515625,
                36.8681755065918
              ]
            ]
          ],
          [
            [
              [
                141.038818359375,
                37.835243225097656
              ],
              [
                140.9622344970703,
                37.706241607666016
              ],
              [
                141.1203155517578,
                37.5772590637207
              ],
              [
                141.0446014404297,
                37.44829177856445
              ],
              [
                141.12530517578125,
                37.3193473815918
              ],
              [
                140.67819213867188,
                36.67487716674805
              ],
              [
                140.75592041015625,
                36.67487716674805
              ],
              [
                140.6114044189453,
                36.417205810546875
              ],
              [
                140.68905639648438,
                36.417205810546875
              ],
              [
                140.62376403808594,
                36.15959167480469
              ],
              [
                140.7501983642578,
                35.9664192199707
              ],
              [
                140.71499633789062,
                35.902034759521484
              ],
              [
                139.9751434326172,
                35.9664192199707
              ],
              [
                139.72825622558594,
                36.2239875793457
              ],
              [
                140.33102416992188,
                36.61045455932617
              ],
              [
                140.5050506591797,
                37.1904182434082
              ],
              [
                140.38304138183594,
                37.38381576538086
              ],
              [
                140.22708129882812,
                37.38381576538086
              ],
              [
                140.2645263671875,
                37.44829177856445
              ],
              [
                140.03050231933594,
                37.44829177856445
              ],
              [
                139.6111297607422,
                37.12596130371094
              ],
              [
                139.34080505371094,
                37.06150817871094
              ],
              [
                139.21726989746094,
                37.254878997802734
              ],
              [
                139.291259765625,
                37.38381576538086
              ],
              [
                139.21327209472656,
                37.38381576538086
              ],
              [
                139.55645751953125,
                37.706241607666016
              ],
              [
                139.74560546875,
                38.157840728759766
              ],
              [
                139.66651916503906,
                38.28691864013672
              ],
              [
                139.4315948486328,
                38.28691864013672
              ],
              [
                139.47044372558594,
                38.351463317871094
              ],
              [
                139.39212036132812,
                38.351463317871094
              ],
              [
                139.70761108398438,
                38.8680305480957
              ],
              [
                139.7476806640625,
                38.93262481689453
              ],
              [
                140.5713653564453,
                38.8680305480957
              ],
              [
                140.64808654785156,
                38.738853454589844
              ],
              [
                140.5683135986328,
                38.60969924926758
              ],
              [
                140.646728515625,
                38.60969924926758
              ],
              [
                140.52804565429688,
                38.416015625
              ],
              [
                140.6063995361328,
                38.416015625
              ],
              [
                140.06112670898438,
                37.89975357055664
              ],
              [
                140.17922973632812,
                37.835243225097656
              ],
              [
                140.41221618652344,
                37.96426773071289
              ],
              [
                140.4904022216797,
                37.96426773071289
              ],
              [
                140.9595489501953,
                37.96426773071289
              ],
              [
                140.9209747314453,
                37.89975357055664
              ],
              [
                141.038818359375,
                37.835243225097656
              ]
            ]
          ],
          [
            [
              [
                138.33529663085938,
                38.28691864013672
              ],
              [
                138.6088104248047,
                38.351463317871094
              ],
              [
                138.49343872070312,
                38.157840728759766
              ],
              [
                138.61172485351562,
                38.09331130981445
              ],
              [
                138.3819122314453,
                37.835243225097656
              ],
              [
                138.34434509277344,
                37.7707405090332
              ],
              [
                138.18809509277344,
                37.7707405090332
              ],
              [
                138.26327514648438,
                37.89975357055664
              ],
              [
                138.14468383789062,
                37.96426773071289
              ],
              [
                138.33529663085938,
                38.28691864013672
              ]
            ]
          ],
          [
            [
              [
                139.8979034423828,
                42.10627746582031
              ],
              [
                140.0712890625,
                42.236209869384766
              ],
              [
                140.2311248779297,
                42.236209869384766
              ],
              [
                140.21731567382812,
                42.10627746582031
              ],
              [
                140.6029052734375,
                41.97637939453125
              ],
              [
                140.5563201904297,
                41.911441802978516
              ],
              [
                140.87539672851562,
                41.911441802978516
              ],
              [
                140.82884216308594,
                41.84651184082031
              ],
              [
                140.94183349609375,
                41.781593322753906
              ],
              [
                140.57676696777344,
                41.71668243408203
              ],
              [
                140.4388885498047,
                41.521995544433594
              ],
              [
                140.10902404785156,
                41.39224624633789
              ],
              [
                139.949951171875,
                41.39224624633789
              ],
              [
                139.9613037109375,
                41.521995544433594
              ],
              [
                139.88169860839844,
                41.521995544433594
              ],
              [
                139.9273223876953,
                41.586883544921875
              ],
              [
                140.12411499023438,
                41.97637939453125
              ],
              [
                140.01100158691406,
                42.041324615478516
              ],
              [
                140.0576171875,
                42.10627746582031
              ],
              [
                139.8979034423828,
                42.10627746582031
              ]
            ]
          ]
        ]
      }
    }
  ]
}
