{
  "type": "FeatureCollection",
  "features": [
    {
      "type": "Feature",
      "properties": {
        "Name": "Kingdom of Serbia",
        "FromYear": 1326,
        "ToYear": 1332,
        "Area": 102415.57630431518,
        "Type": "POLITY",
        "Wikipedia": "Kingdom of Serbia",
        "Wikidata": "Q241748",
        "SeshatID": "rs_serbia_k",
        "Components": "",
        "MemberOf": "",
        "displayYear": 1328,
        "sourceYear": 1328,
        "mappedTerritoryId": "cliopatria_kingdom_of_serbia"
      },
      "geometry": {
        "type": "Polygon",
        "coordinates": [
          [
            [
              22.689453125,
              44.64661407470703
            ],
            [
              22.518192291259766,
              44.5159797668457
            ],
            [
              22.50443458557129,
              44.32010269165039
            ],
            [
              22.65691566467285,
              44.18956756591797
            ],
            [
              22.226150512695312,
              43.79821014404297
            ],
            [
              22.030193328857422,
              43.276947021484375
            ],
            [
              21.949810028076172,
              43.276947021484375
            ],
            [
              21.932777404785156,
              43.016544342041016
            ],
            [
              22.16062355041504,
              42.82133865356445
            ],
            [
              22.223556518554688,
              42.56119155883789
            ],
            [
              22.463727951049805,
              42.56119155883789
            ],
            [
              22.366365432739258,
              42.30118942260742
            ],
            [
              22.513214111328125,
              42.10627746582031
            ],
            [
              22.433361053466797,
              42.10627746582031
            ],
            [
              22.41626739501953,
              41.84651184082031
            ],
            [
              22.56715965270996,
              41.71668243408203
            ],
            [
              22.386844635009766,
              41.39224624633789
            ],
            [
              21.432340621948242,
              41.39224624633789
            ],
            [
              21.042020797729492,
              41.521995544433594
            ],
            [
              20.955087661743164,
              41.39224624633789
            ],
            [
              20.636919021606445,
              41.39224624633789
            ],
            [
              20.010595321655273,
              41.586883544921875
            ],
            [
              19.781572341918945,
              41.781593322753906
            ],
            [
              19.536029815673828,
              41.65177917480469
            ],
            [
              19.539230346679688,
              41.71668243408203
            ],
            [
              18.85202980041504,
              42.36617660522461
            ],
            [
              18.457979202270508,
              42.496177673339844
            ],
            [
              18.229217529296875,
              42.75628662109375
            ],
            [
              18.232065200805664,
              42.82133865356445
            ],
            [
              18.080114364624023,
              43.016544342041016
            ],
            [
              17.59853172302246,
              43.016544342041016
            ],
            [
              17.764448165893555,
              43.146724700927734
            ],
            [
              18.00541877746582,
              43.146724700927734
            ],
            [
              18.011009216308594,
              43.276947021484375
            ],
            [
              18.41588020324707,
              43.342071533203125
            ],
            [
              18.50527572631836,
              43.53750228881836
            ],
            [
              18.83355140686035,
              43.6678352355957
            ],
            [
              19.00428581237793,
              43.86341094970703
            ],
            [
              19.407573699951172,
              43.86341094970703
            ],
            [
              19.498432159423828,
              44.05907440185547
            ],
            [
              19.417680740356445,
              44.05907440185547
            ],
            [
              19.107723236083984,
              44.32010269165039
            ],
            [
              19.296220779418945,
              44.842647552490234
            ],
            [
              19.624204635620117,
              44.908016204833984
            ],
            [
              19.856950759887695,
              44.71194839477539
            ],
            [
              20.019073486328125,
              44.71194839477539
            ],
            [
              20.107473373413086,
              44.842647552490234
            ],
            [
              20.748632431030273,
              44.71194839477539
            ],
            [
              21.40547752380371,
              44.842647552490234
            ],
            [
              21.879146575927734,
              44.64661407470703
            ],
            [
              21.951416015625,
              44.5159797668457
            ],
            [
              22.275287628173828,
              44.5159797668457
            ],
            [
              22.531999588012695,
              44.71194839477539
            ],
            [
              22.689453125,
              44.64661407470703
            ]
          ]
        ]
      }
    }
  ]
}
