{
  "type": "FeatureCollection",
  "features": [
    {
      "type": "Feature",
      "properties": {
        "Name": "Mongol Empire",
        "FromYear": 1206,
        "ToYear": 1209,
        "Area": 2464171.439081919,
        "Type": "POLITY",
        "Wikipedia": "Mongol Empire",
        "Wikidata": "Q12557",
        "SeshatID": "mn_mongol_emp",
        "Components": "",
        "MemberOf": "",
        "displayYear": 1206,
        "sourceYear": 1206,
        "mappedTerritoryId": "mongol_empire"
      },
      "geometry": {
        "type": "MultiPolygon",
        "coordinates": [
          [
            [
              [
                112.67111206054688,
                55.29362487792969
              ],
              [
                113.71607971191406,
                55.089229583740234
              ],
              [
                113.65701293945312,
                55.021148681640625
              ],
              [
                113.91851806640625,
                55.021148681640625
              ],
              [
                113.85946655273438,
                54.95309066772461
              ],
              [
                114.20794677734375,
                54.95309066772461
              ],
              [
                114.14885711669922,
                54.88506317138672
              ],
              [
                114.49713897705078,
                54.88506317138672
              ],
              [
                114.43801879882812,
                54.817054748535156
              ],
              [
                114.69908142089844,
                54.817054748535156
              ],
              [
                114.63998413085938,
                54.74907684326172
              ],
              [
                114.98786163330078,
                54.74907684326172
              ],
              [
                114.9287338256836,
                54.681121826171875
              ],
              [
                115.27642059326172,
                54.681121826171875
              ],
              [
                115.2172622680664,
                54.613189697265625
              ],
              [
                115.6516342163086,
                54.613189697265625
              ],
              [
                115.59239959716797,
                54.545284271240234
              ],
              [
                117.0085220336914,
                54.47740173339844
              ],
              [
                117.21534729003906,
                54.613189697265625
              ],
              [
                117.15523529052734,
                54.545284271240234
              ],
              [
                117.61595153808594,
                54.47740173339844
              ],
              [
                117.5558853149414,
                54.4095458984375
              ],
              [
                117.90280151367188,
                54.4095458984375
              ],
              [
                117.84272003173828,
                54.341712951660156
              ],
              [
                118.30259704589844,
                54.27390670776367
              ],
              [
                118.24256896972656,
                54.20612335205078
              ],
              [
                118.41573333740234,
                54.20612335205078
              ],
              [
                118.35578918457031,
                54.138362884521484
              ],
              [
                118.52886199951172,
                54.138362884521484
              ],
              [
                118.468994140625,
                54.07062530517578
              ],
              [
                118.6419677734375,
                54.07062530517578
              ],
              [
                118.58218383789062,
                54.00291442871094
              ],
              [
                118.75506591796875,
                54.00291442871094
              ],
              [
                118.69535827636719,
                53.93522644042969
              ],
              [
                118.8681411743164,
                53.93522644042969
              ],
              [
                118.80852508544922,
                53.86756134033203
              ],
              [
                119.43336486816406,
                53.597137451171875
              ],
              [
                119.37416076660156,
                53.52959060668945
              ],
              [
                119.57332611083984,
                53.462066650390625
              ],
              [
                119.54151153564453,
                53.32708740234375
              ],
              [
                120.02550506591797,
                53.192195892333984
              ],
              [
                119.96687316894531,
                53.124786376953125
              ],
              [
                122.04356384277344,
                53.52959060668945
              ],
              [
                123.82733154296875,
                53.597137451171875
              ],
              [
                123.76575469970703,
                53.52959060668945
              ],
              [
                124.22073364257812,
                53.462066650390625
              ],
              [
                124.15924072265625,
                53.39456558227539
              ],
              [
                124.44182586669922,
                53.32708740234375
              ],
              [
                124.38052368164062,
                53.25962829589844
              ],
              [
                124.7242202758789,
                53.25962829589844
              ],
              [
                124.66293334960938,
                53.192195892333984
              ],
              [
                125.32569122314453,
                53.25962829589844
              ],
              [
                125.26407623291016,
                53.192195892333984
              ],
              [
                125.52171325683594,
                53.192195892333984
              ],
              [
                125.46015167236328,
                53.124786376953125
              ],
              [
                125.74192810058594,
                53.057395935058594
              ],
              [
                125.70508575439453,
                52.92268753051758
              ],
              [
                125.98666381835938,
                52.85536575317383
              ],
              [
                125.97523498535156,
                52.653533935546875
              ],
              [
                126.17112731933594,
                52.586299896240234
              ],
              [
                125.49649810791016,
                52.11625671386719
              ],
              [
                122.28411865234375,
                50.51224899291992
              ],
              [
                121.57926177978516,
                50.04647445678711
              ],
              [
                120.79254150390625,
                48.786521911621094
              ],
              [
                120.87569427490234,
                48.786521911621094
              ],
              [
                120.57457733154297,
                48.257774353027344
              ],
              [
                120.6574478149414,
                48.257774353027344
              ],
              [
                120.40116119384766,
                47.664100646972656
              ],
              [
                120.48370361328125,
                47.664100646972656
              ],
              [
                120.25379180908203,
                47.33478927612305
              ],
              [
                120.33616638183594,
                47.33478927612305
              ],
              [
                120.13859558105469,
                46.808616638183594
              ],
              [
                120.09381866455078,
                46.74290466308594
              ],
              [
                119.14221954345703,
                45.56227111816406
              ],
              [
                116.52074432373047,
                43.342071533203125
              ],
              [
                114.77721405029297,
                42.30118942260742
              ],
              [
                113.39055633544922,
                41.26253128051758
              ],
              [
                112.57799530029297,
                40.93837356567383
              ],
              [
                111.27384948730469,
                40.873565673828125
              ],
              [
                111.30841064453125,
                40.93837356567383
              ],
              [
                110.83231353759766,
                40.93837356567383
              ],
              [
                110.8668212890625,
                41.00318908691406
              ],
              [
                109.78978729248047,
                41.06801223754883
              ],
              [
                108.66851806640625,
                40.74397277832031
              ],
              [
                107.4137191772461,
                40.614410400390625
              ],
              [
                103.9599609375,
                40.6791877746582
              ],
              [
                103.64356994628906,
                41.00318908691406
              ],
              [
                103.70792388916016,
                41.132843017578125
              ],
              [
                103.23867797851562,
                41.781593322753906
              ],
              [
                102.82625579833984,
                41.911441802978516
              ],
              [
                102.89247131347656,
                42.041324615478516
              ],
              [
                102.08035278320312,
                42.17123794555664
              ],
              [
                101.98678588867188,
                42.30118942260742
              ],
              [
                101.826904296875,
                42.30118942260742
              ],
              [
                101.81334686279297,
                42.43117141723633
              ],
              [
                101.52655792236328,
                42.496177673339844
              ],
              [
                101.55985260009766,
                42.56119155883789
              ],
              [
                98.91797637939453,
                42.56119155883789
              ],
              [
                98.95038604736328,
                42.62621307373047
              ],
              [
                98.10160827636719,
                42.691246032714844
              ],
              [
                96.57940673828125,
                42.691246032714844
              ],
              [
                96.48251342773438,
                42.82133865356445
              ],
              [
                96.3221664428711,
                42.82133865356445
              ],
              [
                96.20865631103516,
                43.08163070678711
              ],
              [
                96.0480728149414,
                43.08163070678711
              ],
              [
                96.03155517578125,
                43.211830139160156
              ],
              [
                95.870849609375,
                43.211830139160156
              ],
              [
                95.90279388427734,
                43.276947021484375
              ],
              [
                94.30908966064453,
                43.472347259521484
              ],
              [
                94.34068298339844,
                43.53750228881836
              ],
              [
                94.01866149902344,
                43.53750228881836
              ],
              [
                94.05020141601562,
                43.6026611328125
              ],
              [
                93.5984115600586,
                43.6678352355957
              ],
              [
                93.6299057006836,
                43.73301696777344
              ],
              [
                92.67582702636719,
                43.92862319946289
              ],
              [
                92.7071762084961,
                43.99384307861328
              ],
              [
                92.78398132324219,
                44.32010269165039
              ],
              [
                92.70310974121094,
                44.32010269165039
              ],
              [
                92.94103240966797,
                44.973392486572266
              ],
              [
                92.77865600585938,
                44.973392486572266
              ],
              [
                92.8107681274414,
                45.03877639770508
              ],
              [
                93.03772735595703,
                45.169586181640625
              ],
              [
                93.58100891113281,
                46.414546966552734
              ],
              [
                94.7417221069336,
                47.993770599365234
              ],
              [
                94.83961486816406,
                48.323814392089844
              ],
              [
                95.68821716308594,
                49.38258361816406
              ],
              [
                96.21271514892578,
                49.84712600708008
              ],
              [
                96.24848937988281,
                50.04647445678711
              ],
              [
                96.70537567138672,
                50.2459831237793
              ],
              [
                98.2760009765625,
                51.78114318847656
              ],
              [
                98.71044921875,
                52.0491943359375
              ],
              [
                98.75572967529297,
                52.11625671386719
              ],
              [
                99.01121520996094,
                52.11625671386719
              ],
              [
                99.27970886230469,
                52.38472366333008
              ],
              [
                100.07284545898438,
                52.78806686401367
              ],
              [
                100.85332489013672,
                52.92268753051758
              ],
              [
                100.80543518066406,
                52.85536575317383
              ],
              [
                101.60333251953125,
                52.653533935546875
              ],
              [
                101.59335327148438,
                52.51908493041992
              ],
              [
                101.80198669433594,
                52.4518928527832
              ],
              [
                101.79244995117188,
                52.31757736206055
              ],
              [
                102.30420684814453,
                52.31757736206055
              ],
              [
                102.2567138671875,
                52.250450134277344
              ],
              [
                102.51245880126953,
                52.250450134277344
              ],
              [
                102.46499633789062,
                52.18334197998047
              ],
              [
                102.88124084472656,
                52.0491943359375
              ],
              [
                102.83397674560547,
                51.98215103149414
              ],
              [
                103.08920288085938,
                51.98215103149414
              ],
              [
                103.0419692993164,
                51.91512680053711
              ],
              [
                103.24986267089844,
                51.84812545776367
              ],
              [
                103.15593719482422,
                51.71418380737305
              ],
              [
                103.71249389648438,
                51.78114318847656
              ],
              [
                103.66535186767578,
                51.71418380737305
              ],
              [
                103.5715560913086,
                51.580322265625
              ],
              [
                104.11831665039062,
                51.51342010498047
              ],
              [
                104.07151794433594,
                51.44654083251953
              ],
              [
                104.8341064453125,
                51.44654083251953
              ],
              [
                105.73986053466797,
                51.64724349975586
              ],
              [
                106.00601196289062,
                51.78114318847656
              ],
              [
                106.39828491210938,
                52.31757736206055
              ],
              [
                106.82475280761719,
                52.31757736206055
              ],
              [
                107.33287048339844,
                52.653533935546875
              ],
              [
                107.89716339111328,
                52.720787048339844
              ],
              [
                108.43193817138672,
                53.192195892333984
              ],
              [
                108.82823944091797,
                53.25962829589844
              ],
              [
                109.6395263671875,
                54.27390670776367
              ],
              [
                109.55289459228516,
                54.27390670776367
              ],
              [
                109.66371154785156,
                54.4095458984375
              ],
              [
                109.54580688476562,
                54.47740173339844
              ],
              [
                109.60151672363281,
                54.545284271240234
              ],
              [
                109.51469421386719,
                54.545284271240234
              ],
              [
                109.73892974853516,
                54.817054748535156
              ],
              [
                109.65190887451172,
                54.817054748535156
              ],
              [
                109.76487731933594,
                54.95309066772461
              ],
              [
                109.6777572631836,
                54.95309066772461
              ],
              [
                109.84825134277344,
                55.15733337402344
              ],
              [
                109.76097869873047,
                55.15733337402344
              ],
              [
                109.95919036865234,
                55.70311737060547
              ],
              [
                111.76976776123047,
                55.56651306152344
              ],
              [
                111.7109146118164,
                55.498252868652344
              ],
              [
                112.64271545410156,
                55.36180877685547
              ],
              [
                112.58374786376953,
                55.29362487792969
              ],
              [
                112.67111206054688,
                55.29362487792969
              ]
            ]
          ],
          [
            [
              [
                109.01948547363281,
                53.93522644042969
              ],
              [
                109.10588073730469,
                53.93522644042969
              ],
              [
                108.8687973022461,
                53.52959060668945
              ],
              [
                108.52436065673828,
                53.52959060668945
              ],
              [
                108.59855651855469,
                53.732303619384766
              ],
              [
                108.93309783935547,
                53.93522644042969
              ],
              [
                109.01948547363281,
                53.93522644042969
              ]
            ]
          ]
        ]
      }
    }
  ]
}
