{
  "type": "FeatureCollection",
  "features": [
    {
      "type": "Feature",
      "properties": {
        "Name": "Northern Wei",
        "FromYear": 402,
        "ToYear": 413,
        "Area": 178344.6347552034,
        "Type": "POLITY",
        "Wikipedia": "Northern Wei",
        "Wikidata": "Q875305",
        "SeshatID": "cn_northern_wei_dyn",
        "Components": "",
        "MemberOf": "",
        "displayYear": 407,
        "sourceYear": 407,
        "mappedTerritoryId": "northern_wei"
      },
      "geometry": {
        "type": "Polygon",
        "coordinates": [
          [
            [
              117.88837432861328,
              39.19107437133789
            ],
            [
              117.95616149902344,
              39.320335388183594
            ],
            [
              117.75407409667969,
              39.38497543334961
            ],
            [
              117.62044525146484,
              39.57893371582031
            ],
            [
              117.6894302368164,
              39.70827102661133
            ],
            [
              117.56636810302734,
              39.77294921875
            ],
            [
              117.73338317871094,
              40.225894927978516
            ],
            [
              117.45270538330078,
              40.29063034057617
            ],
            [
              117.35858154296875,
              40.54964065551758
            ],
            [
              117.20020294189453,
              40.54964065551758
            ],
            [
              117.38163757324219,
              40.873565673828125
            ],
            [
              116.98502349853516,
              40.873565673828125
            ],
            [
              116.89942169189453,
              41.00318908691406
            ],
            [
              116.35044860839844,
              40.873565673828125
            ],
            [
              115.07637023925781,
              39.8376350402832
            ],
            [
              114.83967590332031,
              39.8376350402832
            ],
            [
              114.82882690429688,
              39.9670295715332
            ],
            [
              114.67092895507812,
              39.9670295715332
            ],
            [
              113.7263412475586,
              39.51427459716797
            ],
            [
              113.33248138427734,
              39.51427459716797
            ],
            [
              113.24083709716797,
              39.64360046386719
            ],
            [
              112.57745361328125,
              39.57893371582031
            ],
            [
              112.02024841308594,
              38.93262481689453
            ],
            [
              111.55039978027344,
              38.60969924926758
            ],
            [
              111.27116394042969,
              38.351463317871094
            ],
            [
              111.21060943603516,
              38.22237777709961
            ],
            [
              111.33700561523438,
              38.157840728759766
            ],
            [
              111.00188446044922,
              37.7707405090332
            ],
            [
              110.79800415039062,
              37.3193473815918
            ],
            [
              110.87596893310547,
              37.3193473815918
            ],
            [
              110.7330551147461,
              36.9970588684082
            ],
            [
              110.81090545654297,
              36.9970588684082
            ],
            [
              110.74788665771484,
              36.67487716674805
            ],
            [
              110.92524719238281,
              36.5460319519043
            ],
            [
              110.89216613769531,
              36.28839111328125
            ],
            [
              111.01985931396484,
              36.2239875793457
            ],
            [
              110.72847747802734,
              35.902034759521484
            ],
            [
              110.54113006591797,
              35.45143127441406
            ],
            [
              110.61846160888672,
              35.45143127441406
            ],
            [
              110.58904266357422,
              35.00096893310547
            ],
            [
              111.3628158569336,
              35.194007873535156
            ],
            [
              112.0915756225586,
              35.644527435302734
            ],
            [
              112.99784088134766,
              35.77327346801758
            ],
            [
              113.60167694091797,
              36.09519577026367
            ],
            [
              114.01301574707031,
              36.67487716674805
            ],
            [
              113.93527221679688,
              36.67487716674805
            ],
            [
              114.00279235839844,
              36.9970588684082
            ],
            [
              113.92493438720703,
              36.9970588684082
            ],
            [
              114.01313781738281,
              37.1904182434082
            ],
            [
              113.93522644042969,
              37.1904182434082
            ],
            [
              114.4364242553711,
              38.09331130981445
            ],
            [
              115.76783752441406,
              38.416015625
            ],
            [
              116.5513916015625,
              38.416015625
            ],
            [
              117.57643127441406,
              38.738853454589844
            ],
            [
              117.60940551757812,
              38.80344009399414
            ],
            [
              117.64249420166016,
              38.8680305480957
            ],
            [
              117.67569732666016,
              38.93262481689453
            ],
            [
              117.70903015136719,
              38.997230529785156
            ],
            [
              117.74246978759766,
              39.06184005737305
            ],
            [
              117.77603912353516,
              39.1264533996582
            ],
            [
              117.85466003417969,
              39.1264533996582
            ],
            [
              117.88837432861328,
              39.19107437133789
            ]
          ]
        ]
      }
    }
  ]
}
