{
  "type": "FeatureCollection",
  "features": [
    {
      "type": "Feature",
      "properties": {
        "Name": "Chaulukya Dynasty",
        "FromYear": 1111,
        "ToYear": 1201,
        "Area": 232995.91486809173,
        "Type": "POLITY",
        "Wikipedia": "Chaulukya dynasty",
        "Wikidata": "Q18211496",
        "SeshatID": "in_chaulukya_dyn",
        "Components": "",
        "MemberOf": "",
        "displayYear": 1125,
        "sourceYear": 1125,
        "mappedTerritoryId": "cliopatria_chaulukya_dynasty"
      },
      "geometry": {
        "type": "Polygon",
        "coordinates": [
          [
            [
              73.36002157413846,
              25.337802800406223
            ],
            [
              73.81481180856909,
              24.627193059108368
            ],
            [
              74.12748009474015,
              24.37137355224114
            ],
            [
              74.0665217651252,
              23.311109571972146
            ],
            [
              73.6442654706576,
              23.262822355816482
            ],
            [
              73.41687035344229,
              22.893305290341598
            ],
            [
              72.73468500179635,
              22.353241886955225
            ],
            [
              72.51957202825778,
              22.017127865801225
            ],
            [
              72.43978195915774,
              22.296393107651397
            ],
            [
              72.26923562124625,
              21.8984516525246
            ],
            [
              72.30831915701762,
              21.54314678187567
            ],
            [
              72.12711367298668,
              21.18784191122674
            ],
            [
              70.84446308994403,
              20.633566313014416
            ],
            [
              70.46073382964319,
              20.747263871622074
            ],
            [
              68.92581678843982,
              22.211119938695656
            ],
            [
              68.55629972296494,
              23.1917613816867
            ],
            [
              68.07779716347711,
              23.694508273524704
            ],
            [
              69.12478751600322,
              24.05870526607008
            ],
            [
              69.69327530904151,
              24.627193059108368
            ],
            [
              70.11964115382023,
              25.337802800406223
            ],
            [
              70.2617631020798,
              26.30423204857131
            ],
            [
              70.40388505033937,
              26.588475945090455
            ],
            [
              70.63128016755469,
              26.61690033474237
            ],
            [
              71.48401185711211,
              26.10526132100791
            ],
            [
              71.96722648119466,
              26.275807658919398
            ],
            [
              72.15713671628285,
              26.241278525267
            ],
            [
              73.2105552376358,
              25.65541876547439
            ],
            [
              73.36002157413846,
              25.337802800406223
            ]
          ]
        ]
      }
    }
  ]
}
