{
  "type": "FeatureCollection",
  "features": [
    {
      "type": "Feature",
      "properties": {
        "Name": "Dutch Republic",
        "FromYear": 1662,
        "ToYear": 1669,
        "Area": 151633.15599089483,
        "Type": "POLITY",
        "Wikipedia": "Dutch Republic",
        "Wikidata": "Q170072",
        "SeshatID": "nl_dutch_emp_1",
        "Components": "",
        "MemberOf": "(Dutch Republic)",
        "displayYear": 1662,
        "sourceYear": 1662,
        "mappedTerritoryId": "cliopatria_dutch_republic"
      },
      "geometry": {
        "type": "MultiPolygon",
        "coordinates": [
          [
            [
              [
                123.5147705078125,
                -10.128927230834961
              ],
              [
                123.41707611083984,
                -9.871777534484863
              ],
              [
                123.73514556884766,
                -9.357477188110352
              ],
              [
                123.80821228027344,
                -9.357477188110352
              ],
              [
                123.96600341796875,
                -9.486052513122559
              ],
              [
                124.25831604003906,
                -9.486052513122559
              ],
              [
                124.37552642822266,
                -9.1646146774292
              ],
              [
                124.3698501586914,
                -9.100326538085938
              ],
              [
                124.51596069335938,
                -9.100326538085938
              ],
              [
                124.64523315429688,
                -8.907464027404785
              ],
              [
                124.7182846069336,
                -8.907464027404785
              ],
              [
                124.80252838134766,
                -9.036039352416992
              ],
              [
                125.02169036865234,
                -9.036039352416992
              ],
              [
                125.03881072998047,
                -9.228901863098145
              ],
              [
                124.82539367675781,
                -9.29318904876709
              ],
              [
                124.92195892333984,
                -9.550339698791504
              ],
              [
                124.92792510986328,
                -9.61462688446045
              ],
              [
                124.59284210205078,
                -9.936064720153809
              ],
              [
                124.60526275634766,
                -10.064640045166016
              ],
              [
                124.45903015136719,
                -10.064640045166016
              ],
              [
                124.39846801757812,
                -10.193214416503906
              ],
              [
                124.10598754882812,
                -10.193214416503906
              ],
              [
                124.1123046875,
                -10.257502555847168
              ],
              [
                123.83252716064453,
                -10.386076927185059
              ],
              [
                123.17432403564453,
                -10.386076927185059
              ],
              [
                123.22229766845703,
                -10.128927230834961
              ],
              [
                123.5147705078125,
                -10.128927230834961
              ]
            ]
          ],
          [
            [
              [
                118.3855972290039,
                -8.264588356018066
              ],
              [
                118.53654479980469,
                -8.328875541687012
              ],
              [
                118.60955810546875,
                -8.328875541687012
              ],
              [
                118.89667510986328,
                -8.264588356018066
              ],
              [
                119.08328247070312,
                -8.778888702392578
              ],
              [
                118.5041732788086,
                -8.84317684173584
              ],
              [
                118.3855972290039,
                -8.264588356018066
              ]
            ]
          ],
          [
            [
              [
                123.51195526123047,
                -8.457450866699219
              ],
              [
                123.52250671386719,
                -8.586026191711426
              ],
              [
                123.16268920898438,
                -8.650314331054688
              ],
              [
                123.14684295654297,
                -8.457450866699219
              ],
              [
                123.00080108642578,
                -8.457450866699219
              ],
              [
                122.93828582763672,
                -8.586026191711426
              ],
              [
                122.79222869873047,
                -8.586026191711426
              ],
              [
                122.78173828125,
                -8.457450866699219
              ],
              [
                122.92778015136719,
                -8.457450866699219
              ],
              [
                122.91230010986328,
                -8.264588356018066
              ],
              [
                123.20948028564453,
                -8.328875541687012
              ],
              [
                123.21465301513672,
                -8.393163681030273
              ],
              [
                123.27735900878906,
                -8.264588356018066
              ],
              [
                123.78330993652344,
                -8.200301170349121
              ],
              [
                123.72578430175781,
                -8.393163681030273
              ],
              [
                123.51195526123047,
                -8.457450866699219
              ]
            ]
          ],
          [
            [
              [
                125.02445220947266,
                -8.200301170349121
              ],
              [
                124.97238159179688,
                -8.457450866699219
              ],
              [
                124.2474594116211,
                -8.52173900604248
              ],
              [
                124.15867614746094,
                -8.328875541687012
              ],
              [
                124.17443084716797,
                -8.52173900604248
              ],
              [
                123.96067810058594,
                -8.586026191711426
              ],
              [
                123.80403900146484,
                -8.457450866699219
              ],
              [
                123.79879760742188,
                -8.393163681030273
              ],
              [
                124.00233459472656,
                -8.200301170349121
              ],
              [
                124.37252807617188,
                -8.264588356018066
              ],
              [
                124.36225891113281,
                -8.13601303100586
              ],
              [
                125.02445220947266,
                -8.200301170349121
              ]
            ]
          ],
          [
            [
              [
                106.79126739501953,
                -6.078809261322021
              ],
              [
                106.80496215820312,
                -6.335959911346436
              ],
              [
                106.73204040527344,
                -6.335959911346436
              ],
              [
                106.73553466796875,
                -6.400247573852539
              ],
              [
                106.29798126220703,
                -6.400247573852539
              ],
              [
                106.34713745117188,
                -5.950234413146973
              ],
              [
                106.4200439453125,
                -5.950234413146973
              ],
              [
                106.79126739501953,
                -6.078809261322021
              ]
            ]
          ],
          [
            [
              [
                101.71343231201172,
                2.471440553665161
              ],
              [
                101.71607971191406,
                2.535728216171265
              ],
              [
                102.01812744140625,
                2.7928786277771
              ],
              [
                102.10211181640625,
                3.050029039382935
              ],
              [
                102.39056396484375,
                2.985741376876831
              ],
              [
                102.67071533203125,
                2.728590965270996
              ],
              [
                102.58448791503906,
                2.407152891159058
              ],
              [
                102.43366241455078,
                2.27857780456543
              ],
              [
                102.50389099121094,
                2.214290142059326
              ],
              [
                102.42349243164062,
                2.021427392959595
              ],
              [
                102.35069274902344,
                2.021427392959595
              ],
              [
                101.85122680664062,
                2.27857780456543
              ],
              [
                101.85381317138672,
                2.342865228652954
              ],
              [
                101.781005859375,
                2.342865228652954
              ],
              [
                101.78361511230469,
                2.407152891159058
              ],
              [
                101.71080780029297,
                2.407152891159058
              ],
              [
                101.71343231201172,
                2.471440553665161
              ]
            ]
          ],
          [
            [
              [
                79.72053527832031,
                7.293012619018555
              ],
              [
                79.72404479980469,
                7.357300281524658
              ],
              [
                80.08888244628906,
                7.357300281524658
              ],
              [
                80.05110168457031,
                6.650136470794678
              ],
              [
                80.32636260986328,
                6.328698635101318
              ],
              [
                80.31990051269531,
                6.200123310089111
              ],
              [
                80.82710266113281,
                6.135835647583008
              ],
              [
                80.89362335205078,
                6.007260322570801
              ],
              [
                80.89044952392578,
                5.942972660064697
              ],
              [
                80.81754302978516,
                5.942972660064697
              ],
              [
                80.74463653564453,
                5.942972660064697
              ],
              [
                80.67172241210938,
                5.942972660064697
              ],
              [
                80.23114776611328,
                5.878684997558594
              ],
              [
                79.95211029052734,
                6.135835647583008
              ],
              [
                79.75935363769531,
                6.650136470794678
              ],
              [
                79.72053527832031,
                7.293012619018555
              ]
            ]
          ],
          [
            [
              [
                81.91307067871094,
                7.357300281524658
              ],
              [
                81.90946960449219,
                7.293012619018555
              ],
              [
                81.6905746459961,
                7.293012619018555
              ],
              [
                81.41681671142578,
                7.614450931549072
              ],
              [
                81.42791748046875,
                7.807313442230225
              ],
              [
                81.650634765625,
                7.871601104736328
              ],
              [
                81.64688110351562,
                7.807313442230225
              ],
              [
                81.64315795898438,
                7.743025779724121
              ],
              [
                81.71614074707031,
                7.743025779724121
              ],
              [
                81.71243286132812,
                7.678738594055176
              ],
              [
                81.78540802001953,
                7.678738594055176
              ],
              [
                81.7817153930664,
                7.614450931549072
              ],
              [
                81.77803802490234,
                7.550163269042969
              ],
              [
                81.77438354492188,
                7.485875606536865
              ],
              [
                81.84735870361328,
                7.485875606536865
              ],
              [
                81.84371948242188,
                7.421587944030762
              ],
              [
                81.91669464111328,
                7.421587944030762
              ],
              [
                81.91307067871094,
                7.357300281524658
              ]
            ]
          ],
          [
            [
              [
                81.39713287353516,
                8.514476776123047
              ],
              [
                81.39319610595703,
                8.450189590454102
              ],
              [
                81.38927459716797,
                8.385902404785156
              ],
              [
                81.09332275390625,
                8.321614265441895
              ],
              [
                81.03594970703125,
                8.578764915466309
              ],
              [
                81.10897827148438,
                8.578764915466309
              ],
              [
                81.11294555664062,
                8.643052101135254
              ],
              [
                81.18597412109375,
                8.643052101135254
              ],
              [
                81.2590103149414,
                8.643052101135254
              ],
              [
                81.25503540039062,
                8.578764915466309
              ],
              [
                81.25108337402344,
                8.514476776123047
              ],
              [
                81.32410430908203,
                8.514476776123047
              ],
              [
                81.39713287353516,
                8.514476776123047
              ]
            ]
          ],
          [
            [
              [
                80.44406127929688,
                9.607365608215332
              ],
              [
                80.50868225097656,
                9.478790283203125
              ],
              [
                80.72791290283203,
                9.478790283203125
              ],
              [
                80.72370147705078,
                9.41450309753418
              ],
              [
                80.3499984741211,
                9.285927772521973
              ],
              [
                79.98880004882812,
                9.350214958190918
              ],
              [
                79.99295806884766,
                9.41450309753418
              ],
              [
                80.06603240966797,
                9.41450309753418
              ],
              [
                80.0702133178711,
                9.478790283203125
              ],
              [
                80.07440948486328,
                9.543078422546387
              ],
              [
                80.0786361694336,
                9.607365608215332
              ],
              [
                80.00554656982422,
                9.607365608215332
              ],
              [
                79.93246459960938,
                9.607365608215332
              ],
              [
                79.93669891357422,
                9.671652793884277
              ],
              [
                79.87643432617188,
                9.86451530456543
              ],
              [
                80.16883087158203,
                9.86451530456543
              ],
              [
                80.52141571044922,
                9.671652793884277
              ],
              [
                80.44406127929688,
                9.607365608215332
              ]
            ]
          ],
          [
            [
              [
                80.14045715332031,
                12.436016082763672
              ],
              [
                79.99918365478516,
                12.500303268432617
              ],
              [
                80.00984191894531,
                12.628878593444824
              ],
              [
                80.1672134399414,
                12.757453918457031
              ],
              [
                80.24052429199219,
                12.757453918457031
              ],
              [
                80.31382751464844,
                12.757453918457031
              ],
              [
                80.30841064453125,
                12.69316577911377
              ],
              [
                80.30301666259766,
                12.628878593444824
              ],
              [
                80.22972106933594,
                12.628878593444824
              ],
              [
                80.224365234375,
                12.564591407775879
              ],
              [
                80.21903991699219,
                12.500303268432617
              ],
              [
                80.21373748779297,
                12.436016082763672
              ],
              [
                80.14045715332031,
                12.436016082763672
              ]
            ]
          ],
          [
            [
              [
                80.14954376220703,
                13.40032958984375
              ],
              [
                80.30199432373047,
                13.464617729187012
              ],
              [
                80.37535858154297,
                13.464617729187012
              ],
              [
                80.41468048095703,
                13.07889175415039
              ],
              [
                80.27360534667969,
                13.143178939819336
              ],
              [
                80.20027160644531,
                13.143178939819336
              ],
              [
                80.14954376220703,
                13.40032958984375
              ]
            ]
          ],
          [
            [
              [
                88.53729248046875,
                22.914846420288086
              ],
              [
                88.60242462158203,
                22.85055923461914
              ],
              [
                88.3697509765625,
                22.786272048950195
              ],
              [
                88.46281433105469,
                22.914846420288086
              ],
              [
                88.53729248046875,
                22.914846420288086
              ]
            ]
          ],
          [
            [
              [
                4.95694637298584,
                44.25482940673828
              ],
              [
                5.039933204650879,
                44.18956756591797
              ],
              [
                4.799726963043213,
                44.12431716918945
              ],
              [
                4.876103401184082,
                44.25482940673828
              ],
              [
                4.95694637298584,
                44.25482940673828
              ]
            ]
          ],
          [
            [
              [
                5.889138698577881,
                50.77880859375
              ],
              [
                5.891344547271729,
                50.71213912963867
              ],
              [
                5.807068347930908,
                50.71213912963867
              ],
              [
                5.722792148590088,
                50.71213912963867
              ],
              [
                5.711322784423828,
                51.04566955566406
              ],
              [
                5.966943264007568,
                50.97892379760742
              ],
              [
                5.973455429077148,
                50.77880859375
              ],
              [
                5.889138698577881,
                50.77880859375
              ]
            ]
          ],
          [
            [
              [
                5.940618991851807,
                51.78114318847656
              ],
              [
                5.770728588104248,
                51.78114318847656
              ],
              [
                5.777609825134277,
                51.580322265625
              ],
              [
                5.8624267578125,
                51.580322265625
              ],
              [
                5.784458637237549,
                51.37968063354492
              ],
              [
                5.365976333618164,
                51.24601745605469
              ],
              [
                5.019589424133301,
                51.44654083251953
              ],
              [
                4.341732025146484,
                51.44654083251953
              ],
              [
                4.01227855682373,
                51.24601745605469
              ],
              [
                3.504641532897949,
                51.24601745605469
              ],
              [
                3.409677743911743,
                51.44654083251953
              ],
              [
                3.494410037994385,
                51.44654083251953
              ],
              [
                3.74860668182373,
                51.44654083251953
              ],
              [
                3.40621018409729,
                51.51342010498047
              ],
              [
                3.399252653121948,
                51.64724349975586
              ],
              [
                3.738690614700317,
                51.64724349975586
              ],
              [
                3.647099733352661,
                51.78114318847656
              ],
              [
                3.81699013710022,
                51.78114318847656
              ],
              [
                3.810401916503906,
                51.91512680053711
              ],
              [
                3.980464458465576,
                51.91512680053711
              ],
              [
                3.974021434783936,
                52.0491943359375
              ],
              [
                4.223166942596436,
                52.18334197998047
              ],
              [
                4.21693229675293,
                52.31757736206055
              ],
              [
                4.463808536529541,
                52.51908493041992
              ],
              [
                4.534325122833252,
                52.85536575317383
              ],
              [
                4.702715873718262,
                52.92268753051758
              ],
              [
                4.608114719390869,
                53.124786376953125
              ],
              [
                4.691011905670166,
                53.192195892333984
              ],
              [
                4.862768650054932,
                53.192195892333984
              ],
              [
                4.785540580749512,
                52.99003219604492
              ],
              [
                5.056382656097412,
                52.653533935546875
              ],
              [
                5.136557102203369,
                52.78806686401367
              ],
              [
                5.390830039978027,
                52.85536575317383
              ],
              [
                5.385728359222412,
                52.99003219604492
              ],
              [
                5.20894193649292,
                53.124786376953125
              ],
              [
                5.542333602905273,
                53.39456558227539
              ],
              [
                6.742867469787598,
                53.52959060668945
              ],
              [
                7.093948841094971,
                53.25962829589844
              ],
              [
                7.179872989654541,
                53.25962829589844
              ],
              [
                7.021557331085205,
                52.720787048339844
              ],
              [
                6.68117618560791,
                52.653533935546875
              ],
              [
                6.68488883972168,
                52.51908493041992
              ],
              [
                6.944602489471436,
                52.38472366333008
              ],
              [
                6.948029518127441,
                52.250450134277344
              ],
              [
                6.697800159454346,
                52.0491943359375
              ],
              [
                6.612682342529297,
                52.0491943359375
              ],
              [
                6.701467514038086,
                51.91512680053711
              ],
              [
                6.533320903778076,
                51.84812545776367
              ],
              [
                5.938404083251953,
                51.84812545776367
              ],
              [
                5.940618991851807,
                51.78114318847656
              ]
            ]
          ],
          [
            [
              [
                130.8596954345703,
                -8.13601303100586
              ],
              [
                130.9326934814453,
                -8.13601303100586
              ],
              [
                131.00570678710938,
                -8.13601303100586
              ],
              [
                130.94903564453125,
                -8.328875541687012
              ],
              [
                130.5894775390625,
                -8.393163681030273
              ],
              [
                130.8596954345703,
                -8.13601303100586
              ]
            ]
          ],
          [
            [
              [
                127.87176513671875,
                -8.200301170349121
              ],
              [
                127.8770751953125,
                -8.264588356018066
              ],
              [
                127.65804290771484,
                -8.264588356018066
              ],
              [
                127.64225769042969,
                -8.071725845336914
              ],
              [
                127.78826141357422,
                -8.071725845336914
              ],
              [
                127.87176513671875,
                -8.200301170349121
              ]
            ]
          ],
          [
            [
              [
                129.73841857910156,
                -7.8145751953125
              ],
              [
                129.74359130859375,
                -7.878862857818604
              ],
              [
                129.75930786132812,
                -8.071725845336914
              ],
              [
                129.4620361328125,
                -8.007437705993652
              ],
              [
                129.4413604736328,
                -7.750287532806396
              ],
              [
                129.73841857910156,
                -7.8145751953125
              ]
            ]
          ],
          [
            [
              [
                126.53699493408203,
                -7.943150520324707
              ],
              [
                126.3960952758789,
                -8.007437705993652
              ],
              [
                125.6661148071289,
                -8.007437705993652
              ],
              [
                125.71415710449219,
                -7.685999870300293
              ],
              [
                126.22013854980469,
                -7.621712207794189
              ],
              [
                126.2931137084961,
                -7.621712207794189
              ],
              [
                126.5071792602539,
                -7.557425022125244
              ],
              [
                126.67288970947266,
                -7.8145751953125
              ],
              [
                126.52690887451172,
                -7.8145751953125
              ],
              [
                126.53699493408203,
                -7.943150520324707
              ]
            ]
          ],
          [
            [
              [
                131.2764129638672,
                -7.878862857818604
              ],
              [
                131.21932983398438,
                -8.071725845336914
              ],
              [
                131.00033569335938,
                -8.071725845336914
              ],
              [
                130.9689178466797,
                -7.685999870300293
              ],
              [
                131.16270446777344,
                -7.364562034606934
              ],
              [
                131.15777587890625,
                -7.30027437210083
              ],
              [
                131.36212158203125,
                -7.10741138458252
              ],
              [
                131.58099365234375,
                -7.10741138458252
              ],
              [
                131.5527801513672,
                -7.685999870300293
              ],
              [
                131.2764129638672,
                -7.878862857818604
              ]
            ]
          ],
          [
            [
              [
                131.03173828125,
                -7.557425022125244
              ],
              [
                130.95875549316406,
                -7.557425022125244
              ],
              [
                130.81280517578125,
                -7.557425022125244
              ],
              [
                130.87083435058594,
                -7.364562034606934
              ],
              [
                131.0167694091797,
                -7.364562034606934
              ],
              [
                131.03173828125,
                -7.557425022125244
              ]
            ]
          ],
          [
            [
              [
                128.5215301513672,
                -7.171699047088623
              ],
              [
                128.52627563476562,
                -7.235986709594727
              ],
              [
                128.38035583496094,
                -7.235986709594727
              ],
              [
                128.3709259033203,
                -7.10741138458252
              ],
              [
                128.5851287841797,
                -7.043123722076416
              ],
              [
                128.5215301513672,
                -7.171699047088623
              ]
            ]
          ],
          [
            [
              [
                134.2067108154297,
                -6.078809261322021
              ],
              [
                134.17750549316406,
                -5.628796100616455
              ],
              [
                134.31927490234375,
                -5.564508438110352
              ],
              [
                134.3113250732422,
                -5.435933113098145
              ],
              [
                134.5299835205078,
                -5.435933113098145
              ],
              [
                134.679931640625,
                -6.59311056137085
              ],
              [
                134.38360595703125,
                -6.528822898864746
              ],
              [
                134.333984375,
                -6.850261211395264
              ],
              [
                133.97402954101562,
                -6.914548873901367
              ],
              [
                133.96925354003906,
                -6.850261211395264
              ],
              [
                133.8730926513672,
                -6.528822898864746
              ],
              [
                133.94601440429688,
                -6.528822898864746
              ],
              [
                133.91937255859375,
                -6.143096923828125
              ],
              [
                134.2067108154297,
                -6.078809261322021
              ]
            ]
          ],
          [
            [
              [
                132.81712341308594,
                -6.014522075653076
              ],
              [
                132.67129516601562,
                -6.014522075653076
              ],
              [
                132.66709899902344,
                -5.950234413146973
              ],
              [
                132.5212860107422,
                -5.950234413146973
              ],
              [
                132.50489807128906,
                -5.693083763122559
              ],
              [
                132.94635009765625,
                -5.757371425628662
              ],
              [
                132.81712341308594,
                -6.014522075653076
              ]
            ]
          ],
          [
            [
              [
                133.01116943359375,
                -5.628796100616455
              ],
              [
                132.85743713378906,
                -5.500220775604248
              ],
              [
                133.0721893310547,
                -5.435933113098145
              ],
              [
                133.00717163085938,
                -5.564508438110352
              ],
              [
                133.01116943359375,
                -5.628796100616455
              ]
            ]
          ],
          [
            [
              [
                127.80268096923828,
                -3.57159161567688
              ],
              [
                127.8755111694336,
                -3.57159161567688
              ],
              [
                127.94834899902344,
                -3.57159161567688
              ],
              [
                128.23690795898438,
                -3.507303953170776
              ],
              [
                128.2453155517578,
                -3.700166940689087
              ],
              [
                127.81404876708984,
                -3.828742265701294
              ],
              [
                127.80268096923828,
                -3.57159161567688
              ]
            ]
          ],
          [
            [
              [
                127.05834197998047,
                -3.185865879058838
              ],
              [
                127.21454620361328,
                -3.443016529083252
              ],
              [
                127.15277099609375,
                -3.700166940689087
              ],
              [
                126.65150451660156,
                -3.893029928207397
              ],
              [
                126.43009185791016,
                -3.828742265701294
              ],
              [
                126.35725402832031,
                -3.828742265701294
              ],
              [
                125.90629577636719,
                -3.507303953170776
              ],
              [
                125.890625,
                -3.121578216552734
              ],
              [
                126.83479309082031,
                -3.05729079246521
              ],
              [
                127.05834197998047,
                -3.185865879058838
              ]
            ]
          ],
          [
            [
              [
                129.76084899902344,
                -3.378728866577148
              ],
              [
                128.96246337890625,
                -3.443016529083252
              ],
              [
                128.66574096679688,
                -3.314441204071045
              ],
              [
                128.52822875976562,
                -3.507303953170776
              ],
              [
                128.382568359375,
                -3.507303953170776
              ],
              [
                128.0831298828125,
                -3.314441204071045
              ],
              [
                128.077880859375,
                -3.185865879058838
              ],
              [
                127.9348373413086,
                -3.250153541564941
              ],
              [
                127.8700180053711,
                -3.443016529083252
              ],
              [
                127.72435760498047,
                -3.443016529083252
              ],
              [
                127.71375274658203,
                -3.185865879058838
              ],
              [
                127.7789535522461,
                -2.993003129959106
              ],
              [
                128.28131103515625,
                -2.800140142440796
              ],
              [
                129.664794921875,
                -2.800140142440796
              ],
              [
                129.96353149414062,
                -2.993003129959106
              ],
              [
                130.40045166015625,
                -2.993003129959106
              ],
              [
                130.55125427246094,
                -3.121578216552734
              ],
              [
                130.55923461914062,
                -3.314441204071045
              ],
              [
                130.5619659423828,
                -3.378728866577148
              ],
              [
                130.7860107421875,
                -3.507303953170776
              ],
              [
                130.7306365966797,
                -3.893029928207397
              ],
              [
                129.9148406982422,
                -3.57159161567688
              ],
              [
                129.76084899902344,
                -3.378728866577148
              ]
            ]
          ],
          [
            [
              [
                126.06859588623047,
                -1.964401364326477
              ],
              [
                125.9229965209961,
                -1.964401364326477
              ],
              [
                126.01258087158203,
                -2.478702068328857
              ],
              [
                125.79196166992188,
                -2.414414644241333
              ],
              [
                125.70459747314453,
                -1.964401364326477
              ],
              [
                125.55900573730469,
                -1.964401364326477
              ],
              [
                125.4862060546875,
                -1.964401364326477
              ],
              [
                125.26585388183594,
                -1.900113701820374
              ],
              [
                125.26203155517578,
                -1.771538615226746
              ],
              [
                126.13557434082031,
                -1.771538615226746
              ],
              [
                126.06859588623047,
                -1.964401364326477
              ]
            ]
          ],
          [
            [
              [
                124.23921966552734,
                -1.642963409423828
              ],
              [
                124.45760345458984,
                -1.642963409423828
              ],
              [
                124.5303955078125,
                -1.642963409423828
              ],
              [
                125.11457824707031,
                -1.707250952720642
              ],
              [
                125.19305419921875,
                -1.900113701820374
              ],
              [
                124.25059509277344,
                -2.028688907623291
              ],
              [
                124.23921966552734,
                -1.642963409423828
              ]
            ]
          ],
          [
            [
              [
                125.12300109863281,
                1.699989318847656
              ],
              [
                125.1824722290039,
                1.378551483154297
              ],
              [
                125.10968017578125,
                1.378551483154297
              ],
              [
                124.9589614868164,
                1.249976277351379
              ],
              [
                124.60539245605469,
                1.507126569747925
              ],
              [
                124.75902557373047,
                1.699989318847656
              ],
              [
                125.12300109863281,
                1.699989318847656
              ]
            ]
          ]
        ]
      }
    }
  ]
}
