{
  "type": "FeatureCollection",
  "features": [
    {
      "type": "Feature",
      "properties": {
        "Name": "Great Jin",
        "FromYear": 1227,
        "ToYear": 1235,
        "Area": 784141.4121871823,
        "Type": "POLITY",
        "Wikipedia": "Jin dynasty (1115-1234)",
        "Wikidata": "Q5066",
        "SeshatID": "cn_later_great_jin",
        "Components": "",
        "MemberOf": "",
        "displayYear": 1234,
        "sourceYear": 1234,
        "mappedTerritoryId": "cliopatria_great_jin"
      },
      "geometry": {
        "type": "Polygon",
        "coordinates": [
          [
            [
              118.71949768066406,
              39.1264533996582
            ],
            [
              119.21530151367188,
              39.320335388183594
            ],
            [
              119.31014251708984,
              39.64360046386719
            ],
            [
              119.34523010253906,
              39.70827102661133
            ],
            [
              118.82833862304688,
              39.77294921875
            ],
            [
              118.86351013183594,
              39.8376350402832
            ],
            [
              117.52223205566406,
              39.8376350402832
            ],
            [
              116.90095520019531,
              39.70827102661133
            ],
            [
              116.75367736816406,
              39.57893371582031
            ],
            [
              116.47254180908203,
              39.64360046386719
            ],
            [
              116.24702453613281,
              39.51427459716797
            ],
            [
              116.04450988769531,
              39.57893371582031
            ],
            [
              115.74079895019531,
              39.449623107910156
            ],
            [
              114.4935302734375,
              39.320335388183594
            ],
            [
              114.34928131103516,
              39.19107437133789
            ],
            [
              114.14598083496094,
              39.25570297241211
            ],
            [
              113.84495544433594,
              39.1264533996582
            ],
            [
              111.37690734863281,
              38.738853454589844
            ],
            [
              111.01862335205078,
              38.48057174682617
            ],
            [
              110.67475891113281,
              38.416015625
            ],
            [
              110.39788055419922,
              38.157840728759766
            ],
            [
              109.07779693603516,
              37.835243225097656
            ],
            [
              108.09921264648438,
              38.09331130981445
            ],
            [
              107.90291595458984,
              38.351463317871094
            ],
            [
              107.51126098632812,
              38.351463317871094
            ],
            [
              107.4426498413086,
              38.54513168334961
            ],
            [
              106.8154296875,
              38.54513168334961
            ],
            [
              106.16472625732422,
              37.96426773071289
            ],
            [
              105.4329605102539,
              37.89975357055664
            ],
            [
              104.6190414428711,
              37.641746520996094
            ],
            [
              104.59166717529297,
              37.5772590637207
            ],
            [
              104.8258285522461,
              37.5772590637207
            ],
            [
              104.72044372558594,
              37.51277160644531
            ],
            [
              104.7440414428711,
              37.38381576538086
            ],
            [
              105.08324432373047,
              37.44829177856445
            ],
            [
              105.80465698242188,
              37.12596130371094
            ],
            [
              105.85546875,
              37.06150817871094
            ],
            [
              105.69690704345703,
              36.8681755065918
            ],
            [
              105.8768310546875,
              36.73930740356445
            ],
            [
              105.82366943359375,
              36.61045455932617
            ],
            [
              106.08024597167969,
              36.28839111328125
            ],
            [
              105.74381256103516,
              35.837650299072266
            ],
            [
              103.99524688720703,
              35.32271194458008
            ],
            [
              103.66561889648438,
              35.065311431884766
            ],
            [
              103.5210189819336,
              34.679283142089844
            ],
            [
              103.49715423583984,
              34.614952087402344
            ],
            [
              104.01274871826172,
              34.55062484741211
            ],
            [
              104.63992309570312,
              34.164703369140625
            ],
            [
              105.02462005615234,
              34.164703369140625
            ],
            [
              105.25029754638672,
              34.3576545715332
            ],
            [
              105.58243560791016,
              34.42197799682617
            ],
            [
              106.23157501220703,
              34.10039138793945
            ],
            [
              106.26053619384766,
              33.971771240234375
            ],
            [
              106.85155487060547,
              33.90746307373047
            ],
            [
              107.08712005615234,
              33.71455001831055
            ],
            [
              108.34458923339844,
              33.5859489440918
            ],
            [
              108.6803207397461,
              33.45735549926758
            ],
            [
              109.21742248535156,
              33.45735549926758
            ],
            [
              109.75079345703125,
              33.65024948120117
            ],
            [
              110.13471984863281,
              33.65024948120117
            ],
            [
              110.46405792236328,
              33.90746307373047
            ],
            [
              110.79651641845703,
              33.971771240234375
            ],
            [
              111.15581512451172,
              33.90746307373047
            ],
            [
              111.26171875,
              33.5859489440918
            ],
            [
              111.54399871826172,
              33.52165222167969
            ],
            [
              111.75230407714844,
              33.26447677612305
            ],
            [
              113.54519653320312,
              32.94303894042969
            ],
            [
              114.54073333740234,
              32.94303894042969
            ],
            [
              115.38192749023438,
              33.13589859008789
            ],
            [
              115.89303588867188,
              33.07160949707031
            ],
            [
              116.19931030273438,
              33.26447677612305
            ],
            [
              116.81269073486328,
              33.26447677612305
            ],
            [
              118.81922149658203,
              34.03607940673828
            ],
            [
              119.73230743408203,
              34.55062484741211
            ],
            [
              119.76029205322266,
              34.614952087402344
            ],
            [
              119.45901489257812,
              34.80794906616211
            ],
            [
              119.22760772705078,
              34.80794906616211
            ],
            [
              119.61874389648438,
              35.51579284667969
            ],
            [
              119.98648071289062,
              35.644527435302734
            ],
            [
              120.31848907470703,
              36.03080368041992
            ],
            [
              120.65852355957031,
              36.09519577026367
            ],
            [
              120.73184967041016,
              36.417205810546875
            ],
            [
              120.96481323242188,
              36.417205810546875
            ],
            [
              120.97892761230469,
              36.61045455932617
            ],
            [
              121.21208190917969,
              36.61045455932617
            ],
            [
              121.91207885742188,
              36.932613372802734
            ],
            [
              122.14556121826172,
              36.932613372802734
            ],
            [
              122.16053771972656,
              36.80373764038086
            ],
            [
              122.50314331054688,
              36.8681755065918
            ],
            [
              122.56636810302734,
              36.9970588684082
            ],
            [
              122.44239044189453,
              37.06150817871094
            ],
            [
              122.71288299560547,
              37.44829177856445
            ],
            [
              122.1211166381836,
              37.51277160644531
            ],
            [
              122.15351867675781,
              37.5772590637207
            ],
            [
              121.49687957763672,
              37.51277160644531
            ],
            [
              121.48333740234375,
              37.641746520996094
            ],
            [
              121.17103576660156,
              37.641746520996094
            ],
            [
              121.11202239990234,
              37.835243225097656
            ],
            [
              120.75377655029297,
              37.89975357055664
            ],
            [
              120.18807220458984,
              37.706241607666016
            ],
            [
              120.20220184326172,
              37.5772590637207
            ],
            [
              119.82661437988281,
              37.44829177856445
            ],
            [
              119.70111083984375,
              37.1904182434082
            ],
            [
              119.15568542480469,
              37.1904182434082
            ],
            [
              119.13996124267578,
              37.3193473815918
            ],
            [
              118.98403930664062,
              37.3193473815918
            ],
            [
              119.23655700683594,
              37.835243225097656
            ],
            [
              119.3928451538086,
              37.835243225097656
            ],
            [
              119.4571304321289,
              37.96426773071289
            ],
            [
              118.77176666259766,
              38.157840728759766
            ],
            [
              118.80416870117188,
              38.22237777709961
            ],
            [
              118.64759826660156,
              38.22237777709961
            ],
            [
              118.58300018310547,
              38.09331130981445
            ],
            [
              118.06742095947266,
              38.157840728759766
            ],
            [
              118.05360412597656,
              38.28691864013672
            ],
            [
              117.60245513916016,
              38.48057174682617
            ],
            [
              117.6549072265625,
              38.738853454589844
            ],
            [
              117.57643127441406,
              38.738853454589844
            ],
            [
              117.77603912353516,
              39.1264533996582
            ],
            [
              118.64087677001953,
              39.1264533996582
            ],
            [
              118.71949768066406,
              39.1264533996582
            ]
          ]
        ]
      }
    }
  ]
}
