{
  "type": "FeatureCollection",
  "features": [
    {
      "type": "Feature",
      "properties": {
        "Name": "Former Jin",
        "FromYear": 922,
        "ToYear": 925,
        "Area": 135052.87634904083,
        "Type": "POLITY",
        "Wikipedia": "Jin (Later Tang precursor)",
        "Wikidata": "Q6201794",
        "SeshatID": "cn_five_dyn",
        "Components": "",
        "MemberOf": "(Five Dynasties and Ten Kingdoms)",
        "displayYear": 923,
        "sourceYear": 923,
        "mappedTerritoryId": "cliopatria_former_jin"
      },
      "geometry": {
        "type": "Polygon",
        "coordinates": [
          [
            [
              119.80270385742188,
              39.9670295715332
            ],
            [
              119.587890625,
              40.29063034057617
            ],
            [
              118.60298156738281,
              40.225894927978516
            ],
            [
              118.638916015625,
              40.29063034057617
            ],
            [
              118.07810974121094,
              40.42012023925781
            ],
            [
              118.0712661743164,
              40.54964065551758
            ],
            [
              117.91288757324219,
              40.54964065551758
            ],
            [
              117.82709503173828,
              40.6791877746582
            ],
            [
              117.9001693725586,
              40.80876541137695
            ],
            [
              117.77824401855469,
              40.873565673828125
            ],
            [
              117.84668731689453,
              41.132843017578125
            ],
            [
              117.76231384277344,
              41.26253128051758
            ],
            [
              117.60334014892578,
              41.26253128051758
            ],
            [
              117.59864044189453,
              41.39224624633789
            ],
            [
              117.3600082397461,
              41.39224624633789
            ],
            [
              117.39749145507812,
              41.45711898803711
            ],
            [
              115.76353454589844,
              41.521995544433594
            ],
            [
              114.6191635131836,
              41.32738494873047
            ],
            [
              113.99818420410156,
              41.06801223754883
            ],
            [
              112.57799530029297,
              40.93837356567383
            ],
            [
              112.54299926757812,
              40.873565673828125
            ],
            [
              112.48341369628906,
              40.614410400390625
            ],
            [
              111.57200622558594,
              39.77294921875
            ],
            [
              111.45638275146484,
              39.38497543334961
            ],
            [
              111.3456802368164,
              39.320335388183594
            ],
            [
              111.47116088867188,
              39.25570297241211
            ],
            [
              111.37611389160156,
              39.06184005737305
            ],
            [
              111.04651641845703,
              38.8680305480957
            ],
            [
              110.95370483398438,
              38.67427444458008
            ],
            [
              111.04917907714844,
              38.54513168334961
            ],
            [
              111.01862335205078,
              38.48057174682617
            ],
            [
              111.25874328613281,
              38.157840728759766
            ],
            [
              111.49352264404297,
              38.157840728759766
            ],
            [
              111.5002670288086,
              37.835243225097656
            ],
            [
              112.45633697509766,
              37.706241607666016
            ],
            [
              113.1202163696289,
              38.28691864013672
            ],
            [
              113.94265747070312,
              39.320335388183594
            ],
            [
              114.04142761230469,
              39.51427459716797
            ],
            [
              113.91699981689453,
              39.57893371582031
            ],
            [
              114.0506820678711,
              39.8376350402832
            ],
            [
              114.5614013671875,
              40.355369567871094
            ],
            [
              114.58702850341797,
              40.54964065551758
            ],
            [
              114.88697052001953,
              40.80876541137695
            ],
            [
              115.43456268310547,
              40.93837356567383
            ],
            [
              115.751953125,
              40.93837356567383
            ],
            [
              115.71587371826172,
              40.873565673828125
            ],
            [
              115.9970932006836,
              40.80876541137695
            ],
            [
              116.17076873779297,
              40.54964065551758
            ],
            [
              115.81076049804688,
              40.031734466552734
            ],
            [
              115.88973999023438,
              40.031734466552734
            ],
            [
              115.82075500488281,
              39.90232849121094
            ],
            [
              115.94425201416016,
              39.8376350402832
            ],
            [
              115.92078399658203,
              39.64360046386719
            ],
            [
              116.07843017578125,
              39.64360046386719
            ],
            [
              116.16825866699219,
              39.51427459716797
            ],
            [
              116.47254180908203,
              39.64360046386719
            ],
            [
              116.83247375488281,
              39.57893371582031
            ],
            [
              116.9219970703125,
              39.449623107910156
            ],
            [
              116.85441589355469,
              39.320335388183594
            ],
            [
              116.93310546875,
              39.320335388183594
            ],
            [
              116.74591064453125,
              38.80344009399414
            ],
            [
              117.635009765625,
              38.54513168334961
            ],
            [
              117.66768646240234,
              38.60969924926758
            ],
            [
              117.57643127441406,
              38.738853454589844
            ],
            [
              117.77603912353516,
              39.1264533996582
            ],
            [
              118.04566192626953,
              39.19107437133789
            ],
            [
              118.0568618774414,
              39.06184005737305
            ],
            [
              118.44984436035156,
              39.06184005737305
            ],
            [
              118.98941802978516,
              39.19107437133789
            ],
            [
              119.21530151367188,
              39.320335388183594
            ],
            [
              119.38044738769531,
              39.77294921875
            ],
            [
              119.76698303222656,
              39.90232849121094
            ],
            [
              119.80270385742188,
              39.9670295715332
            ]
          ]
        ]
      }
    }
  ]
}
