{
  "type": "FeatureCollection",
  "features": [
    {
      "type": "Feature",
      "properties": {
        "Name": "Principality of Smolensk",
        "FromYear": 1294,
        "ToYear": 1313,
        "Area": 151032.65149578644,
        "Type": "POLITY",
        "Wikipedia": "Principality of Smolensk",
        "Wikidata": "Q1483495",
        "SeshatID": "",
        "Components": "",
        "MemberOf": "",
        "displayYear": 1311,
        "sourceYear": 1311,
        "mappedTerritoryId": "cliopatria_principality_of_smolensk"
      },
      "geometry": {
        "type": "Polygon",
        "coordinates": [
          [
            [
              36.64551544189453,
              55.225467681884766
            ],
            [
              36.391658782958984,
              56.04508590698242
            ],
            [
              36.24665451049805,
              56.182064056396484
            ],
            [
              36.277679443359375,
              56.319149017333984
            ],
            [
              36.04415512084961,
              56.45634460449219
            ],
            [
              36.07521438598633,
              56.59365463256836
            ],
            [
              35.82560729980469,
              56.662349700927734
            ],
            [
              35.44160079956055,
              56.524986267089844
            ],
            [
              35.20680618286133,
              56.662349700927734
            ],
            [
              35.000125885009766,
              56.524986267089844
            ],
            [
              34.95655059814453,
              56.731075286865234
            ],
            [
              34.79452896118164,
              56.799827575683594
            ],
            [
              33.701107025146484,
              57.07511901855469
            ],
            [
              33.477752685546875,
              57.28189468383789
            ],
            [
              33.506492614746094,
              57.41988754272461
            ],
            [
              33.34282684326172,
              57.488929748535156
            ],
            [
              33.296817779541016,
              57.696231842041016
            ],
            [
              32.864906311035156,
              57.7653923034668
            ],
            [
              32.63044738769531,
              57.488929748535156
            ],
            [
              32.452354431152344,
              57.488929748535156
            ],
            [
              32.13100051879883,
              57.21294021606445
            ],
            [
              31.660518646240234,
              57.07511901855469
            ],
            [
              31.128190994262695,
              57.07511901855469
            ],
            [
              30.83788299560547,
              56.45634460449219
            ],
            [
              30.472759246826172,
              56.387733459472656
            ],
            [
              30.46063995361328,
              56.319149017333984
            ],
            [
              30.44855308532715,
              56.25059127807617
            ],
            [
              30.536638259887695,
              56.25059127807617
            ],
            [
              30.524532318115234,
              56.182064056396484
            ],
            [
              30.512462615966797,
              56.11355972290039
            ],
            [
              30.67628288269043,
              56.04508590698242
            ],
            [
              30.6521053314209,
              55.90821838378906
            ],
            [
              30.803510665893555,
              55.77145767211914
            ],
            [
              30.767396926879883,
              55.56651306152344
            ],
            [
              30.93046760559082,
              55.498252868652344
            ],
            [
              30.945972442626953,
              55.089229583740234
            ],
            [
              30.858753204345703,
              55.089229583740234
            ],
            [
              30.811620712280273,
              54.817054748535156
            ],
            [
              30.406360626220703,
              54.47740173339844
            ],
            [
              30.481754302978516,
              54.4095458984375
            ],
            [
              30.39191436767578,
              53.86756134033203
            ],
            [
              29.960405349731445,
              53.32708740234375
            ],
            [
              30.03571891784668,
              53.25962829589844
            ],
            [
              29.96209716796875,
              52.78806686401367
            ],
            [
              30.208402633666992,
              52.720787048339844
            ],
            [
              30.166715621948242,
              52.4518928527832
            ],
            [
              30.40196990966797,
              52.31757736206055
            ],
            [
              30.456069946289062,
              52.11625671386719
            ],
            [
              30.95645523071289,
              52.0491943359375
            ],
            [
              31.298606872558594,
              52.586299896240234
            ],
            [
              31.48065757751465,
              52.653533935546875
            ],
            [
              31.514217376708984,
              52.85536575317383
            ],
            [
              31.902822494506836,
              53.124786376953125
            ],
            [
              34.00101089477539,
              53.32708740234375
            ],
            [
              34.98178482055664,
              53.93522644042969
            ],
            [
              35.009151458740234,
              54.07062530517578
            ],
            [
              35.91665267944336,
              54.681121826171875
            ],
            [
              35.9458122253418,
              54.817054748535156
            ],
            [
              36.49785232543945,
              54.95309066772461
            ],
            [
              36.64551544189453,
              55.225467681884766
            ]
          ]
        ]
      }
    }
  ]
}
