{
  "type": "FeatureCollection",
  "features": [
    {
      "type": "Feature",
      "properties": {
        "Name": "Western Roman Empire",
        "FromYear": 407,
        "ToYear": 409,
        "Area": 2071651.5063765426,
        "Type": "POLITY",
        "Wikipedia": "Western Roman Empire",
        "Wikidata": "Q42834",
        "SeshatID": "it_western_roman_emp",
        "Components": "",
        "MemberOf": "",
        "displayYear": 407,
        "sourceYear": 407,
        "mappedTerritoryId": "cliopatria_western_roman_empire"
      },
      "geometry": {
        "type": "MultiPolygon",
        "coordinates": [
          [
            [
              [
                11.083049774169922,
                35.38706970214844
              ],
              [
                11.005731582641602,
                35.38706970214844
              ],
              [
                11.082771301269531,
                35.00096893310547
              ],
              [
                10.85119342803955,
                34.93662643432617
              ],
              [
                10.851213455200195,
                34.80794906616211
              ],
              [
                10.543014526367188,
                34.55062484741211
              ],
              [
                10.004497528076172,
                34.2933349609375
              ],
              [
                10.081672668457031,
                34.22901916503906
              ],
              [
                10.005777359008789,
                33.90746307373047
              ],
              [
                10.23681354522705,
                33.71455001831055
              ],
              [
                10.544031143188477,
                33.71455001831055
              ],
              [
                10.697741508483887,
                33.52165222167969
              ],
              [
                11.081541061401367,
                33.5859489440918
              ],
              [
                11.157825469970703,
                33.20018768310547
              ],
              [
                11.464441299438477,
                33.20018768310547
              ],
              [
                12.228955268859863,
                32.81447219848633
              ],
              [
                12.612099647521973,
                32.878753662109375
              ],
              [
                12.534722328186035,
                32.75019073486328
              ],
              [
                12.840824127197266,
                32.75019073486328
              ],
              [
                12.841785430908203,
                32.878753662109375
              ],
              [
                13.072009086608887,
                32.94303894042969
              ],
              [
                13.301749229431152,
                32.94303894042969
              ],
              [
                13.453653335571289,
                32.81447219848633
              ],
              [
                13.760527610778809,
                32.878753662109375
              ],
              [
                13.759129524230957,
                32.75019073486328
              ],
              [
                14.065231323242188,
                32.75019073486328
              ],
              [
                14.444439888000488,
                32.493072509765625
              ],
              [
                14.674704551696777,
                32.557350158691406
              ],
              [
                14.749334335327148,
                32.428794860839844
              ],
              [
                15.206924438476562,
                32.36451721191406
              ],
              [
                15.424593925476074,
                31.65752601623535
              ],
              [
                15.575982093811035,
                31.593257904052734
              ],
              [
                15.64897632598877,
                31.40045166015625
              ],
              [
                16.178552627563477,
                31.20764923095703
              ],
              [
                17.469486236572266,
                31.079113006591797
              ],
              [
                17.99736785888672,
                30.886310577392578
              ],
              [
                18.592470169067383,
                30.372163772583008
              ],
              [
                18.896053314208984,
                30.372163772583008
              ],
              [
                18.810367584228516,
                29.986536026000977
              ],
              [
                18.28125762939453,
                30.050809860229492
              ],
              [
                16.701202392578125,
                30.69350814819336
              ],
              [
                15.489551544189453,
                30.950578689575195
              ],
              [
                15.184454917907715,
                30.886310577392578
              ],
              [
                15.187263488769531,
                31.079113006591797
              ],
              [
                14.584433555603027,
                31.528987884521484
              ],
              [
                14.586112022399902,
                31.65752601623535
              ],
              [
                13.82862377166748,
                32.107421875
              ],
              [
                13.29533576965332,
                32.23596954345703
              ],
              [
                13.06567096710205,
                32.171695709228516
              ],
              [
                13.0667085647583,
                32.30024337768555
              ],
              [
                12.455889701843262,
                32.36451721191406
              ],
              [
                11.767910957336426,
                32.30024337768555
              ],
              [
                11.768352508544922,
                32.428794860839844
              ],
              [
                11.539045333862305,
                32.428794860839844
              ],
              [
                11.462910652160645,
                32.557350158691406
              ],
              [
                11.309853553771973,
                32.493072509765625
              ],
              [
                11.157184600830078,
                32.685909271240234
              ],
              [
                10.391599655151367,
                33.00732421875
              ],
              [
                10.008606910705566,
                33.00732421875
              ],
              [
                10.08484935760498,
                33.13589859008789
              ],
              [
                9.62503719329834,
                33.13589859008789
              ],
              [
                9.547471046447754,
                33.32876968383789
              ],
              [
                9.623573303222656,
                33.45735549926758
              ],
              [
                9.315913200378418,
                33.5859489440918
              ],
              [
                9.082552909851074,
                34.03607940673828
              ],
              [
                8.928751945495605,
                34.03607940673828
              ],
              [
                9.003311157226562,
                34.3576545715332
              ],
              [
                8.926313400268555,
                34.3576545715332
              ],
              [
                8.846199035644531,
                34.743614196777344
              ],
              [
                8.459360122680664,
                34.87228775024414
              ],
              [
                8.228581428527832,
                34.80794906616211
              ],
              [
                7.994152545928955,
                35.065311431884766
              ],
              [
                7.98875093460083,
                35.51579284667969
              ],
              [
                7.911391258239746,
                35.51579284667969
              ],
              [
                7.90570592880249,
                35.9664192199707
              ],
              [
                7.828200340270996,
                35.9664192199707
              ],
              [
                7.902398109436035,
                36.2239875793457
              ],
              [
                7.586484432220459,
                36.61045455932617
              ],
              [
                6.964730262756348,
                36.61045455932617
              ],
              [
                6.889261722564697,
                36.48161697387695
              ],
              [
                6.421952247619629,
                36.5460319519043
              ],
              [
                6.346800804138184,
                36.417205810546875
              ],
              [
                5.879473686218262,
                36.48161697387695
              ],
              [
                5.64937162399292,
                36.3527946472168
              ],
              [
                2.774694681167603,
                36.417205810546875
              ],
              [
                2.315898895263672,
                36.2239875793457
              ],
              [
                2.003082513809204,
                36.28839111328125
              ],
              [
                2.007985591888428,
                36.15959167480469
              ],
              [
                1.15472674369812,
                36.15959167480469
              ],
              [
                1.0050128698349,
                36.03080368041992
              ],
              [
                0.7724329829216,
                36.03080368041992
              ],
              [
                0.479281276464462,
                35.644527435302734
              ],
              [
                -0.291726231575012,
                35.58015823364258
              ],
              [
                -1.040199160575867,
                35.065311431884766
              ],
              [
                -1.197805404663086,
                35.12965774536133
              ],
              [
                -1.34586226940155,
                35.00096893310547
              ],
              [
                -1.805726647377014,
                34.93662643432617
              ],
              [
                -1.876264095306396,
                34.80794906616211
              ],
              [
                -2.809019088745117,
                34.93662643432617
              ],
              [
                -5.278662204742432,
                34.93662643432617
              ],
              [
                -5.810211658477783,
                34.80794906616211
              ],
              [
                -6.105587959289551,
                34.614952087402344
              ],
              [
                -6.242210865020752,
                34.3576545715332
              ],
              [
                -6.156567573547363,
                34.22901916503906
              ],
              [
                -6.310484409332275,
                34.22901916503906
              ],
              [
                -6.600721836090088,
                33.971771240234375
              ],
              [
                -6.592004776000977,
                33.84315490722656
              ],
              [
                -6.813755989074707,
                33.71455001831055
              ],
              [
                -6.728268146514893,
                33.5859489440918
              ],
              [
                -7.184432506561279,
                33.52165222167969
              ],
              [
                -7.473525524139404,
                33.26447677612305
              ],
              [
                -7.875160217285156,
                33.52165222167969
              ],
              [
                -7.129902839660645,
                33.84315490722656
              ],
              [
                -7.062007427215576,
                33.971771240234375
              ],
              [
                -6.90380334854126,
                33.90746307373047
              ],
              [
                -6.613898754119873,
                34.164703369140625
              ],
              [
                -6.699729919433594,
                34.2933349609375
              ],
              [
                -6.473203659057617,
                34.3576545715332
              ],
              [
                -6.482059955596924,
                34.48630142211914
              ],
              [
                -6.332395076751709,
                34.55062484741211
              ],
              [
                -6.277484893798828,
                34.87228775024414
              ],
              [
                -6.200328826904297,
                34.87228775024414
              ],
              [
                -6.290933609008789,
                35.065311431884766
              ],
              [
                -6.132044315338135,
                35.00096893310547
              ],
              [
                -6.14545202255249,
                35.194007873535156
              ],
              [
                -5.999861240386963,
                35.32271194458008
              ],
              [
                -5.876633644104004,
                35.77327346801758
              ],
              [
                -5.338923931121826,
                35.837650299072266
              ],
              [
                -5.239750862121582,
                35.51579284667969
              ],
              [
                -4.754821300506592,
                35.194007873535156
              ],
              [
                -3.132419347763062,
                35.194007873535156
              ],
              [
                -2.981565713882446,
                35.258358001708984
              ],
              [
                -2.992615222930908,
                35.45143127441406
              ],
              [
                -2.837937116622925,
                35.45143127441406
              ],
              [
                -2.819781064987183,
                35.12965774536133
              ],
              [
                -2.661749362945557,
                35.065311431884766
              ],
              [
                -1.889582633972168,
                35.065311431884766
              ],
              [
                -1.590568661689758,
                35.258358001708984
              ],
              [
                -1.358735799789429,
                35.258358001708984
              ],
              [
                -1.136477708816528,
                35.45143127441406
              ],
              [
                -1.223541498184204,
                35.644527435302734
              ],
              [
                -1.065529465675354,
                35.58015823364258
              ],
              [
                -0.917115688323975,
                35.708900451660156
              ],
              [
                -0.530006587505341,
                35.708900451660156
              ],
              [
                -0.458719998598099,
                35.837650299072266
              ],
              [
                0.083524890244007,
                35.837650299072266
              ],
              [
                0.376142233610153,
                36.2239875793457
              ],
              [
                0.683685302734375,
                36.28839111328125
              ],
              [
                0.678023815155029,
                36.417205810546875
              ],
              [
                0.913757801055908,
                36.3527946472168
              ],
              [
                1.216211557388306,
                36.5460319519043
              ],
              [
                1.529616475105286,
                36.48161697387695
              ],
              [
                2.376901149749756,
                36.67487716674805
              ],
              [
                2.690169095993042,
                36.61045455932617
              ],
              [
                2.841080188751221,
                36.73930740356445
              ],
              [
                3.229894161224365,
                36.73930740356445
              ],
              [
                3.458978891372681,
                36.8681755065918
              ],
              [
                3.850007295608521,
                36.80373764038086
              ],
              [
                4.468640327453613,
                36.932613372802734
              ],
              [
                4.859498500823975,
                36.8681755065918
              ],
              [
                5.097836971282959,
                36.67487716674805
              ],
              [
                5.56428337097168,
                36.67487716674805
              ],
              [
                5.639055728912354,
                36.80373764038086
              ],
              [
                6.105763912200928,
                36.80373764038086
              ],
              [
                6.103042125701904,
                36.932613372802734
              ],
              [
                6.333924293518066,
                37.06150817871094
              ],
              [
                6.804664611816406,
                36.8681755065918
              ],
              [
                7.193697929382324,
                36.8681755065918
              ],
              [
                7.346271514892578,
                37.06150817871094
              ],
              [
                7.502017498016357,
                37.06150817871094
              ],
              [
                7.738344192504883,
                36.8681755065918
              ],
              [
                8.516410827636719,
                36.8681755065918
              ],
              [
                8.903155326843262,
                37.12596130371094
              ],
              [
                9.05947494506836,
                37.06150817871094
              ],
              [
                9.603086471557617,
                37.3193473815918
              ],
              [
                9.993423461914062,
                37.1904182434082
              ],
              [
                10.226980209350586,
                37.254878997802734
              ],
              [
                10.227567672729492,
                37.06150817871094
              ],
              [
                10.305440902709961,
                37.06150817871094
              ],
              [
                10.228352546691895,
                36.80373764038086
              ],
              [
                10.539600372314453,
                36.73930740356445
              ],
              [
                10.850569725036621,
                36.9970588684082
              ],
              [
                11.006271362304688,
                36.9970588684082
              ],
              [
                11.006199836730957,
                36.80373764038086
              ],
              [
                10.462488174438477,
                36.417205810546875
              ],
              [
                10.540250778198242,
                36.3527946472168
              ],
              [
                10.463515281677246,
                35.902034759521484
              ],
              [
                10.69615650177002,
                35.708900451660156
              ],
              [
                10.850979804992676,
                35.77327346801758
              ],
              [
                10.851019859313965,
                35.644527435302734
              ],
              [
                10.928421020507812,
                35.644527435302734
              ],
              [
                11.08318042755127,
                35.58015823364258
              ],
              [
                11.083049774169922,
                35.38706970214844
              ]
            ]
          ],
          [
            [
              [
                1.657540321350098,
                38.997230529785156
              ],
              [
                1.430543661117554,
                38.80344009399414
              ],
              [
                1.273545265197754,
                38.80344009399414
              ],
              [
                1.183109045028687,
                39.06184005737305
              ],
              [
                1.258725643157959,
                39.1264533996582
              ],
              [
                1.337347388267517,
                39.1264533996582
              ],
              [
                1.651834011077881,
                39.1264533996582
              ],
              [
                1.657540321350098,
                38.997230529785156
              ]
            ]
          ],
          [
            [
              [
                3.197866439819336,
                39.8376350402832
              ],
              [
                3.515789270401001,
                39.77294921875
              ],
              [
                3.295835733413696,
                39.320335388183594
              ],
              [
                2.82365870475769,
                39.320335388183594
              ],
              [
                2.658556938171387,
                39.51427459716797
              ],
              [
                2.346148252487183,
                39.449623107910156
              ],
              [
                2.338095426559448,
                39.64360046386719
              ],
              [
                2.877186298370361,
                39.9670295715332
              ],
              [
                2.956136703491211,
                39.9670295715332
              ],
              [
                3.19298791885376,
                39.9670295715332
              ],
              [
                3.197866439819336,
                39.8376350402832
              ]
            ]
          ],
          [
            [
              [
                3.826826572418213,
                39.90232849121094
              ],
              [
                3.741101741790771,
                40.0964469909668
              ],
              [
                3.820104122161865,
                40.0964469909668
              ],
              [
                4.215116024017334,
                40.0964469909668
              ],
              [
                4.302449703216553,
                39.8376350402832
              ],
              [
                3.826826572418213,
                39.90232849121094
              ]
            ]
          ],
          [
            [
              [
                7.666547775268555,
                50.445655822753906
              ],
              [
                7.669250965118408,
                50.312522888183594
              ],
              [
                7.75328540802002,
                50.312522888183594
              ],
              [
                7.677370071411133,
                49.91355895996094
              ],
              [
                7.762485027313232,
                49.84712600708008
              ],
              [
                7.0924072265625,
                49.84712600708008
              ],
              [
                6.764486312866211,
                49.58156967163086
              ],
              [
                6.346458435058594,
                49.58156967163086
              ],
              [
                6.001399040222168,
                49.91355895996094
              ],
              [
                5.833801746368408,
                49.91355895996094
              ],
              [
                5.743239402770996,
                50.11296081542969
              ],
              [
                5.321201801300049,
                50.17946243286133
              ],
              [
                4.890762805938721,
                50.445655822753906
              ],
              [
                4.299002170562744,
                50.51224899291992
              ],
              [
                4.205820083618164,
                50.71213912963867
              ],
              [
                3.86234188079834,
                50.84549331665039
              ],
              [
                2.77312445640564,
                50.71213912963867
              ],
              [
                2.59697437286377,
                50.84549331665039
              ],
              [
                2.090827465057373,
                50.84549331665039
              ],
              [
                1.930362462997437,
                50.71213912963867
              ],
              [
                1.87084972858429,
                50.312522888183594
              ],
              [
                1.78681492805481,
                50.312522888183594
              ],
              [
                2.154497385025024,
                49.78071212768555
              ],
              [
                3.436708688735962,
                49.2500114440918
              ],
              [
                4.60727596282959,
                49.18375015258789
              ],
              [
                5.433946132659912,
                49.38258361816406
              ],
              [
                6.187404632568359,
                49.316287994384766
              ],
              [
                6.439685344696045,
                49.2500114440918
              ],
              [
                6.612038135528564,
                49.051273345947266
              ],
              [
                6.946940422058105,
                48.98506164550781
              ],
              [
                7.201457977294922,
                48.786521911621094
              ],
              [
                7.292257308959961,
                48.455936431884766
              ],
              [
                7.542593479156494,
                48.38986587524414
              ],
              [
                7.618623733520508,
                48.72037124633789
              ],
              [
                7.535504341125488,
                48.72037124633789
              ],
              [
                7.521232604980469,
                49.38258361816406
              ],
              [
                7.604723930358887,
                49.38258361816406
              ],
              [
                7.601936340332031,
                49.51522445678711
              ],
              [
                7.936206340789795,
                49.51522445678711
              ],
              [
                8.273746490478516,
                49.316287994384766
              ],
              [
                8.115007400512695,
                48.852684020996094
              ],
              [
                7.705782890319824,
                48.52202224731445
              ],
              [
                7.633763790130615,
                47.993770599365234
              ],
              [
                7.551040172576904,
                47.993770599365234
              ],
              [
                7.559404373168945,
                47.598209381103516
              ],
              [
                8.467049598693848,
                47.598209381103516
              ],
              [
                8.547621726989746,
                47.730003356933594
              ],
              [
                8.877120971679688,
                47.79592514038086
              ],
              [
                9.038535118103027,
                48.1257438659668
              ],
              [
                10.030064582824707,
                48.52202224731445
              ],
              [
                10.445115089416504,
                48.52202224731445
              ],
              [
                10.943477630615234,
                48.786521911621094
              ],
              [
                11.359525680541992,
                48.852684020996094
              ],
              [
                11.694007873535156,
                49.11750411987305
              ],
              [
                12.11134147644043,
                49.18375015258789
              ],
              [
                12.609075546264648,
                48.98506164550781
              ],
              [
                12.772909164428711,
                48.786521911621094
              ],
              [
                13.270737648010254,
                48.72037124633789
              ],
              [
                13.351590156555176,
                48.5881233215332
              ],
              [
                13.600728988647461,
                48.5881233215332
              ],
              [
                14.257559776306152,
                48.257774353027344
              ],
              [
                15.17097282409668,
                48.323814392089844
              ],
              [
                15.498525619506836,
                48.191749572753906
              ],
              [
                16.078336715698242,
                48.191749572753906
              ],
              [
                16.663206100463867,
                48.323814392089844
              ],
              [
                17.064254760742188,
                47.993770599365234
              ],
              [
                17.714326858520508,
                47.730003356933594
              ],
              [
                18.540157318115234,
                47.730003356933594
              ],
              [
                18.71200180053711,
                47.86185836791992
              ],
              [
                19.186756134033203,
                47.46647262573242
              ],
              [
                19.1728572845459,
                47.20316696166992
              ],
              [
                18.83701515197754,
                47.07159423828125
              ],
              [
                18.81411361694336,
                46.61152267456055
              ],
              [
                19.05011558532715,
                46.414546966552734
              ],
              [
                18.86043357849121,
                45.889827728271484
              ],
              [
                18.77879524230957,
                45.889827728271484
              ],
              [
                18.9258975982666,
                45.56227111816406
              ],
              [
                18.92267417907715,
                45.496795654296875
              ],
              [
                19.004117965698242,
                45.496795654296875
              ],
              [
                18.997617721557617,
                45.36587905883789
              ],
              [
                19.235076904296875,
                45.23500442504883
              ],
              [
                19.885604858398438,
                45.23500442504883
              ],
              [
                20.136940002441406,
                45.36587905883789
              ],
              [
                20.288434982299805,
                45.169586181640625
              ],
              [
                19.938013076782227,
                44.71194839477539
              ],
              [
                19.835590362548828,
                44.32010269165039
              ],
              [
                19.670358657836914,
                44.25482940673828
              ],
              [
                19.659931182861328,
                44.05907440185547
              ],
              [
                19.410938262939453,
                43.92862319946289
              ],
              [
                19.474700927734375,
                43.6026611328125
              ],
              [
                19.313631057739258,
                43.6026611328125
              ],
              [
                19.30372428894043,
                43.407203674316406
              ],
              [
                19.457914352416992,
                43.276947021484375
              ],
              [
                19.11398696899414,
                42.82133865356445
              ],
              [
                19.168758392333984,
                42.30118942260742
              ],
              [
                19.005796432495117,
                42.236209869384766
              ],
              [
                18.925886154174805,
                42.236209869384766
              ],
              [
                18.85202980041504,
                42.36617660522461
              ],
              [
                18.143457412719727,
                42.62621307373047
              ],
              [
                17.83389663696289,
                42.88639831542969
              ],
              [
                17.593284606933594,
                42.88639831542969
              ],
              [
                17.50791358947754,
                42.75628662109375
              ],
              [
                17.515670776367188,
                42.95146560668945
              ],
              [
                17.35520362854004,
                42.95146560668945
              ],
              [
                17.36538314819336,
                43.211830139160156
              ],
              [
                17.12186050415039,
                43.146724700927734
              ],
              [
                17.05129051208496,
                43.407203674316406
              ],
              [
                16.727190017700195,
                43.342071533203125
              ],
              [
                16.734172821044922,
                43.53750228881836
              ],
              [
                16.575437545776367,
                43.6026611328125
              ],
              [
                15.927099227905273,
                43.472347259521484
              ],
              [
                16.01169204711914,
                43.6026611328125
              ],
              [
                15.856636047363281,
                43.79821014404297
              ],
              [
                15.695383071899414,
                43.79821014404297
              ],
              [
                15.618592262268066,
                43.92862319946289
              ],
              [
                15.374701499938965,
                43.86341094970703
              ],
              [
                15.459075927734375,
                43.99384307861328
              ],
              [
                15.218687057495117,
                44.05907440185547
              ],
              [
                15.146636962890625,
                44.38538360595703
              ],
              [
                14.908865928649902,
                44.58129119873047
              ],
              [
                14.91874885559082,
                44.973392486572266
              ],
              [
                14.515777587890625,
                45.10417556762695
              ],
              [
                14.603090286254883,
                45.36587905883789
              ],
              [
                14.196189880371094,
                45.36587905883789
              ],
              [
                14.189410209655762,
                45.03877639770508
              ],
              [
                13.945749282836914,
                45.03877639770508
              ],
              [
                13.943220138549805,
                44.908016204833984
              ],
              [
                13.780906677246094,
                44.908016204833984
              ],
              [
                13.705584526062012,
                45.23500442504883
              ],
              [
                13.544051170349121,
                45.300437927246094
              ],
              [
                13.547340393066406,
                45.496795654296875
              ],
              [
                13.710229873657227,
                45.496795654296875
              ],
              [
                13.714865684509277,
                45.75876998901367
              ],
              [
                13.144780158996582,
                45.82429504394531
              ],
              [
                13.060476303100586,
                45.62776184082031
              ],
              [
                12.816752433776855,
                45.693260192871094
              ],
              [
                12.652192115783691,
                45.56227111816406
              ],
              [
                12.162785530090332,
                45.496795654296875
              ],
              [
                12.160021781921387,
                45.169586181640625
              ],
              [
                12.40256118774414,
                45.03877639770508
              ],
              [
                12.399906158447266,
                44.77729415893555
              ],
              [
                12.157197952270508,
                44.842647552490234
              ],
              [
                12.153728485107422,
                44.45067596435547
              ],
              [
                12.312999725341797,
                44.18956756591797
              ],
              [
                12.873446464538574,
                43.79821014404297
              ],
              [
                13.035634994506836,
                43.86341094970703
              ],
              [
                13.033763885498047,
                43.73301696777344
              ],
              [
                13.355091094970703,
                43.6678352355957
              ],
              [
                13.672640800476074,
                43.407203674316406
              ],
              [
                13.747068405151367,
                43.08163070678711
              ],
              [
                13.98537540435791,
                42.95146560668945
              ],
              [
                13.901384353637695,
                42.75628662109375
              ],
              [
                14.056464195251465,
                42.496177673339844
              ],
              [
                14.607714653015137,
                42.10627746582031
              ],
              [
                14.768959999084473,
                42.17123794555664
              ],
              [
                14.765887260437012,
                42.041324615478516
              ],
              [
                14.9239501953125,
                41.97637939453125
              ],
              [
                15.165011405944824,
                42.041324615478516
              ],
              [
                15.241438865661621,
                41.911441802978516
              ],
              [
                16.11888313293457,
                41.911441802978516
              ],
              [
                16.114879608154297,
                41.781593322753906
              ],
              [
                15.87384033203125,
                41.71668243408203
              ],
              [
                15.943941116333008,
                41.39224624633789
              ],
              [
                17.20269203186035,
                41.00318908691406
              ],
              [
                17.510658264160156,
                40.74397277832031
              ],
              [
                17.981229782104492,
                40.614410400390625
              ],
              [
                18.43811798095703,
                40.16116714477539
              ],
              [
                18.34894371032715,
                39.90232849121094
              ],
              [
                18.11216926574707,
                39.90232849121094
              ],
              [
                17.813072204589844,
                40.355369567871094
              ],
              [
                17.41753578186035,
                40.355369567871094
              ],
              [
                17.345230102539062,
                40.54964065551758
              ],
              [
                17.02848243713379,
                40.54964065551758
              ],
              [
                16.867990493774414,
                40.4848747253418
              ],
              [
                16.945016860961914,
                40.42012023925781
              ],
              [
                16.861696243286133,
                40.29063034057617
              ],
              [
                16.624452590942383,
                40.29063034057617
              ],
              [
                16.697484970092773,
                40.0964469909668
              ],
              [
                16.45665168762207,
                39.9670295715332
              ],
              [
                16.44725799560547,
                39.64360046386719
              ],
              [
                16.916194915771484,
                39.51427459716797
              ],
              [
                17.069679260253906,
                39.38497543334961
              ],
              [
                17.138301849365234,
                39.06184005737305
              ],
              [
                16.502395629882812,
                38.80344009399414
              ],
              [
                16.491945266723633,
                38.416015625
              ],
              [
                15.932764053344727,
                37.96426773071289
              ],
              [
                15.698192596435547,
                37.96426773071289
              ],
              [
                15.62426471710205,
                38.157840728759766
              ],
              [
                15.389483451843262,
                38.157840728759766
              ],
              [
                15.066489219665527,
                37.641746520996094
              ],
              [
                15.059245109558105,
                37.254878997802734
              ],
              [
                15.213889122009277,
                37.1904182434082
              ],
              [
                15.049844741821289,
                36.73930740356445
              ],
              [
                14.661029815673828,
                36.73930740356445
              ],
              [
                14.27791690826416,
                37.12596130371094
              ],
              [
                13.578389167785645,
                37.254878997802734
              ],
              [
                13.192005157470703,
                37.5772590637207
              ],
              [
                12.490468978881836,
                37.706241607666016
              ],
              [
                12.49189567565918,
                37.89975357055664
              ],
              [
                12.649824142456055,
                38.09331130981445
              ],
              [
                13.040358543395996,
                38.028785705566406
              ],
              [
                13.119925498962402,
                38.157840728759766
              ],
              [
                13.354706764221191,
                38.157840728759766
              ],
              [
                13.665236473083496,
                37.96426773071289
              ],
              [
                14.05618953704834,
                37.96426773071289
              ],
              [
                15.862062454223633,
                38.28691864013672
              ],
              [
                15.949724197387695,
                38.67427444458008
              ],
              [
                16.265209197998047,
                38.738853454589844
              ],
              [
                16.270299911499023,
                38.93262481689453
              ],
              [
                16.116540908813477,
                39.06184005737305
              ],
              [
                15.898874282836914,
                39.77294921875
              ],
              [
                15.665508270263672,
                39.90232849121094
              ],
              [
                15.747773170471191,
                40.031734466552734
              ],
              [
                15.431868553161621,
                40.031734466552734
              ],
              [
                14.963752746582031,
                40.29063034057617
              ],
              [
                14.893351554870605,
                40.6791877746582
              ],
              [
                14.417906761169434,
                40.6791877746582
              ],
              [
                14.421854972839355,
                40.873565673828125
              ],
              [
                14.104567527770996,
                40.873565673828125
              ],
              [
                13.950616836547852,
                41.132843017578125
              ],
              [
                13.791753768920898,
                41.132843017578125
              ],
              [
                13.714534759521484,
                41.26253128051758
              ],
              [
                13.000019073486328,
                41.32738494873047
              ],
              [
                12.922186851501465,
                41.45711898803711
              ],
              [
                12.525753021240234,
                41.586883544921875
              ],
              [
                12.52646541595459,
                41.65177917480469
              ],
              [
                12.767029762268066,
                41.781593322753906
              ],
              [
                12.772722244262695,
                42.236209869384766
              ],
              [
                12.535200119018555,
                42.43117141723633
              ],
              [
                12.05577564239502,
                42.496177673339844
              ],
              [
                11.73387622833252,
                42.236209869384766
              ],
              [
                11.734321594238281,
                42.30118942260742
              ],
              [
                11.255227088928223,
                42.43117141723633
              ],
              [
                11.175962448120117,
                42.62621307373047
              ],
              [
                11.015789985656738,
                42.62621307373047
              ],
              [
                11.01634693145752,
                42.82133865356445
              ],
              [
                10.535322189331055,
                43.08163070678711
              ],
              [
                10.212339401245117,
                43.99384307861328
              ],
              [
                9.889463424682617,
                43.99384307861328
              ],
              [
                9.969700813293457,
                44.12431716918945
              ],
              [
                9.7273588180542,
                44.12431716918945
              ],
              [
                9.159077644348145,
                44.45067596435547
              ],
              [
                8.431501388549805,
                44.38538360595703
              ],
              [
                8.033902168273926,
                43.92862319946289
              ],
              [
                7.150246143341064,
                43.73301696777344
              ],
              [
                6.993107318878174,
                43.53750228881836
              ],
              [
                6.67255163192749,
                43.472347259521484
              ],
              [
                6.517646789550781,
                43.211830139160156
              ],
              [
                6.278174877166748,
                43.146724700927734
              ],
              [
                5.796233177185059,
                43.146724700927734
              ],
              [
                5.631923198699951,
                43.276947021484375
              ],
              [
                5.390771865844727,
                43.276947021484375
              ],
              [
                5.386905193328857,
                43.407203674316406
              ],
              [
                5.063065528869629,
                43.472347259521484
              ],
              [
                4.177847862243652,
                43.472347259521484
              ],
              [
                4.173032760620117,
                43.6026611328125
              ],
              [
                3.850892543792725,
                43.6026611328125
              ],
              [
                2.984907388687134,
                43.146724700927734
              ],
              [
                3.009923458099365,
                42.56119155883789
              ],
              [
                3.178062200546265,
                42.36617660522461
              ],
              [
                3.116764783859253,
                41.911441802978516
              ],
              [
                2.572504997253418,
                41.586883544921875
              ],
              [
                2.333626985549927,
                41.586883544921875
              ],
              [
                2.106574535369873,
                41.32738494873047
              ],
              [
                1.238392949104309,
                41.19768524169922
              ],
              [
                0.695793092250824,
                40.93837356567383
              ],
              [
                0.709256291389465,
                40.6791877746582
              ],
              [
                0.474957317113876,
                40.614410400390625
              ],
              [
                0.247769102454185,
                40.42012023925781
              ],
              [
                0.182543575763702,
                40.16116714477539
              ],
              [
                -0.201878547668457,
                39.9670295715332
              ],
              [
                -0.345421016216278,
                39.70827102661133
              ],
              [
                -0.313707679510117,
                39.1264533996582
              ],
              [
                0.099359586834908,
                38.738853454589844
              ],
              [
                -0.660861134529114,
                38.28691864013672
              ],
              [
                -0.803495347499847,
                38.028785705566406
              ],
              [
                -0.704753637313843,
                37.641746520996094
              ],
              [
                -1.708719491958618,
                37.44829177856445
              ],
              [
                -1.623468399047852,
                37.3193473815918
              ],
              [
                -1.857354998588562,
                37.3193473815918
              ],
              [
                -2.061630010604858,
                36.80373764038086
              ],
              [
                -2.532132625579834,
                36.8681755065918
              ],
              [
                -2.680080890655518,
                36.73930740356445
              ],
              [
                -4.468626022338867,
                36.73930740356445
              ],
              [
                -4.688807487487793,
                36.5460319519043
              ],
              [
                -5.22819709777832,
                36.48161697387695
              ],
              [
                -5.287947177886963,
                36.2239875793457
              ],
              [
                -5.662277221679688,
                36.03080368041992
              ],
              [
                -5.831079006195068,
                36.2239875793457
              ],
              [
                -6.063849925994873,
                36.2239875793457
              ],
              [
                -6.330093860626221,
                36.67487716674805
              ],
              [
                -6.349542140960693,
                36.932613372802734
              ],
              [
                -6.587993621826172,
                36.9970588684082
              ],
              [
                -6.84182596206665,
                37.254878997802734
              ],
              [
                -7.465344429016113,
                37.254878997802734
              ],
              [
                -7.454815864562988,
                37.12596130371094
              ],
              [
                -7.677903652191162,
                36.9970588684082
              ],
              [
                -8.70113754272461,
                37.12596130371094
              ],
              [
                -9.00136661529541,
                36.9970588684082
              ],
              [
                -8.896896362304688,
                37.5772590637207
              ],
              [
                -8.818843841552734,
                37.5772590637207
              ],
              [
                -8.822718620300293,
                38.48057174682617
              ],
              [
                -9.20852279663086,
                38.416015625
              ],
              [
                -9.23299789428711,
                38.67427444458008
              ],
              [
                -9.38370418548584,
                38.60969924926758
              ],
              [
                -9.553065299987793,
                38.738853454589844
              ],
              [
                -9.571974754333496,
                38.93262481689453
              ],
              [
                -9.42748737335205,
                39.06184005737305
              ],
              [
                -9.387048721313477,
                39.449623107910156
              ],
              [
                -9.157164573669434,
                39.51427459716797
              ],
              [
                -9.103915214538574,
                39.77294921875
              ],
              [
                -9.025042533874512,
                39.77294921875
              ],
              [
                -8.925222396850586,
                40.355369567871094
              ],
              [
                -8.846114158630371,
                40.355369567871094
              ],
              [
                -8.872282981872559,
                40.614410400390625
              ],
              [
                -8.72695255279541,
                40.74397277832031
              ],
              [
                -8.956093788146973,
                42.17123794555664
              ],
              [
                -8.65738296508789,
                42.36617660522461
              ],
              [
                -9.078654289245605,
                42.56119155883789
              ],
              [
                -9.100251197814941,
                42.75628662109375
              ],
              [
                -9.275152206420898,
                42.88639831542969
              ],
              [
                -9.30460262298584,
                43.146724700927734
              ],
              [
                -9.158673286437988,
                43.276947021484375
              ],
              [
                -8.851689338684082,
                43.407203674316406
              ],
              [
                -8.369025230407715,
                43.407203674316406
              ],
              [
                -8.39044189453125,
                43.6026611328125
              ],
              [
                -8.243616104125977,
                43.73301696777344
              ],
              [
                -7.276463031768799,
                43.73301696777344
              ],
              [
                -7.343485832214355,
                43.6026611328125
              ],
              [
                -7.175715446472168,
                43.53750228881836
              ],
              [
                -5.732783794403076,
                43.6026611328125
              ],
              [
                -4.990375518798828,
                43.407203674316406
              ],
              [
                -3.467212915420532,
                43.472347259521484
              ],
              [
                -3.295851230621338,
                43.342071533203125
              ],
              [
                -1.687574744224548,
                43.342071533203125
              ],
              [
                -1.388410806655884,
                43.6678352355957
              ],
              [
                -1.348801136016846,
                44.25482940673828
              ],
              [
                -1.267958283424377,
                44.25482940673828
              ],
              [
                -1.286344885826111,
                44.5159797668457
              ],
              [
                -1.205376982688904,
                44.5159797668457
              ],
              [
                -1.251859068870544,
                45.169586181640625
              ],
              [
                -1.170574903488159,
                45.169586181640625
              ],
              [
                -1.189373373985291,
                45.431331634521484
              ],
              [
                -1.031213998794556,
                45.496795654296875
              ],
              [
                -1.045281529426575,
                45.693260192871094
              ],
              [
                -1.213142395019531,
                45.75876998901367
              ],
              [
                -1.141096234321594,
                45.889827728271484
              ],
              [
                -1.222735166549683,
                45.889827728271484
              ],
              [
                -1.251809358596802,
                46.283294677734375
              ],
              [
                -1.666043281555176,
                46.348915100097656
              ],
              [
                -2.014399528503418,
                46.61152267456055
              ],
              [
                -2.024919986724854,
                46.74290466308594
              ],
              [
                -2.194406032562256,
                46.808616638183594
              ],
              [
                -2.139080047607422,
                47.13737487792969
              ],
              [
                -2.232228517532349,
                47.26897048950195
              ],
              [
                -2.561590671539307,
                47.26897048950195
              ],
              [
                -2.578423976898193,
                47.46647262573242
              ],
              [
                -2.825755596160889,
                47.46647262573242
              ],
              [
                -2.837259292602539,
                47.598209381103516
              ],
              [
                -3.155531167984009,
                47.46647262573242
              ],
              [
                -3.344320774078369,
                47.730003356933594
              ],
              [
                -3.757235288619995,
                47.730003356933594
              ],
              [
                -3.934937715530396,
                47.86185836791992
              ],
              [
                -4.424368858337402,
                47.79592514038086
              ],
              [
                -4.692053318023682,
                47.993770599365234
              ],
              [
                -4.705362796783447,
                48.1257438659668
              ],
              [
                -4.546383857727051,
                48.191749572753906
              ],
              [
                -4.642560005187988,
                48.323814392089844
              ],
              [
                -4.891265392303467,
                48.323814392089844
              ],
              [
                -4.911745548248291,
                48.52202224731445
              ],
              [
                -4.599917888641357,
                48.72037124633789
              ],
              [
                -3.85184383392334,
                48.72037124633789
              ],
              [
                -3.455082654953003,
                48.91886520385742
              ],
              [
                -3.122164011001587,
                48.91886520385742
              ],
              [
                -2.759404182434082,
                48.5881233215332
              ],
              [
                -2.521934509277344,
                48.72037124633789
              ],
              [
                -1.602181315422058,
                48.654239654541016
              ],
              [
                -1.718345284461975,
                49.051273345947266
              ],
              [
                -1.635041356086731,
                49.051273345947266
              ],
              [
                -1.651668906211853,
                49.2500114440918
              ],
              [
                -1.913302421569824,
                49.38258361816406
              ],
              [
                -2.031550645828247,
                49.78071212768555
              ],
              [
                -1.361783027648926,
                49.78071212768555
              ],
              [
                -1.250783205032349,
                49.44889450073242
              ],
              [
                0.007001183927059,
                49.38258361816406
              ],
              [
                -0.012448177672923,
                49.64793395996094
              ],
              [
                0.224112883210182,
                49.84712600708008
              ],
              [
                1.052847385406494,
                49.98000717163086
              ],
              [
                1.454967975616455,
                50.2459831237793
              ],
              [
                1.424705147743225,
                50.71213912963867
              ],
              [
                1.656218767166138,
                51.04566955566406
              ],
              [
                2.577829360961914,
                51.17921447753906
              ],
              [
                2.73940634727478,
                51.31283950805664
              ],
              [
                3.409677743911743,
                51.44654083251953
              ],
              [
                3.399252653121948,
                51.64724349975586
              ],
              [
                3.738690614700317,
                51.64724349975586
              ],
              [
                3.647099733352661,
                51.78114318847656
              ],
              [
                3.980464458465576,
                51.91512680053711
              ],
              [
                4.055951118469238,
                52.11625671386719
              ],
              [
                4.232470512390137,
                51.98215103149414
              ],
              [
                4.572768688201904,
                51.98215103149414
              ],
              [
                4.56984806060791,
                52.0491943359375
              ],
              [
                5.933963298797607,
                51.98215103149414
              ],
              [
                6.023392200469971,
                51.84812545776367
              ],
              [
                6.625779151916504,
                51.580322265625
              ],
              [
                6.627641201019287,
                51.51342010498047
              ],
              [
                6.885428905487061,
                51.37968063354492
              ],
              [
                7.412732124328613,
                50.51224899291992
              ],
              [
                7.666547775268555,
                50.445655822753906
              ]
            ],
            [
              [
                5.784458637237549,
                51.37968063354492
              ],
              [
                5.8624267578125,
                51.580322265625
              ],
              [
                5.51589298248291,
                51.78114318847656
              ],
              [
                4.329687118530273,
                51.71418380737305
              ],
              [
                4.269116878509521,
                51.17921447753906
              ],
              [
                4.69754695892334,
                51.04566955566406
              ],
              [
                4.782028198242188,
                51.04566955566406
              ],
              [
                5.204434871673584,
                51.04566955566406
              ],
              [
                5.537582874298096,
                51.17921447753906
              ],
              [
                5.532790184020996,
                51.31283950805664
              ],
              [
                5.784458637237549,
                51.37968063354492
              ]
            ]
          ],
          [
            [
              [
                0.493327647447586,
                53.057395935058594
              ],
              [
                1.093834638595581,
                53.057395935058594
              ],
              [
                1.531973838806152,
                52.92268753051758
              ],
              [
                1.716817617416382,
                52.720787048339844
              ],
              [
                1.739019155502319,
                52.38472366333008
              ],
              [
                1.653681755065918,
                52.38472366333008
              ],
              [
                1.586262822151184,
                52.11625671386719
              ],
              [
                1.425007224082947,
                51.98215103149414
              ],
              [
                1.169783234596252,
                51.98215103149414
              ],
              [
                1.183690190315247,
                51.78114318847656
              ],
              [
                0.843909561634064,
                51.78114318847656
              ],
              [
                0.862975299358368,
                51.51342010498047
              ],
              [
                0.523877322673798,
                51.51342010498047
              ],
              [
                1.380577206611633,
                51.37968063354492
              ],
              [
                1.393928170204163,
                51.17921447753906
              ],
              [
                0.74110209941864,
                50.84549331665039
              ],
              [
                -1.367843627929688,
                50.84549331665039
              ],
              [
                -1.109168291091919,
                50.77880859375
              ],
              [
                -1.098008990287781,
                50.64549255371094
              ],
              [
                -1.513427257537842,
                50.578861236572266
              ],
              [
                -1.524962306022644,
                50.71213912963867
              ],
              [
                -2.030619621276855,
                50.71213912963867
              ],
              [
                -2.102793455123901,
                50.578861236572266
              ],
              [
                -2.607964515686035,
                50.578861236572266
              ],
              [
                -2.957657814025879,
                50.71213912963867
              ],
              [
                -2.899259090423584,
                50.97892379760742
              ],
              [
                -3.257112741470337,
                51.17921447753906
              ],
              [
                -3.094635725021362,
                51.24601745605469
              ],
              [
                -3.107994079589844,
                51.37968063354492
              ],
              [
                -2.951877117156982,
                51.51342010498047
              ],
              [
                -3.277374029159546,
                51.37968063354492
              ],
              [
                -3.70082426071167,
                51.37968063354492
              ],
              [
                -3.884396553039551,
                51.51342010498047
              ],
              [
                -3.89866828918457,
                51.64724349975586
              ],
              [
                -3.728949069976807,
                51.64724349975586
              ],
              [
                -3.346133947372437,
                52.0491943359375
              ],
              [
                -2.934086561203003,
                52.18334197998047
              ],
              [
                -2.869202375411987,
                52.38472366333008
              ],
              [
                -2.698527336120605,
                52.38472366333008
              ],
              [
                -2.468977451324463,
                52.653533935546875
              ],
              [
                -2.297946691513062,
                52.653533935546875
              ],
              [
                -1.743483424186707,
                53.124786376953125
              ],
              [
                -1.842171549797058,
                53.25962829589844
              ],
              [
                -1.756247282028198,
                53.25962829589844
              ],
              [
                -1.769078850746155,
                53.39456558227539
              ],
              [
                -1.597045540809631,
                53.39456558227539
              ],
              [
                -1.702297329902649,
                53.597137451171875
              ],
              [
                -1.616141080856323,
                53.597137451171875
              ],
              [
                -1.667805433273315,
                54.138362884521484
              ],
              [
                -1.340745687484741,
                54.341712951660156
              ],
              [
                -1.080708980560303,
                54.341712951660156
              ],
              [
                -1.179996848106384,
                54.47740173339844
              ],
              [
                -0.832894086837769,
                54.47740173339844
              ],
              [
                -0.932052612304688,
                54.613189697265625
              ],
              [
                -0.671433329582214,
                54.613189697265625
              ],
              [
                -0.393139123916626,
                54.4095458984375
              ],
              [
                -0.381431937217712,
                54.27390670776367
              ],
              [
                -0.202435865998268,
                54.20612335205078
              ],
              [
                -0.17964468896389,
                53.93522644042969
              ],
              [
                0.004257039166987,
                53.799922943115234
              ],
              [
                0.020827349275351,
                53.597137451171875
              ],
              [
                0.29531991481781,
                53.39456558227539
              ],
              [
                0.316494405269623,
                53.124786376953125
              ],
              [
                0.075146429240704,
                52.92268753051758
              ],
              [
                0.160842165350914,
                52.92268753051758
              ],
              [
                0.337453275918961,
                52.85536575317383
              ],
              [
                0.493327647447586,
                53.057395935058594
              ]
            ]
          ],
          [
            [
              [
                9.823226928710938,
                40.355369567871094
              ],
              [
                9.665326118469238,
                40.29063034057617
              ],
              [
                9.74737548828125,
                39.64360046386719
              ],
              [
                9.668553352355957,
                39.64360046386719
              ],
              [
                9.592622756958008,
                39.1264533996582
              ],
              [
                9.120378494262695,
                39.19107437133789
              ],
              [
                8.96590518951416,
                38.8680305480957
              ],
              [
                8.730334281921387,
                38.8680305480957
              ],
              [
                8.336196899414062,
                38.997230529785156
              ],
              [
                8.411824226379395,
                39.25570297241211
              ],
              [
                8.333152770996094,
                39.25570297241211
              ],
              [
                8.330102920532227,
                39.51427459716797
              ],
              [
                8.40887451171875,
                39.51427459716797
              ],
              [
                8.48337459564209,
                39.90232849121094
              ],
              [
                8.324762344360352,
                39.9670295715332
              ],
              [
                8.400031089782715,
                40.29063034057617
              ],
              [
                8.32094955444336,
                40.29063034057617
              ],
              [
                8.318660736083984,
                40.4848747253418
              ],
              [
                8.159523010253906,
                40.54964065551758
              ],
              [
                8.154606819152832,
                40.93837356567383
              ],
              [
                8.552037239074707,
                40.873565673828125
              ],
              [
                9.024832725524902,
                41.26253128051758
              ],
              [
                9.10431957244873,
                41.26253128051758
              ],
              [
                9.50210952758789,
                41.19768524169922
              ],
              [
                9.821690559387207,
                40.74397277832031
              ],
              [
                9.823226928710938,
                40.355369567871094
              ]
            ]
          ],
          [
            [
              [
                12.210269927978516,
                41.911441802978516
              ],
              [
                12.130502700805664,
                41.911441802978516
              ],
              [
                12.131085395812988,
                41.97637939453125
              ],
              [
                12.131669044494629,
                42.041324615478516
              ],
              [
                12.051844596862793,
                42.041324615478516
              ],
              [
                12.052401542663574,
                42.10627746582031
              ],
              [
                12.052960395812988,
                42.17123794555664
              ],
              [
                12.132843017578125,
                42.17123794555664
              ],
              [
                12.133432388305664,
                42.236209869384766
              ],
              [
                12.452372550964355,
                42.17123794555664
              ],
              [
                12.45026969909668,
                41.97637939453125
              ],
              [
                12.210269927978516,
                41.911441802978516
              ]
            ]
          ],
          [
            [
              [
                9.49340534210205,
                42.75628662109375
              ],
              [
                9.5735502243042,
                42.75628662109375
              ],
              [
                9.577608108520508,
                41.97637939453125
              ],
              [
                9.497812271118164,
                41.97637939453125
              ],
              [
                9.49889087677002,
                41.781593322753906
              ],
              [
                9.262411117553711,
                41.39224624633789
              ],
              [
                9.1038236618042,
                41.32738494873047
              ],
              [
                8.783942222595215,
                41.521995544433594
              ],
              [
                8.782108306884766,
                41.71668243408203
              ],
              [
                8.622743606567383,
                41.71668243408203
              ],
              [
                8.700496673583984,
                41.911441802978516
              ],
              [
                8.538846015930176,
                42.10627746582031
              ],
              [
                8.534564018249512,
                42.496177673339844
              ],
              [
                8.772740364074707,
                42.691246032714844
              ],
              [
                9.17282485961914,
                42.75628662109375
              ],
              [
                9.251097679138184,
                43.016544342041016
              ],
              [
                9.331360816955566,
                43.016544342041016
              ],
              [
                9.491888999938965,
                43.016544342041016
              ],
              [
                9.49340534210205,
                42.75628662109375
              ]
            ]
          ],
          [
            [
              [
                10.21481990814209,
                42.691246032714844
              ],
              [
                10.134284973144531,
                42.88639831542969
              ],
              [
                10.214488983154297,
                42.88639831542969
              ],
              [
                10.45510196685791,
                42.88639831542969
              ],
              [
                10.455166816711426,
                42.691246032714844
              ],
              [
                10.21481990814209,
                42.691246032714844
              ]
            ]
          ],
          [
            [
              [
                14.260871887207031,
                44.58129119873047
              ],
              [
                14.269240379333496,
                44.973392486572266
              ],
              [
                14.350428581237793,
                44.973392486572266
              ],
              [
                14.51131820678711,
                44.908016204833984
              ],
              [
                14.502378463745117,
                44.5159797668457
              ],
              [
                14.260871887207031,
                44.58129119873047
              ]
            ]
          ]
        ]
      }
    }
  ]
}
