{
  "type": "FeatureCollection",
  "features": [
    {
      "type": "Feature",
      "properties": {
        "Name": "Himyarite Kingdom",
        "FromYear": 378,
        "ToYear": 533,
        "Area": 295961.10332491,
        "Type": "POLITY",
        "Wikipedia": "Himyarite Kingdom",
        "Wikidata": "Q289577",
        "SeshatID": "ye_himyar_2",
        "Components": "",
        "MemberOf": "",
        "displayYear": 510,
        "sourceYear": 510,
        "mappedTerritoryId": "cliopatria_himyarite_kingdom"
      },
      "geometry": {
        "type": "MultiPolygon",
        "coordinates": [
          [
            [
              [
                44.809654235839844,
                16.550434112548828
              ],
              [
                45.22568130493164,
                16.100418090820312
              ],
              [
                45.21470260620117,
                15.907554626464844
              ],
              [
                45.365570068359375,
                15.971842765808105
              ],
              [
                45.579044342041016,
                15.843266487121582
              ],
              [
                46.0206184387207,
                15.843266487121582
              ],
              [
                46.17527389526367,
                15.971842765808105
              ],
              [
                46.46971130371094,
                15.971842765808105
              ],
              [
                46.55471420288086,
                16.16470718383789
              ],
              [
                46.698150634765625,
                16.100418090820312
              ],
              [
                47.670997619628906,
                16.35757064819336
              ],
              [
                49.59426498413086,
                16.486146926879883
              ],
              [
                50.11839294433594,
                16.614723205566406
              ],
              [
                50.48252487182617,
                16.550434112548828
              ],
              [
                51.080589294433594,
                16.67901039123535
              ],
              [
                51.88673400878906,
                16.614723205566406
              ],
              [
                52.380313873291016,
                16.293283462524414
              ],
              [
                52.25921630859375,
                15.586114883422852
              ],
              [
                52.10369110107422,
                15.457538604736328
              ],
              [
                51.883026123046875,
                15.457538604736328
              ],
              [
                51.27429962158203,
                15.136098861694336
              ],
              [
                50.75569152832031,
                15.07181167602539
              ],
              [
                50.22562789916992,
                14.81466007232666
              ],
              [
                49.409767150878906,
                14.686083793640137
              ],
              [
                48.7861213684082,
                14.043206214904785
              ],
              [
                47.75149917602539,
                13.914630889892578
              ],
              [
                47.668033599853516,
                13.721768379211426
              ],
              [
                46.844635009765625,
                13.40032958984375
              ],
              [
                45.74114990234375,
                13.336042404174805
              ],
              [
                45.05411911010742,
                12.757453918457031
              ],
              [
                44.614288330078125,
                12.757453918457031
              ],
              [
                44.38864517211914,
                12.628878593444824
              ],
              [
                43.438602447509766,
                12.69316577911377
              ],
              [
                43.44704818725586,
                12.886029243469238
              ],
              [
                43.23561477661133,
                13.07889175415039
              ],
              [
                43.26481628417969,
                13.721768379211426
              ],
              [
                43.056640625,
                13.97891902923584
              ],
              [
                42.95337677001953,
                14.878947257995605
              ],
              [
                42.88957214355469,
                15.07181167602539
              ],
              [
                42.74578857421875,
                15.136098861694336
              ],
              [
                42.70881652832031,
                15.843266487121582
              ],
              [
                42.78240966796875,
                15.843266487121582
              ],
              [
                42.8239860534668,
                16.614723205566406
              ],
              [
                42.476654052734375,
                17.000450134277344
              ],
              [
                42.48728942871094,
                17.193313598632812
              ],
              [
                42.63478469848633,
                17.193313598632812
              ],
              [
                43.02164077758789,
                17.514753341674805
              ],
              [
                43.03257751464844,
                17.707616806030273
              ],
              [
                43.250328063964844,
                17.643327713012695
              ],
              [
                43.552940368652344,
                17.77190399169922
              ],
              [
                43.89961624145508,
                17.38617706298828
              ],
              [
                43.81843948364258,
                17.257600784301758
              ],
              [
                43.95853805541992,
                17.129026412963867
              ],
              [
                43.94747543334961,
                16.9361629486084
              ],
              [
                44.087547302246094,
                16.807586669921875
              ],
              [
                44.312355041503906,
                16.87187385559082
              ],
              [
                44.304962158203125,
                16.743297576904297
              ],
              [
                44.81336975097656,
                16.614723205566406
              ],
              [
                44.809654235839844,
                16.550434112548828
              ]
            ]
          ],
          [
            [
              [
                46.62834548950195,
                16.16470718383789
              ],
              [
                46.63217544555664,
                16.228994369506836
              ],
              [
                46.705814361572266,
                16.228994369506836
              ],
              [
                46.70197677612305,
                16.16470718383789
              ],
              [
                46.62834548950195,
                16.16470718383789
              ]
            ]
          ],
          [
            [
              [
                43.88957977294922,
                18.479066848754883
              ],
              [
                43.815677642822266,
                18.479066848754883
              ],
              [
                43.74177551269531,
                18.479066848754883
              ],
              [
                43.74553680419922,
                18.543354034423828
              ],
              [
                43.8194465637207,
                18.543354034423828
              ],
              [
                43.82321548461914,
                18.607641220092773
              ],
              [
                43.897132873535156,
                18.607641220092773
              ],
              [
                43.89335632324219,
                18.543354034423828
              ],
              [
                43.88957977294922,
                18.479066848754883
              ]
            ]
          ]
        ]
      }
    }
  ]
}
