{
  "type": "FeatureCollection",
  "features": [
    {
      "type": "Feature",
      "properties": {
        "Name": "Kingdom of Sarawak",
        "FromYear": 1946,
        "ToYear": 1946,
        "Area": 128405.69868612199,
        "Type": "POLITY",
        "Wikipedia": "Raj of Sarawak",
        "Wikidata": "Q1658411",
        "SeshatID": "",
        "Components": "",
        "MemberOf": "",
        "displayYear": 1946,
        "sourceYear": 1946,
        "mappedTerritoryId": "cliopatria_kingdom_of_sarawak"
      },
      "geometry": {
        "type": "Polygon",
        "coordinates": [
          [
            [
              109.48505401611328,
              2.021427392959595
            ],
            [
              109.63065338134766,
              2.021427392959595
            ],
            [
              109.6254653930664,
              1.892852187156677
            ],
            [
              109.98182678222656,
              1.699989318847656
            ],
            [
              110.27806854248047,
              1.828564524650574
            ],
            [
              110.48639678955078,
              1.571414232254028
            ],
            [
              110.9206771850586,
              1.507126569747925
            ],
            [
              111.01384735107422,
              2.021427392959595
            ],
            [
              111.1647720336914,
              2.150002479553223
            ],
            [
              111.10289764404297,
              2.407152891159058
            ],
            [
              111.2485122680664,
              2.407152891159058
            ],
            [
              111.26271057128906,
              2.728590965270996
            ],
            [
              111.70841979980469,
              2.921453714370728
            ],
            [
              112.80979919433594,
              3.114316701889038
            ],
            [
              113.11360931396484,
              3.371467113494873
            ],
            [
              113.20266723632812,
              3.692905426025391
            ],
            [
              113.65660095214844,
              4.01434326171875
            ],
            [
              113.83073425292969,
              4.528644561767578
            ],
            [
              113.98013305664062,
              4.592932224273682
            ],
            [
              114.05299377441406,
              4.592932224273682
            ],
            [
              114.04566192626953,
              4.464356899261475
            ],
            [
              114.46137237548828,
              4.078630924224854
            ],
            [
              114.75627136230469,
              4.142918586730957
            ],
            [
              114.77423858642578,
              4.464356899261475
            ],
            [
              114.70138549804688,
              4.464356899261475
            ],
            [
              114.71623229980469,
              4.721507549285889
            ],
            [
              114.94242858886719,
              4.850082874298096
            ],
            [
              114.98916625976562,
              4.400069236755371
            ],
            [
              115.28058624267578,
              4.400069236755371
            ],
            [
              115.16876220703125,
              4.978658199310303
            ],
            [
              115.24163055419922,
              4.978658199310303
            ],
            [
              115.31450653076172,
              4.978658199310303
            ],
            [
              115.31841278076172,
              5.042945861816406
            ],
            [
              115.39128875732422,
              5.042945861816406
            ],
            [
              115.59825897216797,
              4.850082874298096
            ],
            [
              115.4847640991211,
              4.142918586730957
            ],
            [
              115.62692260742188,
              4.078630924224854
            ],
            [
              115.51372528076172,
              3.30717945098877
            ],
            [
              115.35546112060547,
              3.050029039382935
            ],
            [
              115.05803680419922,
              2.921453714370728
            ],
            [
              115.11013793945312,
              2.471440553665161
            ],
            [
              114.73482513427734,
              2.214290142059326
            ],
            [
              114.79673767089844,
              1.957139730453491
            ],
            [
              114.41215515136719,
              1.442839026451111
            ],
            [
              113.3130111694336,
              1.249976277351379
            ],
            [
              112.95390319824219,
              1.378551483154297
            ],
            [
              112.81573486328125,
              1.571414232254028
            ],
            [
              112.37899017333984,
              1.571414232254028
            ],
            [
              112.08043670654297,
              1.378551483154297
            ],
            [
              111.99812316894531,
              1.121401190757751
            ],
            [
              111.70236206054688,
              0.992826044559479
            ],
            [
              110.8289566040039,
              0.992826044559479
            ],
            [
              110.46053314208984,
              0.864250957965851
            ],
            [
              109.8896713256836,
              1.185688734054565
            ],
            [
              109.61785125732422,
              1.699989318847656
            ],
            [
              109.47477722167969,
              1.76427698135376
            ],
            [
              109.48245239257812,
              1.957139730453491
            ],
            [
              109.48505401611328,
              2.021427392959595
            ]
          ]
        ]
      }
    }
  ]
}
