{
  "type": "FeatureCollection",
  "features": [
    {
      "type": "Feature",
      "properties": {
        "Name": "Fatimid Caliphate",
        "FromYear": 990,
        "ToYear": 1014,
        "Area": 1946466.6204056893,
        "Type": "POLITY",
        "Wikipedia": "Fatimid Caliphate",
        "Wikidata": "Q160307",
        "SeshatID": "tn_fatimid_cal",
        "Components": "",
        "MemberOf": "",
        "displayYear": 1004,
        "sourceYear": 1004,
        "mappedTerritoryId": "cliopatria_fatimid_caliphate"
      },
      "geometry": {
        "type": "MultiPolygon",
        "coordinates": [
          [
            [
              [
                10.851019859313965,
                35.644527435302734
              ],
              [
                11.08318042755127,
                35.58015823364258
              ],
              [
                11.083049774169922,
                35.38706970214844
              ],
              [
                11.005731582641602,
                35.38706970214844
              ],
              [
                11.082771301269531,
                35.00096893310547
              ],
              [
                10.85119342803955,
                34.93662643432617
              ],
              [
                10.851213455200195,
                34.80794906616211
              ],
              [
                10.543014526367188,
                34.55062484741211
              ],
              [
                10.004497528076172,
                34.2933349609375
              ],
              [
                10.081672668457031,
                34.22901916503906
              ],
              [
                10.005777359008789,
                33.90746307373047
              ],
              [
                10.23681354522705,
                33.71455001831055
              ],
              [
                10.544031143188477,
                33.71455001831055
              ],
              [
                10.697741508483887,
                33.52165222167969
              ],
              [
                11.081541061401367,
                33.5859489440918
              ],
              [
                11.157825469970703,
                33.20018768310547
              ],
              [
                11.464441299438477,
                33.20018768310547
              ],
              [
                12.228955268859863,
                32.81447219848633
              ],
              [
                12.612099647521973,
                32.878753662109375
              ],
              [
                12.534722328186035,
                32.75019073486328
              ],
              [
                12.840824127197266,
                32.75019073486328
              ],
              [
                12.841785430908203,
                32.878753662109375
              ],
              [
                13.301749229431152,
                32.94303894042969
              ],
              [
                13.453653335571289,
                32.81447219848633
              ],
              [
                13.760527610778809,
                32.878753662109375
              ],
              [
                13.759129524230957,
                32.75019073486328
              ],
              [
                14.065231323242188,
                32.75019073486328
              ],
              [
                14.444439888000488,
                32.493072509765625
              ],
              [
                14.674704551696777,
                32.557350158691406
              ],
              [
                14.749334335327148,
                32.428794860839844
              ],
              [
                15.055076599121094,
                32.428794860839844
              ],
              [
                15.282304763793945,
                32.30024337768555
              ],
              [
                15.424593925476074,
                31.65752601623535
              ],
              [
                15.575982093811035,
                31.593257904052734
              ],
              [
                15.64897632598877,
                31.40045166015625
              ],
              [
                16.178552627563477,
                31.20764923095703
              ],
              [
                16.8635196685791,
                31.20764923095703
              ],
              [
                17.846824645996094,
                30.950578689575195
              ],
              [
                18.222288131713867,
                30.757776260375977
              ],
              [
                18.592470169067383,
                30.372163772583008
              ],
              [
                18.896053314208984,
                30.372163772583008
              ],
              [
                18.968589782714844,
                30.243623733520508
              ],
              [
                19.655010223388672,
                30.372163772583008
              ],
              [
                19.964311599731445,
                30.564971923828125
              ],
              [
                19.968164443969727,
                30.69350814819336
              ],
              [
                20.202085494995117,
                30.886310577392578
              ],
              [
                20.13410186767578,
                31.143381118774414
              ],
              [
                20.214296340942383,
                31.271915435791016
              ],
              [
                19.996076583862305,
                31.593257904052734
              ],
              [
                20.089075088500977,
                32.107421875
              ],
              [
                20.016965866088867,
                32.23596954345703
              ],
              [
                20.246112823486328,
                32.23596954345703
              ],
              [
                20.33134651184082,
                32.493072509765625
              ],
              [
                20.481992721557617,
                32.428794860839844
              ],
              [
                20.562992095947266,
                32.557350158691406
              ],
              [
                20.71593475341797,
                32.557350158691406
              ],
              [
                20.644094467163086,
                32.685909271240234
              ],
              [
                20.87124252319336,
                32.62162780761719
              ],
              [
                21.108016967773438,
                32.81447219848633
              ],
              [
                21.41167449951172,
                32.75019073486328
              ],
              [
                21.87872886657715,
                32.94303894042969
              ],
              [
                23.089431762695312,
                32.62162780761719
              ],
              [
                23.077939987182617,
                32.36451721191406
              ],
              [
                23.29851722717285,
                32.171695709228516
              ],
              [
                23.680339813232422,
                32.171695709228516
              ],
              [
                24.129365921020508,
                31.978878021240234
              ],
              [
                24.892484664916992,
                31.978878021240234
              ],
              [
                25.11168098449707,
                31.78606605529785
              ],
              [
                25.102048873901367,
                31.593257904052734
              ],
              [
                25.248035430908203,
                31.464719772338867
              ],
              [
                26.847702026367188,
                31.464719772338867
              ],
              [
                27.297456741333008,
                31.336183547973633
              ],
              [
                27.514896392822266,
                31.143381118774414
              ],
              [
                28.496395111083984,
                31.014846801757812
              ],
              [
                28.865032196044922,
                30.822044372558594
              ],
              [
                29.3970890045166,
                30.822044372558594
              ],
              [
                29.485143661499023,
                31.014846801757812
              ],
              [
                29.633193969726562,
                30.950578689575195
              ],
              [
                29.86956024169922,
                31.079113006591797
              ],
              [
                29.8017635345459,
                31.20764923095703
              ],
              [
                29.882049560546875,
                31.271915435791016
              ],
              [
                30.33879280090332,
                31.271915435791016
              ],
              [
                30.271244049072266,
                31.40045166015625
              ],
              [
                30.351730346679688,
                31.464719772338867
              ],
              [
                30.80877685546875,
                31.464719772338867
              ],
              [
                30.965608596801758,
                31.528987884521484
              ],
              [
                30.974620819091797,
                31.65752601623535
              ],
              [
                31.203296661376953,
                31.65752601623535
              ],
              [
                31.117990493774414,
                31.528987884521484
              ],
              [
                31.265825271606445,
                31.464719772338867
              ],
              [
                31.875221252441406,
                31.464719772338867
              ],
              [
                31.780553817749023,
                31.20764923095703
              ],
              [
                31.93739891052246,
                31.271915435791016
              ],
              [
                31.999635696411133,
                31.079113006591797
              ],
              [
                32.303932189941406,
                31.079113006591797
              ],
              [
                32.23719787597656,
                31.20764923095703
              ],
              [
                32.38941192626953,
                31.20764923095703
              ],
              [
                32.53215408325195,
                31.079113006591797
              ],
              [
                32.76515197753906,
                31.143381118774414
              ],
              [
                32.8316764831543,
                31.014846801757812
              ],
              [
                33.74934005737305,
                31.079113006591797
              ],
              [
                34.2972412109375,
                31.271915435791016
              ],
              [
                34.30759811401367,
                31.40045166015625
              ],
              [
                34.546607971191406,
                31.528987884521484
              ],
              [
                34.6388053894043,
                31.7217960357666
              ],
              [
                34.57329559326172,
                31.8503360748291
              ],
              [
                34.81304168701172,
                31.978878021240234
              ],
              [
                34.76983642578125,
                32.36451721191406
              ],
              [
                35.021759033203125,
                32.62162780761719
              ],
              [
                35.05632781982422,
                33.00732421875
              ],
              [
                35.21538543701172,
                33.07160949707031
              ],
              [
                35.39840316772461,
                33.393062591552734
              ],
              [
                35.34577560424805,
                33.65024948120117
              ],
              [
                35.49934768676758,
                33.65024948120117
              ],
              [
                35.4470100402832,
                33.90746307373047
              ],
              [
                35.68381118774414,
                33.971771240234375
              ],
              [
                35.64447784423828,
                34.3576545715332
              ],
              [
                35.79212951660156,
                34.2933349609375
              ],
              [
                36.21592330932617,
                34.679283142089844
              ],
              [
                36.29301834106445,
                34.679283142089844
              ],
              [
                36.57500076293945,
                34.42197799682617
              ],
              [
                36.619327545166016,
                34.10039138793945
              ],
              [
                36.90087890625,
                33.84315490722656
              ],
              [
                37.086021423339844,
                33.393062591552734
              ],
              [
                37.3161506652832,
                33.393062591552734
              ],
              [
                37.990238189697266,
                33.971771240234375
              ],
              [
                38.14400100708008,
                33.971771240234375
              ],
              [
                38.47935485839844,
                34.22901916503906
              ],
              [
                39.12379455566406,
                34.48630142211914
              ],
              [
                39.50897979736328,
                34.48630142211914
              ],
              [
                39.72534942626953,
                34.3576545715332
              ],
              [
                40.25685501098633,
                34.2933349609375
              ],
              [
                40.395843505859375,
                34.164703369140625
              ],
              [
                40.70359802246094,
                34.164703369140625
              ],
              [
                40.91171646118164,
                33.971771240234375
              ],
              [
                41.211639404296875,
                33.90746307373047
              ],
              [
                41.27333068847656,
                33.77885055541992
              ],
              [
                41.426979064941406,
                33.77885055541992
              ],
              [
                41.48860549926758,
                33.65024948120117
              ],
              [
                42.003082275390625,
                33.45735549926758
              ],
              [
                42.064544677734375,
                33.32876968383789
              ],
              [
                42.36363983154297,
                33.26447677612305
              ],
              [
                42.42985153198242,
                31.8503360748291
              ],
              [
                42.50613021850586,
                31.8503360748291
              ],
              [
                42.47052764892578,
                31.528987884521484
              ],
              [
                42.54671859741211,
                31.528987884521484
              ],
              [
                42.68495178222656,
                30.69350814819336
              ],
              [
                42.60897445678711,
                30.69350814819336
              ],
              [
                41.50025939941406,
                30.243623733520508
              ],
              [
                40.91420364379883,
                29.665164947509766
              ],
              [
                40.72746658325195,
                29.279497146606445
              ],
              [
                40.570438385009766,
                29.21521759033203
              ],
              [
                40.309837341308594,
                28.829526901245117
              ],
              [
                40.368812561035156,
                28.636676788330078
              ],
              [
                40.21782684326172,
                28.636676788330078
              ],
              [
                39.777618408203125,
                27.865236282348633
              ],
              [
                39.74761199951172,
                27.4794979095459
              ],
              [
                39.82285690307617,
                27.4794979095459
              ],
              [
                39.699607849121094,
                26.836584091186523
              ],
              [
                39.77472686767578,
                26.836584091186523
              ],
              [
                39.76077651977539,
                26.643707275390625
              ],
              [
                39.91094207763672,
                26.643707275390625
              ],
              [
                39.82209777832031,
                26.450830459594727
              ],
              [
                39.89714431762695,
                26.450830459594727
              ],
              [
                39.883567810058594,
                26.257951736450195
              ],
              [
                40.033592224121094,
                26.257951736450195
              ],
              [
                39.9407844543457,
                26.000778198242188
              ],
              [
                40.095149993896484,
                26.06507110595703
              ],
              [
                40.131011962890625,
                25.48643684387207
              ],
              [
                40.42624282836914,
                25.422143936157227
              ],
              [
                40.34294509887695,
                25.29355812072754
              ],
              [
                40.47597885131836,
                25.03639030456543
              ],
              [
                40.62145233154297,
                24.97209930419922
              ],
              [
                41.15565490722656,
                23.943456649780273
              ],
              [
                41.50580596923828,
                23.557723999023438
              ],
              [
                41.49454879760742,
                23.36486053466797
              ],
              [
                41.763065338134766,
                22.85055923461914
              ],
              [
                41.90833282470703,
                22.786272048950195
              ],
              [
                42.0354118347168,
                22.400548934936523
              ],
              [
                42.180599212646484,
                22.33626365661621
              ],
              [
                42.24057388305664,
                22.079116821289062
              ],
              [
                42.52358627319336,
                21.821969985961914
              ],
              [
                42.583553314208984,
                21.5648250579834
              ],
              [
                42.86630630493164,
                21.307680130004883
              ],
              [
                43.13438415527344,
                20.793392181396484
              ],
              [
                44.46821975708008,
                19.507661819458008
              ],
              [
                44.45673751831055,
                19.314802169799805
              ],
              [
                44.23091506958008,
                19.25051498413086
              ],
              [
                44.27817916870117,
                18.800504684448242
              ],
              [
                43.90468978881836,
                18.736217498779297
              ],
              [
                43.897132873535156,
                18.607641220092773
              ],
              [
                43.89335632324219,
                18.543354034423828
              ],
              [
                43.50514221191406,
                18.2219181060791
              ],
              [
                42.97704315185547,
                18.029054641723633
              ],
              [
                42.663536071777344,
                17.707616806030273
              ],
              [
                42.21000289916992,
                17.514753341674805
              ],
              [
                42.13621520996094,
                17.514753341674805
              ],
              [
                41.57747268676758,
                18.093341827392578
              ],
              [
                41.45082092285156,
                18.479066848754883
              ],
              [
                41.23610305786133,
                18.607641220092773
              ],
              [
                41.25007629394531,
                18.864791870117188
              ],
              [
                41.04209899902344,
                19.12194061279297
              ],
              [
                40.985382080078125,
                19.443374633789062
              ],
              [
                40.84076690673828,
                19.507661819458008
              ],
              [
                40.85103988647461,
                19.700523376464844
              ],
              [
                40.561588287353516,
                19.8290958404541
              ],
              [
                40.14036178588867,
                20.279102325439453
              ],
              [
                39.84385299682617,
                20.279102325439453
              ],
              [
                39.35056686401367,
                20.793392181396484
              ],
              [
                39.14701461791992,
                21.179107666015625
              ],
              [
                39.16929626464844,
                21.629112243652344
              ],
              [
                39.02705764770508,
                21.7576847076416
              ],
              [
                39.14019775390625,
                22.529123306274414
              ],
              [
                38.8588752746582,
                22.85055923461914
              ],
              [
                38.86882400512695,
                23.043420791625977
              ],
              [
                38.60107421875,
                23.622013092041016
              ],
              [
                38.03175354003906,
                24.136323928833008
              ],
              [
                37.444801330566406,
                24.329193115234375
              ],
              [
                37.38759231567383,
                24.650644302368164
              ],
              [
                37.17045593261719,
                24.779226303100586
              ],
              [
                37.1776123046875,
                24.907808303833008
              ],
              [
                37.3307991027832,
                24.97209930419922
              ],
              [
                37.27071762084961,
                25.229267120361328
              ],
              [
                36.772972106933594,
                25.67931365966797
              ],
              [
                36.7172966003418,
                26.000778198242188
              ],
              [
                36.42910385131836,
                26.19365882873535
              ],
              [
                36.16486358642578,
                26.772293090820312
              ],
              [
                35.671688079833984,
                27.2866268157959
              ],
              [
                35.61323928833008,
                27.54378890991211
              ],
              [
                35.46693801879883,
                27.608078002929688
              ],
              [
                35.40869903564453,
                27.865236282348633
              ],
              [
                35.04917907714844,
                28.12238883972168
              ],
              [
                34.59267044067383,
                28.058101654052734
              ],
              [
                34.60541915893555,
                28.25096321105957
              ],
              [
                34.853519439697266,
                28.572391510009766
              ],
              [
                34.91290283203125,
                29.40805435180664
              ],
              [
                34.75225830078125,
                29.279497146606445
              ],
              [
                34.517303466796875,
                28.058101654052734
              ],
              [
                34.35825729370117,
                27.92952537536621
              ],
              [
                34.345943450927734,
                27.736658096313477
              ],
              [
                34.12004470825195,
                27.736658096313477
              ],
              [
                33.6169548034668,
                28.12238883972168
              ],
              [
                33.553810119628906,
                28.315250396728516
              ],
              [
                33.40296936035156,
                28.315250396728516
              ],
              [
                33.18891525268555,
                28.508106231689453
              ],
              [
                33.213871002197266,
                28.893810272216797
              ],
              [
                32.857112884521484,
                29.21521759033203
              ],
              [
                32.52609634399414,
                29.922264099121094
              ],
              [
                32.428688049316406,
                29.600887298583984
              ],
              [
                32.638694763183594,
                29.34377670288086
              ],
              [
                32.68916320800781,
                28.958093643188477
              ],
              [
                32.83612823486328,
                28.893810272216797
              ],
              [
                33.10531997680664,
                28.379535675048828
              ],
              [
                33.60887145996094,
                27.993812561035156
              ],
              [
                33.585105895996094,
                27.608078002929688
              ],
              [
                33.7991943359375,
                27.41520881652832
              ],
              [
                33.92659378051758,
                27.029460906982422
              ],
              [
                34.07311248779297,
                26.96516990661621
              ],
              [
                34.05074691772461,
                26.57941436767578
              ],
              [
                34.197208404541016,
                26.515121459960938
              ],
              [
                34.461280822753906,
                25.8721923828125
              ],
              [
                34.60763931274414,
                25.807899475097656
              ],
              [
                35.145530700683594,
                24.650644302368164
              ],
              [
                35.860408782958984,
                24.00774574279785
              ],
              [
                35.85411834716797,
                23.879167556762695
              ],
              [
                35.558753967285156,
                23.943456649780273
              ],
              [
                35.55257034301758,
                23.814878463745117
              ],
              [
                35.10795974731445,
                23.879167556762695
              ],
              [
                33.75636291503906,
                23.68630027770996
              ],
              [
                33.6817741394043,
                23.68630027770996
              ],
              [
                33.38899612426758,
                23.814878463745117
              ],
              [
                32.040863037109375,
                23.68630027770996
              ],
              [
                31.670488357543945,
                23.75058937072754
              ],
              [
                30.537214279174805,
                23.36486053466797
              ],
              [
                30.462675094604492,
                23.36486053466797
              ],
              [
                30.39519500732422,
                23.557723999023438
              ],
              [
                30.10396385192871,
                23.75058937072754
              ],
              [
                30.10871124267578,
                23.879167556762695
              ],
              [
                29.95948028564453,
                23.879167556762695
              ],
              [
                29.672801971435547,
                24.200613021850586
              ],
              [
                28.568815231323242,
                24.650644302368164
              ],
              [
                28.288646697998047,
                25.164974212646484
              ],
              [
                28.24367904663086,
                25.936485290527344
              ],
              [
                28.34531593322754,
                26.57941436767578
              ],
              [
                28.270244598388672,
                26.57941436767578
              ],
              [
                28.15372657775879,
                27.35091781616211
              ],
              [
                27.93669891357422,
                27.54378890991211
              ],
              [
                27.710918426513672,
                27.54378890991211
              ],
              [
                27.791961669921875,
                27.6723690032959
              ],
              [
                27.429920196533203,
                27.993812561035156
              ],
              [
                27.27633285522461,
                27.92952537536621
              ],
              [
                27.28502082824707,
                28.12238883972168
              ],
              [
                27.140071868896484,
                28.25096321105957
              ],
              [
                25.807350158691406,
                28.829526901245117
              ],
              [
                25.440690994262695,
                29.08665657043457
              ],
              [
                25.37345314025879,
                29.279497146606445
              ],
              [
                25.14654541015625,
                29.279497146606445
              ],
              [
                25.000762939453125,
                29.40805435180664
              ],
              [
                24.846712112426758,
                29.34377670288086
              ],
              [
                24.779218673706055,
                29.536611557006836
              ],
              [
                24.330371856689453,
                29.665164947509766
              ],
              [
                23.962236404418945,
                29.922264099121094
              ],
              [
                22.451210021972656,
                30.050809860229492
              ],
              [
                21.537073135375977,
                29.922264099121094
              ],
              [
                19.774715423583984,
                29.21521759033203
              ],
              [
                18.637451171875,
                29.08665657043457
              ],
              [
                18.038183212280273,
                29.34377670288086
              ],
              [
                17.8179988861084,
                29.665164947509766
              ],
              [
                17.44329071044922,
                29.857990264892578
              ],
              [
                16.159448623657227,
                30.115081787109375
              ],
              [
                15.103917121887207,
                30.564971923828125
              ],
              [
                14.88122272491455,
                30.950578689575195
              ],
              [
                14.654745101928711,
                31.079113006591797
              ],
              [
                14.65640640258789,
                31.20764923095703
              ],
              [
                13.977724075317383,
                31.78606605529785
              ],
              [
                13.36995792388916,
                32.043148040771484
              ],
              [
                13.217299461364746,
                32.043148040771484
              ],
              [
                13.216207504272461,
                31.91460609436035
              ],
              [
                12.98781681060791,
                31.978878021240234
              ],
              [
                12.452892303466797,
                31.8503360748291
              ],
              [
                11.767474174499512,
                32.171695709228516
              ],
              [
                11.538215637207031,
                32.107421875
              ],
              [
                11.462311744689941,
                32.30024337768555
              ],
              [
                11.080252647399902,
                32.23596954345703
              ],
              [
                11.156867980957031,
                32.428794860839844
              ],
              [
                10.08555793762207,
                32.878753662109375
              ],
              [
                9.85610294342041,
                32.81447219848633
              ],
              [
                9.701672554016113,
                33.13589859008789
              ],
              [
                9.23953914642334,
                33.52165222167969
              ],
              [
                9.159027099609375,
                34.10039138793945
              ],
              [
                8.928268432617188,
                34.10039138793945
              ],
              [
                8.773378372192383,
                34.22901916503906
              ],
              [
                8.0807523727417,
                34.22901916503906
              ],
              [
                8.001612663269043,
                34.42197799682617
              ],
              [
                7.614861011505127,
                34.55062484741211
              ],
              [
                7.153473854064941,
                34.48630142211914
              ],
              [
                6.920335292816162,
                34.614952087402344
              ],
              [
                6.459011077880859,
                34.55062484741211
              ],
              [
                6.14835262298584,
                34.679283142089844
              ],
              [
                5.377389430999756,
                34.679283142089844
              ],
              [
                5.1490478515625,
                34.55062484741211
              ],
              [
                4.453888416290283,
                34.614952087402344
              ],
              [
                3.842682838439941,
                34.42197799682617
              ],
              [
                3.455702066421509,
                34.48630142211914
              ],
              [
                3.15149450302124,
                34.3576545715332
              ],
              [
                2.920501947402954,
                34.3576545715332
              ],
              [
                2.449900150299072,
                34.614952087402344
              ],
              [
                1.293753147125244,
                34.614952087402344
              ],
              [
                0.684976637363434,
                34.42197799682617
              ],
              [
                0.451262414455414,
                34.48630142211914
              ],
              [
                0.302583903074265,
                34.3576545715332
              ],
              [
                -0.313396781682968,
                34.3576545715332
              ],
              [
                -0.390394359827042,
                34.3576545715332
              ],
              [
                -0.16786190867424,
                34.55062484741211
              ],
              [
                -0.199571594595909,
                35.258358001708984
              ],
              [
                -0.056653548032045,
                35.51579284667969
              ],
              [
                -0.071402221918106,
                35.837650299072266
              ],
              [
                0.006061335559934,
                35.837650299072266
              ],
              [
                0.376142233610153,
                36.2239875793457
              ],
              [
                0.683685302734375,
                36.28839111328125
              ],
              [
                0.678023815155029,
                36.417205810546875
              ],
              [
                0.913757801055908,
                36.3527946472168
              ],
              [
                1.216211557388306,
                36.5460319519043
              ],
              [
                1.529616475105286,
                36.48161697387695
              ],
              [
                2.376901149749756,
                36.67487716674805
              ],
              [
                2.690169095993042,
                36.61045455932617
              ],
              [
                2.841080188751221,
                36.73930740356445
              ],
              [
                3.229894161224365,
                36.73930740356445
              ],
              [
                3.458978891372681,
                36.8681755065918
              ],
              [
                3.850007295608521,
                36.80373764038086
              ],
              [
                4.235154151916504,
                36.932613372802734
              ],
              [
                4.859498500823975,
                36.8681755065918
              ],
              [
                5.097836971282959,
                36.67487716674805
              ],
              [
                5.56428337097168,
                36.67487716674805
              ],
              [
                5.639055728912354,
                36.80373764038086
              ],
              [
                6.105763912200928,
                36.80373764038086
              ],
              [
                6.103042125701904,
                36.932613372802734
              ],
              [
                6.333924293518066,
                37.06150817871094
              ],
              [
                6.804664611816406,
                36.8681755065918
              ],
              [
                7.193697929382324,
                36.8681755065918
              ],
              [
                7.346271514892578,
                37.06150817871094
              ],
              [
                7.502017498016357,
                37.06150817871094
              ],
              [
                7.738344192504883,
                36.8681755065918
              ],
              [
                8.516410827636719,
                36.8681755065918
              ],
              [
                8.903155326843262,
                37.12596130371094
              ],
              [
                9.05947494506836,
                37.06150817871094
              ],
              [
                9.36964225769043,
                37.254878997802734
              ],
              [
                9.759011268615723,
                37.3193473815918
              ],
              [
                9.993423461914062,
                37.1904182434082
              ],
              [
                10.226980209350586,
                37.254878997802734
              ],
              [
                10.227567672729492,
                37.06150817871094
              ],
              [
                10.305440902709961,
                37.06150817871094
              ],
              [
                10.228352546691895,
                36.80373764038086
              ],
              [
                10.461837768554688,
                36.73930740356445
              ],
              [
                11.006271362304688,
                36.9970588684082
              ],
              [
                11.006199836730957,
                36.80373764038086
              ],
              [
                10.462488174438477,
                36.417205810546875
              ],
              [
                10.540250778198242,
                36.3527946472168
              ],
              [
                10.463515281677246,
                35.902034759521484
              ],
              [
                10.851000785827637,
                35.708900451660156
              ],
              [
                10.851019859313965,
                35.644527435302734
              ]
            ]
          ],
          [
            [
              [
                2.533390045166016,
                34.42197799682617
              ],
              [
                2.531259059906006,
                34.48630142211914
              ],
              [
                2.608296155929565,
                34.48630142211914
              ],
              [
                2.610407114028931,
                34.42197799682617
              ],
              [
                2.533390045166016,
                34.42197799682617
              ]
            ]
          ],
          [
            [
              [
                14.571182250976562,
                35.9664192199707
              ],
              [
                14.568227767944336,
                35.77327346801758
              ],
              [
                14.33681869506836,
                35.837650299072266
              ],
              [
                14.339592933654785,
                36.03080368041992
              ],
              [
                14.417119026184082,
                36.03080368041992
              ],
              [
                14.571182250976562,
                35.9664192199707
              ]
            ]
          ]
        ]
      }
    }
  ]
}
