{
  "type": "FeatureCollection",
  "features": [
    {
      "type": "Feature",
      "properties": {
        "Name": "Wey",
        "FromYear": -750,
        "ToYear": -551,
        "Area": 6979.345291404579,
        "Type": "POLITY",
        "Wikipedia": "Wey (state)",
        "Wikidata": "Q1147897",
        "SeshatID": "",
        "Components": "",
        "MemberOf": "(Spring and Autumn States)",
        "displayYear": -597,
        "sourceYear": -597,
        "mappedTerritoryId": "cliopatria_wey"
      },
      "geometry": {
        "type": "Polygon",
        "coordinates": [
          [
            [
              114.25340270996094,
              35.45143127441406
            ],
            [
              114.2259521484375,
              35.38706970214844
            ],
            [
              114.30327606201172,
              35.38706970214844
            ],
            [
              114.33074188232422,
              35.45143127441406
            ],
            [
              114.4080810546875,
              35.45143127441406
            ],
            [
              114.8564682006836,
              35.77327346801758
            ],
            [
              115.0113525390625,
              35.77327346801758
            ],
            [
              115.03944396972656,
              35.837650299072266
            ],
            [
              115.11690521240234,
              35.837650299072266
            ],
            [
              115.59768676757812,
              36.2239875793457
            ],
            [
              115.52009582519531,
              36.2239875793457
            ],
            [
              115.63568878173828,
              36.48161697387695
            ],
            [
              115.44165802001953,
              36.73930740356445
            ],
            [
              114.60979461669922,
              36.09519577026367
            ],
            [
              114.31436920166016,
              35.77327346801758
            ],
            [
              114.28092193603516,
              35.51579284667969
            ],
            [
              114.25340270996094,
              35.45143127441406
            ]
          ]
        ]
      }
    }
  ]
}
