{
  "type": "FeatureCollection",
  "features": [
    {
      "type": "Feature",
      "properties": {
        "Name": "Mitanni",
        "FromYear": -1500,
        "ToYear": -1401,
        "Area": 189149.06227042567,
        "Type": "POLITY",
        "Wikipedia": "Mitanni",
        "Wikidata": "Q178665",
        "SeshatID": "",
        "Components": "",
        "MemberOf": "",
        "displayYear": -1500,
        "sourceYear": -1500,
        "mappedTerritoryId": "cliopatria_mitanni"
      },
      "geometry": {
        "type": "Polygon",
        "coordinates": [
          [
            [
              39.93037796020508,
              37.3193473815918
            ],
            [
              39.04390335083008,
              37.706241607666016
            ],
            [
              38.98234176635742,
              37.835243225097656
            ],
            [
              38.66976547241211,
              37.835243225097656
            ],
            [
              37.92854309082031,
              38.157840728759766
            ],
            [
              37.85028076171875,
              38.157840728759766
            ],
            [
              37.66975402832031,
              37.96426773071289
            ],
            [
              37.63813400268555,
              37.706241607666016
            ],
            [
              37.78644943237305,
              37.641746520996094
            ],
            [
              37.7707633972168,
              37.51277160644531
            ],
            [
              37.59921646118164,
              37.38381576538086
            ],
            [
              37.123741149902344,
              37.3193473815918
            ],
            [
              37.06089782714844,
              37.44829177856445
            ],
            [
              36.90488052368164,
              37.44829177856445
            ],
            [
              36.49267578125,
              37.254878997802734
            ],
            [
              36.3856086730957,
              36.9970588684082
            ],
            [
              36.00349044799805,
              37.06150817871094
            ],
            [
              35.92561721801758,
              37.06150817871094
            ],
            [
              35.90435028076172,
              36.8681755065918
            ],
            [
              36.144901275634766,
              36.932613372802734
            ],
            [
              36.28622817993164,
              36.80373764038086
            ],
            [
              36.26490020751953,
              36.61045455932617
            ],
            [
              35.84861373901367,
              36.3527946472168
            ],
            [
              35.990074157714844,
              36.2239875793457
            ],
            [
              35.87168884277344,
              35.837650299072266
            ],
            [
              35.84488296508789,
              35.58015823364258
            ],
            [
              35.99294662475586,
              35.51579284667969
            ],
            [
              35.89567565917969,
              35.32271194458008
            ],
            [
              35.88907241821289,
              35.258358001708984
            ],
            [
              36.268775939941406,
              35.194007873535156
            ],
            [
              36.165035247802734,
              34.93662643432617
            ],
            [
              36.312767028808594,
              34.87228775024414
            ],
            [
              36.29301834106445,
              34.679283142089844
            ],
            [
              36.44721221923828,
              34.679283142089844
            ],
            [
              36.45381546020508,
              34.743614196777344
            ],
            [
              36.93001937866211,
              34.87228775024414
            ],
            [
              37.154666900634766,
              34.80794906616211
            ],
            [
              37.24550247192383,
              34.93662643432617
            ],
            [
              37.47011184692383,
              34.87228775024414
            ],
            [
              37.56814193725586,
              35.065311431884766
            ],
            [
              37.72257614135742,
              35.065311431884766
            ],
            [
              37.926029205322266,
              34.80794906616211
            ],
            [
              38.17873764038086,
              35.00096893310547
            ],
            [
              38.80360794067383,
              35.065311431884766
            ],
            [
              39.09039306640625,
              34.87228775024414
            ],
            [
              39.2520866394043,
              34.93662643432617
            ],
            [
              39.54589080810547,
              34.80794906616211
            ],
            [
              39.60816192626953,
              34.679283142089844
            ],
            [
              40.05571746826172,
              34.55062484741211
            ],
            [
              40.117794036865234,
              34.42197799682617
            ],
            [
              40.41832733154297,
              34.3576545715332
            ],
            [
              40.472782135009766,
              34.164703369140625
            ],
            [
              40.62665939331055,
              34.164703369140625
            ],
            [
              41.12675476074219,
              34.48630142211914
            ],
            [
              41.282508850097656,
              35.12965774536133
            ],
            [
              41.87608337402344,
              34.93662643432617
            ],
            [
              42.96492004394531,
              35.00096893310547
            ],
            [
              42.93828201293945,
              35.38706970214844
            ],
            [
              43.11863327026367,
              35.58015823364258
            ],
            [
              43.35945510864258,
              35.644527435302734
            ],
            [
              43.43685531616211,
              35.644527435302734
            ],
            [
              43.59391784667969,
              36.2239875793457
            ],
            [
              44.34770965576172,
              36.61045455932617
            ],
            [
              44.3570556640625,
              36.67487716674805
            ],
            [
              44.29805374145508,
              36.80373764038086
            ],
            [
              43.849937438964844,
              36.932613372802734
            ],
            [
              43.79077911376953,
              37.06150817871094
            ],
            [
              43.557159423828125,
              37.06150817871094
            ],
            [
              43.60720443725586,
              36.8681755065918
            ],
            [
              43.15862274169922,
              36.9970588684082
            ],
            [
              43.053497314453125,
              36.80373764038086
            ],
            [
              42.586788177490234,
              36.80373764038086
            ],
            [
              42.604679107666016,
              36.932613372802734
            ],
            [
              42.45796585083008,
              36.9970588684082
            ],
            [
              42.40705871582031,
              37.1904182434082
            ],
            [
              40.84870910644531,
              37.1904182434082
            ],
            [
              40.36437225341797,
              37.06150817871094
            ],
            [
              40.242225646972656,
              37.3193473815918
            ],
            [
              40.008338928222656,
              37.3193473815918
            ],
            [
              39.93037796020508,
              37.3193473815918
            ]
          ]
        ]
      }
    }
  ]
}
