{
  "type": "FeatureCollection",
  "features": [
    {
      "type": "Feature",
      "properties": {
        "Name": "Hittites",
        "FromYear": -1600,
        "ToYear": -1501,
        "Area": 58875.389019388276,
        "Type": "POLITY",
        "Wikipedia": "Hittites",
        "Wikidata": "Q5406",
        "SeshatID": "tr_hatti_old_k",
        "Components": "",
        "MemberOf": "",
        "displayYear": -1600,
        "sourceYear": -1600,
        "mappedTerritoryId": "cliopatria_hittites"
      },
      "geometry": {
        "type": "Polygon",
        "coordinates": [
          [
            [
              36.8121452331543,
              39.25570297241211
            ],
            [
              36.144596099853516,
              39.57893371582031
            ],
            [
              36.036346435546875,
              39.9670295715332
            ],
            [
              35.9573974609375,
              39.9670295715332
            ],
            [
              35.98243713378906,
              40.16116714477539
            ],
            [
              35.579044342041016,
              40.0964469909668
            ],
            [
              35.52480697631836,
              40.29063034057617
            ],
            [
              35.12940216064453,
              40.29063034057617
            ],
            [
              35.09696960449219,
              40.031734466552734
            ],
            [
              34.78902053833008,
              40.0964469909668
            ],
            [
              34.11097717285156,
              39.70827102661133
            ],
            [
              34.16714859008789,
              39.51427459716797
            ],
            [
              34.63212585449219,
              39.449623107910156
            ],
            [
              34.78194808959961,
              39.38497543334961
            ],
            [
              34.8377571105957,
              39.19107437133789
            ],
            [
              34.99504852294922,
              39.19107437133789
            ],
            [
              34.9647102355957,
              38.93262481689453
            ],
            [
              35.1142463684082,
              38.8680305480957
            ],
            [
              35.005855560302734,
              38.60969924926758
            ],
            [
              35.047447204589844,
              38.28691864013672
            ],
            [
              35.2750129699707,
              38.22237777709961
            ],
            [
              35.3095588684082,
              37.835243225097656
            ],
            [
              35.54399108886719,
              37.835243225097656
            ],
            [
              35.68567657470703,
              37.706241607666016
            ],
            [
              35.86199951171875,
              37.1904182434082
            ],
            [
              36.0178337097168,
              37.1904182434082
            ],
            [
              35.99635696411133,
              36.9970588684082
            ],
            [
              36.46345901489258,
              36.9970588684082
            ],
            [
              36.5780029296875,
              37.3193473815918
            ],
            [
              36.8118896484375,
              37.3193473815918
            ],
            [
              36.98289108276367,
              37.44829177856445
            ],
            [
              37.11619567871094,
              37.254878997802734
            ],
            [
              37.762962341308594,
              37.44829177856445
            ],
            [
              37.79433059692383,
              37.706241607666016
            ],
            [
              37.64599609375,
              37.7707405090332
            ],
            [
              37.83415603637695,
              38.028785705566406
            ],
            [
              37.796356201171875,
              38.351463317871094
            ],
            [
              37.43708801269531,
              38.60969924926758
            ],
            [
              37.28023147583008,
              38.60969924926758
            ],
            [
              37.3831901550293,
              38.80344009399414
            ],
            [
              36.99069595336914,
              38.80344009399414
            ],
            [
              37.01513671875,
              38.997230529785156
            ],
            [
              36.803916931152344,
              39.19107437133789
            ],
            [
              36.8121452331543,
              39.25570297241211
            ]
          ]
        ]
      }
    }
  ]
}
