{
  "type": "FeatureCollection",
  "features": [
    {
      "type": "Feature",
      "properties": {
        "Name": "Ethiopian Empire",
        "FromYear": 1769,
        "ToYear": 1889,
        "Area": 240414.2555381908,
        "Type": "POLITY",
        "Wikipedia": "Ethiopian Empire",
        "Wikidata": "Q207521",
        "SeshatID": "",
        "Components": "",
        "MemberOf": "",
        "displayYear": 1864,
        "sourceYear": 1864,
        "mappedTerritoryId": "cliopatria_ethiopian_empire"
      },
      "geometry": {
        "type": "MultiPolygon",
        "coordinates": [
          [
            [
              [
                39.14038848876953,
                9.285927772521973
              ],
              [
                39.142459869384766,
                9.350214958190918
              ],
              [
                39.21552658081055,
                9.350214958190918
              ],
              [
                39.21345520019531,
                9.285927772521973
              ],
              [
                39.14038848876953,
                9.285927772521973
              ]
            ]
          ],
          [
            [
              [
                36.91350555419922,
                10.507390975952148
              ],
              [
                36.98664474487305,
                10.507390975952148
              ],
              [
                36.98457717895508,
                10.443102836608887
              ],
              [
                36.91143798828125,
                10.443102836608887
              ],
              [
                36.91350555419922,
                10.507390975952148
              ]
            ]
          ],
          [
            [
              [
                36.639686584472656,
                11.085978507995605
              ],
              [
                36.712867736816406,
                11.085978507995605
              ],
              [
                36.710750579833984,
                11.021690368652344
              ],
              [
                36.637577056884766,
                11.021690368652344
              ],
              [
                36.639686584472656,
                11.085978507995605
              ]
            ]
          ],
          [
            [
              [
                39.55528259277344,
                14.493220329284668
              ],
              [
                39.549625396728516,
                14.364645004272461
              ],
              [
                39.984619140625,
                14.236069679260254
              ],
              [
                39.89723587036133,
                13.914630889892578
              ],
              [
                39.956966400146484,
                13.593193054199219
              ],
              [
                39.81021499633789,
                13.593193054199219
              ],
              [
                39.73148727416992,
                13.464617729187012
              ],
              [
                39.852020263671875,
                12.821741104125977
              ],
              [
                39.996070861816406,
                12.757453918457031
              ],
              [
                39.829368591308594,
                12.24315357208252
              ],
              [
                39.96118927001953,
                11.857428550720215
              ],
              [
                40.10523223876953,
                11.793140411376953
              ],
              [
                40.09800720214844,
                11.6002779006958
              ],
              [
                40.23965072631836,
                11.47170352935791
              ],
              [
                40.227840423583984,
                11.15026569366455
              ],
              [
                40.301025390625,
                11.15026569366455
              ],
              [
                40.21854782104492,
                10.893115997314453
              ],
              [
                40.27800369262695,
                10.507390975952148
              ],
              [
                40.20486068725586,
                10.507390975952148
              ],
              [
                40.18925094604492,
                10.057377815246582
              ],
              [
                40.043025970458984,
                10.057377815246582
              ],
              [
                40.11394119262695,
                9.993090629577637
              ],
              [
                40.032135009765625,
                9.735940933227539
              ],
              [
                39.81501007080078,
                9.800228118896484
              ],
              [
                39.81071090698242,
                9.671652793884277
              ],
              [
                39.29277420043945,
                9.478790283203125
              ],
              [
                39.288597106933594,
                9.350214958190918
              ],
              [
                39.144535064697266,
                9.41450309753418
              ],
              [
                38.846073150634766,
                9.221640586853027
              ],
              [
                38.117454528808594,
                9.285927772521973
              ],
              [
                37.61601257324219,
                9.607365608215332
              ],
              [
                37.27504348754883,
                10.378815650939941
              ],
              [
                36.982513427734375,
                10.378815650939941
              ],
              [
                37.05978775024414,
                10.507390975952148
              ],
              [
                36.84867858886719,
                10.764540672302246
              ],
              [
                36.85922622680664,
                11.085978507995605
              ],
              [
                36.641807556152344,
                11.15026569366455
              ],
              [
                36.11301040649414,
                10.635965347290039
              ],
              [
                35.89154052734375,
                10.571678161621094
              ],
              [
                35.450679779052734,
                10.507390975952148
              ],
              [
                35.23521423339844,
                10.635965347290039
              ],
              [
                35.251304626464844,
                11.15026569366455
              ],
              [
                35.412166595458984,
                11.6002779006958
              ],
              [
                35.56282424926758,
                11.728853225708008
              ],
              [
                35.49384689331055,
                11.857428550720215
              ],
              [
                35.71355056762695,
                11.857428550720215
              ],
              [
                35.86870574951172,
                12.114578247070312
              ],
              [
                36.08626937866211,
                12.050291061401367
              ],
              [
                36.09733963012695,
                12.37172794342041
              ],
              [
                36.24839782714844,
                12.500303268432617
              ],
              [
                36.18881607055664,
                12.886029243469238
              ],
              [
                36.581687927246094,
                13.593193054199219
              ],
              [
                37.25723648071289,
                13.97891902923584
              ],
              [
                37.414432525634766,
                14.236069679260254
              ],
              [
                37.34888458251953,
                14.428933143615723
              ],
              [
                37.498451232910156,
                14.493220329284668
              ],
              [
                37.66167449951172,
                14.878947257995605
              ],
              [
                37.95844650268555,
                14.943235397338867
              ],
              [
                38.13703918457031,
                15.650403022766113
              ],
              [
                38.287139892578125,
                15.714691162109375
              ],
              [
                38.45231246948242,
                16.100418090820312
              ],
              [
                38.60260772705078,
                16.16470718383789
              ],
              [
                39.03208541870117,
                15.907554626464844
              ],
              [
                39.10568618774414,
                15.907554626464844
              ],
              [
                39.37270736694336,
                15.328963279724121
              ],
              [
                39.36972427368164,
                15.26467514038086
              ],
              [
                39.36378860473633,
                15.136098861694336
              ],
              [
                39.50787353515625,
                15.07181167602539
              ],
              [
                39.425575256347656,
                14.878947257995605
              ],
              [
                39.56099319458008,
                14.621796607971191
              ],
              [
                39.634464263916016,
                14.621796607971191
              ],
              [
                39.70219802856445,
                14.493220329284668
              ],
              [
                39.55528259277344,
                14.493220329284668
              ]
            ]
          ],
          [
            [
              [
                39.501991271972656,
                14.943235397338867
              ],
              [
                39.57549285888672,
                14.943235397338867
              ],
              [
                39.572566986083984,
                14.878947257995605
              ],
              [
                39.49907302856445,
                14.878947257995605
              ],
              [
                39.501991271972656,
                14.943235397338867
              ]
            ]
          ],
          [
            [
              [
                38.14292526245117,
                15.77897834777832
              ],
              [
                38.216514587402344,
                15.77897834777832
              ],
              [
                38.213558197021484,
                15.714691162109375
              ],
              [
                38.139976501464844,
                15.714691162109375
              ],
              [
                38.14292526245117,
                15.77897834777832
              ]
            ]
          ]
        ]
      }
    }
  ]
}
