{
  "type": "FeatureCollection",
  "features": [
    {
      "type": "Feature",
      "properties": {
        "Name": "Minyue",
        "FromYear": -333,
        "ToYear": -219,
        "Area": 376736.2918308355,
        "Type": "POLITY",
        "Wikipedia": "Minyue",
        "Wikidata": "Q1936158",
        "SeshatID": "",
        "Components": "",
        "MemberOf": "",
        "displayYear": -300,
        "sourceYear": -300,
        "mappedTerritoryId": "cliopatria_minyue"
      },
      "geometry": {
        "type": "MultiPolygon",
        "coordinates": [
          [
            [
              [
                122.01595306396484,
                29.665164947509766
              ],
              [
                121.93843078613281,
                29.21521759033203
              ],
              [
                121.59313201904297,
                29.08665657043457
              ],
              [
                121.74431610107422,
                29.08665657043457
              ],
              [
                121.7143325805664,
                28.765243530273438
              ],
              [
                121.52177429199219,
                28.636676788330078
              ],
              [
                121.65211486816406,
                28.572391510009766
              ],
              [
                121.64590454101562,
                28.315250396728516
              ],
              [
                121.15326690673828,
                28.186676025390625
              ],
              [
                121.1933822631836,
                28.315250396728516
              ],
              [
                121.11795806884766,
                28.315250396728516
              ],
              [
                121.03816223144531,
                28.058101654052734
              ],
              [
                120.86773681640625,
                27.993812561035156
              ],
              [
                120.71461486816406,
                27.736658096313477
              ],
              [
                120.65725708007812,
                27.54378890991211
              ],
              [
                120.73251342773438,
                27.54378890991211
              ],
              [
                120.54503631591797,
                27.158044815063477
              ],
              [
                120.30113983154297,
                27.093751907348633
              ],
              [
                120.1715316772461,
                26.900876998901367
              ],
              [
                120.1576919555664,
                26.57941436767578
              ],
              [
                119.83992767333984,
                26.515121459960938
              ],
              [
                119.84595489501953,
                26.257951736450195
              ],
              [
                119.5870132446289,
                26.129364013671875
              ],
              [
                119.77836608886719,
                26.000778198242188
              ],
              [
                119.52989959716797,
                25.615020751953125
              ],
              [
                119.90438079833984,
                25.615020751953125
              ],
              [
                119.87213897705078,
                25.48643684387207
              ],
              [
                119.46599578857422,
                25.357851028442383
              ],
              [
                119.42289733886719,
                25.48643684387207
              ],
              [
                119.27314758300781,
                25.48643684387207
              ],
              [
                119.39114379882812,
                25.357851028442383
              ],
              [
                119.34419250488281,
                25.164974212646484
              ],
              [
                119.02947998046875,
                25.100683212280273
              ],
              [
                119.07367706298828,
                24.97209930419922
              ],
              [
                118.8191146850586,
                24.843517303466797
              ],
              [
                118.75972747802734,
                24.586353302001953
              ],
              [
                118.14736938476562,
                24.522062301635742
              ],
              [
                118.07573699951172,
                24.200613021850586
              ],
              [
                117.72126770019531,
                23.943456649780273
              ],
              [
                117.69377136230469,
                23.814878463745117
              ],
              [
                117.46995544433594,
                23.814878463745117
              ],
              [
                117.1788330078125,
                23.493436813354492
              ],
              [
                116.8938980102539,
                23.557723999023438
              ],
              [
                116.7796401977539,
                23.36486053466797
              ],
              [
                116.81497955322266,
                23.171995162963867
              ],
              [
                116.59144592285156,
                23.171995162963867
              ],
              [
                116.54004669189453,
                22.914846420288086
              ],
              [
                115.69562530517578,
                22.786272048950195
              ],
              [
                115.67061614990234,
                22.657697677612305
              ],
              [
                115.37285614013672,
                22.657697677612305
              ],
              [
                115.17442321777344,
                22.786272048950195
              ],
              [
                114.90156555175781,
                22.529123306274414
              ],
              [
                114.75272369384766,
                22.529123306274414
              ],
              [
                114.7401351928711,
                22.85055923461914
              ],
              [
                114.9015884399414,
                22.914846420288086
              ],
              [
                114.44620513916016,
                23.622013092041016
              ],
              [
                114.54705810546875,
                24.457773208618164
              ],
              [
                114.47235870361328,
                24.457773208618164
              ],
              [
                114.72026062011719,
                25.229267120361328
              ],
              [
                114.660400390625,
                25.29355812072754
              ],
              [
                114.85556030273438,
                25.48643684387207
              ],
              [
                115.22809600830078,
                26.386537551879883
              ],
              [
                114.96107482910156,
                26.515121459960938
              ],
              [
                115.0283432006836,
                26.772293090820312
              ],
              [
                114.95323181152344,
                26.772293090820312
              ],
              [
                115.33468627929688,
                28.893810272216797
              ],
              [
                115.25914001464844,
                28.893810272216797
              ],
              [
                115.64249420166016,
                29.857990264892578
              ],
              [
                115.80384063720703,
                30.115081787109375
              ],
              [
                116.05300903320312,
                30.179353713989258
              ],
              [
                116.12885284423828,
                30.179353713989258
              ],
              [
                116.27002716064453,
                29.922264099121094
              ],
              [
                116.73638153076172,
                29.729440689086914
              ],
              [
                118.35970306396484,
                29.600887298583984
              ],
              [
                119.70256042480469,
                29.986536026000977
              ],
              [
                120.5205078125,
                30.372163772583008
              ],
              [
                120.72529602050781,
                30.307893753051758
              ],
              [
                120.70248413085938,
                30.243623733520508
              ],
              [
                120.80880737304688,
                30.115081787109375
              ],
              [
                121.10469055175781,
                30.307893753051758
              ],
              [
                121.48409271240234,
                30.307893753051758
              ],
              [
                121.6202392578125,
                30.050809860229492
              ],
              [
                122.02978515625,
                29.922264099121094
              ],
              [
                121.864501953125,
                29.665164947509766
              ],
              [
                121.94023132324219,
                29.665164947509766
              ],
              [
                122.01595306396484,
                29.665164947509766
              ]
            ]
          ],
          [
            [
              [
                122.04503631591797,
                30.179353713989258
              ],
              [
                122.2725830078125,
                30.179353713989258
              ],
              [
                122.27982330322266,
                29.986536026000977
              ],
              [
                121.97661590576172,
                29.986536026000977
              ],
              [
                122.02213287353516,
                30.115081787109375
              ],
              [
                122.04503631591797,
                30.179353713989258
              ]
            ]
          ]
        ]
      }
    }
  ]
}
