{
  "type": "FeatureCollection",
  "features": [
    {
      "type": "Feature",
      "properties": {
        "Name": "Kimek-Kipchak confederation",
        "FromYear": 896,
        "ToYear": 969,
        "Area": 1431746.04392059,
        "Type": "POLITY",
        "Wikipedia": "Kimek-Kipchak confederation",
        "Wikidata": "Q2477776",
        "SeshatID": "kz_kimek_conf",
        "Components": "",
        "MemberOf": "",
        "displayYear": 936,
        "sourceYear": 936,
        "mappedTerritoryId": "cliopatria_kimek_kipchak_confederation"
      },
      "geometry": {
        "type": "MultiPolygon",
        "coordinates": [
          [
            [
              [
                67.98523712158203,
                43.92862319946289
              ],
              [
                68.00715637207031,
                43.99384307861328
              ],
              [
                68.08787536621094,
                43.99384307861328
              ],
              [
                68.06592559814453,
                43.92862319946289
              ],
              [
                67.98523712158203,
                43.92862319946289
              ]
            ]
          ],
          [
            [
              [
                67.92643737792969,
                43.99384307861328
              ],
              [
                67.94837188720703,
                44.05907440185547
              ],
              [
                68.02912139892578,
                44.05907440185547
              ],
              [
                68.00715637207031,
                43.99384307861328
              ],
              [
                67.92643737792969,
                43.99384307861328
              ]
            ]
          ],
          [
            [
              [
                71.32503509521484,
                53.52959060668945
              ],
              [
                71.29197692871094,
                53.462066650390625
              ],
              [
                72.1526107788086,
                53.462066650390625
              ],
              [
                72.11919403076172,
                53.39456558227539
              ],
              [
                72.72130584716797,
                53.39456558227539
              ],
              [
                72.68766784667969,
                53.32708740234375
              ],
              [
                73.2034912109375,
                53.32708740234375
              ],
              [
                73.16968536376953,
                53.25962829589844
              ],
              [
                73.4614028930664,
                53.32708740234375
              ],
              [
                73.42745971679688,
                53.25962829589844
              ],
              [
                74.6473617553711,
                53.124786376953125
              ],
              [
                74.61304473876953,
                53.057395935058594
              ],
              [
                74.87040710449219,
                53.057395935058594
              ],
              [
                74.8360595703125,
                52.99003219604492
              ],
              [
                76.37504577636719,
                52.31757736206055
              ],
              [
                76.57975006103516,
                52.0491943359375
              ],
              [
                77.0735092163086,
                51.84812545776367
              ],
              [
                77.14219665527344,
                51.64724349975586
              ],
              [
                77.3119125366211,
                51.64724349975586
              ],
              [
                77.43222045898438,
                51.37968063354492
              ],
              [
                77.60160064697266,
                51.37968063354492
              ],
              [
                77.6709976196289,
                51.17921447753906
              ],
              [
                77.84012603759766,
                51.17921447753906
              ],
              [
                77.90984344482422,
                50.97892379760742
              ],
              [
                78.07872009277344,
                50.97892379760742
              ],
              [
                78.14876556396484,
                50.77880859375
              ],
              [
                78.31739807128906,
                50.77880859375
              ],
              [
                78.49111938476562,
                50.445655822753906
              ],
              [
                78.65935516357422,
                50.445655822753906
              ],
              [
                78.64643096923828,
                50.2459831237793
              ],
              [
                78.81442260742188,
                50.2459831237793
              ],
              [
                79.02178955078125,
                49.98000717163086
              ],
              [
                83.79875183105469,
                49.64793395996094
              ],
              [
                83.89899444580078,
                49.51522445678711
              ],
              [
                84.3668212890625,
                49.44889450073242
              ],
              [
                84.3333740234375,
                49.38258361816406
              ],
              [
                85.30089569091797,
                48.98506164550781
              ],
              [
                85.40108489990234,
                48.852684020996094
              ],
              [
                85.33519744873047,
                48.72037124633789
              ],
              [
                85.51888275146484,
                48.5881233215332
              ],
              [
                85.47171020507812,
                48.323814392089844
              ],
              [
                85.63751220703125,
                48.323814392089844
              ],
              [
                85.5086441040039,
                48.059749603271484
              ],
              [
                85.5914077758789,
                48.059749603271484
              ],
              [
                85.5149154663086,
                47.730003356933594
              ],
              [
                85.3497543334961,
                47.730003356933594
              ],
              [
                85.17304229736328,
                47.53233337402344
              ],
              [
                83.97834014892578,
                47.26897048950195
              ],
              [
                83.36394500732422,
                47.005828857421875
              ],
              [
                83.03512573242188,
                47.005828857421875
              ],
              [
                82.89354705810547,
                46.87434005737305
              ],
              [
                82.67668914794922,
                46.94007873535156
              ],
              [
                82.45346069335938,
                46.808616638183594
              ],
              [
                80.86112213134766,
                46.54585266113281
              ],
              [
                80.83267211914062,
                46.480194091796875
              ],
              [
                80.31562805175781,
                46.61152267456055
              ],
              [
                80.0724868774414,
                46.808616638183594
              ],
              [
                79.60565948486328,
                46.677207946777344
              ],
              [
                79.30550384521484,
                46.74290466308594
              ],
              [
                79.33355712890625,
                46.808616638183594
              ],
              [
                78.70458984375,
                46.87434005737305
              ],
              [
                78.10157012939453,
                46.61152267456055
              ],
              [
                77.91033172607422,
                46.74290466308594
              ],
              [
                76.73442077636719,
                46.677207946777344
              ],
              [
                76.76136779785156,
                46.74290466308594
              ],
              [
                76.35102081298828,
                46.74290466308594
              ],
              [
                76.32263946533203,
                46.87434005737305
              ],
              [
                74.59777069091797,
                46.87434005737305
              ],
              [
                74.43742370605469,
                46.677207946777344
              ],
              [
                74.35539245605469,
                46.677207946777344
              ],
              [
                73.88894653320312,
                46.74290466308594
              ],
              [
                73.91477966308594,
                46.808616638183594
              ],
              [
                73.17585754394531,
                46.808616638183594
              ],
              [
                72.0334243774414,
                46.61152267456055
              ],
              [
                70.95574951171875,
                45.693260192871094
              ],
              [
                70.081298828125,
                44.38538360595703
              ],
              [
                70.0003890991211,
                44.38538360595703
              ],
              [
                69.93184661865234,
                44.18956756591797
              ],
              [
                68.89506530761719,
                43.99384307861328
              ],
              [
                68.08787536621094,
                43.99384307861328
              ],
              [
                68.0511245727539,
                44.12431716918945
              ],
              [
                67.86762237548828,
                44.05907440185547
              ],
              [
                67.53629302978516,
                44.5159797668457
              ],
              [
                66.39234924316406,
                44.973392486572266
              ],
              [
                66.09490203857422,
                45.300437927246094
              ],
              [
                64.90019989013672,
                45.62776184082031
              ],
              [
                64.81868743896484,
                45.62776184082031
              ],
              [
                64.97525787353516,
                46.348915100097656
              ],
              [
                64.89339447021484,
                46.348915100097656
              ],
              [
                64.94342041015625,
                46.74290466308594
              ],
              [
                64.82353973388672,
                46.87434005737305
              ],
              [
                64.8680191040039,
                47.005828857421875
              ],
              [
                64.78581237792969,
                47.005828857421875
              ],
              [
                64.83045196533203,
                47.13737487792969
              ],
              [
                64.74818420410156,
                47.13737487792969
              ],
              [
                64.75563049316406,
                47.4006233215332
              ],
              [
                64.53087615966797,
                47.46647262573242
              ],
              [
                64.43360137939453,
                47.664100646972656
              ],
              [
                64.26850891113281,
                47.664100646972656
              ],
              [
                64.23114776611328,
                47.79592514038086
              ],
              [
                63.863162994384766,
                47.92780685424805
              ],
              [
                61.817726135253906,
                47.993770599365234
              ],
              [
                56.382442474365234,
                47.79592514038086
              ],
              [
                54.518619537353516,
                47.33478927612305
              ],
              [
                54.37205123901367,
                47.4006233215332
              ],
              [
                54.4085693359375,
                47.53233337402344
              ],
              [
                54.26187515258789,
                47.598209381103516
              ],
              [
                54.29856872558594,
                47.730003356933594
              ],
              [
                54.170166015625,
                47.86185836791992
              ],
              [
                54.004859924316406,
                47.86185836791992
              ],
              [
                53.958984375,
                47.993770599365234
              ],
              [
                53.79353713989258,
                47.993770599365234
              ],
              [
                53.60042190551758,
                48.191749572753906
              ],
              [
                51.28117370605469,
                48.191749572753906
              ],
              [
                51.298641204833984,
                48.257774353027344
              ],
              [
                51.30377960205078,
                48.5881233215332
              ],
              [
                51.458438873291016,
                48.852684020996094
              ],
              [
                51.39326858520508,
                48.91886520385742
              ],
              [
                51.55972671508789,
                48.91886520385742
              ],
              [
                51.80910110473633,
                49.51522445678711
              ],
              [
                51.57708740234375,
                49.58156967163086
              ],
              [
                51.523067474365234,
                49.98000717163086
              ],
              [
                51.43922805786133,
                49.98000717163086
              ],
              [
                51.64899444580078,
                50.97892379760742
              ],
              [
                51.940521240234375,
                51.37968063354492
              ],
              [
                52.30015182495117,
                51.44654083251953
              ],
              [
                52.42693328857422,
                51.580322265625
              ],
              [
                52.829742431640625,
                51.51342010498047
              ],
              [
                53.5730094909668,
                51.71418380737305
              ],
              [
                54.614192962646484,
                51.78114318847656
              ],
              [
                54.591835021972656,
                51.71418380737305
              ],
              [
                55.757591247558594,
                51.64724349975586
              ],
              [
                56.4062385559082,
                51.31283950805664
              ],
              [
                58.11314392089844,
                51.112430572509766
              ],
              [
                59.00675582885742,
                51.71418380737305
              ],
              [
                59.19068908691406,
                51.98215103149414
              ],
              [
                59.0454216003418,
                52.0491943359375
              ],
              [
                59.120582580566406,
                52.250450134277344
              ],
              [
                59.4442138671875,
                52.653533935546875
              ],
              [
                60.313350677490234,
                53.124786376953125
              ],
              [
                61.109066009521484,
                53.39456558227539
              ],
              [
                61.25361251831055,
                53.32708740234375
              ],
              [
                62.771141052246094,
                53.664710998535156
              ],
              [
                63.921051025390625,
                53.732303619384766
              ],
              [
                67.16749572753906,
                53.664710998535156
              ],
              [
                67.25370025634766,
                53.664710998535156
              ],
              [
                71.32503509521484,
                53.52959060668945
              ]
            ]
          ],
          [
            [
              [
                61.22260665893555,
                53.462066650390625
              ],
              [
                61.30867004394531,
                53.462066650390625
              ],
              [
                61.281097412109375,
                53.39456558227539
              ],
              [
                61.19508361816406,
                53.39456558227539
              ],
              [
                61.22260665893555,
                53.462066650390625
              ]
            ]
          ],
          [
            [
              [
                66.19413757324219,
                53.799922943115234
              ],
              [
                66.28043365478516,
                53.799922943115234
              ],
              [
                66.24980163574219,
                53.732303619384766
              ],
              [
                66.1635513305664,
                53.732303619384766
              ],
              [
                66.19413757324219,
                53.799922943115234
              ]
            ]
          ]
        ]
      }
    }
  ]
}
