{
  "type": "FeatureCollection",
  "features": [
    {
      "type": "Feature",
      "properties": {
        "Name": "Vichy France",
        "FromYear": 1940,
        "ToYear": 1942,
        "Area": 356619.71510852815,
        "Type": "POLITY",
        "Wikipedia": "Vichy France",
        "Wikidata": "Q69808",
        "SeshatID": "",
        "Components": "",
        "MemberOf": "(Vichy France)",
        "displayYear": 1940,
        "sourceYear": 1940,
        "mappedTerritoryId": "cliopatria_vichy_france"
      },
      "geometry": {
        "type": "MultiPolygon",
        "coordinates": [
          [
            [
              [
                -52.000152587890625,
                4.657219886779785
              ],
              [
                -51.781558990478516,
                4.657219886779785
              ],
              [
                -51.703495025634766,
                4.207206249237061
              ],
              [
                -51.70283889770508,
                4.142918586730957
              ],
              [
                -51.989261627197266,
                3.564330101013184
              ],
              [
                -52.35175323486328,
                3.30717945098877
              ],
              [
                -52.49507141113281,
                2.7928786277771
              ],
              [
                -52.858131408691406,
                2.27857780456543
              ],
              [
                -53.29490280151367,
                2.150002479553223
              ],
              [
                -53.513370513916016,
                2.27857780456543
              ],
              [
                -54.02300262451172,
                2.27857780456543
              ],
              [
                -54.31412124633789,
                2.085714817047119
              ],
              [
                -54.60551834106445,
                2.342865228652954
              ],
              [
                -54.46000671386719,
                2.407152891159058
              ],
              [
                -54.24263000488281,
                2.7928786277771
              ],
              [
                -54.244842529296875,
                3.242892026901245
              ],
              [
                -54.10001754760742,
                3.371467113494873
              ],
              [
                -54.10247039794922,
                3.692905426025391
              ],
              [
                -54.32212448120117,
                3.821480512619019
              ],
              [
                -54.47108840942383,
                4.142918586730957
              ],
              [
                -54.482295989990234,
                4.978658199310303
              ],
              [
                -54.41255569458008,
                5.171521186828613
              ],
              [
                -54.124351501464844,
                5.364383697509766
              ],
              [
                -54.058719635009766,
                5.750109672546387
              ],
              [
                -53.98582077026367,
                5.750109672546387
              ],
              [
                -52.88752365112305,
                5.492959022521973
              ],
              [
                -52.58853530883789,
                5.042945861816406
              ],
              [
                -52.14759063720703,
                4.785795211791992
              ],
              [
                -52.07472229003906,
                4.785795211791992
              ],
              [
                -52.000152587890625,
                4.657219886779785
              ]
            ]
          ],
          [
            [
              [
                -60.96974182128906,
                14.878947257995605
              ],
              [
                -60.811241149902344,
                14.750371932983398
              ],
              [
                -60.78313446044922,
                14.428933143615723
              ],
              [
                -61.08251190185547,
                14.493220329284668
              ],
              [
                -61.08811950683594,
                14.55750846862793
              ],
              [
                -61.19023132324219,
                14.878947257995605
              ],
              [
                -60.96974182128906,
                14.878947257995605
              ]
            ]
          ],
          [
            [
              [
                -61.58265686035156,
                15.907554626464844
              ],
              [
                -61.73633575439453,
                15.971842765808105
              ],
              [
                -61.769195556640625,
                16.293283462524414
              ],
              [
                -61.48125457763672,
                16.35757064819336
              ],
              [
                -61.494632720947266,
                16.486146926879883
              ],
              [
                -61.3473014831543,
                16.486146926879883
              ],
              [
                -61.18003463745117,
                16.293283462524414
              ],
              [
                -61.17345428466797,
                16.228994369506836
              ],
              [
                -61.461429595947266,
                16.16470718383789
              ],
              [
                -61.58265686035156,
                15.907554626464844
              ]
            ]
          ],
          [
            [
              [
                -63.08210372924805,
                18.157629013061523
              ],
              [
                -63.02336883544922,
                18.286205291748047
              ],
              [
                -62.94948959350586,
                18.286205291748047
              ],
              [
                -62.926856994628906,
                18.093341827392578
              ],
              [
                -63.08210372924805,
                18.157629013061523
              ]
            ]
          ],
          [
            [
              [
                9.49340534210205,
                42.75628662109375
              ],
              [
                9.5735502243042,
                42.75628662109375
              ],
              [
                9.577608108520508,
                41.97637939453125
              ],
              [
                9.497812271118164,
                41.97637939453125
              ],
              [
                9.49889087677002,
                41.781593322753906
              ],
              [
                9.262411117553711,
                41.39224624633789
              ],
              [
                9.1038236618042,
                41.32738494873047
              ],
              [
                8.783942222595215,
                41.521995544433594
              ],
              [
                8.782108306884766,
                41.71668243408203
              ],
              [
                8.622743606567383,
                41.71668243408203
              ],
              [
                8.700496673583984,
                41.911441802978516
              ],
              [
                8.538846015930176,
                42.10627746582031
              ],
              [
                8.534564018249512,
                42.496177673339844
              ],
              [
                8.772740364074707,
                42.691246032714844
              ],
              [
                9.17282485961914,
                42.75628662109375
              ],
              [
                9.251097679138184,
                43.016544342041016
              ],
              [
                9.331360816955566,
                43.016544342041016
              ],
              [
                9.491888999938965,
                43.016544342041016
              ],
              [
                9.49340534210205,
                42.75628662109375
              ]
            ]
          ],
          [
            [
              [
                6.273390769958496,
                46.414546966552734
              ],
              [
                6.682901382446289,
                46.414546966552734
              ],
              [
                6.849938869476318,
                46.283294677734375
              ],
              [
                6.939604759216309,
                45.95537567138672
              ],
              [
                6.779487133026123,
                45.82429504394531
              ],
              [
                6.865792751312256,
                45.62776184082031
              ],
              [
                6.465076923370361,
                45.36587905883789
              ],
              [
                6.470132827758789,
                45.169586181640625
              ],
              [
                6.634309768676758,
                45.10417556762695
              ],
              [
                6.556319236755371,
                44.973392486572266
              ],
              [
                6.80293083190918,
                44.842647552490234
              ],
              [
                6.72642183303833,
                44.64661407470703
              ],
              [
                6.889946460723877,
                44.58129119873047
              ],
              [
                6.895741939544678,
                44.32010269165039
              ],
              [
                7.548612117767334,
                43.99384307861328
              ],
              [
                7.550928592681885,
                43.86341094970703
              ],
              [
                7.229573249816895,
                43.79821014404297
              ],
              [
                7.148946285247803,
                43.79821014404297
              ],
              [
                6.993107318878174,
                43.53750228881836
              ],
              [
                6.67255163192749,
                43.472347259521484
              ],
              [
                6.596527099609375,
                43.276947021484375
              ],
              [
                6.278174877166748,
                43.146724700927734
              ],
              [
                5.796233177185059,
                43.146724700927734
              ],
              [
                5.631923198699951,
                43.276947021484375
              ],
              [
                5.390771865844727,
                43.276947021484375
              ],
              [
                5.386905193328857,
                43.407203674316406
              ],
              [
                5.063065528869629,
                43.472347259521484
              ],
              [
                4.177847862243652,
                43.472347259521484
              ],
              [
                4.173032760620117,
                43.6026611328125
              ],
              [
                3.850892543792725,
                43.6026611328125
              ],
              [
                2.984907388687134,
                43.146724700927734
              ],
              [
                3.009923458099365,
                42.56119155883789
              ],
              [
                3.089980125427246,
                42.56119155883789
              ],
              [
                3.092691898345947,
                42.496177673339844
              ],
              [
                2.458339214324951,
                42.36617660522461
              ],
              [
                2.13236141204834,
                42.496177673339844
              ],
              [
                2.129298448562622,
                42.56119155883789
              ],
              [
                1.565624117851257,
                42.62621307373047
              ],
              [
                1.485537886619568,
                42.62621307373047
              ],
              [
                1.074691534042358,
                42.82133865356445
              ],
              [
                0.040142297744751,
                42.691246032714844
              ],
              [
                -1.107258319854736,
                43.08163070678711
              ],
              [
                -1.115944981575012,
                43.211830139160156
              ],
              [
                -0.413322597742081,
                43.53750228881836
              ],
              [
                -0.429969280958176,
                43.79821014404297
              ],
              [
                -0.27284374833107,
                43.86341094970703
              ],
              [
                -0.366043716669083,
                44.05907440185547
              ],
              [
                -0.21700032055378,
                44.25482940673828
              ],
              [
                -0.22955596446991,
                44.45067596435547
              ],
              [
                -0.003265647450462,
                44.71194839477539
              ],
              [
                -0.011590977199376,
                44.842647552490234
              ],
              [
                0.146543696522713,
                44.908016204833984
              ],
              [
                0.198806494474411,
                45.36587905883789
              ],
              [
                0.357459545135498,
                45.431331634521484
              ],
              [
                0.401708155870438,
                46.02093505859375
              ],
              [
                0.4834124147892,
                46.02093505859375
              ],
              [
                0.466743290424347,
                46.283294677734375
              ],
              [
                0.548579096794128,
                46.283294677734375
              ],
              [
                0.531868040561676,
                46.54585266113281
              ],
              [
                0.613836705684662,
                46.54585266113281
              ],
              [
                0.592870235443115,
                46.87434005737305
              ],
              [
                0.173386931419373,
                47.005828857421875
              ],
              [
                0.160099729895592,
                47.20316696166992
              ],
              [
                0.471998751163483,
                47.46647262573242
              ],
              [
                0.797553300857544,
                47.53233337402344
              ],
              [
                0.949991881847382,
                47.730003356933594
              ],
              [
                1.689359307289124,
                47.79592514038086
              ],
              [
                2.357491493225098,
                47.664100646972656
              ],
              [
                2.468160390853882,
                47.13737487792969
              ],
              [
                2.72171425819397,
                47.005828857421875
              ],
              [
                3.050530672073364,
                47.005828857421875
              ],
              [
                3.290882110595703,
                47.13737487792969
              ],
              [
                4.928928852081299,
                47.33478927612305
              ],
              [
                5.489785194396973,
                47.79592514038086
              ],
              [
                6.150728702545166,
                47.79592514038086
              ],
              [
                6.402344703674316,
                47.664100646972656
              ],
              [
                6.406090259552002,
                47.53233337402344
              ],
              [
                5.84339714050293,
                47.07159423828125
              ],
              [
                5.847537994384766,
                46.94007873535156
              ],
              [
                5.609647750854492,
                46.677207946777344
              ],
              [
                5.61605167388916,
                46.480194091796875
              ],
              [
                5.534116268157959,
                46.480194091796875
              ],
              [
                5.540565490722656,
                46.283294677734375
              ],
              [
                5.947766780853271,
                46.348915100097656
              ],
              [
                6.115322589874268,
                46.21768569946289
              ],
              [
                6.273390769958496,
                46.414546966552734
              ]
            ]
          ],
          [
            [
              [
                -56.493072509765625,
                47.07159423828125
              ],
              [
                -56.2741584777832,
                47.13737487792969
              ],
              [
                -56.2186279296875,
                47.005828857421875
              ],
              [
                -56.30083465576172,
                47.005828857421875
              ],
              [
                -56.27314376831055,
                46.94007873535156
              ],
              [
                -56.43748474121094,
                46.94007873535156
              ],
              [
                -56.493072509765625,
                47.07159423828125
              ]
            ]
          ]
        ]
      }
    }
  ]
}
