{
  "type": "FeatureCollection",
  "features": [
    {
      "type": "Feature",
      "properties": {
        "Name": "Burkina Faso",
        "FromYear": 1961,
        "ToYear": 2023,
        "Area": 274141.6448435939,
        "Type": "POLITY",
        "Wikipedia": "Burkina Faso",
        "Wikidata": "Q965",
        "SeshatID": "",
        "Components": "",
        "MemberOf": "",
        "displayYear": 1984,
        "sourceYear": 1984,
        "mappedTerritoryId": "cliopatria_burkina_faso"
      },
      "geometry": {
        "type": "Polygon",
        "coordinates": [
          [
            [
              2.171589612960815,
              12.178865432739258
            ],
            [
              2.244332313537598,
              12.564591407775879
            ],
            [
              2.097512245178223,
              12.69316577911377
            ],
            [
              1.58457338809967,
              12.628878593444824
            ],
            [
              1.144002914428711,
              12.886029243469238
            ],
            [
              1.069255471229553,
              13.271754264831543
            ],
            [
              1.215951085090637,
              13.271754264831543
            ],
            [
              1.288802146911621,
              13.40032958984375
            ],
            [
              0.774379253387451,
              13.593193054199219
            ],
            [
              0.479109406471252,
              13.914630889892578
            ],
            [
              0.255122452974319,
              14.493220329284668
            ],
            [
              0.25179722905159,
              14.943235397338867
            ],
            [
              -0.77842766046524,
              15.07181167602539
            ],
            [
              -0.923640251159668,
              14.878947257995605
            ],
            [
              -1.655406475067139,
              14.55750846862793
            ],
            [
              -2.018977165222168,
              14.171781539916992
            ],
            [
              -2.607053518295288,
              14.236069679260254
            ],
            [
              -2.752600193023682,
              14.107494354248047
            ],
            [
              -2.822225093841553,
              13.721768379211426
            ],
            [
              -3.188528060913086,
              13.657480239868164
            ],
            [
              -3.186086177825928,
              13.40032958984375
            ],
            [
              -3.331029176712036,
              13.207467079162598
            ],
            [
              -3.624398469924927,
              13.207467079162598
            ],
            [
              -3.99369215965271,
              13.464617729187012
            ],
            [
              -4.065090179443359,
              13.271754264831543
            ],
            [
              -4.211137294769287,
              13.207467079162598
            ],
            [
              -4.20684814453125,
              12.757453918457031
            ],
            [
              -4.426170825958252,
              12.69316577911377
            ],
            [
              -4.350610733032227,
              12.436016082763672
            ],
            [
              -4.495012283325195,
              12.178865432739258
            ],
            [
              -4.7864670753479,
              11.986002922058105
            ],
            [
              -5.079445838928223,
              11.986002922058105
            ],
            [
              -5.298102378845215,
              11.857428550720215
            ],
            [
              -5.148216724395752,
              11.407415390014648
            ],
            [
              -5.43876838684082,
              11.085978507995605
            ],
            [
              -5.508072376251221,
              10.443102836608887
            ],
            [
              -5.214890480041504,
              10.314528465270996
            ],
            [
              -4.994656085968018,
              10.121665954589844
            ],
            [
              -4.920547962188721,
              9.86451530456543
            ],
            [
              -4.481183528900146,
              9.607365608215332
            ],
            [
              -4.261927127838135,
              9.607365608215332
            ],
            [
              -3.970237016677856,
              9.86451530456543
            ],
            [
              -3.166127920150757,
              9.86451530456543
            ],
            [
              -2.873304605484009,
              9.607365608215332
            ],
            [
              -2.87314248085022,
              9.478790283203125
            ],
            [
              -2.726986646652222,
              9.478790283203125
            ],
            [
              -2.728187799453735,
              10.185953140258789
            ],
            [
              -2.875137090682983,
              10.443102836608887
            ],
            [
              -2.803768634796143,
              10.957403182983398
            ],
            [
              -0.8282870054245,
              11.021690368652344
            ],
            [
              -0.535349071025848,
              10.893115997314453
            ],
            [
              -0.316173881292343,
              11.085978507995605
            ],
            [
              0.049819197505713,
              11.021690368652344
            ],
            [
              0.927959263324738,
              10.957403182983398
            ],
            [
              1.439999341964722,
              11.407415390014648
            ],
            [
              1.80603039264679,
              11.343128204345703
            ],
            [
              2.098814010620117,
              11.47170352935791
            ],
            [
              2.391607522964478,
              11.793140411376953
            ],
            [
              2.391514778137207,
              11.986002922058105
            ],
            [
              2.171589612960815,
              12.178865432739258
            ]
          ]
        ]
      }
    }
  ]
}
