{
  "type": "FeatureCollection",
  "features": [
    {
      "type": "Feature",
      "properties": {
        "Name": "Yenisei Kyrgyz",
        "FromYear": 1210,
        "ToYear": 1215,
        "Area": 380301.7245819766,
        "Type": "POLITY",
        "Wikipedia": "Yenisei Kyrgyz",
        "Wikidata": "Q83142",
        "SeshatID": "",
        "Components": "",
        "MemberOf": "",
        "displayYear": 1215,
        "sourceYear": 1215,
        "mappedTerritoryId": "cliopatria_yenisei_kyrgyz"
      },
      "geometry": {
        "type": "Polygon",
        "coordinates": [
          [
            [
              100.58903503417969,
              56.731075286865234
            ],
            [
              100.37250518798828,
              56.45634460449219
            ],
            [
              100.46074676513672,
              56.45634460449219
            ],
            [
              100.29785919189453,
              55.90821838378906
            ],
            [
              100.38568878173828,
              55.90821838378906
            ],
            [
              100.40294647216797,
              55.70311737060547
            ],
            [
              100.700927734375,
              55.63479995727539
            ],
            [
              100.54367065429688,
              55.430015563964844
            ],
            [
              100.63114166259766,
              55.430015563964844
            ],
            [
              100.61429595947266,
              55.29362487792969
            ],
            [
              101.15665435791016,
              55.089229583740234
            ],
            [
              101.14010620117188,
              54.95309066772461
            ],
            [
              101.31433868408203,
              54.95309066772461
            ],
            [
              101.33341217041016,
              54.74907684326172
            ],
            [
              101.87415313720703,
              54.545284271240234
            ],
            [
              101.85826110839844,
              54.4095458984375
            ],
            [
              102.7442855834961,
              54.20612335205078
            ],
            [
              102.6930160522461,
              54.138362884521484
            ],
            [
              102.77954864501953,
              54.138362884521484
            ],
            [
              101.59902954101562,
              53.597137451171875
            ],
            [
              100.24405670166016,
              52.78806686401367
            ],
            [
              99.27970886230469,
              52.38472366333008
            ],
            [
              99.01121520996094,
              52.11625671386719
            ],
            [
              98.67057037353516,
              52.11625671386719
            ],
            [
              98.71595764160156,
              52.18334197998047
            ],
            [
              98.25,
              52.250450134277344
            ],
            [
              98.29542541503906,
              52.31757736206055
            ],
            [
              97.87442779541016,
              52.4518928527832
            ],
            [
              97.92002868652344,
              52.51908493041992
            ],
            [
              96.38236236572266,
              52.51908493041992
            ],
            [
              94.58428192138672,
              52.250450134277344
            ],
            [
              92.37571716308594,
              51.580322265625
            ],
            [
              91.01864624023438,
              51.580322265625
            ],
            [
              91.0149154663086,
              51.71418380737305
            ],
            [
              91.30764770507812,
              51.91512680053711
            ],
            [
              91.5572509765625,
              52.31757736206055
            ],
            [
              91.21465301513672,
              52.4518928527832
            ],
            [
              91.55518341064453,
              52.85536575317383
            ],
            [
              91.46953582763672,
              52.85536575317383
            ],
            [
              91.51248931884766,
              52.92268753051758
            ],
            [
              91.72706604003906,
              52.99003219604492
            ],
            [
              91.90116882324219,
              53.25962829589844
            ],
            [
              91.4325942993164,
              53.597137451171875
            ],
            [
              91.48197174072266,
              53.93522644042969
            ],
            [
              91.22879791259766,
              54.20612335205078
            ],
            [
              91.2322998046875,
              54.341712951660156
            ],
            [
              90.80225372314453,
              54.47740173339844
            ],
            [
              90.8059310913086,
              54.613189697265625
            ],
            [
              90.6321792602539,
              54.613189697265625
            ],
            [
              90.67750549316406,
              54.681121826171875
            ],
            [
              90.50365447998047,
              54.681121826171875
            ],
            [
              90.42447662353516,
              54.95309066772461
            ],
            [
              90.33735656738281,
              54.95309066772461
            ],
            [
              90.6954116821289,
              55.225467681884766
            ],
            [
              91.57485961914062,
              55.36180877685547
            ],
            [
              91.85121154785156,
              55.63479995727539
            ],
            [
              92.7754898071289,
              55.70311737060547
            ],
            [
              93.0475845336914,
              55.83982467651367
            ],
            [
              94.3403091430664,
              57.488929748535156
            ],
            [
              94.67504119873047,
              57.696231842041016
            ],
            [
              95.24251556396484,
              58.31977081298828
            ],
            [
              96.76769256591797,
              58.31977081298828
            ],
            [
              97.59616088867188,
              58.45867156982422
            ],
            [
              97.95547485351562,
              58.45867156982422
            ],
            [
              97.8998031616211,
              58.38920593261719
            ],
            [
              98.07935333251953,
              58.38920593261719
            ],
            [
              98.02371978759766,
              58.31977081298828
            ],
            [
              98.47229766845703,
              58.31977081298828
            ],
            [
              99.32649993896484,
              58.59769821166992
            ],
            [
              99.686279296875,
              58.59769821166992
            ],
            [
              99.62926483154297,
              58.528167724609375
            ],
            [
              99.71915435791016,
              58.528167724609375
            ],
            [
              99.76142883300781,
              58.2503662109375
            ],
            [
              99.94074249267578,
              58.2503662109375
            ],
            [
              100.35633087158203,
              58.31977081298828
            ],
            [
              101.02976989746094,
              58.80647277832031
            ],
            [
              101.7783432006836,
              58.94581604003906
            ],
            [
              101.78206634521484,
              58.73685073852539
            ],
            [
              101.9621810913086,
              58.73685073852539
            ],
            [
              101.90347290039062,
              58.66725540161133
            ],
            [
              102.02481842041016,
              58.59769821166992
            ],
            [
              101.18755340576172,
              57.696231842041016
            ],
            [
              100.50057983398438,
              56.731075286865234
            ],
            [
              100.58903503417969,
              56.731075286865234
            ]
          ]
        ]
      }
    }
  ]
}
