{
  "type": "FeatureCollection",
  "features": [
    {
      "type": "Feature",
      "properties": {
        "Name": "Minaeans",
        "FromYear": -164,
        "ToYear": -67,
        "Area": 214510.0208082863,
        "Type": "POLITY",
        "Wikipedia": "Minaeans",
        "Wikidata": "Q1177379",
        "SeshatID": "",
        "Components": "",
        "MemberOf": "",
        "displayYear": -100,
        "sourceYear": -100,
        "mappedTerritoryId": "cliopatria_minaeans"
      },
      "geometry": {
        "type": "Polygon",
        "coordinates": [
          [
            [
              39.72003173828125,
              24.907808303833008
            ],
            [
              39.50758743286133,
              25.100683212280273
            ],
            [
              39.46128845214844,
              25.55072784423828
            ],
            [
              39.31566619873047,
              25.615020751953125
            ],
            [
              39.049774169921875,
              26.129364013671875
            ],
            [
              38.76706314086914,
              26.386537551879883
            ],
            [
              38.6920280456543,
              26.386537551879883
            ],
            [
              38.466922760009766,
              26.386537551879883
            ],
            [
              38.22909927368164,
              26.19365882873535
            ],
            [
              38.22490692138672,
              26.129364013671875
            ],
            [
              38.57895278930664,
              25.807899475097656
            ],
            [
              38.82270812988281,
              24.907808303833008
            ],
            [
              38.897483825683594,
              24.907808303833008
            ],
            [
              38.863807678222656,
              24.329193115234375
            ],
            [
              38.7000846862793,
              24.07203483581543
            ],
            [
              38.241817474365234,
              23.879167556762695
            ],
            [
              38.60107421875,
              23.622013092041016
            ],
            [
              38.86882400512695,
              23.043420791625977
            ],
            [
              38.8588752746582,
              22.85055923461914
            ],
            [
              39.14019775390625,
              22.529123306274414
            ],
            [
              39.02705764770508,
              21.7576847076416
            ],
            [
              39.16929626464844,
              21.629112243652344
            ],
            [
              39.14701461791992,
              21.179107666015625
            ],
            [
              39.35056686401367,
              20.793392181396484
            ],
            [
              39.49574279785156,
              20.72910499572754
            ],
            [
              39.489315032958984,
              20.60053253173828
            ],
            [
              39.84385299682617,
              20.279102325439453
            ],
            [
              40.14036178588867,
              20.279102325439453
            ],
            [
              40.561588287353516,
              19.8290958404541
            ],
            [
              40.85103988647461,
              19.700523376464844
            ],
            [
              40.84076690673828,
              19.507661819458008
            ],
            [
              40.985382080078125,
              19.443374633789062
            ],
            [
              41.04209899902344,
              19.12194061279297
            ],
            [
              41.25007629394531,
              18.864791870117188
            ],
            [
              41.23610305786133,
              18.607641220092773
            ],
            [
              41.45082092285156,
              18.479066848754883
            ],
            [
              41.784889221191406,
              17.836191177368164
            ],
            [
              42.28022766113281,
              17.450464248657227
            ],
            [
              42.33625793457031,
              17.129026412963867
            ],
            [
              42.48373794555664,
              17.129026412963867
            ],
            [
              42.816959381103516,
              16.486146926879883
            ],
            [
              42.81345748901367,
              16.421857833862305
            ],
            [
              43.10809326171875,
              16.421857833862305
            ],
            [
              43.39211654663086,
              16.228994369506836
            ],
            [
              44.12490463256836,
              16.16470718383789
            ],
            [
              44.33147048950195,
              15.907554626464844
            ],
            [
              45.21470260620117,
              15.907554626464844
            ],
            [
              45.21834945678711,
              15.971842765808105
            ],
            [
              45.22568130493164,
              16.100418090820312
            ],
            [
              45.01214599609375,
              16.228994369506836
            ],
            [
              45.019527435302734,
              16.35757064819336
            ],
            [
              44.53721618652344,
              16.9361629486084
            ],
            [
              44.622196197509766,
              17.129026412963867
            ],
            [
              44.47471618652344,
              17.129026412963867
            ],
            [
              44.338478088378906,
              17.321889877319336
            ],
            [
              44.41978073120117,
              17.450464248657227
            ],
            [
              44.08096694946289,
              17.964767456054688
            ],
            [
              44.092315673828125,
              18.157629013061523
            ],
            [
              43.88580322265625,
              18.414779663085938
            ],
            [
              43.90468978881836,
              18.736217498779297
            ],
            [
              43.6276969909668,
              19.057653427124023
            ],
            [
              43.63893508911133,
              19.25051498413086
            ],
            [
              43.498390197753906,
              19.379087448120117
            ],
            [
              43.509552001953125,
              19.571949005126953
            ],
            [
              43.30952835083008,
              19.95766830444336
            ],
            [
              42.95718765258789,
              20.279102325439453
            ],
            [
              42.80893325805664,
              20.279102325439453
            ],
            [
              42.53019714355469,
              20.60053253173828
            ],
            [
              42.38186264038086,
              20.60053253173828
            ],
            [
              42.31474304199219,
              20.72910499572754
            ],
            [
              42.16286849975586,
              20.664819717407227
            ],
            [
              41.81625747680664,
              21.114822387695312
            ],
            [
              41.522762298583984,
              21.179107666015625
            ],
            [
              41.384559631347656,
              21.371967315673828
            ],
            [
              41.09089279174805,
              21.43625259399414
            ],
            [
              40.88160705566406,
              21.693397521972656
            ],
            [
              40.15847396850586,
              22.079116821289062
            ],
            [
              40.09416198730469,
              22.271976470947266
            ],
            [
              39.877689361572266,
              22.400548934936523
            ],
            [
              39.83379364013672,
              22.97913360595703
            ],
            [
              39.90827941894531,
              22.97913360595703
            ],
            [
              39.92921447753906,
              23.36486053466797
            ],
            [
              40.282814025878906,
              24.329193115234375
            ],
            [
              39.79480743408203,
              24.907808303833008
            ],
            [
              39.72003173828125,
              24.907808303833008
            ]
          ]
        ]
      }
    }
  ]
}
