{
  "type": "FeatureCollection",
  "features": [
    {
      "type": "Feature",
      "properties": {
        "Name": "Eastern Chagatai Khanate",
        "FromYear": 1492,
        "ToYear": 1501,
        "Area": 302996.86192464083,
        "Type": "POLITY",
        "Wikipedia": "Moghulistan",
        "Wikidata": "Q1191125",
        "SeshatID": "",
        "Components": "",
        "MemberOf": "",
        "displayYear": 1500,
        "sourceYear": 1500,
        "mappedTerritoryId": "cliopatria_eastern_chagatai_khanate"
      },
      "geometry": {
        "type": "Polygon",
        "coordinates": [
          [
            [
              73.72833251953125,
              38.80344009399414
            ],
            [
              73.78703308105469,
              38.997230529785156
            ],
            [
              73.64955139160156,
              39.06184005737305
            ],
            [
              73.6890869140625,
              39.19107437133789
            ],
            [
              73.61043548583984,
              39.19107437133789
            ],
            [
              73.67021179199219,
              39.38497543334961
            ],
            [
              73.6902847290039,
              39.449623107910156
            ],
            [
              73.92901611328125,
              39.70827102661133
            ],
            [
              73.85016632080078,
              39.70827102661133
            ],
            [
              73.95331573486328,
              40.031734466552734
            ],
            [
              73.81617736816406,
              40.0964469909668
            ],
            [
              73.85803985595703,
              40.225894927978516
            ],
            [
              73.62603759765625,
              40.4848747253418
            ],
            [
              73.46772003173828,
              40.4848747253418
            ],
            [
              73.37303161621094,
              40.6791877746582
            ],
            [
              73.21454620361328,
              40.6791877746582
            ],
            [
              73.17793273925781,
              40.80876541137695
            ],
            [
              72.94004821777344,
              40.80876541137695
            ],
            [
              72.98280334472656,
              40.93837356567383
            ],
            [
              72.84553527832031,
              41.00318908691406
            ],
            [
              72.76615905761719,
              41.00318908691406
            ],
            [
              72.10060119628906,
              41.39224624633789
            ],
            [
              71.72435760498047,
              41.45711898803711
            ],
            [
              71.76748657226562,
              41.586883544921875
            ],
            [
              71.39087677001953,
              41.65177917480469
            ],
            [
              71.5935287475586,
              41.781593322753906
            ],
            [
              73.09535217285156,
              41.97637939453125
            ],
            [
              73.66506958007812,
              42.236209869384766
            ],
            [
              73.9048080444336,
              42.236209869384766
            ],
            [
              73.95082092285156,
              42.36617660522461
            ],
            [
              74.27069854736328,
              42.36617660522461
            ],
            [
              74.39722442626953,
              42.496177673339844
            ],
            [
              75.29251098632812,
              42.75628662109375
            ],
            [
              76.33248138427734,
              43.6026611328125
            ],
            [
              76.61389923095703,
              44.12431716918945
            ],
            [
              76.5029296875,
              44.25482940673828
            ],
            [
              76.55371856689453,
              44.38538360595703
            ],
            [
              76.47280883789062,
              44.38538360595703
            ],
            [
              76.52371978759766,
              44.5159797668457
            ],
            [
              76.44275665283203,
              44.5159797668457
            ],
            [
              76.49378204345703,
              44.64661407470703
            ],
            [
              76.41275024414062,
              44.64661407470703
            ],
            [
              76.43405151367188,
              44.908016204833984
            ],
            [
              76.10071563720703,
              45.300437927246094
            ],
            [
              76.15226745605469,
              45.431331634521484
            ],
            [
              75.70704650878906,
              45.95537567138672
            ],
            [
              75.543701171875,
              45.95537567138672
            ],
            [
              75.23493957519531,
              46.414546966552734
            ],
            [
              75.31684112548828,
              46.414546966552734
            ],
            [
              75.53316497802734,
              46.54585266113281
            ],
            [
              75.50687408447266,
              46.480194091796875
            ],
            [
              77.39138793945312,
              46.480194091796875
            ],
            [
              77.36439514160156,
              46.414546966552734
            ],
            [
              77.82868194580078,
              46.348915100097656
            ],
            [
              77.8016128540039,
              46.283294677734375
            ],
            [
              78.97484588623047,
              46.348915100097656
            ],
            [
              79.00244140625,
              46.414546966552734
            ],
            [
              79.46605682373047,
              46.348915100097656
            ],
            [
              79.4383316040039,
              46.283294677734375
            ],
            [
              79.8736801147461,
              46.1520881652832
            ],
            [
              79.89995574951172,
              46.02093505859375
            ],
            [
              80.7944564819336,
              45.62776184082031
            ],
            [
              80.82044982910156,
              45.496795654296875
            ],
            [
              80.98333740234375,
              45.496795654296875
            ],
            [
              81.14429473876953,
              45.300437927246094
            ],
            [
              80.9263916015625,
              45.169586181640625
            ],
            [
              80.24884033203125,
              45.10417556762695
            ],
            [
              79.92379760742188,
              44.908016204833984
            ],
            [
              80.41033935546875,
              44.71194839477539
            ],
            [
              80.30226135253906,
              44.45067596435547
            ],
            [
              80.38319396972656,
              44.45067596435547
            ],
            [
              80.35716247558594,
              43.99384307861328
            ],
            [
              80.73538970947266,
              43.53750228881836
            ],
            [
              80.68252563476562,
              43.407203674316406
            ],
            [
              80.79065704345703,
              43.276947021484375
            ],
            [
              80.63168334960938,
              43.08163070678711
            ],
            [
              80.47109985351562,
              43.08163070678711
            ],
            [
              80.47344207763672,
              42.88639831542969
            ],
            [
              80.28723907470703,
              42.82133865356445
            ],
            [
              80.14240264892578,
              42.041324615478516
            ],
            [
              78.77457427978516,
              41.586883544921875
            ],
            [
              77.31243896484375,
              40.614410400390625
            ],
            [
              76.17334747314453,
              39.57893371582031
            ],
            [
              75.30008697509766,
              39.06184005737305
            ],
            [
              73.96465301513672,
              38.54513168334961
            ],
            [
              73.78738403320312,
              38.738853454589844
            ],
            [
              73.80683135986328,
              38.80344009399414
            ],
            [
              73.72833251953125,
              38.80344009399414
            ]
          ]
        ]
      }
    }
  ]
}
