{
  "type": "FeatureCollection",
  "features": [
    {
      "type": "Feature",
      "properties": {
        "Name": "Kingdom of Prussia",
        "FromYear": 1713,
        "ToYear": 1720,
        "Area": 128492.07408615078,
        "Type": "POLITY",
        "Wikipedia": "Kingdom of Prussia",
        "Wikidata": "Q27306",
        "SeshatID": "",
        "Components": "",
        "MemberOf": "",
        "displayYear": 1720,
        "sourceYear": 1720,
        "mappedTerritoryId": "cliopatria_kingdom_of_prussia"
      },
      "geometry": {
        "type": "MultiPolygon",
        "coordinates": [
          [
            [
              [
                6.828584671020508,
                47.13737487792969
              ],
              [
                7.080090999603271,
                46.94007873535156
              ],
              [
                6.506691455841064,
                46.87434005737305
              ],
              [
                6.504899501800537,
                46.94007873535156
              ],
              [
                6.587069988250732,
                46.94007873535156
              ],
              [
                6.585307121276855,
                47.005828857421875
              ],
              [
                6.667511463165283,
                47.005828857421875
              ],
              [
                6.665778160095215,
                47.07159423828125
              ],
              [
                6.748015880584717,
                47.07159423828125
              ],
              [
                6.830254077911377,
                47.07159423828125
              ],
              [
                6.828584671020508,
                47.13737487792969
              ]
            ]
          ],
          [
            [
              [
                7.056454181671143,
                51.31283950805664
              ],
              [
                7.049864292144775,
                51.580322265625
              ],
              [
                7.557370185852051,
                51.64724349975586
              ],
              [
                7.644935131072998,
                51.51342010498047
              ],
              [
                7.39061164855957,
                51.51342010498047
              ],
              [
                7.478259086608887,
                51.37968063354492
              ],
              [
                7.562949180603027,
                51.37968063354492
              ],
              [
                7.482563495635986,
                51.17921447753906
              ],
              [
                7.228870391845703,
                51.17921447753906
              ],
              [
                7.056454181671143,
                51.31283950805664
              ]
            ]
          ],
          [
            [
              [
                10.781378746032715,
                51.44654083251953
              ],
              [
                10.442449569702148,
                51.44654083251953
              ],
              [
                10.44254207611084,
                51.580322265625
              ],
              [
                10.442594528198242,
                51.64724349975586
              ],
              [
                10.697173118591309,
                51.64724349975586
              ],
              [
                10.781378746032715,
                51.44654083251953
              ]
            ]
          ],
          [
            [
              [
                5.945038795471191,
                51.64724349975586
              ],
              [
                5.942830562591553,
                51.71418380737305
              ],
              [
                5.940618991851807,
                51.78114318847656
              ],
              [
                6.021216869354248,
                51.91512680053711
              ],
              [
                6.448332786560059,
                51.84812545776367
              ],
              [
                6.878493785858154,
                51.64724349975586
              ],
              [
                6.883697509765625,
                51.44654083251953
              ],
              [
                6.633214473724365,
                51.31283950805664
              ],
              [
                6.125326633453369,
                51.31283950805664
              ],
              [
                6.123218536376953,
                51.37968063354492
              ],
              [
                5.951643466949463,
                51.44654083251953
              ],
              [
                5.956030368804932,
                51.31283950805664
              ],
              [
                5.702086448669434,
                51.31283950805664
              ],
              [
                5.864670753479004,
                51.51342010498047
              ],
              [
                5.8624267578125,
                51.580322265625
              ],
              [
                5.860179424285889,
                51.64724349975586
              ],
              [
                5.945038795471191,
                51.64724349975586
              ]
            ],
            [
              [
                6.460036754608154,
                51.44654083251953
              ],
              [
                6.544768810272217,
                51.44654083251953
              ],
              [
                6.629500865936279,
                51.44654083251953
              ],
              [
                6.627641201019287,
                51.51342010498047
              ],
              [
                6.625779151916504,
                51.580322265625
              ],
              [
                6.540962219238281,
                51.580322265625
              ],
              [
                6.542866706848145,
                51.51342010498047
              ],
              [
                6.458092212677002,
                51.51342010498047
              ],
              [
                6.460036754608154,
                51.44654083251953
              ]
            ]
          ],
          [
            [
              [
                14.269256591796875,
                51.91512680053711
              ],
              [
                13.93283748626709,
                52.0491943359375
              ],
              [
                13.93470573425293,
                52.11625671386719
              ],
              [
                14.190190315246582,
                52.11625671386719
              ],
              [
                14.269256591796875,
                51.91512680053711
              ]
            ]
          ],
          [
            [
              [
                8.821284294128418,
                52.4518928527832
              ],
              [
                8.91016674041748,
                52.11625671386719
              ],
              [
                8.655516624450684,
                52.0491943359375
              ],
              [
                8.400161743164062,
                52.0491943359375
              ],
              [
                8.402093887329102,
                51.91512680053711
              ],
              [
                7.975754737854004,
                51.98215103149414
              ],
              [
                7.973388195037842,
                52.11625671386719
              ],
              [
                8.227821350097656,
                52.18334197998047
              ],
              [
                8.136035919189453,
                52.586299896240234
              ],
              [
                8.90596866607666,
                52.51908493041992
              ],
              [
                8.821284294128418,
                52.4518928527832
              ]
            ]
          ],
          [
            [
              [
                7.285952568054199,
                52.38472366333008
              ],
              [
                7.281329154968262,
                52.586299896240234
              ],
              [
                7.710002422332764,
                52.51908493041992
              ],
              [
                7.800522327423096,
                52.250450134277344
              ],
              [
                7.801794052124023,
                52.18334197998047
              ],
              [
                7.547579765319824,
                52.11625671386719
              ],
              [
                7.541964530944824,
                52.38472366333008
              ],
              [
                7.285952568054199,
                52.38472366333008
              ]
            ]
          ],
          [
            [
              [
                16.476667404174805,
                53.597137451171875
              ],
              [
                16.301027297973633,
                53.52959060668945
              ],
              [
                16.294410705566406,
                53.39456558227539
              ],
              [
                16.119178771972656,
                53.32708740234375
              ],
              [
                16.109657287597656,
                53.124786376953125
              ],
              [
                16.02382469177246,
                53.124786376953125
              ],
              [
                16.097135543823242,
                52.85536575317383
              ],
              [
                15.48926830291748,
                52.653533935546875
              ],
              [
                15.646231651306152,
                52.31757736206055
              ],
              [
                15.470279693603516,
                52.18334197998047
              ],
              [
                15.131959915161133,
                52.250450134277344
              ],
              [
                14.954254150390625,
                52.0491943359375
              ],
              [
                14.779444694519043,
                51.91512680053711
              ],
              [
                14.439318656921387,
                51.91512680053711
              ],
              [
                14.36260986328125,
                52.18334197998047
              ],
              [
                13.938469886779785,
                52.250450134277344
              ],
              [
                13.764382362365723,
                52.11625671386719
              ],
              [
                13.423735618591309,
                52.11625671386719
              ],
              [
                12.9087553024292,
                51.91512680053711
              ],
              [
                12.569785118103027,
                51.98215103149414
              ],
              [
                12.657279968261719,
                52.11625671386719
              ],
              [
                12.23147201538086,
                52.11625671386719
              ],
              [
                12.228504180908203,
                51.91512680053711
              ],
              [
                12.143472671508789,
                51.91512680053711
              ],
              [
                12.14254093170166,
                51.84812545776367
              ],
              [
                11.885207176208496,
                51.64724349975586
              ],
              [
                11.460908889770508,
                51.64724349975586
              ],
              [
                11.459787368774414,
                51.51342010498047
              ],
              [
                11.7120943069458,
                51.31283950805664
              ],
              [
                11.541653633117676,
                51.17921447753906
              ],
              [
                11.288854598999023,
                51.31283950805664
              ],
              [
                11.28977108001709,
                51.44654083251953
              ],
              [
                11.377108573913574,
                51.78114318847656
              ],
              [
                10.86689281463623,
                51.64724349975586
              ],
              [
                10.782730102539062,
                51.84812545776367
              ],
              [
                10.868002891540527,
                51.91512680053711
              ],
              [
                10.528238296508789,
                52.11625671386719
              ],
              [
                10.528498649597168,
                52.250450134277344
              ],
              [
                10.869808197021484,
                52.31757736206055
              ],
              [
                10.870770454406738,
                52.51908493041992
              ],
              [
                10.787421226501465,
                52.99003219604492
              ],
              [
                11.388239860534668,
                53.057395935058594
              ],
              [
                11.38951587677002,
                53.192195892333984
              ],
              [
                11.132387161254883,
                53.25962829589844
              ],
              [
                11.306057929992676,
                53.462066650390625
              ],
              [
                11.563496589660645,
                53.39456558227539
              ],
              [
                11.738075256347656,
                53.597137451171875
              ],
              [
                11.910387992858887,
                53.597137451171875
              ],
              [
                12.16561222076416,
                53.39456558227539
              ],
              [
                12.938276290893555,
                53.32708740234375
              ],
              [
                13.024246215820312,
                53.32708740234375
              ],
              [
                13.196187019348145,
                53.32708740234375
              ],
              [
                13.54919719696045,
                53.664710998535156
              ],
              [
                13.118182182312012,
                53.664710998535156
              ],
              [
                12.948822975158691,
                53.799922943115234
              ],
              [
                13.036701202392578,
                53.86756134033203
              ],
              [
                13.641111373901367,
                53.86756134033203
              ],
              [
                13.475763320922852,
                54.138362884521484
              ],
              [
                13.477616310119629,
                54.20612335205078
              ],
              [
                14.165812492370605,
                54.07062530517578
              ],
              [
                14.159177780151367,
                53.86756134033203
              ],
              [
                13.98438835144043,
                53.799922943115234
              ],
              [
                14.499796867370605,
                53.732303619384766
              ],
              [
                14.50934886932373,
                54.00291442871094
              ],
              [
                15.036103248596191,
                54.20612335205078
              ],
              [
                15.991765975952148,
                54.27390670776367
              ],
              [
                16.619972229003906,
                54.681121826171875
              ],
              [
                17.93706703186035,
                54.88506317138672
              ],
              [
                18.024137496948242,
                54.88506317138672
              ],
              [
                17.910659790039062,
                54.47740173339844
              ],
              [
                17.641929626464844,
                54.341712951660156
              ],
              [
                17.62116241455078,
                54.00291442871094
              ],
              [
                17.279340744018555,
                54.07062530517578
              ],
              [
                17.09869956970215,
                53.93522644042969
              ],
              [
                17.16972541809082,
                53.664710998535156
              ],
              [
                16.90744972229004,
                53.597137451171875
              ],
              [
                16.821292877197266,
                53.597137451171875
              ],
              [
                16.65959930419922,
                53.799922943115234
              ],
              [
                16.400707244873047,
                53.799922943115234
              ],
              [
                16.476667404174805,
                53.597137451171875
              ]
            ]
          ],
          [
            [
              [
                22.461759567260742,
                54.00291442871094
              ],
              [
                22.548198699951172,
                54.00291442871094
              ],
              [
                22.42144775390625,
                53.597137451171875
              ],
              [
                21.28936767578125,
                53.462066650390625
              ],
              [
                20.927749633789062,
                53.25962829589844
              ],
              [
                20.66997718811035,
                53.25962829589844
              ],
              [
                20.395845413208008,
                53.057395935058594
              ],
              [
                19.972116470336914,
                53.124786376953125
              ],
              [
                19.72993278503418,
                53.32708740234375
              ],
              [
                19.740234375,
                53.462066650390625
              ],
              [
                19.309919357299805,
                53.462066650390625
              ],
              [
                19.214111328125,
                53.32708740234375
              ],
              [
                18.7028751373291,
                53.39456558227539
              ],
              [
                18.80758285522461,
                53.664710998535156
              ],
              [
                18.979990005493164,
                53.664710998535156
              ],
              [
                19.253494262695312,
                53.86756134033203
              ],
              [
                19.268539428710938,
                54.07062530517578
              ],
              [
                19.45181655883789,
                54.20612335205078
              ],
              [
                19.873947143554688,
                54.07062530517578
              ],
              [
                19.8579044342041,
                53.86756134033203
              ],
              [
                20.100629806518555,
                53.664710998535156
              ],
              [
                20.273035049438477,
                53.664710998535156
              ],
              [
                20.825302124023438,
                54.07062530517578
              ],
              [
                20.75055503845215,
                54.20612335205078
              ],
              [
                20.49656105041504,
                54.27390670776367
              ],
              [
                20.14447593688965,
                54.20612335205078
              ],
              [
                19.808900833129883,
                54.341712951660156
              ],
              [
                19.819725036621094,
                54.47740173339844
              ],
              [
                19.82516098022461,
                54.545284271240234
              ],
              [
                20.004362106323242,
                54.613189697265625
              ],
              [
                19.83608627319336,
                54.681121826171875
              ],
              [
                19.950855255126953,
                55.021148681640625
              ],
              [
                20.654220581054688,
                55.089229583740234
              ],
              [
                20.72932243347168,
                54.95309066772461
              ],
              [
                20.990678787231445,
                54.95309066772461
              ],
              [
                21.202974319458008,
                55.36180877685547
              ],
              [
                20.96585464477539,
                55.63479995727539
              ],
              [
                20.98489761352539,
                55.83982467651367
              ],
              [
                20.991283416748047,
                55.90821838378906
              ],
              [
                21.248220443725586,
                55.83982467651367
              ],
              [
                21.235198974609375,
                55.70311737060547
              ],
              [
                21.640066146850586,
                55.36180877685547
              ],
              [
                22.412668228149414,
                55.225467681884766
              ],
              [
                22.398584365844727,
                55.089229583740234
              ],
              [
                22.573020935058594,
                55.089229583740234
              ],
              [
                22.812959671020508,
                54.88506317138672
              ],
              [
                22.704511642456055,
                54.681121826171875
              ],
              [
                22.69742774963379,
                54.613189697265625
              ],
              [
                22.66232681274414,
                54.27390670776367
              ],
              [
                22.482206344604492,
                54.20612335205078
              ],
              [
                22.461759567260742,
                54.00291442871094
              ]
            ]
          ]
        ]
      }
    }
  ]
}
