{
  "type": "FeatureCollection",
  "features": [
    {
      "type": "Feature",
      "properties": {
        "Name": "Chola Empire",
        "FromYear": 1111,
        "ToYear": 1125,
        "Area": 341628.43291937606,
        "Type": "POLITY",
        "Wikipedia": "Chola Empire",
        "Wikidata": "Q6806806",
        "SeshatID": "in_chola_emp",
        "Components": "",
        "MemberOf": "",
        "displayYear": 1125,
        "sourceYear": 1125,
        "mappedTerritoryId": "cliopatria_chola_empire"
      },
      "geometry": {
        "type": "Polygon",
        "coordinates": [
          [
            [
              75.21777342600261,
              11.99153812897936
            ],
            [
              75.3384780883789,
              11.92171573638916
            ],
            [
              75.58491516113281,
              11.278841018676758
            ],
            [
              75.72676849365234,
              11.214552879333496
            ],
            [
              75.90209197998047,
              10.571678161621094
            ],
            [
              76.23381042480469,
              10.057377815246582
            ],
            [
              76.22138977050781,
              9.86451530456543
            ],
            [
              76.36347961425781,
              9.800228118896484
            ],
            [
              76.3553237915039,
              9.671652793884277
            ],
            [
              76.20915222167969,
              9.671652793884277
            ],
            [
              76.19708251953125,
              9.478790283203125
            ],
            [
              76.72357177734375,
              8.514476776123047
            ],
            [
              77.28192138671875,
              8.06446361541748
            ],
            [
              77.87327575683594,
              8.193038940429688
            ],
            [
              78.1802749633789,
              8.450189590454102
            ],
            [
              78.28418731689453,
              8.964489936828613
            ],
            [
              78.58833312988281,
              9.157352447509766
            ],
            [
              78.95767211914062,
              9.221640586853027
            ],
            [
              78.98654174804688,
              9.671652793884277
            ],
            [
              79.29590606689453,
              9.928803443908691
            ],
            [
              79.3176498413086,
              10.250240325927734
            ],
            [
              79.90264892578125,
              10.250240325927734
            ],
            [
              79.8844223022461,
              11.986002922058105
            ],
            [
              80.30301666259766,
              12.628878593444824
            ],
            [
              80.43157196044922,
              13.271754264831543
            ],
            [
              80.3077621459961,
              13.528904914855957
            ],
            [
              80.16102600097656,
              13.528904914855957
            ],
            [
              80.2816162109375,
              14.043206214904785
            ],
            [
              80.20819854736328,
              14.043206214904785
            ],
            [
              80.21576690673828,
              14.878947257995605
            ],
            [
              80.0882339477539,
              15.07181167602539
            ],
            [
              80.20161437988281,
              15.457538604736328
            ],
            [
              80.61058044433594,
              15.843266487121582
            ],
            [
              81.11875915527344,
              15.77897834777832
            ],
            [
              81.32273864746094,
              16.293283462524414
            ],
            [
              82.22111511230469,
              16.421857833862305
            ],
            [
              82.3832015991211,
              16.550434112548828
            ],
            [
              82.42052459716797,
              16.87187385559082
            ],
            [
              82.34681701660156,
              16.87187385559082
            ],
            [
              82.4507827758789,
              17.129026412963867
            ],
            [
              83.15304565429688,
              17.450464248657227
            ],
            [
              83.32402038574219,
              17.643327713012695
            ],
            [
              83.10226789123706,
              17.486829620344672
            ],
            [
              82.8050691222484,
              18.031694030157226
            ],
            [
              82.42330222986217,
              18.286205291748047
            ],
            [
              81.5328369140625,
              18.093341827392578
            ],
            [
              81.13287353515625,
              17.836191177368164
            ],
            [
              81.05905151367188,
              17.836191177368164
            ],
            [
              80.03952026367188,
              17.321889877319336
            ],
            [
              79.66334533691406,
              17.257600784301758
            ],
            [
              79.33192443847656,
              16.9361629486084
            ],
            [
              78.70657348632812,
              16.614723205566406
            ],
            [
              78.5173110961914,
              16.228994369506836
            ],
            [
              78.37003326416016,
              16.228994369506836
            ],
            [
              78.38388061523438,
              16.35757064819336
            ],
            [
              78.16292572021484,
              16.35757064819336
            ],
            [
              77.77410125732422,
              16.16470718383789
            ],
            [
              77.20539855957031,
              15.650403022766113
            ],
            [
              77.09307098388672,
              15.26467514038086
            ],
            [
              76.93130410379202,
              15.136098861694336
            ],
            [
              76.922,
              14.543
            ],
            [
              77.058,
              14.311
            ],
            [
              78.128,
              14.179
            ],
            [
              78.185,
              13.599
            ],
            [
              77.733,
              12.265
            ],
            [
              77.48,
              11.857
            ],
            [
              77.047,
              11.609
            ],
            [
              76.608,
              11.654
            ],
            [
              75.619,
              12.057
            ],
            [
              75.21777342600261,
              11.99153812897936
            ]
          ]
        ]
      }
    }
  ]
}
