{
  "type": "FeatureCollection",
  "features": [
    {
      "type": "Feature",
      "properties": {
        "Name": "Byzantine Empire",
        "FromYear": 1003,
        "ToYear": 1009,
        "Area": 921773.4340514488,
        "Type": "POLITY",
        "Wikipedia": "Byzantine Empire",
        "Wikidata": "Q112039853",
        "SeshatID": "tr_byzantine_emp_2",
        "Components": "",
        "MemberOf": "",
        "displayYear": 1004,
        "sourceYear": 1004,
        "mappedTerritoryId": "byzantine_empire"
      },
      "geometry": {
        "type": "MultiPolygon",
        "coordinates": [
          [
            [
              [
                24.156919479370117,
                35.51579284667969
              ],
              [
                24.149879455566406,
                35.38706970214844
              ],
              [
                24.30097007751465,
                35.32271194458008
              ],
              [
                25.69233512878418,
                35.32271194458008
              ],
              [
                25.680648803710938,
                35.12965774536133
              ],
              [
                26.22533416748047,
                35.194007873535156
              ],
              [
                26.140073776245117,
                35.065311431884766
              ],
              [
                24.823745727539062,
                35.00096893310547
              ],
              [
                24.7574462890625,
                35.194007873535156
              ],
              [
                24.52567481994629,
                35.194007873535156
              ],
              [
                24.44841766357422,
                35.194007873535156
              ],
              [
                23.679210662841797,
                35.258358001708984
              ],
              [
                23.615402221679688,
                35.51579284667969
              ],
              [
                24.156919479370117,
                35.51579284667969
              ]
            ]
          ],
          [
            [
              [
                22.887205123901367,
                36.417205810546875
              ],
              [
                22.964859008789062,
                36.417205810546875
              ],
              [
                23.116798400878906,
                36.3527946472168
              ],
              [
                23.10675048828125,
                36.15959167480469
              ],
              [
                22.87404441833496,
                36.15959167480469
              ],
              [
                22.887205123901367,
                36.417205810546875
              ]
            ]
          ],
          [
            [
              [
                24.28331756591797,
                37.706241607666016
              ],
              [
                24.36141586303711,
                37.706241607666016
              ],
              [
                24.43158721923828,
                37.5772590637207
              ],
              [
                24.27158546447754,
                37.51277160644531
              ],
              [
                24.201318740844727,
                37.641746520996094
              ],
              [
                24.28331756591797,
                37.706241607666016
              ]
            ]
          ],
          [
            [
              [
                20.621307373046875,
                37.89975357055664
              ],
              [
                20.69947624206543,
                37.89975357055664
              ],
              [
                20.933977127075195,
                37.89975357055664
              ],
              [
                20.922147750854492,
                37.641746520996094
              ],
              [
                20.612695693969727,
                37.706241607666016
              ],
              [
                20.621307373046875,
                37.89975357055664
              ]
            ]
          ],
          [
            [
              [
                24.694225311279297,
                38.028785705566406
              ],
              [
                24.772438049316406,
                38.028785705566406
              ],
              [
                25.068470001220703,
                37.7707405090332
              ],
              [
                24.830005645751953,
                37.706241607666016
              ],
              [
                24.681930541992188,
                37.835243225097656
              ],
              [
                24.694225311279297,
                38.028785705566406
              ]
            ]
          ],
          [
            [
              [
                20.328466415405273,
                38.351463317871094
              ],
              [
                20.488054275512695,
                38.416015625
              ],
              [
                20.566410064697266,
                38.416015625
              ],
              [
                20.795446395874023,
                38.28691864013672
              ],
              [
                20.7864933013916,
                38.09331130981445
              ],
              [
                20.319902420043945,
                38.157840728759766
              ],
              [
                20.328466415405273,
                38.351463317871094
              ]
            ]
          ],
          [
            [
              [
                23.56732749938965,
                38.80344009399414
              ],
              [
                23.563383102416992,
                38.738853454589844
              ],
              [
                23.484909057617188,
                38.738853454589844
              ],
              [
                23.488826751708984,
                38.80344009399414
              ],
              [
                23.56732749938965,
                38.80344009399414
              ]
            ]
          ],
          [
            [
              [
                24.35651969909668,
                38.8680305480957
              ],
              [
                24.364974975585938,
                38.997230529785156
              ],
              [
                24.443546295166016,
                38.997230529785156
              ],
              [
                24.674930572509766,
                38.93262481689453
              ],
              [
                24.662033081054688,
                38.738853454589844
              ],
              [
                24.35651969909668,
                38.8680305480957
              ]
            ]
          ],
          [
            [
              [
                20.151897430419922,
                39.64360046386719
              ],
              [
                20.148855209350586,
                39.57893371582031
              ],
              [
                20.070056915283203,
                39.57893371582031
              ],
              [
                20.073074340820312,
                39.64360046386719
              ],
              [
                20.151897430419922,
                39.64360046386719
              ]
            ]
          ],
          [
            [
              [
                19.921405792236328,
                39.77294921875
              ],
              [
                19.918411254882812,
                39.70827102661133
              ],
              [
                19.912464141845703,
                39.57893371582031
              ],
              [
                19.75778579711914,
                39.64360046386719
              ],
              [
                19.76365852355957,
                39.77294921875
              ],
              [
                19.921405792236328,
                39.77294921875
              ]
            ]
          ],
          [
            [
              [
                16.663040161132812,
                38.93262481689453
              ],
              [
                16.502395629882812,
                38.80344009399414
              ],
              [
                16.491945266723633,
                38.416015625
              ],
              [
                15.932764053344727,
                37.96426773071289
              ],
              [
                15.698192596435547,
                37.96426773071289
              ],
              [
                15.6271390914917,
                38.28691864013672
              ],
              [
                15.941911697387695,
                38.351463317871094
              ],
              [
                15.949724197387695,
                38.67427444458008
              ],
              [
                16.265209197998047,
                38.738853454589844
              ],
              [
                16.270299911499023,
                38.93262481689453
              ],
              [
                16.116540908813477,
                39.06184005737305
              ],
              [
                15.898874282836914,
                39.77294921875
              ],
              [
                15.665508270263672,
                39.90232849121094
              ],
              [
                15.747773170471191,
                40.031734466552734
              ],
              [
                15.668797492980957,
                40.031734466552734
              ],
              [
                15.589820861816406,
                40.031734466552734
              ],
              [
                15.520606994628906,
                40.42012023925781
              ],
              [
                15.441473007202148,
                40.42012023925781
              ],
              [
                15.535787582397461,
                41.00318908691406
              ],
              [
                15.377034187316895,
                41.00318908691406
              ],
              [
                15.312662124633789,
                41.586883544921875
              ],
              [
                15.475428581237793,
                41.71668243408203
              ],
              [
                15.40097427368164,
                41.911441802978516
              ],
              [
                15.480741500854492,
                41.911441802978516
              ],
              [
                16.11888313293457,
                41.911441802978516
              ],
              [
                16.114879608154297,
                41.781593322753906
              ],
              [
                15.87384033203125,
                41.71668243408203
              ],
              [
                15.943941116333008,
                41.39224624633789
              ],
              [
                17.20269203186035,
                41.00318908691406
              ],
              [
                17.510658264160156,
                40.74397277832031
              ],
              [
                17.981229782104492,
                40.614410400390625
              ],
              [
                18.43811798095703,
                40.16116714477539
              ],
              [
                18.34894371032715,
                39.90232849121094
              ],
              [
                18.11216926574707,
                39.90232849121094
              ],
              [
                17.813072204589844,
                40.355369567871094
              ],
              [
                17.41753578186035,
                40.355369567871094
              ],
              [
                17.345230102539062,
                40.54964065551758
              ],
              [
                17.02848243713379,
                40.54964065551758
              ],
              [
                16.867990493774414,
                40.4848747253418
              ],
              [
                16.945016860961914,
                40.42012023925781
              ],
              [
                16.861696243286133,
                40.29063034057617
              ],
              [
                16.624452590942383,
                40.29063034057617
              ],
              [
                16.697484970092773,
                40.0964469909668
              ],
              [
                16.454753875732422,
                39.90232849121094
              ],
              [
                16.452865600585938,
                39.8376350402832
              ],
              [
                16.44725799560547,
                39.64360046386719
              ],
              [
                17.069679260253906,
                39.38497543334961
              ],
              [
                17.138301849365234,
                39.06184005737305
              ],
              [
                16.663040161132812,
                38.93262481689453
              ]
            ]
          ],
          [
            [
              [
                24.490964889526367,
                40.80876541137695
              ],
              [
                24.57025909423828,
                40.80876541137695
              ],
              [
                24.808143615722656,
                40.80876541137695
              ],
              [
                24.793624877929688,
                40.614410400390625
              ],
              [
                24.551259994506836,
                40.54964065551758
              ],
              [
                24.490964889526367,
                40.80876541137695
              ]
            ]
          ],
          [
            [
              [
                18.143457412719727,
                42.62621307373047
              ],
              [
                17.83389663696289,
                42.88639831542969
              ],
              [
                17.510494232177734,
                42.82133865356445
              ],
              [
                17.515670776367188,
                42.95146560668945
              ],
              [
                17.518268585205078,
                43.016544342041016
              ],
              [
                17.678796768188477,
                43.016544342041016
              ],
              [
                17.764448165893555,
                43.146724700927734
              ],
              [
                18.085742950439453,
                43.146724700927734
              ],
              [
                18.240642547607422,
                43.016544342041016
              ],
              [
                18.481433868408203,
                43.016544342041016
              ],
              [
                19.63520050048828,
                42.041324615478516
              ],
              [
                19.715024948120117,
                42.041324615478516
              ],
              [
                19.708423614501953,
                41.911441802978516
              ],
              [
                19.386180877685547,
                41.84651184082031
              ],
              [
                18.85202980041504,
                42.36617660522461
              ],
              [
                18.143457412719727,
                42.62621307373047
              ]
            ]
          ],
          [
            [
              [
                17.748348236083984,
                42.75628662109375
              ],
              [
                17.745683670043945,
                42.691246032714844
              ],
              [
                17.665569305419922,
                42.691246032714844
              ],
              [
                17.668203353881836,
                42.75628662109375
              ],
              [
                17.748348236083984,
                42.75628662109375
              ]
            ]
          ],
          [
            [
              [
                33.95713424682617,
                35.258358001708984
              ],
              [
                34.08732223510742,
                35.00096893310547
              ],
              [
                33.69539260864258,
                34.93662643432617
              ],
              [
                33.523399353027344,
                34.743614196777344
              ],
              [
                33.1320686340332,
                34.679283142089844
              ],
              [
                33.04356002807617,
                34.55062484741211
              ],
              [
                32.36665725708008,
                34.743614196777344
              ],
              [
                32.229042053222656,
                34.93662643432617
              ],
              [
                32.24578857421875,
                35.12965774536133
              ],
              [
                32.55473709106445,
                35.12965774536133
              ],
              [
                32.875247955322266,
                35.258358001708984
              ],
              [
                32.886871337890625,
                35.38706970214844
              ],
              [
                33.73737716674805,
                35.38706970214844
              ],
              [
                34.309810638427734,
                35.708900451660156
              ],
              [
                34.38723373413086,
                35.708900451660156
              ],
              [
                34.542076110839844,
                35.708900451660156
              ],
              [
                34.5294189453125,
                35.58015823364258
              ],
              [
                33.95713424682617,
                35.258358001708984
              ]
            ]
          ],
          [
            [
              [
                27.692523956298828,
                36.28839111328125
              ],
              [
                28.01713752746582,
                36.48161697387695
              ],
              [
                28.09481430053711,
                36.48161697387695
              ],
              [
                28.250165939331055,
                36.48161697387695
              ],
              [
                28.139331817626953,
                36.03080368041992
              ],
              [
                27.742563247680664,
                35.902034759521484
              ],
              [
                27.692523956298828,
                36.28839111328125
              ]
            ]
          ],
          [
            [
              [
                27.116777420043945,
                36.932613372802734
              ],
              [
                27.18541717529297,
                36.80373764038086
              ],
              [
                26.865324020385742,
                36.67487716674805
              ],
              [
                27.038949966430664,
                36.932613372802734
              ],
              [
                27.116777420043945,
                36.932613372802734
              ]
            ]
          ],
          [
            [
              [
                25.339021682739258,
                37.12596130371094
              ],
              [
                25.416915893554688,
                37.12596130371094
              ],
              [
                25.57270622253418,
                37.12596130371094
              ],
              [
                25.56435775756836,
                36.9970588684082
              ],
              [
                25.330806732177734,
                36.9970588684082
              ],
              [
                25.339021682739258,
                37.12596130371094
              ]
            ]
          ],
          [
            [
              [
                24.986202239990234,
                37.706241607666016
              ],
              [
                25.064300537109375,
                37.706241607666016
              ],
              [
                25.220497131347656,
                37.706241607666016
              ],
              [
                25.285974502563477,
                37.51277160644531
              ],
              [
                25.0518856048584,
                37.51277160644531
              ],
              [
                24.986202239990234,
                37.706241607666016
              ]
            ]
          ],
          [
            [
              [
                26.079580307006836,
                37.706241607666016
              ],
              [
                26.157678604125977,
                37.706241607666016
              ],
              [
                26.313875198364258,
                37.706241607666016
              ],
              [
                26.304851531982422,
                37.5772590637207
              ],
              [
                25.988245010375977,
                37.51277160644531
              ],
              [
                26.079580307006836,
                37.706241607666016
              ]
            ]
          ],
          [
            [
              [
                25.89913558959961,
                38.48057174682617
              ],
              [
                25.820756912231445,
                38.48057174682617
              ],
              [
                25.912982940673828,
                38.67427444458008
              ],
              [
                25.99143409729004,
                38.67427444458008
              ],
              [
                26.217344284057617,
                38.54513168334961
              ],
              [
                26.111188888549805,
                38.157840728759766
              ],
              [
                25.876405715942383,
                38.157840728759766
              ],
              [
                25.89913558959961,
                38.48057174682617
              ]
            ]
          ],
          [
            [
              [
                26.24588966369629,
                38.93262481689453
              ],
              [
                26.09356689453125,
                38.997230529785156
              ],
              [
                26.103172302246094,
                39.1264533996582
              ],
              [
                25.793418884277344,
                39.19107437133789
              ],
              [
                26.043895721435547,
                39.38497543334961
              ],
              [
                26.122615814208984,
                39.38497543334961
              ],
              [
                26.511207580566406,
                39.320335388183594
              ],
              [
                26.643573760986328,
                38.997230529785156
              ],
              [
                26.24588966369629,
                38.93262481689453
              ]
            ]
          ],
          [
            [
              [
                25.066978454589844,
                40.031734466552734
              ],
              [
                25.145954132080078,
                40.031734466552734
              ],
              [
                25.46186065673828,
                40.031734466552734
              ],
              [
                25.447328567504883,
                39.8376350402832
              ],
              [
                24.973936080932617,
                39.8376350402832
              ],
              [
                25.066978454589844,
                40.031734466552734
              ]
            ]
          ],
          [
            [
              [
                28.84072494506836,
                44.58129119873047
              ],
              [
                28.576906204223633,
                44.38538360595703
              ],
              [
                28.53555679321289,
                43.99384307861328
              ],
              [
                28.616275787353516,
                43.99384307861328
              ],
              [
                28.48109245300293,
                43.472347259521484
              ],
              [
                28.159194946289062,
                43.472347259521484
              ],
              [
                28.22636604309082,
                43.342071533203125
              ],
              [
                27.89820098876953,
                43.276947021484375
              ],
              [
                27.80489730834961,
                43.146724700927734
              ],
              [
                27.84662628173828,
                42.75628662109375
              ],
              [
                27.513538360595703,
                42.62621307373047
              ],
              [
                27.494890213012695,
                42.43117141723633
              ],
              [
                27.936981201171875,
                42.041324615478516
              ],
              [
                27.979368209838867,
                41.65177917480469
              ],
              [
                28.21833038330078,
                41.65177917480469
              ],
              [
                28.27918243408203,
                41.45711898803711
              ],
              [
                28.505287170410156,
                41.32738494873047
              ],
              [
                28.975934982299805,
                41.26253128051758
              ],
              [
                28.96312141418457,
                41.132843017578125
              ],
              [
                30.47923469543457,
                41.19768524169922
              ],
              [
                30.62422752380371,
                41.06801223754883
              ],
              [
                31.1800537109375,
                41.06801223754883
              ],
              [
                31.534175872802734,
                41.39224624633789
              ],
              [
                32.02653121948242,
                41.521995544433594
              ],
              [
                32.04172897338867,
                41.65177917480469
              ],
              [
                32.1933708190918,
                41.586883544921875
              ],
              [
                32.694705963134766,
                41.781593322753906
              ],
              [
                32.630775451660156,
                41.911441802978516
              ],
              [
                34.78450012207031,
                41.911441802978516
              ],
              [
                34.881736755371094,
                42.041324615478516
              ],
              [
                35.121212005615234,
                42.041324615478516
              ],
              [
                35.08602523803711,
                41.781593322753906
              ],
              [
                35.30754852294922,
                41.65177917480469
              ],
              [
                35.953800201416016,
                41.71668243408203
              ],
              [
                36.20920181274414,
                41.26253128051758
              ],
              [
                36.77476501464844,
                41.32738494873047
              ],
              [
                37.06510925292969,
                41.132843017578125
              ],
              [
                37.23323440551758,
                41.19768524169922
              ],
              [
                37.21474075317383,
                41.06801223754883
              ],
              [
                37.770565032958984,
                41.06801223754883
              ],
              [
                37.83116149902344,
                40.93837356567383
              ],
              [
                38.15805435180664,
                41.00318908691406
              ],
              [
                38.29773712158203,
                40.873565673828125
              ],
              [
                38.78335189819336,
                40.93837356567383
              ],
              [
                39.0508918762207,
                41.132843017578125
              ],
              [
                39.735538482666016,
                40.93837356567383
              ],
              [
                40.370330810546875,
                40.93837356567383
              ],
              [
                40.390892028808594,
                41.06801223754883
              ],
              [
                40.53934860229492,
                41.00318908691406
              ],
              [
                41.04725646972656,
                41.19768524169922
              ],
              [
                41.15876007080078,
                41.39224624633789
              ],
              [
                41.307071685791016,
                41.32738494873047
              ],
              [
                41.40821838378906,
                41.45711898803711
              ],
              [
                41.567359924316406,
                41.45711898803711
              ],
              [
                41.57828140258789,
                41.521995544433594
              ],
              [
                42.442626953125,
                41.45711898803711
              ],
              [
                42.62437438964844,
                41.586883544921875
              ],
              [
                42.86325454711914,
                41.586883544921875
              ],
              [
                43.19264602661133,
                41.19768524169922
              ],
              [
                43.57847213745117,
                41.132843017578125
              ],
              [
                43.47627258300781,
                41.00318908691406
              ],
              [
                43.14754867553711,
                40.93837356567383
              ],
              [
                43.10306167602539,
                40.6791877746582
              ],
              [
                42.77518081665039,
                40.614410400390625
              ],
              [
                42.8050651550293,
                39.8376350402832
              ],
              [
                42.88396453857422,
                39.8376350402832
              ],
              [
                42.92111587524414,
                39.57893371582031
              ],
              [
                42.57534408569336,
                39.38497543334961
              ],
              [
                42.46645736694336,
                39.19107437133789
              ],
              [
                42.23051834106445,
                39.19107437133789
              ],
              [
                42.13214874267578,
                39.06184005737305
              ],
              [
                42.073856353759766,
                38.67427444458008
              ],
              [
                42.496238708496094,
                38.351463317871094
              ],
              [
                42.477149963378906,
                38.22237777709961
              ],
              [
                42.17344665527344,
                38.28691864013672
              ],
              [
                41.81039047241211,
                37.38381576538086
              ],
              [
                41.57643508911133,
                37.38381576538086
              ],
              [
                41.59423065185547,
                37.51277160644531
              ],
              [
                41.3779182434082,
                37.641746520996094
              ],
              [
                41.39582061767578,
                37.7707405090332
              ],
              [
                40.692726135253906,
                37.7707405090332
              ],
              [
                39.39286422729492,
                37.38381576538086
              ],
              [
                38.73698043823242,
                37.12596130371094
              ],
              [
                38.72113037109375,
                36.9970588684082
              ],
              [
                38.487579345703125,
                36.9970588684082
              ],
              [
                38.394161224365234,
                36.8681755065918
              ],
              [
                37.282623291015625,
                36.67487716674805
              ],
              [
                37.027557373046875,
                36.48161697387695
              ],
              [
                37.01310729980469,
                36.3527946472168
              ],
              [
                36.688385009765625,
                36.2239875793457
              ],
              [
                36.343345642089844,
                35.902034759521484
              ],
              [
                36.35274124145508,
                35.258358001708984
              ],
              [
                36.184871673583984,
                35.12965774536133
              ],
              [
                36.165035247802734,
                34.93662643432617
              ],
              [
                36.312767028808594,
                34.87228775024414
              ],
              [
                36.29301834106445,
                34.679283142089844
              ],
              [
                36.21592330932617,
                34.679283142089844
              ],
              [
                36.055240631103516,
                34.614952087402344
              ],
              [
                35.92698669433594,
                34.87228775024414
              ],
              [
                35.88907241821289,
                35.258358001708984
              ],
              [
                35.99294662475586,
                35.51579284667969
              ],
              [
                35.84488296508789,
                35.58015823364258
              ],
              [
                35.990074157714844,
                36.2239875793457
              ],
              [
                35.84861373901367,
                36.3527946472168
              ],
              [
                36.26490020751953,
                36.61045455932617
              ],
              [
                36.28622817993164,
                36.80373764038086
              ],
              [
                36.144901275634766,
                36.932613372802734
              ],
              [
                35.833587646484375,
                36.932613372802734
              ],
              [
                35.487709045410156,
                36.61045455932617
              ],
              [
                35.11265563964844,
                36.73930740356445
              ],
              [
                34.95038986206055,
                36.67487716674805
              ],
              [
                34.892860412597656,
                36.8681755065918
              ],
              [
                34.581634521484375,
                36.8681755065918
              ],
              [
                34.2507209777832,
                36.67487716674805
              ],
              [
                33.97906494140625,
                36.28839111328125
              ],
              [
                33.2744140625,
                36.2239875793457
              ],
              [
                32.713401794433594,
                36.03080368041992
              ],
              [
                32.558349609375,
                36.03080368041992
              ],
              [
                32.498512268066406,
                36.2239875793457
              ],
              [
                32.06806182861328,
                36.61045455932617
              ],
              [
                31.08603858947754,
                36.932613372802734
              ],
              [
                30.619068145751953,
                36.932613372802734
              ],
              [
                30.49193572998047,
                36.3527946472168
              ],
              [
                30.02613639831543,
                36.3527946472168
              ],
              [
                29.938032150268555,
                36.2239875793457
              ],
              [
                29.239721298217773,
                36.2239875793457
              ],
              [
                29.124916076660156,
                36.73930740356445
              ],
              [
                28.736103057861328,
                36.73930740356445
              ],
              [
                28.590524673461914,
                36.8681755065918
              ],
              [
                28.357105255126953,
                36.8681755065918
              ],
              [
                28.186922073364258,
                36.67487716674805
              ],
              [
                28.03143882751465,
                36.67487716674805
              ],
              [
                28.138330459594727,
                37.06150817871094
              ],
              [
                28.065349578857422,
                37.12596130371094
              ],
              [
                27.597978591918945,
                37.12596130371094
              ],
              [
                27.53919219970703,
                37.38381576538086
              ],
              [
                27.22254180908203,
                37.3193473815918
              ],
              [
                27.309988021850586,
                37.44829177856445
              ],
              [
                27.16343116760254,
                37.5772590637207
              ],
              [
                27.2558650970459,
                37.7707405090332
              ],
              [
                27.177743911743164,
                37.7707405090332
              ],
              [
                27.27528190612793,
                38.028785705566406
              ],
              [
                26.888994216918945,
                38.09331130981445
              ],
              [
                26.820327758789062,
                38.22237777709961
              ],
              [
                26.42890739440918,
                38.22237777709961
              ],
              [
                26.38368797302246,
                38.67427444458008
              ],
              [
                26.535762786865234,
                38.60969924926758
              ],
              [
                26.594974517822266,
                38.351463317871094
              ],
              [
                27.06496238708496,
                38.351463317871094
              ],
              [
                27.079774856567383,
                38.54513168334961
              ],
              [
                26.849470138549805,
                38.60969924926758
              ],
              [
                26.95786476135254,
                38.997230529785156
              ],
              [
                26.879291534423828,
                38.997230529785156
              ],
              [
                26.894468307495117,
                39.19107437133789
              ],
              [
                26.742225646972656,
                39.25570297241211
              ],
              [
                26.84657859802246,
                39.57893371582031
              ],
              [
                26.132457733154297,
                39.51427459716797
              ],
              [
                26.2723331451416,
                40.29063034057617
              ],
              [
                26.604726791381836,
                40.4848747253418
              ],
              [
                26.683887481689453,
                40.4848747253418
              ],
              [
                26.673099517822266,
                40.355369567871094
              ],
              [
                27.46982192993164,
                40.42012023925781
              ],
              [
                27.537628173828125,
                40.29063034057617
              ],
              [
                27.695789337158203,
                40.29063034057617
              ],
              [
                27.792133331298828,
                40.4848747253418
              ],
              [
                27.950454711914062,
                40.4848747253418
              ],
              [
                27.938817977905273,
                40.355369567871094
              ],
              [
                29.046321868896484,
                40.355369567871094
              ],
              [
                28.900379180908203,
                40.4848747253418
              ],
              [
                28.91274642944336,
                40.614410400390625
              ],
              [
                29.3944091796875,
                40.6791877746582
              ],
              [
                29.493009567260742,
                40.873565673828125
              ],
              [
                29.24864959716797,
                40.80876541137695
              ],
              [
                29.10276222229004,
                40.93837356567383
              ],
              [
                29.115554809570312,
                41.06801223754883
              ],
              [
                27.527481079101562,
                41.06801223754883
              ],
              [
                27.017187118530273,
                40.6791877746582
              ],
              [
                26.921367645263672,
                40.4848747253418
              ],
              [
                26.76849937438965,
                40.54964065551758
              ],
              [
                26.93239974975586,
                40.614410400390625
              ],
              [
                26.853185653686523,
                40.614410400390625
              ],
              [
                26.773971557617188,
                40.614410400390625
              ],
              [
                26.779464721679688,
                40.6791877746582
              ],
              [
                26.700223922729492,
                40.6791877746582
              ],
              [
                26.620983123779297,
                40.6791877746582
              ],
              [
                26.547176361083984,
                40.74397277832031
              ],
              [
                26.140260696411133,
                40.614410400390625
              ],
              [
                26.082168579101562,
                40.873565673828125
              ],
              [
                25.849451065063477,
                40.93837356567383
              ],
              [
                24.34656524658203,
                41.00318908691406
              ],
              [
                24.010608673095703,
                40.74397277832031
              ],
              [
                23.698017120361328,
                40.80876541137695
              ],
              [
                23.684629440307617,
                40.614410400390625
              ],
              [
                23.83857536315918,
                40.54964065551758
              ],
              [
                23.73737335205078,
                40.225894927978516
              ],
              [
                22.959190368652344,
                40.42012023925781
              ],
              [
                22.89249038696289,
                40.614410400390625
              ],
              [
                22.57158088684082,
                40.54964065551758
              ],
              [
                22.543659210205078,
                40.0964469909668
              ],
              [
                22.701663970947266,
                40.0964469909668
              ],
              [
                22.610868453979492,
                39.90232849121094
              ],
              [
                23.135168075561523,
                39.449623107910156
              ],
              [
                22.816326141357422,
                39.38497543334961
              ],
              [
                22.797286987304688,
                39.06184005737305
              ],
              [
                22.95830535888672,
                39.1264533996582
              ],
              [
                23.492761611938477,
                38.8680305480957
              ],
              [
                23.331829071044922,
                38.80344009399414
              ],
              [
                23.025423049926758,
                38.93262481689453
              ],
              [
                22.935583114624023,
                38.738853454589844
              ],
              [
                23.16720199584961,
                38.67427444458008
              ],
              [
                23.312631607055664,
                38.48057174682617
              ],
              [
                23.626148223876953,
                38.48057174682617
              ],
              [
                23.563383102416992,
                38.738853454589844
              ],
              [
                24.030162811279297,
                38.67427444458008
              ],
              [
                24.178871154785156,
                38.54513168334961
              ],
              [
                24.158668518066406,
                38.22237777709961
              ],
              [
                24.002099990844727,
                38.22237777709961
              ],
              [
                23.9786319732666,
                37.835243225097656
              ],
              [
                23.44280242919922,
                38.028785705566406
              ],
              [
                23.208162307739258,
                38.028785705566406
              ],
              [
                23.20083236694336,
                37.89975357055664
              ],
              [
                23.044498443603516,
                37.89975357055664
              ],
              [
                23.108261108398438,
                37.641746520996094
              ],
              [
                23.342487335205078,
                37.641746520996094
              ],
              [
                23.402393341064453,
                37.3193473815918
              ],
              [
                23.168506622314453,
                37.3193473815918
              ],
              [
                23.175601959228516,
                37.44829177856445
              ],
              [
                22.94858741760254,
                37.5772590637207
              ],
              [
                22.71442985534668,
                37.5772590637207
              ],
              [
                22.700735092163086,
                37.3193473815918
              ],
              [
                22.853219985961914,
                37.254878997802734
              ],
              [
                23.056013107299805,
                36.67487716674805
              ],
              [
                22.83283233642578,
                36.8681755065918
              ],
              [
                22.59941291809082,
                36.8681755065918
              ],
              [
                22.51182746887207,
                36.67487716674805
              ],
              [
                22.35634422302246,
                36.67487716674805
              ],
              [
                22.21999168395996,
                37.06150817871094
              ],
              [
                21.90850067138672,
                37.06150817871094
              ],
              [
                21.899152755737305,
                36.8681755065918
              ],
              [
                21.743539810180664,
                36.8681755065918
              ],
              [
                21.681032180786133,
                37.1904182434082
              ],
              [
                21.60311508178711,
                37.1904182434082
              ],
              [
                21.696598052978516,
                37.51277160644531
              ],
              [
                21.243581771850586,
                37.835243225097656
              ],
              [
                21.415550231933594,
                38.157840728759766
              ],
              [
                21.728593826293945,
                38.157840728759766
              ],
              [
                21.738431930541992,
                38.351463317871094
              ],
              [
                21.19325065612793,
                38.416015625
              ],
              [
                20.973709106445312,
                38.738853454589844
              ],
              [
                20.74135398864746,
                38.80344009399414
              ],
              [
                20.91095733642578,
                39.06184005737305
              ],
              [
                20.448524475097656,
                39.25570297241211
              ],
              [
                20.151897430419922,
                39.64360046386719
              ],
              [
                20.23689842224121,
                39.77294921875
              ],
              [
                20.394643783569336,
                39.77294921875
              ],
              [
                20.39780616760254,
                39.8376350402832
              ],
              [
                20.55560302734375,
                39.8376350402832
              ],
              [
                21.128570556640625,
                40.225894927978516
              ],
              [
                22.171741485595703,
                40.4848747253418
              ],
              [
                22.508596420288086,
                40.80876541137695
              ],
              [
                22.997167587280273,
                41.00318908691406
              ],
              [
                23.473424911499023,
                41.00318908691406
              ],
              [
                24.20674705505371,
                41.26253128051758
              ],
              [
                24.52469253540039,
                41.26253128051758
              ],
              [
                24.778104782104492,
                41.45711898803711
              ],
              [
                24.798267364501953,
                41.71668243408203
              ],
              [
                24.49448013305664,
                41.911441802978516
              ],
              [
                24.504514694213867,
                42.041324615478516
              ],
              [
                25.084333419799805,
                42.30118942260742
              ],
              [
                25.34577178955078,
                42.56119155883789
              ],
              [
                25.50588607788086,
                42.56119155883789
              ],
              [
                26.11229133605957,
                43.08163070678711
              ],
              [
                26.1297607421875,
                43.276947021484375
              ],
              [
                26.469234466552734,
                43.472347259521484
              ],
              [
                26.400718688964844,
                43.6026611328125
              ],
              [
                26.48125457763672,
                43.6026611328125
              ],
              [
                26.505428314208984,
                43.86341094970703
              ],
              [
                26.26943588256836,
                43.92862319946289
              ],
              [
                26.281423568725586,
                44.05907440185547
              ],
              [
                26.362173080444336,
                44.05907440185547
              ],
              [
                26.697507858276367,
                44.18956756591797
              ],
              [
                27.418363571166992,
                44.12431716918945
              ],
              [
                27.92299461364746,
                44.32010269165039
              ],
              [
                27.86873435974121,
                44.58129119873047
              ],
              [
                27.706735610961914,
                44.58129119873047
              ],
              [
                27.726606369018555,
                44.77729415893555
              ],
              [
                27.8887939453125,
                44.77729415893555
              ],
              [
                27.92239761352539,
                45.10417556762695
              ],
              [
                27.766572952270508,
                45.169586181640625
              ],
              [
                27.786672592163086,
                45.36587905883789
              ],
              [
                28.037626266479492,
                45.431331634521484
              ],
              [
                28.051286697387695,
                45.56227111816406
              ],
              [
                28.28878402709961,
                45.496795654296875
              ],
              [
                28.274951934814453,
                45.36587905883789
              ],
              [
                28.430747985839844,
                45.300437927246094
              ],
              [
                28.756139755249023,
                45.300437927246094
              ],
              [
                29.184673309326172,
                45.496795654296875
              ],
              [
                29.66587257385254,
                45.431331634521484
              ],
              [
                29.525348663330078,
                44.908016204833984
              ],
              [
                29.19350242614746,
                44.842647552490234
              ],
              [
                29.112377166748047,
                44.842647552490234
              ],
              [
                29.024105072021484,
                44.77729415893555
              ],
              [
                29.04557228088379,
                44.973392486572266
              ],
              [
                28.802005767822266,
                44.973392486572266
              ],
              [
                28.84072494506836,
                44.58129119873047
              ]
            ]
          ],
          [
            [
              [
                25.718765258789062,
                40.29063034057617
              ],
              [
                25.7978458404541,
                40.29063034057617
              ],
              [
                26.03508949279785,
                40.29063034057617
              ],
              [
                26.024850845336914,
                40.16116714477539
              ],
              [
                25.703752517700195,
                40.0964469909668
              ],
              [
                25.718765258789062,
                40.29063034057617
              ]
            ]
          ],
          [
            [
              [
                33.60108947753906,
                45.03877639770508
              ],
              [
                33.682308197021484,
                45.03877639770508
              ],
              [
                33.76353073120117,
                45.03877639770508
              ],
              [
                33.844749450683594,
                45.03877639770508
              ],
              [
                33.92597198486328,
                45.03877639770508
              ],
              [
                34.0071907043457,
                45.03877639770508
              ],
              [
                34.088409423828125,
                45.03877639770508
              ],
              [
                34.07926940917969,
                44.973392486572266
              ],
              [
                34.24164581298828,
                44.973392486572266
              ],
              [
                34.38551712036133,
                44.842647552490234
              ],
              [
                34.3670654296875,
                44.71194839477539
              ],
              [
                34.096588134765625,
                44.5159797668457
              ],
              [
                33.763771057128906,
                44.45067596435547
              ],
              [
                33.68283462524414,
                44.45067596435547
              ],
              [
                33.601898193359375,
                44.45067596435547
              ],
              [
                33.52096176147461,
                44.45067596435547
              ],
              [
                33.52981185913086,
                44.5159797668457
              ],
              [
                33.44884490966797,
                44.5159797668457
              ],
              [
                33.46652603149414,
                44.64661407470703
              ],
              [
                33.54755401611328,
                44.64661407470703
              ],
              [
                33.60108947753906,
                45.03877639770508
              ]
            ]
          ]
        ]
      }
    }
  ]
}
