{
  "type": "FeatureCollection",
  "features": [
    {
      "type": "Feature",
      "properties": {
        "Name": "Kingdom of France",
        "FromYear": 1250,
        "ToYear": 1259,
        "Area": 191529.386724504,
        "Type": "POLITY",
        "Wikipedia": "Kingdom of France",
        "Wikidata": "Q207162",
        "SeshatID": "fr_capetian_k_2",
        "Components": "",
        "MemberOf": "(Kingdom of France)",
        "displayYear": 1253,
        "sourceYear": 1253,
        "mappedTerritoryId": "cliopatria_kingdom_of_france"
      },
      "geometry": {
        "type": "MultiPolygon",
        "coordinates": [
          [
            [
              [
                4.338796615600586,
                43.472347259521484
              ],
              [
                4.177847862243652,
                43.472347259521484
              ],
              [
                4.173032760620117,
                43.6026611328125
              ],
              [
                3.850892543792725,
                43.6026611328125
              ],
              [
                3.617136240005493,
                43.407203674316406
              ],
              [
                3.140029191970825,
                43.276947021484375
              ],
              [
                2.987718343734741,
                43.08163070678711
              ],
              [
                2.990521192550659,
                43.016544342041016
              ],
              [
                2.592146396636963,
                42.95146560668945
              ],
              [
                2.517835140228271,
                42.82133865356445
              ],
              [
                2.043031692504883,
                42.691246032714844
              ],
              [
                1.969184994697571,
                42.56119155883789
              ],
              [
                1.725796341896057,
                42.62621307373047
              ],
              [
                1.873243570327759,
                42.88639831542969
              ],
              [
                1.304981589317322,
                43.016544342041016
              ],
              [
                1.277275562286377,
                43.53750228881836
              ],
              [
                0.947991132736206,
                43.6678352355957
              ],
              [
                0.922246754169464,
                44.12431716918945
              ],
              [
                0.841465890407562,
                44.12431716918945
              ],
              [
                0.833957612514496,
                44.25482940673828
              ],
              [
                1.069124221801758,
                44.38538360595703
              ],
              [
                1.061721682548523,
                44.5159797668457
              ],
              [
                1.378401041030884,
                44.64661407470703
              ],
              [
                1.448663711547852,
                44.842647552490234
              ],
              [
                2.101012229919434,
                44.77729415893555
              ],
              [
                2.191993713378906,
                44.58129119873047
              ],
              [
                2.357206583023071,
                44.5159797668457
              ],
              [
                2.515990495681763,
                44.58129119873047
              ],
              [
                2.584417343139648,
                44.842647552490234
              ],
              [
                2.746667861938477,
                44.842647552490234
              ],
              [
                2.917982816696167,
                44.64661407470703
              ],
              [
                3.158156394958496,
                44.71194839477539
              ],
              [
                3.230506658554077,
                44.908016204833984
              ],
              [
                3.473977327346802,
                44.908016204833984
              ],
              [
                3.56069803237915,
                44.77729415893555
              ],
              [
                3.966166257858276,
                44.77729415893555
              ],
              [
                4.057530879974365,
                44.5159797668457
              ],
              [
                4.469520568847656,
                44.32010269165039
              ],
              [
                4.476603984832764,
                44.12431716918945
              ],
              [
                4.725685596466064,
                43.92862319946289
              ],
              [
                4.41231107711792,
                43.6678352355957
              ],
              [
                4.414638042449951,
                43.6026611328125
              ],
              [
                4.338796615600586,
                43.472347259521484
              ]
            ]
          ],
          [
            [
              [
                -0.17808398604393,
                44.908016204833984
              ],
              [
                -0.18233759701252,
                44.973392486572266
              ],
              [
                -0.186602368950844,
                45.03877639770508
              ],
              [
                -0.190878316760063,
                45.10417556762695
              ],
              [
                -0.27213054895401,
                45.10417556762695
              ],
              [
                -0.27644956111908,
                45.169586181640625
              ],
              [
                -0.280779838562012,
                45.23500442504883
              ],
              [
                -1.035891175270081,
                45.56227111816406
              ],
              [
                -1.04058039188385,
                45.62776184082031
              ],
              [
                -1.213142395019531,
                45.75876998901367
              ],
              [
                -1.141096234321594,
                45.889827728271484
              ],
              [
                -1.222735166549683,
                45.889827728271484
              ],
              [
                -1.246932625770569,
                46.21768569946289
              ],
              [
                -1.251809358596802,
                46.283294677734375
              ],
              [
                -1.333645224571228,
                46.283294677734375
              ],
              [
                -1.666043281555176,
                46.348915100097656
              ],
              [
                -2.014399528503418,
                46.61152267456055
              ],
              [
                -2.024919986724854,
                46.74290466308594
              ],
              [
                -2.194406032562256,
                46.808616638183594
              ],
              [
                -2.210532188415527,
                47.005828857421875
              ],
              [
                -2.128328084945679,
                47.005828857421875
              ],
              [
                -1.388491034507751,
                47.005828857421875
              ],
              [
                -1.306286931037903,
                47.005828857421875
              ],
              [
                -1.224082827568054,
                47.005828857421875
              ],
              [
                -1.21910035610199,
                46.94007873535156
              ],
              [
                -1.136930227279663,
                46.94007873535156
              ],
              [
                -1.054759979248047,
                46.94007873535156
              ],
              [
                -1.052308413337236,
                46.90720264151099
              ],
              [
                -0.890419542789459,
                46.94007873535156
              ],
              [
                -0.890419542789459,
                46.94007873535156
              ],
              [
                -0.315228044986725,
                46.94007873535156
              ],
              [
                -0.233057826757431,
                46.94007873535156
              ],
              [
                -0.228493839502335,
                46.87434005737305
              ],
              [
                -0.14635743200779,
                46.87434005737305
              ],
              [
                -0.150887623429298,
                46.94007873535156
              ],
              [
                -0.150887623429298,
                46.94007873535156
              ],
              [
                0.342133671045303,
                46.94007873535156
              ],
              [
                0.342133671045303,
                46.94007873535156
              ],
              [
                0.584407448768616,
                47.005828857421875
              ],
              [
                0.489324986934662,
                47.20316696166992
              ],
              [
                0.723574995994568,
                47.4006233215332
              ],
              [
                0.719330370426178,
                47.46647262573242
              ],
              [
                1.213993549346924,
                47.46647262573242
              ],
              [
                1.296437382698059,
                47.46647262573242
              ],
              [
                1.300440311431885,
                47.4006233215332
              ],
              [
                1.304433107376099,
                47.33478927612305
              ],
              [
                1.308415651321411,
                47.26897048950195
              ],
              [
                1.312388062477112,
                47.20316696166992
              ],
              [
                1.402540564537048,
                47.07159423828125
              ],
              [
                1.892255425453186,
                47.13737487792969
              ],
              [
                1.768123745918274,
                47.86185836791992
              ],
              [
                1.685470700263977,
                47.86185836791992
              ],
              [
                1.733008742332458,
                48.455936431884766
              ],
              [
                1.567061066627502,
                48.455936431884766
              ],
              [
                1.388798952102661,
                48.654239654541016
              ],
              [
                1.060728430747986,
                48.5881233215332
              ],
              [
                0.820296287536621,
                48.455936431884766
              ],
              [
                0.924667775630951,
                48.1257438659668
              ],
              [
                0.841873228549957,
                48.1257438659668
              ],
              [
                0.684980988502502,
                47.993770599365234
              ],
              [
                0.436810165643692,
                47.993770599365234
              ],
              [
                0.336079269647598,
                48.257774353027344
              ],
              [
                -5.8500339946e-05,
                48.323814392089844
              ],
              [
                -0.092416204512119,
                48.455936431884766
              ],
              [
                -0.580371201038361,
                48.323814392089844
              ],
              [
                -0.668246686458588,
                48.38986587524414
              ],
              [
                -0.668246686458588,
                48.38986587524414
              ],
              [
                -0.999997794628143,
                48.38986587524414
              ],
              [
                -0.999997794628143,
                48.38986587524414
              ],
              [
                -1.082935571670532,
                48.38986587524414
              ],
              [
                -1.088102579116821,
                48.455936431884766
              ],
              [
                -1.171076416969299,
                48.455936431884766
              ],
              [
                -1.254050254821777,
                48.455936431884766
              ],
              [
                -1.497624516487122,
                48.38986587524414
              ],
              [
                -1.519098520278931,
                48.654239654541016
              ],
              [
                -1.602181315422058,
                48.654239654541016
              ],
              [
                -1.607621908187866,
                48.72037124633789
              ],
              [
                -1.718345284461975,
                49.051273345947266
              ],
              [
                -1.635041356086731,
                49.051273345947266
              ],
              [
                -1.651668906211853,
                49.2500114440918
              ],
              [
                -1.913302421569824,
                49.38258361816406
              ],
              [
                -2.031550645828247,
                49.78071212768555
              ],
              [
                -1.361783027648926,
                49.78071212768555
              ],
              [
                -1.250783205032349,
                49.44889450073242
              ],
              [
                0.007001183927059,
                49.38258361816406
              ],
              [
                -0.012448177672923,
                49.64793395996094
              ],
              [
                0.224112883210182,
                49.84712600708008
              ],
              [
                1.216153383255005,
                50.04647445678711
              ],
              [
                1.454967975616455,
                50.2459831237793
              ],
              [
                1.433403611183167,
                50.578861236572266
              ],
              [
                1.517598748207092,
                50.578861236572266
              ],
              [
                1.601793885231018,
                50.578861236572266
              ],
              [
                1.782671809196472,
                50.37908172607422
              ],
              [
                2.554430246353149,
                50.11296081542969
              ],
              [
                3.729254722595215,
                50.11296081542969
              ],
              [
                3.813170909881592,
                50.11296081542969
              ],
              [
                3.816332101821899,
                50.04647445678711
              ],
              [
                3.900208711624146,
                50.04647445678711
              ],
              [
                3.984085559844971,
                50.04647445678711
              ],
              [
                3.987162351608276,
                49.98000717163086
              ],
              [
                4.071000099182129,
                49.98000717163086
              ],
              [
                4.154837608337402,
                49.98000717163086
              ],
              [
                4.083094596862793,
                49.71431350708008
              ],
              [
                3.838290452957153,
                49.58156967163086
              ],
              [
                3.847608327865601,
                49.38258361816406
              ],
              [
                3.603540658950806,
                49.2500114440918
              ],
              [
                3.539405584335327,
                48.852684020996094
              ],
              [
                3.199939489364624,
                48.98506164550781
              ],
              [
                2.79067063331604,
                48.852684020996094
              ],
              [
                3.057219743728638,
                48.52202224731445
              ],
              [
                3.475459814071655,
                48.455936431884766
              ],
              [
                3.819467067718506,
                48.191749572753906
              ],
              [
                3.914155960083008,
                47.92780685424805
              ],
              [
                3.831467866897583,
                47.92780685424805
              ],
              [
                3.834450483322144,
                47.86185836791992
              ],
              [
                3.751797437667847,
                47.86185836791992
              ],
              [
                3.754808187484741,
                47.79592514038086
              ],
              [
                3.583402872085571,
                47.92780685424805
              ],
              [
                3.083965539932251,
                47.993770599365234
              ],
              [
                3.007919788360596,
                47.86185836791992
              ],
              [
                2.763392686843872,
                47.79592514038086
              ],
              [
                2.429348230361938,
                47.86185836791992
              ],
              [
                2.44003963470459,
                47.664100646972656
              ],
              [
                2.357491493225098,
                47.664100646972656
              ],
              [
                2.368207454681396,
                47.46647262573242
              ],
              [
                2.618989706039429,
                47.4006233215332
              ],
              [
                2.793901681900024,
                47.20316696166992
              ],
              [
                2.803918361663818,
                47.005828857421875
              ],
              [
                3.069725751876831,
                46.61152267456055
              ],
              [
                3.728644609451294,
                46.54585266113281
              ],
              [
                3.804866790771484,
                46.677207946777344
              ],
              [
                4.135751724243164,
                46.61152267456055
              ],
              [
                4.231192111968994,
                46.283294677734375
              ],
              [
                4.734472751617432,
                45.95537567138672
              ],
              [
                4.895442485809326,
                46.02093505859375
              ],
              [
                4.967714786529541,
                46.283294677734375
              ],
              [
                5.295057773590088,
                46.283294677734375
              ],
              [
                5.07259464263916,
                45.62776184082031
              ],
              [
                4.504523754119873,
                45.56227111816406
              ],
              [
                4.593333721160889,
                45.36587905883789
              ],
              [
                4.351718902587891,
                45.300437927246094
              ],
              [
                3.9422926902771,
                45.36587905883789
              ],
              [
                4.012977600097656,
                45.62776184082031
              ],
              [
                3.931468486785889,
                45.62776184082031
              ],
              [
                3.923265695571899,
                45.82429504394531
              ],
              [
                3.675598859786987,
                45.889827728271484
              ],
              [
                3.669878482818604,
                46.02093505859375
              ],
              [
                3.343061447143555,
                46.02093505859375
              ],
              [
                3.349043369293213,
                45.889827728271484
              ],
              [
                3.267404317855835,
                45.889827728271484
              ],
              [
                3.013109922409058,
                46.08650588989258
              ],
              [
                2.771131753921509,
                46.02093505859375
              ],
              [
                2.601117134094238,
                46.1520881652832
              ],
              [
                2.427402973175049,
                46.348915100097656
              ],
              [
                2.178287029266357,
                46.414546966552734
              ],
              [
                1.515491604804993,
                46.54585266113281
              ],
              [
                0.945738732814789,
                46.480194091796875
              ],
              [
                1.214894890785217,
                46.08650588989258
              ],
              [
                0.973637998104095,
                46.02093505859375
              ],
              [
                0.903831779956818,
                45.82429504394531
              ],
              [
                0.911711454391479,
                45.693260192871094
              ],
              [
                0.683108568191528,
                45.431331634521484
              ],
              [
                0.524327039718628,
                45.36587905883789
              ],
              [
                0.532380819320679,
                45.23500442504883
              ],
              [
                0.377887368202209,
                45.10417556762695
              ],
              [
                0.296635121107101,
                45.10417556762695
              ],
              [
                0.223605588078499,
                44.973392486572266
              ],
              [
                -0.17808398604393,
                44.908016204833984
              ]
            ],
            [
              [
                -1.26020483474493,
                46.94007873535156
              ],
              [
                -1.214130759239197,
                46.87434005737305
              ],
              [
                -1.21910035610199,
                46.94007873535156
              ],
              [
                -1.26020483474493,
                46.94007873535156
              ]
            ]
          ]
        ]
      }
    }
  ]
}
