{
  "type": "FeatureCollection",
  "features": [
    {
      "type": "Feature",
      "properties": {
        "Name": "Chalukya Dynasty",
        "FromYear": 555,
        "ToYear": 601,
        "Area": 203426.8904537599,
        "Type": "POLITY",
        "Wikipedia": "Chalukya dynasty",
        "Wikidata": "Q1395011",
        "SeshatID": "in_badami_chalukya_emp",
        "Components": "",
        "MemberOf": "",
        "displayYear": 561,
        "sourceYear": 561,
        "mappedTerritoryId": "cliopatria_chalukya_dynasty"
      },
      "geometry": {
        "type": "Polygon",
        "coordinates": [
          [
            [
              77.75357055664062,
              14.493220329284668
            ],
            [
              77.37432098388672,
              14.364645004272461
            ],
            [
              77.3897705078125,
              13.721768379211426
            ],
            [
              77.24299621582031,
              13.721768379211426
            ],
            [
              77.20426940917969,
              13.271754264831543
            ],
            [
              76.95223999023438,
              12.886029243469238
            ],
            [
              76.24172973632812,
              12.24315357208252
            ],
            [
              76.23190307617188,
              12.114578247070312
            ],
            [
              76.00728607177734,
              12.050291061401367
            ],
            [
              75.84163665771484,
              11.793140411376953
            ],
            [
              75.45681762695312,
              11.535990715026855
            ],
            [
              75.3384780883789,
              11.92171573638916
            ],
            [
              75.06465148925781,
              12.178865432739258
            ],
            [
              74.74769592285156,
              12.821741104125977
            ],
            [
              74.66364288330078,
              13.593193054199219
            ],
            [
              74.4706802368164,
              13.914630889892578
            ],
            [
              74.3744888305664,
              14.493220329284668
            ],
            [
              73.97454071044922,
              14.943235397338867
            ],
            [
              73.74736785888672,
              15.650403022766113
            ],
            [
              73.53911590576172,
              15.77897834777832
            ],
            [
              73.41714477539062,
              16.036130905151367
            ],
            [
              73.32787322998047,
              16.614723205566406
            ],
            [
              73.25418853759766,
              16.614723205566406
            ],
            [
              73.26010131835938,
              17.38617706298828
            ],
            [
              73.54842376708984,
              17.321889877319336
            ],
            [
              73.74947357177734,
              17.129026412963867
            ],
            [
              73.7360610961914,
              17.000450134277344
            ],
            [
              74.00424194335938,
              16.743297576904297
            ],
            [
              74.1516342163086,
              16.743297576904297
            ],
            [
              74.41323852539062,
              16.421857833862305
            ],
            [
              74.99588775634766,
              16.35757064819336
            ],
            [
              75.19702911376953,
              16.16470718383789
            ],
            [
              76.09395599365234,
              16.293283462524414
            ],
            [
              76.48249053955078,
              16.486146926879883
            ],
            [
              77.21915435791016,
              16.486146926879883
            ],
            [
              77.93507385253906,
              16.293283462524414
            ],
            [
              78.91348266601562,
              16.486146926879883
            ],
            [
              79.39119720458984,
              16.807586669921875
            ],
            [
              80.4157485961914,
              16.743297576904297
            ],
            [
              80.82881164550781,
              16.486146926879883
            ],
            [
              81.0067367553711,
              16.100418090820312
            ],
            [
              80.90496063232422,
              15.843266487121582
            ],
            [
              80.45646667480469,
              15.77897834777832
            ],
            [
              80.20161437988281,
              15.457538604736328
            ],
            [
              80.0882339477539,
              15.07181167602539
            ],
            [
              80.26371765136719,
              14.621796607971191
            ],
            [
              80.19046382712999,
              14.428933143615723
            ],
            [
              80.16298680997032,
              14.60751472946256
            ],
            [
              80.04880358979342,
              15.07218945229822
            ],
            [
              80.1311209932277,
              15.3287971385108
            ],
            [
              79.68337128826225,
              15.4745167667951
            ],
            [
              79.22871481177613,
              15.9155350299485
            ],
            [
              78.55684041302696,
              15.86558718200041
            ],
            [
              78.39646659156087,
              15.28606990864434
            ],
            [
              77.88358843100623,
              15.42339885394642
            ],
            [
              77.74306197773733,
              14.97381180418202
            ],
            [
              77.75890917167116,
              14.52908201125265
            ],
            [
              77.78549090757028,
              14.493220329284668
            ],
            [
              77.75357055664062,
              14.493220329284668
            ]
          ]
        ]
      }
    }
  ]
}
