{
  "type": "FeatureCollection",
  "features": [
    {
      "type": "Feature",
      "properties": {
        "Name": "Principality of Hungary",
        "FromYear": 922,
        "ToYear": 925,
        "Area": 280987.86178894894,
        "Type": "POLITY",
        "Wikipedia": "Principality of Hungary",
        "Wikidata": "Q2899771",
        "SeshatID": "hu_hungary_principality",
        "Components": "",
        "MemberOf": "",
        "displayYear": 923,
        "sourceYear": 923,
        "mappedTerritoryId": "cliopatria_principality_of_hungary"
      },
      "geometry": {
        "type": "MultiPolygon",
        "coordinates": [
          [
            [
              [
                23.467716217041016,
                46.348915100097656
              ],
              [
                23.472827911376953,
                46.414546966552734
              ],
              [
                23.554729461669922,
                46.414546966552734
              ],
              [
                23.549585342407227,
                46.348915100097656
              ],
              [
                23.467716217041016,
                46.348915100097656
              ]
            ]
          ],
          [
            [
              [
                22.792753219604492,
                48.257774353027344
              ],
              [
                23.025577545166016,
                48.059749603271484
              ],
              [
                22.937631607055664,
                47.993770599365234
              ],
              [
                22.92217254638672,
                47.79592514038086
              ],
              [
                23.082218170166016,
                47.730003356933594
              ],
              [
                22.98937225341797,
                47.598209381103516
              ],
              [
                23.07188606262207,
                47.598209381103516
              ],
              [
                23.061616897583008,
                47.46647262573242
              ],
              [
                23.226505279541016,
                47.46647262573242
              ],
              [
                23.123559951782227,
                47.20316696166992
              ],
              [
                23.205867767333984,
                47.20316696166992
              ],
              [
                23.195632934570312,
                47.07159423828125
              ],
              [
                23.36528778076172,
                47.13737487792969
              ],
              [
                23.25234603881836,
                46.74290466308594
              ],
              [
                23.334415435791016,
                46.74290466308594
              ],
              [
                23.31914710998535,
                46.54585266113281
              ],
              [
                23.477949142456055,
                46.480194091796875
              ],
              [
                23.385847091674805,
                46.348915100097656
              ],
              [
                23.534212112426758,
                46.1520881652832
              ],
              [
                23.513851165771484,
                45.889827728271484
              ],
              [
                23.6771297454834,
                45.889827728271484
              ],
              [
                23.468515396118164,
                45.300437927246094
              ],
              [
                22.8895263671875,
                45.169586181640625
              ],
              [
                22.865732192993164,
                44.842647552490234
              ],
              [
                23.25666618347168,
                44.64661407470703
              ],
              [
                23.337697982788086,
                44.64661407470703
              ],
              [
                23.455175399780273,
                44.05907440185547
              ],
              [
                23.374425888061523,
                44.05907440185547
              ],
              [
                23.35978889465332,
                43.86341094970703
              ],
              [
                22.951791763305664,
                43.79821014404297
              ],
              [
                22.894636154174805,
                44.12431716918945
              ],
              [
                22.50443458557129,
                44.32010269165039
              ],
              [
                22.518192291259766,
                44.5159797668457
              ],
              [
                22.689453125,
                44.64661407470703
              ],
              [
                21.951416015625,
                44.5159797668457
              ],
              [
                21.879146575927734,
                44.64661407470703
              ],
              [
                21.401302337646484,
                44.77729415893555
              ],
              [
                21.42641258239746,
                45.169586181640625
              ],
              [
                21.032119750976562,
                45.36587905883789
              ],
              [
                20.292184829711914,
                45.23500442504883
              ],
              [
                20.019073486328125,
                44.71194839477539
              ],
              [
                19.856950759887695,
                44.71194839477539
              ],
              [
                19.624204635620117,
                44.908016204833984
              ],
              [
                19.296220779418945,
                44.842647552490234
              ],
              [
                19.14055824279785,
                44.973392486572266
              ],
              [
                18.890594482421875,
                44.842647552490234
              ],
              [
                18.73775291442871,
                45.03877639770508
              ],
              [
                18.418899536132812,
                45.169586181640625
              ],
              [
                18.421916961669922,
                45.23500442504883
              ],
              [
                18.262239456176758,
                45.300437927246094
              ],
              [
                18.268156051635742,
                45.431331634521484
              ],
              [
                17.540794372558594,
                45.56227111816406
              ],
              [
                17.38045310974121,
                45.62776184082031
              ],
              [
                17.306703567504883,
                45.82429504394531
              ],
              [
                16.98274040222168,
                45.889827728271484
              ],
              [
                16.74493408203125,
                46.08650588989258
              ],
              [
                16.831493377685547,
                46.21768569946289
              ],
              [
                16.67024040222168,
                46.283294677734375
              ],
              [
                16.674955368041992,
                46.414546966552734
              ],
              [
                16.515750885009766,
                46.54585266113281
              ],
              [
                16.26984405517578,
                46.54585266113281
              ],
              [
                16.265443801879883,
                46.414546966552734
              ],
              [
                16.101640701293945,
                46.414546966552734
              ],
              [
                15.849860191345215,
                46.21768569946289
              ],
              [
                15.604452133178711,
                46.21768569946289
              ],
              [
                15.528326034545898,
                46.414546966552734
              ],
              [
                14.871479034423828,
                46.348915100097656
              ],
              [
                14.710871696472168,
                46.480194091796875
              ],
              [
                14.625872611999512,
                46.348915100097656
              ],
              [
                14.46213436126709,
                46.348915100097656
              ],
              [
                13.891518592834473,
                46.480194091796875
              ],
              [
                13.809582710266113,
                46.480194091796875
              ],
              [
                13.737064361572266,
                47.005828857421875
              ],
              [
                13.654860496520996,
                47.005828857421875
              ],
              [
                13.740641593933105,
                47.20316696166992
              ],
              [
                13.41247844696045,
                47.26897048950195
              ],
              [
                13.415684700012207,
                47.46647262573242
              ],
              [
                13.664196968078613,
                47.53233337402344
              ],
              [
                13.668962478637695,
                47.79592514038086
              ],
              [
                14.493593215942383,
                47.730003356933594
              ],
              [
                14.580945014953613,
                47.92780685424805
              ],
              [
                14.417099952697754,
                47.993770599365234
              ],
              [
                14.423291206359863,
                48.257774353027344
              ],
              [
                14.754755020141602,
                48.257774353027344
              ],
              [
                14.924056053161621,
                48.38986587524414
              ],
              [
                15.016243934631348,
                48.72037124633789
              ],
              [
                15.271592140197754,
                48.91886520385742
              ],
              [
                15.354822158813477,
                48.91886520385742
              ],
              [
                15.60667610168457,
                48.98506164550781
              ],
              [
                16.099149703979492,
                48.786521911621094
              ],
              [
                16.683862686157227,
                48.852684020996094
              ],
              [
                16.927988052368164,
                48.72037124633789
              ],
              [
                17.016633987426758,
                48.852684020996094
              ],
              [
                17.515790939331055,
                48.852684020996094
              ],
              [
                17.854877471923828,
                48.98506164550781
              ],
              [
                18.034513473510742,
                49.2500114440918
              ],
              [
                18.28135108947754,
                49.18375015258789
              ],
              [
                18.45159339904785,
                49.2500114440918
              ],
              [
                18.458614349365234,
                49.38258361816406
              ],
              [
                19.28963279724121,
                49.316287994384766
              ],
              [
                19.611412048339844,
                49.11750411987305
              ],
              [
                20.299795150756836,
                49.44889450073242
              ],
              [
                21.71979522705078,
                49.44889450073242
              ],
              [
                22.20013999938965,
                49.18375015258789
              ],
              [
                22.450275421142578,
                49.18375015258789
              ],
              [
                22.5125732421875,
                48.91886520385742
              ],
              [
                22.668472290039062,
                48.786521911621094
              ],
              [
                22.66322135925293,
                48.72037124633789
              ],
              [
                22.792753219604492,
                48.257774353027344
              ]
            ]
          ],
          [
            [
              [
                23.07188606262207,
                47.598209381103516
              ],
              [
                23.077043533325195,
                47.664100646972656
              ],
              [
                23.159591674804688,
                47.664100646972656
              ],
              [
                23.154399871826172,
                47.598209381103516
              ],
              [
                23.07188606262207,
                47.598209381103516
              ]
            ]
          ],
          [
            [
              [
                18.3751220703125,
                49.38258361816406
              ],
              [
                18.378620147705078,
                49.44889450073242
              ],
              [
                18.462148666381836,
                49.44889450073242
              ],
              [
                18.458614349365234,
                49.38258361816406
              ],
              [
                18.3751220703125,
                49.38258361816406
              ]
            ]
          ]
        ]
      }
    }
  ]
}
