{
  "type": "FeatureCollection",
  "features": [
    {
      "type": "Feature",
      "properties": {
        "Name": "Sultanate of Malacca",
        "FromYear": 1512,
        "ToYear": 1528,
        "Area": 230126.45415628384,
        "Type": "POLITY",
        "Wikipedia": "Malacca Sultanate",
        "Wikidata": "Q46652",
        "SeshatID": "",
        "Components": "",
        "MemberOf": "",
        "displayYear": 1521,
        "sourceYear": 1521,
        "mappedTerritoryId": "cliopatria_sultanate_of_malacca"
      },
      "geometry": {
        "type": "MultiPolygon",
        "coordinates": [
          [
            [
              [
                104.33963775634766,
                -0.292924642562866
              ],
              [
                104.3353500366211,
                0.028512962162495
              ],
              [
                104.55367279052734,
                0.028512962162495
              ],
              [
                104.9207992553711,
                -0.228637129068375
              ],
              [
                104.92291259765625,
                -0.35721218585968
              ],
              [
                104.41241455078125,
                -0.292924642562866
              ],
              [
                104.48625946044922,
                -0.35721218585968
              ],
              [
                104.41913604736328,
                -0.67864990234375
              ],
              [
                104.12684631347656,
                -0.614362359046936
              ],
              [
                104.12237548828125,
                -0.35721218585968
              ],
              [
                104.26792907714844,
                -0.35721218585968
              ],
              [
                104.2668685913086,
                -0.292924642562866
              ],
              [
                104.33963775634766,
                -0.292924642562866
              ]
            ]
          ],
          [
            [
              [
                101.6856918334961,
                1.76427698135376
              ],
              [
                101.61289978027344,
                1.76427698135376
              ],
              [
                101.68091583251953,
                1.635701775550842
              ],
              [
                102.40647888183594,
                1.571414232254028
              ],
              [
                102.39044952392578,
                1.121401190757751
              ],
              [
                102.82716369628906,
                1.121401190757751
              ],
              [
                103.11170959472656,
                0.928538501262665
              ],
              [
                103.10741424560547,
                0.799963414669037
              ],
              [
                102.96185302734375,
                0.799963414669037
              ],
              [
                102.94943237304688,
                0.414238125085831
              ],
              [
                103.09905242919922,
                0.542813181877136
              ],
              [
                103.3173828125,
                0.542813181877136
              ],
              [
                103.60240936279297,
                0.349950581789017
              ],
              [
                103.75341033935547,
                -0.035774555057287
              ],
              [
                103.39151000976562,
                -0.164349600672722
              ],
              [
                103.61084747314453,
                -0.228637129068375
              ],
              [
                103.61294555664062,
                -0.35721218585968
              ],
              [
                103.32291412353516,
                -0.421499729156494
              ],
              [
                103.32862854003906,
                -0.742937445640564
              ],
              [
                103.6247329711914,
                -1.00008761882782
              ],
              [
                104.20700073242188,
                -1.00008761882782
              ],
              [
                104.43795776367188,
                -1.578675746917725
              ],
              [
                104.4394760131836,
                -1.642963409423828
              ],
              [
                103.86021423339844,
                -1.771538615226746
              ],
              [
                103.43152618408203,
                -2.092976570129395
              ],
              [
                103.2945785522461,
                -2.414414644241333
              ],
              [
                103.14896392822266,
                -2.414414644241333
              ],
              [
                103.14718627929688,
                -2.350126981735229
              ],
              [
                102.9914321899414,
                -1.964401364326477
              ],
              [
                102.6986312866211,
                -1.900113701820374
              ],
              [
                102.1029052734375,
                -1.321525454521179
              ],
              [
                101.73625183105469,
                -1.192950367927551
              ],
              [
                101.65830993652344,
                -0.935800075531006
              ],
              [
                101.36595153808594,
                -0.871512532234192
              ],
              [
                100.77572631835938,
                -0.421499729156494
              ],
              [
                100.62608337402344,
                -0.164349600672722
              ],
              [
                100.69670104980469,
                0.028512962162495
              ],
              [
                100.61468505859375,
                0.221375524997711
              ],
              [
                100.2566909790039,
                0.414238125085831
              ],
              [
                100.03638458251953,
                0.349950581789017
              ],
              [
                99.8947982788086,
                0.478525668382645
              ],
              [
                99.99073028564453,
                1.185688734054565
              ],
              [
                99.84961700439453,
                1.314263939857483
              ],
              [
                100.2931900024414,
                1.507126569747925
              ],
              [
                100.23218536376953,
                1.828564524650574
              ],
              [
                100.0890121459961,
                1.892852187156677
              ],
              [
                100.17672729492188,
                2.27857780456543
              ],
              [
                100.04409790039062,
                2.600015640258789
              ],
              [
                100.26252746582031,
                2.600015640258789
              ],
              [
                100.3926010131836,
                2.214290142059326
              ],
              [
                100.53568267822266,
                2.150002479553223
              ],
              [
                100.68128967285156,
                2.150002479553223
              ],
              [
                100.68892669677734,
                2.342865228652954
              ],
              [
                100.90734100341797,
                2.342865228652954
              ],
              [
                101.25869750976562,
                2.021427392959595
              ],
              [
                101.40930938720703,
                2.150002479553223
              ],
              [
                101.5523910522461,
                2.085714817047119
              ],
              [
                101.62519073486328,
                2.085714817047119
              ],
              [
                101.69799041748047,
                2.085714817047119
              ],
              [
                101.6856918334961,
                1.76427698135376
              ]
            ]
          ],
          [
            [
              [
                103.18233489990234,
                0.864250957965851
              ],
              [
                103.40068054199219,
                0.864250957965851
              ],
              [
                103.39641571044922,
                0.735675871372223
              ],
              [
                103.3943099975586,
                0.671388268470764
              ],
              [
                103.17597198486328,
                0.671388268470764
              ],
              [
                103.18233489990234,
                0.864250957965851
              ]
            ]
          ],
          [
            [
              [
                104.21234130859375,
                1.185688734054565
              ],
              [
                104.57401275634766,
                1.121401190757751
              ],
              [
                104.4902572631836,
                0.799963414669037
              ],
              [
                104.34469604492188,
                0.799963414669037
              ],
              [
                104.27623748779297,
                0.928538501262665
              ],
              [
                104.20345306396484,
                0.928538501262665
              ],
              [
                104.13066864013672,
                0.928538501262665
              ],
              [
                104.21234130859375,
                1.185688734054565
              ]
            ]
          ],
          [
            [
              [
                103.77337646484375,
                1.121401190757751
              ],
              [
                103.9234619140625,
                1.249976277351379
              ],
              [
                104.06676483154297,
                1.185688734054565
              ],
              [
                104.06228637695312,
                1.057113647460938
              ],
              [
                104.06007385253906,
                0.992826044559479
              ],
              [
                103.76675415039062,
                0.928538501262665
              ],
              [
                103.77337646484375,
                1.121401190757751
              ]
            ]
          ],
          [
            [
              [
                103.56181335449219,
                1.314263939857483
              ],
              [
                103.56411743164062,
                1.378551483154297
              ],
              [
                103.92806243896484,
                1.378551483154297
              ],
              [
                103.92575073242188,
                1.314263939857483
              ],
              [
                103.85296630859375,
                1.314263939857483
              ],
              [
                103.85067749023438,
                1.249976277351379
              ],
              [
                103.77788543701172,
                1.249976277351379
              ],
              [
                103.7051010131836,
                1.249976277351379
              ],
              [
                103.63231658935547,
                1.249976277351379
              ],
              [
                103.63459777832031,
                1.314263939857483
              ],
              [
                103.56181335449219,
                1.314263939857483
              ]
            ]
          ],
          [
            [
              [
                103.4043960571289,
                2.857166290283203
              ],
              [
                103.68736267089844,
                2.664303302764893
              ],
              [
                103.68463897705078,
                2.600015640258789
              ],
              [
                103.53097534179688,
                2.407152891159058
              ],
              [
                103.38536834716797,
                2.407152891159058
              ],
              [
                103.31788635253906,
                2.535728216171265
              ],
              [
                102.81090545654297,
                2.600015640258789
              ],
              [
                102.39056396484375,
                2.985741376876831
              ],
              [
                102.10211181640625,
                3.050029039382935
              ],
              [
                102.01812744140625,
                2.7928786277771
              ],
              [
                101.71607971191406,
                2.535728216171265
              ],
              [
                101.64326477050781,
                2.535728216171265
              ],
              [
                101.2171630859375,
                2.7928786277771
              ],
              [
                101.23393249511719,
                3.178604364395142
              ],
              [
                100.81448364257812,
                3.564330101013184
              ],
              [
                100.48112487792969,
                4.207206249237061
              ],
              [
                100.5107650756836,
                4.785795211791992
              ],
              [
                100.3684310913086,
                4.850082874298096
              ],
              [
                100.37877655029297,
                5.042945861816406
              ],
              [
                100.60443115234375,
                5.171521186828613
              ],
              [
                100.67731475830078,
                5.171521186828613
              ],
              [
                100.90669250488281,
                5.364383697509766
              ],
              [
                100.99797058105469,
                5.685822010040283
              ],
              [
                101.1400375366211,
                5.62153434753418
              ],
              [
                101.44673156738281,
                5.878684997558594
              ],
              [
                101.87653350830078,
                5.750109672546387
              ],
              [
                102.0534896850586,
                6.264410972595215
              ],
              [
                102.12641143798828,
                6.264410972595215
              ],
              [
                102.34117889404297,
                6.200123310089111
              ],
              [
                102.40226745605469,
                6.007260322570801
              ],
              [
                103.16619873046875,
                5.364383697509766
              ],
              [
                103.3561019897461,
                4.850082874298096
              ],
              [
                103.35261535644531,
                4.785795211791992
              ],
              [
                103.48124694824219,
                4.464356899261475
              ],
              [
                103.36668395996094,
                3.628617763519287
              ],
              [
                103.4043960571289,
                2.857166290283203
              ]
            ]
          ]
        ]
      }
    }
  ]
}
