{
  "type": "FeatureCollection",
  "features": [
    {
      "type": "Feature",
      "properties": {
        "Name": "Khoshut Khanate",
        "FromYear": 1683,
        "ToYear": 1686,
        "Area": 166114.70535098997,
        "Type": "POLITY",
        "Wikipedia": "Khoshut Khanate",
        "Wikidata": "Q10921634",
        "SeshatID": "",
        "Components": "",
        "MemberOf": "",
        "displayYear": 1683,
        "sourceYear": 1683,
        "mappedTerritoryId": "cliopatria_khoshut_khanate"
      },
      "geometry": {
        "type": "Polygon",
        "coordinates": [
          [
            [
              97.2603759765625,
              41.781593322753906
            ],
            [
              97.29129028320312,
              41.84651184082031
            ],
            [
              97.2115478515625,
              41.84651184082031
            ],
            [
              96.58631134033203,
              42.041324615478516
            ],
            [
              96.64835357666016,
              42.17123794555664
            ],
            [
              96.51968383789062,
              42.236209869384766
            ],
            [
              96.51627349853516,
              42.56119155883789
            ],
            [
              95.76094818115234,
              42.82133865356445
            ],
            [
              94.48135375976562,
              41.45711898803711
            ],
            [
              94.2928237915039,
              41.39224624633789
            ],
            [
              93.92472076416016,
              40.74397277832031
            ],
            [
              93.19642639160156,
              39.9670295715332
            ],
            [
              92.74707794189453,
              39.64360046386719
            ],
            [
              92.64201354980469,
              39.38497543334961
            ],
            [
              92.6159896850586,
              39.320335388183594
            ],
            [
              92.5900650024414,
              39.25570297241211
            ],
            [
              93.2193603515625,
              39.449623107910156
            ],
            [
              93.50794982910156,
              39.38497543334961
            ],
            [
              93.87593078613281,
              39.51427459716797
            ],
            [
              94.50609588623047,
              39.51427459716797
            ],
            [
              94.71763610839844,
              39.64360046386719
            ],
            [
              96.21525573730469,
              39.64360046386719
            ],
            [
              96.18772888183594,
              39.57893371582031
            ],
            [
              97.20784759521484,
              39.38497543334961
            ],
            [
              97.90877532958984,
              38.997230529785156
            ],
            [
              98.22306060791016,
              38.997230529785156
            ],
            [
              98.3840560913086,
              39.19107437133789
            ],
            [
              98.9068374633789,
              39.1264533996582
            ],
            [
              99.19844818115234,
              39.25570297241211
            ],
            [
              99.81044006347656,
              38.48057174682617
            ],
            [
              100.2264404296875,
              38.351463317871094
            ],
            [
              100.33536529541016,
              38.60969924926758
            ],
            [
              99.89617156982422,
              38.8680305480957
            ],
            [
              100.06382751464844,
              39.25570297241211
            ],
            [
              100.97379302978516,
              40.225894927978516
            ],
            [
              101.10729217529297,
              40.6791877746582
            ],
            [
              101.0280532836914,
              40.6791877746582
            ],
            [
              101.07238006591797,
              40.93837356567383
            ],
            [
              99.75000762939453,
              41.32738494873047
            ],
            [
              99.7812271118164,
              41.39224624633789
            ],
            [
              99.22443389892578,
              41.39224624633789
            ],
            [
              99.25555419921875,
              41.45711898803711
            ],
            [
              98.93727111816406,
              41.45711898803711
            ],
            [
              98.96837615966797,
              41.521995544433594
            ],
            [
              97.340087890625,
              41.781593322753906
            ],
            [
              97.2603759765625,
              41.781593322753906
            ]
          ]
        ]
      }
    }
  ]
}
