{
  "type": "FeatureCollection",
  "features": [
    {
      "type": "Feature",
      "properties": {
        "Name": "Kingdom of Great Britain",
        "FromYear": 1905,
        "ToYear": 1912,
        "Area": 745445.3053562335,
        "Type": "POLITY",
        "Wikipedia": "Great Britain",
        "Wikidata": "Q23666",
        "SeshatID": "gb_british_emp_2",
        "Components": "",
        "MemberOf": "(British Empire)",
        "displayYear": 1912,
        "sourceYear": 1912,
        "mappedTerritoryId": "cliopatria_kingdom_of_great_britain"
      },
      "geometry": {
        "type": "MultiPolygon",
        "coordinates": [
          [
            [
              [
                -5.296883106231689,
                36.3527946472168
              ],
              [
                -5.292408466339111,
                36.28839111328125
              ],
              [
                -5.361068248748779,
                36.15959167480469
              ],
              [
                -5.51620626449585,
                36.15959167480469
              ],
              [
                -5.296883106231689,
                36.3527946472168
              ]
            ]
          ],
          [
            [
              [
                -6.286456108093262,
                53.732303619384766
              ],
              [
                -6.087455749511719,
                53.52959060668945
              ],
              [
                -6.241942882537842,
                53.39456558227539
              ],
              [
                -6.14714241027832,
                53.32708740234375
              ],
              [
                -6.086330413818359,
                52.85536575317383
              ],
              [
                -6.171980857849121,
                52.85536575317383
              ],
              [
                -6.14614200592041,
                52.653533935546875
              ],
              [
                -6.2316575050354,
                52.653533935546875
              ],
              [
                -6.427507877349854,
                52.18334197998047
              ],
              [
                -7.611197948455811,
                52.11625671386719
              ],
              [
                -8.075331687927246,
                51.78114318847656
              ],
              [
                -8.415112495422363,
                51.78114318847656
              ],
              [
                -8.481083869934082,
                51.64724349975586
              ],
              [
                -9.639079093933105,
                51.44654083251953
              ],
              [
                -9.808544158935547,
                51.44654083251953
              ],
              [
                -9.92369556427002,
                51.64724349975586
              ],
              [
                -10.167977333068848,
                51.580322265625
              ],
              [
                -10.188602447509766,
                51.71418380737305
              ],
              [
                -10.45379638671875,
                51.78114318847656
              ],
              [
                -10.485442161560059,
                51.98215103149414
              ],
              [
                -10.25121021270752,
                52.11625671386719
              ],
              [
                -10.506694793701172,
                52.11625671386719
              ],
              [
                -10.528071403503418,
                52.250450134277344
              ],
              [
                -9.941752433776855,
                52.31757736206055
              ],
              [
                -9.973213195800781,
                52.51908493041992
              ],
              [
                -9.727348327636719,
                52.586299896240234
              ],
              [
                -9.74826431274414,
                52.720787048339844
              ],
              [
                -9.437079429626465,
                52.92268753051758
              ],
              [
                -9.468400001525879,
                53.124786376953125
              ],
              [
                -9.382568359375,
                53.124786376953125
              ],
              [
                -10.209695816040039,
                53.462066650390625
              ],
              [
                -10.231764793395996,
                53.597137451171875
              ],
              [
                -9.984235763549805,
                53.664710998535156
              ],
              [
                -10.006207466125488,
                53.799922943115234
              ],
              [
                -9.833613395690918,
                53.799922943115234
              ],
              [
                -10.084067344665527,
                54.27390670776367
              ],
              [
                -9.49949836730957,
                54.4095458984375
              ],
              [
                -8.697977066040039,
                54.27390670776367
              ],
              [
                -8.642707824707031,
                54.47740173339844
              ],
              [
                -8.316265106201172,
                54.613189697265625
              ],
              [
                -8.837503433227539,
                54.613189697265625
              ],
              [
                -8.869585037231445,
                54.817054748535156
              ],
              [
                -8.532058715820312,
                54.88506317138672
              ],
              [
                -8.56389045715332,
                55.089229583740234
              ],
              [
                -8.41061782836914,
                55.225467681884766
              ],
              [
                -7.886708736419678,
                55.225467681884766
              ],
              [
                -7.819964408874512,
                55.36180877685547
              ],
              [
                -7.120616436004639,
                55.36180877685547
              ],
              [
                -7.013527870178223,
                55.225467681884766
              ],
              [
                -6.149667739868164,
                55.29362487792969
              ],
              [
                -5.727906227111816,
                54.74907684326172
              ],
              [
                -5.553964138031006,
                54.74907684326172
              ],
              [
                -5.527542591094971,
                54.545284271240234
              ],
              [
                -5.440718173980713,
                54.545284271240234
              ],
              [
                -5.501331806182861,
                54.341712951660156
              ],
              [
                -5.588010787963867,
                54.341712951660156
              ],
              [
                -5.899145126342773,
                54.07062530517578
              ],
              [
                -6.331579685211182,
                54.07062530517578
              ],
              [
                -6.286456108093262,
                53.732303619384766
              ]
            ]
          ],
          [
            [
              [
                -4.861302852630615,
                54.07062530517578
              ],
              [
                -4.799596309661865,
                54.27390670776367
              ],
              [
                -4.807900905609131,
                54.341712951660156
              ],
              [
                -4.382591724395752,
                54.4095458984375
              ],
              [
                -4.358400821685791,
                54.20612335205078
              ],
              [
                -4.861302852630615,
                54.07062530517578
              ]
            ]
          ],
          [
            [
              [
                -7.252153396606445,
                57.41988754272461
              ],
              [
                -7.230959415435791,
                57.28189468383789
              ],
              [
                -7.319843292236328,
                57.28189468383789
              ],
              [
                -7.288100242614746,
                57.07511901855469
              ],
              [
                -7.465542793273926,
                57.07511901855469
              ],
              [
                -7.597294807434082,
                57.35087585449219
              ],
              [
                -7.252153396606445,
                57.41988754272461
              ]
            ]
          ],
          [
            [
              [
                -7.105842113494873,
                57.62710189819336
              ],
              [
                -7.440887928009033,
                57.488929748535156
              ],
              [
                -7.562519073486328,
                57.696231842041016
              ],
              [
                -7.116456508636475,
                57.696231842041016
              ],
              [
                -7.105842113494873,
                57.62710189819336
              ]
            ]
          ],
          [
            [
              [
                -6.205919742584229,
                58.180992126464844
              ],
              [
                -6.385126113891602,
                58.180992126464844
              ],
              [
                -6.52281665802002,
                57.903804779052734
              ],
              [
                -7.12709903717041,
                57.7653923034668
              ],
              [
                -7.06976318359375,
                57.97305679321289
              ],
              [
                -7.281157493591309,
                58.180992126464844
              ],
              [
                -6.854404926300049,
                58.31977081298828
              ],
              [
                -6.764688491821289,
                58.31977081298828
              ],
              [
                -6.785952091217041,
                58.45867156982422
              ],
              [
                -6.25730562210083,
                58.528167724609375
              ],
              [
                -6.205919742584229,
                58.180992126464844
              ]
            ]
          ],
          [
            [
              [
                53.212989807128906,
                16.614723205566406
              ],
              [
                52.380313873291016,
                16.293283462524414
              ],
              [
                52.25921630859375,
                15.586114883422852
              ],
              [
                52.10369110107422,
                15.457538604736328
              ],
              [
                51.883026123046875,
                15.457538604736328
              ],
              [
                51.27429962158203,
                15.136098861694336
              ],
              [
                50.75569152832031,
                15.07181167602539
              ],
              [
                50.22562789916992,
                14.81466007232666
              ],
              [
                49.409767150878906,
                14.686083793640137
              ],
              [
                48.7861213684082,
                14.043206214904785
              ],
              [
                47.75149917602539,
                13.914630889892578
              ],
              [
                47.668033599853516,
                13.721768379211426
              ],
              [
                47.06792449951172,
                13.464617729187012
              ],
              [
                45.74114990234375,
                13.336042404174805
              ],
              [
                45.05411911010742,
                12.757453918457031
              ],
              [
                44.614288330078125,
                12.757453918457031
              ],
              [
                44.38864517211914,
                12.628878593444824
              ],
              [
                43.658504486083984,
                12.69316577911377
              ],
              [
                43.585205078125,
                12.69316577911377
              ],
              [
                43.59368133544922,
                12.886029243469238
              ],
              [
                43.825172424316406,
                13.143178939819336
              ],
              [
                44.34445571899414,
                13.271754264831543
              ],
              [
                44.42680740356445,
                13.464617729187012
              ],
              [
                45.022987365722656,
                13.657480239868164
              ],
              [
                45.18234634399414,
                13.914630889892578
              ],
              [
                45.555816650390625,
                14.043206214904785
              ],
              [
                45.76958465576172,
                13.914630889892578
              ],
              [
                45.99631118774414,
                14.043206214904785
              ],
              [
                46.159767150878906,
                14.364645004272461
              ],
              [
                45.59579086303711,
                14.81466007232666
              ],
              [
                45.61313247680664,
                15.136098861694336
              ],
              [
                46.38114929199219,
                15.714691162109375
              ],
              [
                46.47349166870117,
                16.036130905151367
              ],
              [
                46.62452697753906,
                16.100418090820312
              ],
              [
                46.95011520385742,
                16.614723205566406
              ],
              [
                47.051605224609375,
                17.06473731994629
              ],
              [
                47.12533950805664,
                17.06473731994629
              ],
              [
                47.346534729003906,
                17.06473731994629
              ],
              [
                47.35462188720703,
                17.193313598632812
              ],
              [
                47.50211715698242,
                17.193313598632812
              ],
              [
                47.514347076416016,
                17.38617706298828
              ],
              [
                48.00702667236328,
                18.157629013061523
              ],
              [
                48.315189361572266,
                18.350492477416992
              ],
              [
                49.0756950378418,
                18.67193031311035
              ],
              [
                51.381134033203125,
                18.864791870117188
              ],
              [
                51.6861686706543,
                18.993366241455078
              ],
              [
                52.12995910644531,
                18.993366241455078
              ],
              [
                52.8304328918457,
                17.450464248657227
              ],
              [
                52.8257942199707,
                17.38617706298828
              ],
              [
                53.033172607421875,
                17.193313598632812
              ],
              [
                53.2266960144043,
                16.807586669921875
              ],
              [
                53.212989807128906,
                16.614723205566406
              ]
            ]
          ],
          [
            [
              [
                55.558345794677734,
                23.943456649780273
              ],
              [
                55.61030197143555,
                23.68630027770996
              ],
              [
                55.35348129272461,
                23.30057144165039
              ],
              [
                55.3001594543457,
                22.657697677612305
              ],
              [
                55.2257194519043,
                22.657697677612305
              ],
              [
                55.1408805847168,
                22.529123306274414
              ],
              [
                54.84319305419922,
                22.529123306274414
              ],
              [
                52.63515853881836,
                22.85055923461914
              ],
              [
                51.67782974243164,
                23.943456649780273
              ],
              [
                51.704200744628906,
                24.264904022216797
              ],
              [
                51.85354995727539,
                24.264904022216797
              ],
              [
                51.90695571899414,
                24.00774574279785
              ],
              [
                52.28013229370117,
                24.00774574279785
              ],
              [
                52.60029602050781,
                24.264904022216797
              ],
              [
                53.11201095581055,
                24.136323928833008
              ],
              [
                54.082523345947266,
                24.136323928833008
              ],
              [
                54.099464416503906,
                24.329193115234375
              ],
              [
                54.31781005859375,
                24.264904022216797
              ],
              [
                54.55914306640625,
                24.457773208618164
              ],
              [
                54.74416732788086,
                24.843517303466797
              ],
              [
                55.14265441894531,
                25.100683212280273
              ],
              [
                55.41188049316406,
                25.55072784423828
              ],
              [
                55.64311981201172,
                25.615020751953125
              ],
              [
                56.058231353759766,
                26.000778198242188
              ],
              [
                56.06513595581055,
                26.06507110595703
              ],
              [
                56.28312683105469,
                26.000778198242188
              ],
              [
                56.249000549316406,
                25.67931365966797
              ],
              [
                56.392086029052734,
                25.615020751953125
              ],
              [
                56.38539123535156,
                25.55072784423828
              ],
              [
                56.46027374267578,
                25.55072784423828
              ],
              [
                56.42084503173828,
                25.164974212646484
              ],
              [
                56.495662689208984,
                25.164974212646484
              ],
              [
                56.40800476074219,
                25.03639030456543
              ],
              [
                56.401641845703125,
                24.97209930419922
              ],
              [
                56.23326873779297,
                24.779226303100586
              ],
              [
                56.08375549316406,
                24.779226303100586
              ],
              [
                56.09621047973633,
                24.907808303833008
              ],
              [
                55.95291519165039,
                24.97209930419922
              ],
              [
                55.8594856262207,
                24.779226303100586
              ],
              [
                55.85334396362305,
                24.714935302734375
              ],
              [
                55.823150634765625,
                24.393482208251953
              ],
              [
                56.0177001953125,
                24.07203483581543
              ],
              [
                55.558345794677734,
                23.943456649780273
              ]
            ]
          ],
          [
            [
              [
                50.68524169921875,
                26.257951736450195
              ],
              [
                50.672935485839844,
                26.129364013671875
              ],
              [
                50.666831970214844,
                26.06507110595703
              ],
              [
                50.64872360229492,
                25.8721923828125
              ],
              [
                50.42986297607422,
                25.936485290527344
              ],
              [
                50.460208892822266,
                26.257951736450195
              ],
              [
                50.68524169921875,
                26.257951736450195
              ]
            ]
          ],
          [
            [
              [
                34.08732223510742,
                35.00096893310547
              ],
              [
                33.69539260864258,
                34.93662643432617
              ],
              [
                33.523399353027344,
                34.743614196777344
              ],
              [
                33.1320686340332,
                34.679283142089844
              ],
              [
                33.04356002807617,
                34.55062484741211
              ],
              [
                32.36665725708008,
                34.743614196777344
              ],
              [
                32.229042053222656,
                34.93662643432617
              ],
              [
                32.24578857421875,
                35.12965774536133
              ],
              [
                32.55473709106445,
                35.12965774536133
              ],
              [
                32.875247955322266,
                35.258358001708984
              ],
              [
                32.886871337890625,
                35.38706970214844
              ],
              [
                33.73737716674805,
                35.38706970214844
              ],
              [
                34.309810638427734,
                35.708900451660156
              ],
              [
                34.38723373413086,
                35.708900451660156
              ],
              [
                34.542076110839844,
                35.708900451660156
              ],
              [
                34.5294189453125,
                35.58015823364258
              ],
              [
                33.95713424682617,
                35.258358001708984
              ],
              [
                34.08732223510742,
                35.00096893310547
              ]
            ]
          ],
          [
            [
              [
                14.33681869506836,
                35.837650299072266
              ],
              [
                14.339592933654785,
                36.03080368041992
              ],
              [
                14.417119026184082,
                36.03080368041992
              ],
              [
                14.571182250976562,
                35.9664192199707
              ],
              [
                14.568227767944336,
                35.77327346801758
              ],
              [
                14.33681869506836,
                35.837650299072266
              ]
            ]
          ],
          [
            [
              [
                -2.075707674026489,
                57.28189468383789
              ],
              [
                -2.208682298660278,
                56.86860656738281
              ],
              [
                -2.532599925994873,
                56.59365463256836
              ],
              [
                -2.789952516555786,
                56.524986267089844
              ],
              [
                -2.671310901641846,
                56.25059127807617
              ],
              [
                -3.103936910629272,
                56.182064056396484
              ],
              [
                -3.26426100730896,
                56.04508590698242
              ],
              [
                -2.656256437301636,
                56.11355972290039
              ],
              [
                -2.01904296875,
                55.90821838378906
              ],
              [
                -1.734845399856567,
                55.70311737060547
              ],
              [
                -1.606520295143127,
                55.29362487792969
              ],
              [
                -1.519152045249939,
                55.29362487792969
              ],
              [
                -1.486006855964661,
                54.95309066772461
              ],
              [
                -1.398887872695923,
                54.95309066772461
              ],
              [
                -1.285956144332886,
                54.681121826171875
              ],
              [
                -0.671433329582214,
                54.613189697265625
              ],
              [
                -0.202435865998268,
                54.20612335205078
              ],
              [
                -0.17964468896389,
                53.93522644042969
              ],
              [
                0.004257039166987,
                53.799922943115234
              ],
              [
                0.020827349275351,
                53.597137451171875
              ],
              [
                0.29531991481781,
                53.39456558227539
              ],
              [
                0.316494405269623,
                53.124786376953125
              ],
              [
                0.06977716833353,
                52.99003219604492
              ],
              [
                0.166152358055115,
                52.85536575317383
              ],
              [
                0.337453275918961,
                52.85536575317383
              ],
              [
                0.493327647447586,
                53.057395935058594
              ],
              [
                1.093834638595581,
                53.057395935058594
              ],
              [
                1.622210025787354,
                52.85536575317383
              ],
              [
                1.739019155502319,
                52.38472366333008
              ],
              [
                1.653681755065918,
                52.38472366333008
              ],
              [
                1.586262822151184,
                52.11625671386719
              ],
              [
                1.425007224082947,
                51.98215103149414
              ],
              [
                1.169783234596252,
                51.98215103149414
              ],
              [
                1.183690190315247,
                51.78114318847656
              ],
              [
                0.843909561634064,
                51.78114318847656
              ],
              [
                0.862975299358368,
                51.51342010498047
              ],
              [
                0.523877322673798,
                51.51342010498047
              ],
              [
                1.380577206611633,
                51.37968063354492
              ],
              [
                1.313834071159363,
                51.112430572509766
              ],
              [
                0.492853790521622,
                50.77880859375
              ],
              [
                -1.367843627929688,
                50.84549331665039
              ],
              [
                -1.109168291091919,
                50.77880859375
              ],
              [
                -1.176646590232849,
                50.578861236572266
              ],
              [
                -1.513427257537842,
                50.578861236572266
              ],
              [
                -1.524962306022644,
                50.71213912963867
              ],
              [
                -2.607964515686035,
                50.578861236572266
              ],
              [
                -2.789105415344238,
                50.71213912963867
              ],
              [
                -3.12621021270752,
                50.71213912963867
              ],
              [
                -3.456606388092041,
                50.64549255371094
              ],
              [
                -3.584736108779907,
                50.2459831237793
              ],
              [
                -4.088706493377686,
                50.2459831237793
              ],
              [
                -4.186630249023438,
                50.37908172607422
              ],
              [
                -4.354779243469238,
                50.37908172607422
              ],
              [
                -4.928657054901123,
                50.2459831237793
              ],
              [
                -5.151133060455322,
                49.98000717163086
              ],
              [
                -5.745615005493164,
                50.04647445678711
              ],
              [
                -5.768607616424561,
                50.2459831237793
              ],
              [
                -5.279601097106934,
                50.37908172607422
              ],
              [
                -5.133819580078125,
                50.578861236572266
              ],
              [
                -4.881234169006348,
                50.578861236572266
              ],
              [
                -4.819114208221436,
                50.77880859375
              ],
              [
                -4.657799243927002,
                50.84549331665039
              ],
              [
                -4.67988109588623,
                51.04566955566406
              ],
              [
                -4.426436901092529,
                51.04566955566406
              ],
              [
                -4.201729774475098,
                51.31283950805664
              ],
              [
                -3.094635725021362,
                51.24601745605469
              ],
              [
                -3.107994079589844,
                51.37968063354492
              ],
              [
                -2.945236444473267,
                51.44654083251953
              ],
              [
                -3.121426105499268,
                51.51342010498047
              ],
              [
                -3.277374029159546,
                51.37968063354492
              ],
              [
                -3.70082426071167,
                51.37968063354492
              ],
              [
                -3.891522645950317,
                51.580322265625
              ],
              [
                -4.308269023895264,
                51.51342010498047
              ],
              [
                -4.415247440338135,
                51.71418380737305
              ],
              [
                -5.078959941864014,
                51.580322265625
              ],
              [
                -5.264270305633545,
                51.71418380737305
              ],
              [
                -5.295889377593994,
                51.98215103149414
              ],
              [
                -4.893810749053955,
                52.18334197998047
              ],
              [
                -4.39012336730957,
                52.250450134277344
              ],
              [
                -4.156738758087158,
                52.4518928527832
              ],
              [
                -4.29533576965332,
                52.92268753051758
              ],
              [
                -4.793659210205078,
                52.78806686401367
              ],
              [
                -4.809510231018066,
                52.92268753051758
              ],
              [
                -4.490120410919189,
                53.124786376953125
              ],
              [
                -4.669717311859131,
                53.192195892333984
              ],
              [
                -4.701662540435791,
                53.462066650390625
              ],
              [
                -4.271347522735596,
                53.462066650390625
              ],
              [
                -4.162125587463379,
                53.25962829589844
              ],
              [
                -3.317377805709839,
                53.39456558227539
              ],
              [
                -3.152528285980225,
                53.462066650390625
              ],
              [
                -3.095205545425415,
                53.732303619384766
              ],
              [
                -3.196035623550415,
                53.86756134033203
              ],
              [
                -2.96582555770874,
                54.138362884521484
              ],
              [
                -3.304538726806641,
                54.07062530517578
              ],
              [
                -3.319409608840942,
                54.20612335205078
              ],
              [
                -3.586766958236694,
                54.27390670776367
              ],
              [
                -3.71977162361145,
                54.681121826171875
              ],
              [
                -3.569097280502319,
                54.88506317138672
              ],
              [
                -4.423340797424316,
                54.74907684326172
              ],
              [
                -4.953676700592041,
                54.817054748535156
              ],
              [
                -4.936679363250732,
                54.681121826171875
              ],
              [
                -5.206079959869385,
                54.74907684326172
              ],
              [
                -5.32801628112793,
                55.021148681640625
              ],
              [
                -5.153679370880127,
                55.021148681640625
              ],
              [
                -5.171102046966553,
                55.15733337402344
              ],
              [
                -4.768880844116211,
                55.430015563964844
              ],
              [
                -4.794708251953125,
                55.63479995727539
              ],
              [
                -4.978706836700439,
                55.70311737060547
              ],
              [
                -4.996289253234863,
                55.83982467651367
              ],
              [
                -5.444243907928467,
                55.90821838378906
              ],
              [
                -5.426101684570312,
                55.77145767211914
              ],
              [
                -5.162932395935059,
                55.77145767211914
              ],
              [
                -5.118756771087646,
                55.430015563964844
              ],
              [
                -5.381163120269775,
                55.430015563964844
              ],
              [
                -5.574207305908203,
                55.56651306152344
              ],
              [
                -5.625458240509033,
                55.29362487792969
              ],
              [
                -5.887563228607178,
                55.29362487792969
              ],
              [
                -5.915220260620117,
                55.498252868652344
              ],
              [
                -5.689270496368408,
                55.77145767211914
              ],
              [
                -5.80486011505127,
                55.97663879394531
              ],
              [
                -5.89273738861084,
                55.97663879394531
              ],
              [
                -5.952439785003662,
                55.77145767211914
              ],
              [
                -6.127885818481445,
                55.77145767211914
              ],
              [
                -6.187198638916016,
                55.56651306152344
              ],
              [
                -6.362338542938232,
                55.56651306152344
              ],
              [
                -6.381457328796387,
                55.70311737060547
              ],
              [
                -6.634748458862305,
                55.63479995727539
              ],
              [
                -6.507877826690674,
                55.97663879394531
              ],
              [
                -6.068491458892822,
                55.97663879394531
              ],
              [
                -5.920981407165527,
                56.182064056396484
              ],
              [
                -5.656883716583252,
                56.182064056396484
              ],
              [
                -5.684883117675781,
                56.387733459472656
              ],
              [
                -6.292484283447266,
                56.319149017333984
              ],
              [
                -6.23344087600708,
                56.524986267089844
              ],
              [
                -6.341366291046143,
                56.662349700927734
              ],
              [
                -5.908953666687012,
                56.731075286865234
              ],
              [
                -5.947565078735352,
                57.00625228881836
              ],
              [
                -6.055799961090088,
                57.14401626586914
              ],
              [
                -6.410901069641113,
                57.14401626586914
              ],
              [
                -6.618975639343262,
                57.35087585449219
              ],
              [
                -6.796852111816406,
                57.35087585449219
              ],
              [
                -6.817555904388428,
                57.488929748535156
              ],
              [
                -6.471539974212646,
                57.55800247192383
              ],
              [
                -6.502223968505859,
                57.7653923034668
              ],
              [
                -6.323688507080078,
                57.7653923034668
              ],
              [
                -6.11513090133667,
                57.55800247192383
              ],
              [
                -6.085347175598145,
                57.35087585449219
              ],
              [
                -5.808821201324463,
                57.28189468383789
              ],
              [
                -5.700699329376221,
                57.14401626586914
              ],
              [
                -5.729594707489014,
                57.35087585449219
              ],
              [
                -5.917263507843018,
                57.41988754272461
              ],
              [
                -5.887243270874023,
                57.8345832824707
              ],
              [
                -5.728240966796875,
                57.97305679321289
              ],
              [
                -5.459936618804932,
                57.97305679321289
              ],
              [
                -5.418947219848633,
                58.31977081298828
              ],
              [
                -5.239514827728271,
                58.31977081298828
              ],
              [
                -5.258847236633301,
                58.45867156982422
              ],
              [
                -5.169017314910889,
                58.45867156982422
              ],
              [
                -5.198037147521973,
                58.66725540161133
              ],
              [
                -4.019067287445068,
                58.59769821166992
              ],
              [
                -3.676762819290161,
                58.73685073852539
              ],
              [
                -3.136410236358643,
                58.73685073852539
              ],
              [
                -3.021383285522461,
                58.528167724609375
              ],
              [
                -3.428223133087158,
                58.180992126464844
              ],
              [
                -4.118414402008057,
                57.97305679321289
              ],
              [
                -3.930825471878052,
                57.903804779052734
              ],
              [
                -3.994018077850342,
                57.696231842041016
              ],
              [
                -3.726380348205566,
                57.696231842041016
              ],
              [
                -3.734920263290405,
                57.7653923034668
              ],
              [
                -1.852917313575745,
                57.696231842041016
              ],
              [
                -1.823600172996521,
                57.41988754272461
              ],
              [
                -2.075707674026489,
                57.28189468383789
              ]
            ]
          ],
          [
            [
              [
                -3.441113948822021,
                59.015533447265625
              ],
              [
                -3.376785039901733,
                59.22488784790039
              ],
              [
                -3.195853710174561,
                59.22488784790039
              ],
              [
                -3.088408470153809,
                59.08528518676758
              ],
              [
                -2.809081315994263,
                59.015533447265625
              ],
              [
                -2.792584657669067,
                58.876129150390625
              ],
              [
                -2.972933053970337,
                58.876129150390625
              ],
              [
                -3.063107252120972,
                58.876129150390625
              ],
              [
                -3.415184020996094,
                58.80647277832031
              ],
              [
                -3.531404256820679,
                59.015533447265625
              ],
              [
                -3.441113948822021,
                59.015533447265625
              ]
            ]
          ],
          [
            [
              [
                -2.562593460083008,
                59.22488784790039
              ],
              [
                -2.653059244155884,
                59.22488784790039
              ],
              [
                -2.644851207733154,
                59.15507125854492
              ],
              [
                -2.825665473937988,
                59.15507125854492
              ],
              [
                -2.842337846755981,
                59.294734954833984
              ],
              [
                -2.578956842422485,
                59.36461639404297
              ],
              [
                -2.562593460083008,
                59.22488784790039
              ]
            ]
          ],
          [
            [
              [
                -1.164233803749084,
                60.557716369628906
              ],
              [
                -1.050302863121033,
                60.34645080566406
              ],
              [
                -1.141728639602661,
                60.34645080566406
              ],
              [
                -1.203181028366089,
                60.065250396728516
              ],
              [
                -1.674645304679871,
                60.20578384399414
              ],
              [
                -1.63013768196106,
                60.628211975097656
              ],
              [
                -1.36280632019043,
                60.69873809814453
              ],
              [
                -1.347454905509949,
                60.557716369628906
              ],
              [
                -1.255844354629517,
                60.557716369628906
              ],
              [
                -1.278715848922729,
                60.76930236816406
              ],
              [
                -0.827084124088287,
                60.83990478515625
              ],
              [
                -0.805085599422455,
                60.628211975097656
              ],
              [
                -1.164233803749084,
                60.557716369628906
              ]
            ]
          ]
        ]
      }
    }
  ]
}
