{
  "type": "FeatureCollection",
  "features": [
    {
      "type": "Feature",
      "properties": {
        "Name": "Kingdom of Numidia",
        "FromYear": -144,
        "ToYear": -111,
        "Area": 306761.70017038303,
        "Type": "POLITY",
        "Wikipedia": "Jugurtha",
        "Wikidata": "Q156173",
        "SeshatID": "dz_numidia",
        "Components": "",
        "MemberOf": "",
        "displayYear": -119,
        "sourceYear": -119,
        "mappedTerritoryId": "cliopatria_kingdom_of_numidia"
      },
      "geometry": {
        "type": "MultiPolygon",
        "coordinates": [
          [
            [
              [
                10.004714012145996,
                34.22901916503906
              ],
              [
                10.081672668457031,
                34.22901916503906
              ],
              [
                10.005777359008789,
                33.90746307373047
              ],
              [
                10.23681354522705,
                33.71455001831055
              ],
              [
                10.544031143188477,
                33.71455001831055
              ],
              [
                10.697741508483887,
                33.52165222167969
              ],
              [
                11.081541061401367,
                33.5859489440918
              ],
              [
                11.157825469970703,
                33.20018768310547
              ],
              [
                11.464441299438477,
                33.20018768310547
              ],
              [
                12.228955268859863,
                32.81447219848633
              ],
              [
                12.612099647521973,
                32.878753662109375
              ],
              [
                12.534722328186035,
                32.75019073486328
              ],
              [
                12.840824127197266,
                32.75019073486328
              ],
              [
                12.841785430908203,
                32.878753662109375
              ],
              [
                13.072009086608887,
                32.94303894042969
              ],
              [
                13.301749229431152,
                32.94303894042969
              ],
              [
                13.453653335571289,
                32.81447219848633
              ],
              [
                13.760527610778809,
                32.878753662109375
              ],
              [
                13.759129524230957,
                32.75019073486328
              ],
              [
                14.065231323242188,
                32.75019073486328
              ],
              [
                14.444439888000488,
                32.493072509765625
              ],
              [
                14.674704551696777,
                32.557350158691406
              ],
              [
                14.749334335327148,
                32.428794860839844
              ],
              [
                15.206924438476562,
                32.36451721191406
              ],
              [
                15.424593925476074,
                31.65752601623535
              ],
              [
                15.575982093811035,
                31.593257904052734
              ],
              [
                15.64897632598877,
                31.40045166015625
              ],
              [
                16.178552627563477,
                31.20764923095703
              ],
              [
                17.469486236572266,
                31.079113006591797
              ],
              [
                17.99736785888672,
                30.886310577392578
              ],
              [
                18.592470169067383,
                30.372163772583008
              ],
              [
                18.896053314208984,
                30.372163772583008
              ],
              [
                18.810367584228516,
                29.986536026000977
              ],
              [
                18.28125762939453,
                30.050809860229492
              ],
              [
                16.701202392578125,
                30.69350814819336
              ],
              [
                15.489551544189453,
                30.950578689575195
              ],
              [
                15.184454917907715,
                30.886310577392578
              ],
              [
                15.187263488769531,
                31.079113006591797
              ],
              [
                14.584433555603027,
                31.528987884521484
              ],
              [
                14.586112022399902,
                31.65752601623535
              ],
              [
                13.82862377166748,
                32.107421875
              ],
              [
                13.29533576965332,
                32.23596954345703
              ],
              [
                13.06567096710205,
                32.171695709228516
              ],
              [
                13.0667085647583,
                32.30024337768555
              ],
              [
                12.455889701843262,
                32.36451721191406
              ],
              [
                11.767910957336426,
                32.30024337768555
              ],
              [
                11.768352508544922,
                32.428794860839844
              ],
              [
                11.539045333862305,
                32.428794860839844
              ],
              [
                11.462910652160645,
                32.557350158691406
              ],
              [
                11.309853553771973,
                32.493072509765625
              ],
              [
                11.157184600830078,
                32.685909271240234
              ],
              [
                10.391599655151367,
                33.00732421875
              ],
              [
                10.008606910705566,
                33.00732421875
              ],
              [
                10.08484935760498,
                33.13589859008789
              ],
              [
                9.62503719329834,
                33.13589859008789
              ],
              [
                9.547471046447754,
                33.32876968383789
              ],
              [
                9.623573303222656,
                33.45735549926758
              ],
              [
                9.315913200378418,
                33.5859489440918
              ],
              [
                9.237561225891113,
                33.84315490722656
              ],
              [
                9.083436965942383,
                33.90746307373047
              ],
              [
                9.082552909851074,
                34.03607940673828
              ],
              [
                8.928751945495605,
                34.03607940673828
              ],
              [
                8.927783012390137,
                34.164703369140625
              ],
              [
                8.310981750488281,
                34.2933349609375
              ],
              [
                8.0807523727417,
                34.22901916503906
              ],
              [
                8.001612663269043,
                34.42197799682617
              ],
              [
                7.614861011505127,
                34.55062484741211
              ],
              [
                7.153473854064941,
                34.48630142211914
              ],
              [
                6.920335292816162,
                34.614952087402344
              ],
              [
                6.459011077880859,
                34.55062484741211
              ],
              [
                6.14835262298584,
                34.679283142089844
              ],
              [
                5.377389430999756,
                34.679283142089844
              ],
              [
                5.1490478515625,
                34.55062484741211
              ],
              [
                4.453888416290283,
                34.614952087402344
              ],
              [
                3.842682838439941,
                34.42197799682617
              ],
              [
                3.455702066421509,
                34.48630142211914
              ],
              [
                2.920501947402954,
                34.3576545715332
              ],
              [
                2.449900150299072,
                34.614952087402344
              ],
              [
                1.293753147125244,
                34.614952087402344
              ],
              [
                0.684976637363434,
                34.42197799682617
              ],
              [
                0.451262414455414,
                34.48630142211914
              ],
              [
                0.302583903074265,
                34.3576545715332
              ],
              [
                -1.237367868423462,
                34.3576545715332
              ],
              [
                -1.305106520652771,
                34.164703369140625
              ],
              [
                -1.539058566093445,
                34.22901916503906
              ],
              [
                -1.609718084335327,
                34.10039138793945
              ],
              [
                -1.692975521087646,
                34.22901916503906
              ],
              [
                -2.38225269317627,
                34.164703369140625
              ],
              [
                -2.459191799163818,
                34.164703369140625
              ],
              [
                -2.854317188262939,
                34.3576545715332
              ],
              [
                -2.78778862953186,
                34.55062484741211
              ],
              [
                -2.945452690124512,
                34.614952087402344
              ],
              [
                -2.959765911102295,
                34.87228775024414
              ],
              [
                -2.809019088745117,
                34.93662643432617
              ],
              [
                -2.742544174194336,
                35.12965774536133
              ],
              [
                -2.665307283401489,
                35.12965774536133
              ],
              [
                -1.661227107048035,
                35.12965774536133
              ],
              [
                -1.590568661689758,
                35.258358001708984
              ],
              [
                -1.358735799789429,
                35.258358001708984
              ],
              [
                -1.136477708816528,
                35.45143127441406
              ],
              [
                -1.223541498184204,
                35.644527435302734
              ],
              [
                -1.065529465675354,
                35.58015823364258
              ],
              [
                -0.917115688323975,
                35.708900451660156
              ],
              [
                -0.530006587505341,
                35.708900451660156
              ],
              [
                -0.458719998598099,
                35.837650299072266
              ],
              [
                0.083524890244007,
                35.837650299072266
              ],
              [
                0.376142233610153,
                36.2239875793457
              ],
              [
                0.683685302734375,
                36.28839111328125
              ],
              [
                0.678023815155029,
                36.417205810546875
              ],
              [
                0.913757801055908,
                36.3527946472168
              ],
              [
                1.216211557388306,
                36.5460319519043
              ],
              [
                1.529616475105286,
                36.48161697387695
              ],
              [
                2.376901149749756,
                36.67487716674805
              ],
              [
                2.690169095993042,
                36.61045455932617
              ],
              [
                2.841080188751221,
                36.73930740356445
              ],
              [
                3.229894161224365,
                36.73930740356445
              ],
              [
                3.458978891372681,
                36.8681755065918
              ],
              [
                3.850007295608521,
                36.80373764038086
              ],
              [
                4.235154151916504,
                36.932613372802734
              ],
              [
                4.859498500823975,
                36.8681755065918
              ],
              [
                5.097836971282959,
                36.67487716674805
              ],
              [
                5.56428337097168,
                36.67487716674805
              ],
              [
                5.639055728912354,
                36.80373764038086
              ],
              [
                6.105763912200928,
                36.80373764038086
              ],
              [
                6.103042125701904,
                36.932613372802734
              ],
              [
                6.333924293518066,
                37.06150817871094
              ],
              [
                6.804664611816406,
                36.8681755065918
              ],
              [
                7.193697929382324,
                36.8681755065918
              ],
              [
                7.346271514892578,
                37.06150817871094
              ],
              [
                7.658689975738525,
                36.9970588684082
              ],
              [
                7.738344192504883,
                36.8681755065918
              ],
              [
                8.516410827636719,
                36.8681755065918
              ],
              [
                8.67074966430664,
                36.9970588684082
              ],
              [
                8.748600006103516,
                36.9970588684082
              ],
              [
                8.908275604248047,
                36.5460319519043
              ],
              [
                8.676435470581055,
                36.417205810546875
              ],
              [
                8.678300857543945,
                36.2239875793457
              ],
              [
                8.83520221710205,
                36.03080368041992
              ],
              [
                8.836906433105469,
                35.837650299072266
              ],
              [
                8.992356300354004,
                35.77327346801758
              ],
              [
                8.917067527770996,
                35.51579284667969
              ],
              [
                9.228297233581543,
                35.258358001708984
              ],
              [
                9.385624885559082,
                34.80794906616211
              ],
              [
                10.004497528076172,
                34.2933349609375
              ],
              [
                10.004714012145996,
                34.22901916503906
              ]
            ]
          ],
          [
            [
              [
                2.610407114028931,
                34.42197799682617
              ],
              [
                2.533390045166016,
                34.42197799682617
              ],
              [
                2.531259059906006,
                34.48630142211914
              ],
              [
                2.608296155929565,
                34.48630142211914
              ],
              [
                2.610407114028931,
                34.42197799682617
              ]
            ]
          ]
        ]
      }
    }
  ]
}
