{
  "type": "FeatureCollection",
  "features": [
    {
      "type": "Feature",
      "properties": {
        "Name": "Brythons",
        "FromYear": 555,
        "ToYear": 568,
        "Area": 100843.6116474928,
        "Type": "POLITY",
        "Wikipedia": "Celtic Britons",
        "Wikidata": "Q849967",
        "SeshatID": "gb_brythonic_k",
        "Components": "",
        "MemberOf": "(Brythonic Kingdoms)",
        "displayYear": 557,
        "sourceYear": 557,
        "mappedTerritoryId": "cliopatria_brythons"
      },
      "geometry": {
        "type": "MultiPolygon",
        "coordinates": [
          [
            [
              [
                -1.647326707839966,
                48.191749572753906
              ],
              [
                -1.641963720321655,
                48.1257438659668
              ],
              [
                -1.724758386611938,
                48.1257438659668
              ],
              [
                -1.719373941421509,
                48.059749603271484
              ],
              [
                -1.802132964134216,
                48.059749603271484
              ],
              [
                -1.796727180480957,
                47.993770599365234
              ],
              [
                -2.447182655334473,
                47.86185836791992
              ],
              [
                -2.837259292602539,
                47.598209381103516
              ],
              [
                -2.919772386550903,
                47.598209381103516
              ],
              [
                -3.155531167984009,
                47.46647262573242
              ],
              [
                -3.344320774078369,
                47.730003356933594
              ],
              [
                -3.757235288619995,
                47.730003356933594
              ],
              [
                -3.934937715530396,
                47.86185836791992
              ],
              [
                -4.424368858337402,
                47.79592514038086
              ],
              [
                -4.692053318023682,
                47.993770599365234
              ],
              [
                -4.705362796783447,
                48.1257438659668
              ],
              [
                -4.546383857727051,
                48.191749572753906
              ],
              [
                -4.642560005187988,
                48.323814392089844
              ],
              [
                -4.891265392303467,
                48.323814392089844
              ],
              [
                -4.911745548248291,
                48.52202224731445
              ],
              [
                -4.599917888641357,
                48.72037124633789
              ],
              [
                -3.85184383392334,
                48.72037124633789
              ],
              [
                -3.455082654953003,
                48.91886520385742
              ],
              [
                -3.122164011001587,
                48.91886520385742
              ],
              [
                -2.759404182434082,
                48.5881233215332
              ],
              [
                -2.521934509277344,
                48.72037124633789
              ],
              [
                -1.685264110565186,
                48.654239654541016
              ],
              [
                -1.602181315422058,
                48.654239654541016
              ],
              [
                -1.508333325386047,
                48.52202224731445
              ],
              [
                -1.668919563293457,
                48.455936431884766
              ],
              [
                -1.652703642845154,
                48.257774353027344
              ],
              [
                -1.647326707839966,
                48.191749572753906
              ]
            ]
          ],
          [
            [
              [
                -5.078959941864014,
                51.580322265625
              ],
              [
                -5.264270305633545,
                51.71418380737305
              ],
              [
                -5.295889377593994,
                51.98215103149414
              ],
              [
                -4.893810749053955,
                52.18334197998047
              ],
              [
                -4.552989482879639,
                52.18334197998047
              ],
              [
                -4.242120265960693,
                52.4518928527832
              ],
              [
                -4.071356773376465,
                52.4518928527832
              ],
              [
                -3.98597526550293,
                52.4518928527832
              ],
              [
                -3.715342998504639,
                52.31757736206055
              ],
              [
                -3.693760871887207,
                52.11625671386719
              ],
              [
                -3.778922557830811,
                52.11625671386719
              ],
              [
                -3.757387161254883,
                51.91512680053711
              ],
              [
                -3.587324619293213,
                51.91512680053711
              ],
              [
                -3.573238611221313,
                51.78114318847656
              ],
              [
                -3.644089698791504,
                51.64724349975586
              ],
              [
                -3.891522645950317,
                51.580322265625
              ],
              [
                -3.97633957862854,
                51.580322265625
              ],
              [
                -4.308269023895264,
                51.51342010498047
              ],
              [
                -4.415247440338135,
                51.71418380737305
              ],
              [
                -4.747263431549072,
                51.64724349975586
              ],
              [
                -4.832123279571533,
                51.64724349975586
              ],
              [
                -5.078959941864014,
                51.580322265625
              ]
            ]
          ],
          [
            [
              [
                -1.883078455924988,
                52.78806686401367
              ],
              [
                -1.509905099868774,
                52.4518928527832
              ],
              [
                -1.491648197174072,
                52.250450134277344
              ],
              [
                -1.64377224445343,
                52.0491943359375
              ],
              [
                -2.141791820526123,
                51.91512680053711
              ],
              [
                -2.207788228988647,
                51.71418380737305
              ],
              [
                -2.170177698135376,
                51.31283950805664
              ],
              [
                -1.801538705825806,
                50.97892379760742
              ],
              [
                -1.777790904045105,
                50.71213912963867
              ],
              [
                -1.862067103385925,
                50.71213912963867
              ],
              [
                -2.030619621276855,
                50.71213912963867
              ],
              [
                -2.102793455123901,
                50.578861236572266
              ],
              [
                -2.607964515686035,
                50.578861236572266
              ],
              [
                -2.789105415344238,
                50.71213912963867
              ],
              [
                -3.12621021270752,
                50.71213912963867
              ],
              [
                -3.456606388092041,
                50.64549255371094
              ],
              [
                -3.584736108779907,
                50.2459831237793
              ],
              [
                -4.088706493377686,
                50.2459831237793
              ],
              [
                -4.186630249023438,
                50.37908172607422
              ],
              [
                -4.354779243469238,
                50.37908172607422
              ],
              [
                -4.928657054901123,
                50.2459831237793
              ],
              [
                -5.151133060455322,
                49.98000717163086
              ],
              [
                -5.745615005493164,
                50.04647445678711
              ],
              [
                -5.768607616424561,
                50.2459831237793
              ],
              [
                -5.279601097106934,
                50.37908172607422
              ],
              [
                -5.133819580078125,
                50.578861236572266
              ],
              [
                -4.881234169006348,
                50.578861236572266
              ],
              [
                -4.819114208221436,
                50.77880859375
              ],
              [
                -4.657799243927002,
                50.84549331665039
              ],
              [
                -4.67988109588623,
                51.04566955566406
              ],
              [
                -4.426436901092529,
                51.04566955566406
              ],
              [
                -4.201729774475098,
                51.31283950805664
              ],
              [
                -3.094635725021362,
                51.24601745605469
              ],
              [
                -3.107994079589844,
                51.37968063354492
              ],
              [
                -2.945236444473267,
                51.44654083251953
              ],
              [
                -2.951877117156982,
                51.51342010498047
              ],
              [
                -2.547397375106812,
                51.71418380737305
              ],
              [
                -2.822042465209961,
                51.91512680053711
              ],
              [
                -2.82872486114502,
                51.98215103149414
              ],
              [
                -2.913799524307251,
                51.98215103149414
              ],
              [
                -2.920543432235718,
                52.0491943359375
              ],
              [
                -2.927305936813354,
                52.11625671386719
              ],
              [
                -2.81787896156311,
                52.720787048339844
              ],
              [
                -2.732318639755249,
                52.720787048339844
              ],
              [
                -2.845422029495239,
                52.99003219604492
              ],
              [
                -2.887294769287109,
                53.39456558227539
              ],
              [
                -3.152528285980225,
                53.462066650390625
              ],
              [
                -3.159731149673462,
                53.52959060668945
              ],
              [
                -3.095205545425415,
                53.732303619384766
              ],
              [
                -3.196035623550415,
                53.86756134033203
              ],
              [
                -2.96582555770874,
                54.138362884521484
              ],
              [
                -3.304538726806641,
                54.07062530517578
              ],
              [
                -3.319409608840942,
                54.20612335205078
              ],
              [
                -3.586766958236694,
                54.27390670776367
              ],
              [
                -3.71977162361145,
                54.681121826171875
              ],
              [
                -3.569097280502319,
                54.88506317138672
              ],
              [
                -4.423340797424316,
                54.74907684326172
              ],
              [
                -4.953676700592041,
                54.817054748535156
              ],
              [
                -4.936679363250732,
                54.681121826171875
              ],
              [
                -5.110523223876953,
                54.681121826171875
              ],
              [
                -5.32801628112793,
                55.021148681640625
              ],
              [
                -5.153679370880127,
                55.021148681640625
              ],
              [
                -5.171102046966553,
                55.15733337402344
              ],
              [
                -4.768880844116211,
                55.430015563964844
              ],
              [
                -4.794708251953125,
                55.63479995727539
              ],
              [
                -4.978706836700439,
                55.70311737060547
              ],
              [
                -4.926087856292725,
                55.97663879394531
              ],
              [
                -4.310947895050049,
                55.97663879394531
              ],
              [
                -4.151927947998047,
                56.11355972290039
              ],
              [
                -3.975966691970825,
                56.11355972290039
              ],
              [
                -3.871561765670776,
                55.97663879394531
              ],
              [
                -3.783684492111206,
                55.97663879394531
              ],
              [
                -3.800005435943604,
                56.11355972290039
              ],
              [
                -3.176331996917725,
                56.04508590698242
              ],
              [
                -3.088403224945068,
                56.04508590698242
              ],
              [
                -2.962252378463745,
                55.70311737060547
              ],
              [
                -2.771963357925415,
                55.56651306152344
              ],
              [
                -2.654938936233521,
                55.29362487792969
              ],
              [
                -2.472987413406372,
                55.225467681884766
              ],
              [
                -2.350124359130859,
                54.88506317138672
              ],
              [
                -2.054569482803345,
                54.545284271240234
              ],
              [
                -1.894279360771179,
                53.799922943115234
              ],
              [
                -2.139758110046387,
                53.664710998535156
              ],
              [
                -2.040306806564331,
                53.52959060668945
              ],
              [
                -1.883078455924988,
                52.78806686401367
              ]
            ]
          ]
        ]
      }
    }
  ]
}
