{
  "type": "FeatureCollection",
  "features": [
    {
      "type": "Feature",
      "properties": {
        "Name": "Zhao",
        "FromYear": -366,
        "ToYear": -351,
        "Area": 59161.83918770367,
        "Type": "POLITY",
        "Wikipedia": "Zhao (state)",
        "Wikidata": "Q1574107",
        "SeshatID": "",
        "Components": "",
        "MemberOf": "(Warring States China)",
        "displayYear": -356,
        "sourceYear": -356,
        "mappedTerritoryId": "cliopatria_zhao"
      },
      "geometry": {
        "type": "Polygon",
        "coordinates": [
          [
            [
              114.60979461669922,
              36.09519577026367
            ],
            [
              115.44165802001953,
              36.73930740356445
            ],
            [
              115.34493255615234,
              36.8681755065918
            ],
            [
              114.9074935913086,
              36.932613372802734
            ],
            [
              114.0619125366211,
              36.61045455932617
            ],
            [
              114.09075164794922,
              36.67487716674805
            ],
            [
              113.93527221679688,
              36.67487716674805
            ],
            [
              113.9931411743164,
              36.80373764038086
            ],
            [
              113.7597885131836,
              36.80373764038086
            ],
            [
              113.2825927734375,
              37.12596130371094
            ],
            [
              113.04890441894531,
              37.12596130371094
            ],
            [
              112.57193756103516,
              37.44829177856445
            ],
            [
              112.49393463134766,
              37.44829177856445
            ],
            [
              112.46452331542969,
              37.38381576538086
            ],
            [
              112.38654327392578,
              37.38381576538086
            ],
            [
              112.30855560302734,
              37.38381576538086
            ],
            [
              112.27928924560547,
              37.3193473815918
            ],
            [
              112.20132446289062,
              37.3193473815918
            ],
            [
              112.17218017578125,
              37.254878997802734
            ],
            [
              111.41331481933594,
              36.417205810546875
            ],
            [
              111.23026275634766,
              36.3527946472168
            ],
            [
              111.06177520751953,
              35.77327346801758
            ],
            [
              111.16276550292969,
              35.644527435302734
            ],
            [
              111.0824966430664,
              35.45143127441406
            ],
            [
              112.3199234008789,
              35.45143127441406
            ],
            [
              113.45277404785156,
              35.38706970214844
            ],
            [
              113.62326049804688,
              35.9664192199707
            ],
            [
              114.2433090209961,
              35.9664192199707
            ],
            [
              113.82807159423828,
              34.80794906616211
            ],
            [
              114.47205352783203,
              34.87228775024414
            ],
            [
              114.99391174316406,
              35.194007873535156
            ],
            [
              115.07646179199219,
              35.38706970214844
            ],
            [
              114.82849884033203,
              35.708900451660156
            ],
            [
              114.5815200805664,
              36.03080368041992
            ],
            [
              114.60979461669922,
              36.09519577026367
            ]
          ]
        ]
      }
    }
  ]
}
