{
  "type": "FeatureCollection",
  "features": [
    {
      "type": "Feature",
      "properties": {
        "Name": "Golden Horde",
        "FromYear": 1609,
        "ToYear": 1631,
        "Area": 3513490.778778562,
        "Type": "POLITY",
        "Wikipedia": "Golden Horde",
        "Wikidata": "Q79965",
        "SeshatID": "",
        "Components": "",
        "MemberOf": "",
        "displayYear": 1627,
        "sourceYear": 1627,
        "mappedTerritoryId": "cliopatria_golden_horde"
      },
      "geometry": {
        "type": "MultiPolygon",
        "coordinates": [
          [
            [
              [
                113.1112289428711,
                55.498252868652344
              ],
              [
                114.04141235351562,
                55.36180877685547
              ],
              [
                113.98163604736328,
                55.29362487792969
              ],
              [
                114.53324890136719,
                55.225467681884766
              ],
              [
                114.47345733642578,
                55.15733337402344
              ],
              [
                116.84801483154297,
                54.88506317138672
              ],
              [
                116.78756713867188,
                54.817054748535156
              ],
              [
                117.1356430053711,
                54.817054748535156
              ],
              [
                117.0751724243164,
                54.74907684326172
              ],
              [
                117.48372650146484,
                54.817054748535156
              ],
              [
                117.362548828125,
                54.681121826171875
              ],
              [
                118.94352722167969,
                54.4095458984375
              ],
              [
                118.88286590576172,
                54.341712951660156
              ],
              [
                119.14289855957031,
                54.341712951660156
              ],
              [
                119.08226776123047,
                54.27390670776367
              ],
              [
                119.25553131103516,
                54.27390670776367
              ],
              [
                119.19497680664062,
                54.20612335205078
              ],
              [
                119.9652099609375,
                54.00291442871094
              ],
              [
                119.90484619140625,
                53.93522644042969
              ],
              [
                120.41481018066406,
                53.732303619384766
              ],
              [
                120.35478210449219,
                53.664710998535156
              ],
              [
                120.92413330078125,
                53.52959060668945
              ],
              [
                120.86427307128906,
                53.462066650390625
              ],
              [
                121.1486587524414,
                53.39456558227539
              ],
              [
                121.08898162841797,
                53.32708740234375
              ],
              [
                121.57874298095703,
                53.39456558227539
              ],
              [
                121.45909881591797,
                53.25962829589844
              ],
              [
                121.63095092773438,
                53.25962829589844
              ],
              [
                121.59769439697266,
                53.124786376953125
              ],
              [
                122.13888549804688,
                53.057395935058594
              ],
              [
                122.07943725585938,
                52.99003219604492
              ],
              [
                122.53434753417969,
                52.92268753051758
              ],
              [
                122.4749984741211,
                52.85536575317383
              ],
              [
                122.81759643554688,
                52.85536575317383
              ],
              [
                122.75825500488281,
                52.78806686401367
              ],
              [
                123.01506805419922,
                52.78806686401367
              ],
              [
                122.95578002929688,
                52.720787048339844
              ],
              [
                123.12689971923828,
                52.720787048339844
              ],
              [
                123.06771087646484,
                52.653533935546875
              ],
              [
                123.52153778076172,
                52.586299896240234
              ],
              [
                123.46245574951172,
                52.51908493041992
              ],
              [
                123.63330841064453,
                52.51908493041992
              ],
              [
                123.57432556152344,
                52.4518928527832
              ],
              [
                124.42152404785156,
                52.250450134277344
              ],
              [
                124.36278533935547,
                52.18334197998047
              ],
              [
                124.87401580810547,
                52.18334197998047
              ],
              [
                124.81520080566406,
                52.11625671386719
              ],
              [
                125.07068634033203,
                52.11625671386719
              ],
              [
                125.0119400024414,
                52.0491943359375
              ],
              [
                125.26729583740234,
                52.0491943359375
              ],
              [
                125.20861053466797,
                51.98215103149414
              ],
              [
                125.60175323486328,
                51.84812545776367
              ],
              [
                125.57014465332031,
                51.71418380737305
              ],
              [
                125.73994445800781,
                51.71418380737305
              ],
              [
                125.81759643554688,
                51.31283950805664
              ],
              [
                125.9022445678711,
                51.31283950805664
              ],
              [
                125.90042114257812,
                51.112430572509766
              ],
              [
                126.06868743896484,
                50.912200927734375
              ],
              [
                125.95647430419922,
                50.77880859375
              ],
              [
                126.0977783203125,
                50.64549255371094
              ],
              [
                125.98693084716797,
                50.51224899291992
              ],
              [
                126.12911987304688,
                50.37908172607422
              ],
              [
                126.0196533203125,
                50.2459831237793
              ],
              [
                126.13313293457031,
                50.17946243286133
              ],
              [
                126.00093841552734,
                49.91355895996094
              ],
              [
                126.11492919921875,
                49.84712600708008
              ],
              [
                125.9644546508789,
                49.44889450073242
              ],
              [
                126.04798126220703,
                49.44889450073242
              ],
              [
                125.90312957763672,
                49.051273345947266
              ],
              [
                125.98643493652344,
                49.051273345947266
              ],
              [
                125.71331787109375,
                48.5881233215332
              ],
              [
                125.7963638305664,
                48.5881233215332
              ],
              [
                125.46593475341797,
                47.92780685424805
              ],
              [
                125.54862213134766,
                47.92780685424805
              ],
              [
                125.40247344970703,
                47.730003356933594
              ],
              [
                125.48505401611328,
                47.730003356933594
              ],
              [
                124.66806030273438,
                46.480194091796875
              ],
              [
                124.75,
                46.480194091796875
              ],
              [
                124.23033905029297,
                45.496795654296875
              ],
              [
                124.18550109863281,
                45.431331634521484
              ],
              [
                122.92005157470703,
                45.36587905883789
              ],
              [
                122.96431732177734,
                45.431331634521484
              ],
              [
                122.56424713134766,
                45.56227111816406
              ],
              [
                122.57144165039062,
                45.693260192871094
              ],
              [
                121.81423950195312,
                46.02093505859375
              ],
              [
                121.82164001464844,
                46.1520881652832
              ],
              [
                121.06291198730469,
                46.480194091796875
              ],
              [
                121.10771942138672,
                46.54585266113281
              ],
              [
                120.16860961914062,
                46.61152267456055
              ],
              [
                120.2132339477539,
                46.677207946777344
              ],
              [
                119.26658630371094,
                46.61152267456055
              ],
              [
                119.31083679199219,
                46.677207946777344
              ],
              [
                119.06473541259766,
                46.677207946777344
              ],
              [
                119.10899353027344,
                46.74290466308594
              ],
              [
                118.6165771484375,
                46.74290466308594
              ],
              [
                117.41912841796875,
                46.54585266113281
              ],
              [
                117.12576293945312,
                46.348915100097656
              ],
              [
                116.71641540527344,
                46.348915100097656
              ],
              [
                116.46734619140625,
                46.21768569946289
              ],
              [
                116.12967681884766,
                45.693260192871094
              ],
              [
                115.8831558227539,
                45.56227111816406
              ],
              [
                115.18893432617188,
                45.36587905883789
              ],
              [
                114.7416763305664,
                45.431331634521484
              ],
              [
                113.68588256835938,
                44.77729415893555
              ],
              [
                113.11822509765625,
                44.77729415893555
              ],
              [
                113.15814208984375,
                44.842647552490234
              ],
              [
                112.9147720336914,
                44.842647552490234
              ],
              [
                112.95466613769531,
                44.908016204833984
              ],
              [
                112.3848876953125,
                45.03877639770508
              ],
              [
                112.42472839355469,
                45.10417556762695
              ],
              [
                112.01846313476562,
                45.10417556762695
              ],
              [
                111.77679443359375,
                44.973392486572266
              ],
              [
                111.38501739501953,
                44.32010269165039
              ],
              [
                111.54676055908203,
                44.32010269165039
              ],
              [
                111.59200286865234,
                44.12431716918945
              ],
              [
                111.7535629272461,
                44.12431716918945
              ],
              [
                111.96373748779297,
                43.79821014404297
              ],
              [
                111.53059387207031,
                43.472347259521484
              ],
              [
                110.81661987304688,
                43.211830139160156
              ],
              [
                110.55005645751953,
                42.88639831542969
              ],
              [
                111.23464965820312,
                42.82133865356445
              ],
              [
                111.19750213623047,
                42.75628662109375
              ],
              [
                112.25025177001953,
                42.496177673339844
              ],
              [
                112.213134765625,
                42.43117141723633
              ],
              [
                112.53312683105469,
                42.43117141723633
              ],
              [
                112.49598693847656,
                42.36617660522461
              ],
              [
                113.5462417602539,
                42.10627746582031
              ],
              [
                113.50917053222656,
                42.041324615478516
              ],
              [
                113.91394805908203,
                41.911441802978516
              ],
              [
                114.00584411621094,
                41.65177917480469
              ],
              [
                114.16515350341797,
                41.65177917480469
              ],
              [
                114.380615234375,
                41.32738494873047
              ],
              [
                114.30828094482422,
                41.19768524169922
              ],
              [
                114.43875885009766,
                41.00318908691406
              ],
              [
                114.5975112915039,
                41.00318908691406
              ],
              [
                114.6053695678711,
                40.873565673828125
              ],
              [
                114.7640151977539,
                40.873565673828125
              ],
              [
                114.77212524414062,
                40.74397277832031
              ],
              [
                114.97442626953125,
                40.6791877746582
              ],
              [
                114.67534637451172,
                40.42012023925781
              ],
              [
                113.77032470703125,
                40.355369567871094
              ],
              [
                113.63678741455078,
                40.54964065551758
              ],
              [
                113.32003784179688,
                40.54964065551758
              ],
              [
                113.024169921875,
                40.29063034057617
              ],
              [
                112.50460815429688,
                40.355369567871094
              ],
              [
                112.14451599121094,
                39.9670295715332
              ],
              [
                111.8287124633789,
                39.9670295715332
              ],
              [
                111.65087890625,
                39.77294921875
              ],
              [
                111.447021484375,
                39.8376350402832
              ],
              [
                111.15911102294922,
                39.57893371582031
              ],
              [
                110.41793823242188,
                39.51427459716797
              ],
              [
                110.29109191894531,
                39.25570297241211
              ],
              [
                109.96136474609375,
                39.06184005737305
              ],
              [
                109.74658203125,
                38.60969924926758
              ],
              [
                109.84294128417969,
                38.48057174682617
              ],
              [
                109.59637451171875,
                38.28691864013672
              ],
              [
                109.52691650390625,
                37.96426773071289
              ],
              [
                109.07779693603516,
                37.835243225097656
              ],
              [
                108.09921264648438,
                38.09331130981445
              ],
              [
                107.90291595458984,
                38.351463317871094
              ],
              [
                107.51126098632812,
                38.351463317871094
              ],
              [
                107.4426498413086,
                38.54513168334961
              ],
              [
                107.28584289550781,
                38.54513168334961
              ],
              [
                107.64695739746094,
                39.320335388183594
              ],
              [
                107.44159698486328,
                39.38497543334961
              ],
              [
                107.32917785644531,
                39.64360046386719
              ],
              [
                106.92121887207031,
                39.449623107910156
              ],
              [
                106.58993530273438,
                38.738853454589844
              ],
              [
                106.66840362548828,
                38.738853454589844
              ],
              [
                106.49295043945312,
                38.351463317871094
              ],
              [
                106.57128143310547,
                38.351463317871094
              ],
              [
                106.37799835205078,
                38.09331130981445
              ],
              [
                106.16472625732422,
                37.96426773071289
              ],
              [
                105.4329605102539,
                37.89975357055664
              ],
              [
                105.22090911865234,
                37.7707405090332
              ],
              [
                104.462890625,
                37.641746520996094
              ],
              [
                104.36157989501953,
                37.7707405090332
              ],
              [
                103.76398468017578,
                37.835243225097656
              ],
              [
                103.61201477050781,
                38.028785705566406
              ],
              [
                103.32674407958984,
                38.09331130981445
              ],
              [
                103.30390930175781,
                38.22237777709961
              ],
              [
                103.01852416992188,
                38.28691864013672
              ],
              [
                102.99595642089844,
                38.416015625
              ],
              [
                102.83924865722656,
                38.416015625
              ],
              [
                102.84502410888672,
                38.60969924926758
              ],
              [
                103.13703155517578,
                38.738853454589844
              ],
              [
                102.88006591796875,
                38.8680305480957
              ],
              [
                103.12342834472656,
                39.06184005737305
              ],
              [
                102.55232238769531,
                39.19107437133789
              ],
              [
                102.35884857177734,
                38.93262481689453
              ],
              [
                102.09483337402344,
                38.8680305480957
              ],
              [
                102.12320709228516,
                38.93262481689453
              ],
              [
                101.63008880615234,
                39.06184005737305
              ],
              [
                101.55858612060547,
                39.25570297241211
              ],
              [
                101.16522979736328,
                39.25570297241211
              ],
              [
                101.18104553222656,
                39.64360046386719
              ],
              [
                100.608642578125,
                39.77294921875
              ],
              [
                101.06432342529297,
                40.42012023925781
              ],
              [
                100.98519134521484,
                40.42012023925781
              ],
              [
                101.10729217529297,
                40.6791877746582
              ],
              [
                101.0280532836914,
                40.6791877746582
              ],
              [
                101.07238006591797,
                40.93837356567383
              ],
              [
                99.75000762939453,
                41.32738494873047
              ],
              [
                99.7812271118164,
                41.39224624633789
              ],
              [
                99.22443389892578,
                41.39224624633789
              ],
              [
                99.25555419921875,
                41.45711898803711
              ],
              [
                98.20331573486328,
                41.586883544921875
              ],
              [
                98.23432159423828,
                41.65177917480469
              ],
              [
                97.91570281982422,
                41.65177917480469
              ],
              [
                97.94669342041016,
                41.71668243408203
              ],
              [
                97.1806640625,
                41.781593322753906
              ],
              [
                96.95439910888672,
                41.97637939453125
              ],
              [
                96.58631134033203,
                42.041324615478516
              ],
              [
                96.64835357666016,
                42.17123794555664
              ],
              [
                96.51968383789062,
                42.236209869384766
              ],
              [
                96.51627349853516,
                42.56119155883789
              ],
              [
                96.14736938476562,
                42.62621307373047
              ],
              [
                95.92129516601562,
                42.82133865356445
              ],
              [
                95.47164916992188,
                42.88639831542969
              ],
              [
                95.37415313720703,
                43.016544342041016
              ],
              [
                94.63412475585938,
                43.146724700927734
              ],
              [
                94.53627014160156,
                43.276947021484375
              ],
              [
                92.91001892089844,
                43.407203674316406
              ],
              [
                92.94102478027344,
                43.472347259521484
              ],
              [
                91.49248504638672,
                43.472347259521484
              ],
              [
                90.7079086303711,
                43.342071533203125
              ],
              [
                90.17816162109375,
                42.88639831542969
              ],
              [
                90.2796401977539,
                42.75628662109375
              ],
              [
                90.19178771972656,
                42.56119155883789
              ],
              [
                90.27184295654297,
                42.56119155883789
              ],
              [
                90.18457794189453,
                42.36617660522461
              ],
              [
                90.2645492553711,
                42.36617660522461
              ],
              [
                90.22297668457031,
                41.911441802978516
              ],
              [
                86.74934387207031,
                42.56119155883789
              ],
              [
                87.548828125,
                44.18956756591797
              ],
              [
                88.27336883544922,
                44.71194839477539
              ],
              [
                89.92989349365234,
                45.300437927246094
              ],
              [
                90.68876647949219,
                45.693260192871094
              ],
              [
                90.994384765625,
                46.1520881652832
              ],
              [
                90.91261291503906,
                46.1520881652832
              ],
              [
                91.00957489013672,
                46.348915100097656
              ],
              [
                90.9277114868164,
                46.348915100097656
              ],
              [
                91.02523040771484,
                46.54585266113281
              ],
              [
                90.17317962646484,
                47.79592514038086
              ],
              [
                89.71098327636719,
                47.86185836791992
              ],
              [
                89.61286163330078,
                47.993770599365234
              ],
              [
                89.0337905883789,
                47.993770599365234
              ],
              [
                88.93529510498047,
                48.1257438659668
              ],
              [
                88.76969909667969,
                48.1257438659668
              ],
              [
                88.80326080322266,
                48.191749572753906
              ],
              [
                88.6375961303711,
                48.191749572753906
              ],
              [
                88.62197875976562,
                48.323814392089844
              ],
              [
                88.32398986816406,
                48.38986587524414
              ],
              [
                88.30854797363281,
                48.52202224731445
              ],
              [
                88.05951690673828,
                48.52202224731445
              ],
              [
                87.8968734741211,
                48.852684020996094
              ],
              [
                87.73048400878906,
                48.852684020996094
              ],
              [
                87.78443908691406,
                49.11750411987305
              ],
              [
                87.33345031738281,
                49.051273345947266
              ],
              [
                87.1864013671875,
                49.2500114440918
              ],
              [
                86.75463104248047,
                49.38258361816406
              ],
              [
                86.60783386230469,
                49.58156967163086
              ],
              [
                86.52423095703125,
                49.58156967163086
              ],
              [
                86.62894439697266,
                49.78071212768555
              ],
              [
                86.79638671875,
                49.78071212768555
              ],
              [
                87.95820617675781,
                50.97892379760742
              ],
              [
                88.36457824707031,
                51.24601745605469
              ],
              [
                88.39606475830078,
                51.44654083251953
              ],
              [
                88.5655288696289,
                51.44654083251953
              ],
              [
                89.97322845458984,
                52.653533935546875
              ],
              [
                90.6980209350586,
                53.124786376953125
              ],
              [
                91.43072509765625,
                53.462066650390625
              ],
              [
                91.51874542236328,
                53.597137451171875
              ],
              [
                94.92820739746094,
                54.545284271240234
              ],
              [
                96.1535873413086,
                54.681121826171875
              ],
              [
                96.4630355834961,
                54.74907684326172
              ],
              [
                96.56082153320312,
                54.88506317138672
              ],
              [
                98.54010772705078,
                55.089229583740234
              ],
              [
                99.49951171875,
                55.089229583740234
              ],
              [
                99.44854736328125,
                55.021148681640625
              ],
              [
                100.68882751464844,
                54.817054748535156
              ],
              [
                100.63764953613281,
                54.74907684326172
              ],
              [
                100.8985595703125,
                54.74907684326172
              ],
              [
                100.84737396240234,
                54.681121826171875
              ],
              [
                101.73599243164062,
                54.47740173339844
              ],
              [
                101.68480682373047,
                54.4095458984375
              ],
              [
                101.85826110839844,
                54.4095458984375
              ],
              [
                101.80712127685547,
                54.341712951660156
              ],
              [
                102.0671615600586,
                54.341712951660156
              ],
              [
                102.01602935791016,
                54.27390670776367
              ],
              [
                102.18928527832031,
                54.27390670776367
              ],
              [
                102.1382064819336,
                54.20612335205078
              ],
              [
                102.39795684814453,
                54.20612335205078
              ],
              [
                102.34687805175781,
                54.138362884521484
              ],
              [
                102.64189910888672,
                54.07062530517578
              ],
              [
                102.62650299072266,
                53.93522644042969
              ],
              [
                102.79928588867188,
                53.93522644042969
              ],
              [
                102.78411102294922,
                53.799922943115234
              ],
              [
                102.95670318603516,
                53.799922943115234
              ],
              [
                102.94176483154297,
                53.664710998535156
              ],
              [
                103.11416625976562,
                53.664710998535156
              ],
              [
                103.06368255615234,
                53.597137451171875
              ],
              [
                103.22135925292969,
                53.462066650390625
              ],
              [
                103.12117767333984,
                53.32708740234375
              ],
              [
                103.31538391113281,
                53.124786376953125
              ],
              [
                103.24024200439453,
                52.78806686401367
              ],
              [
                103.39915466308594,
                52.653533935546875
              ],
              [
                103.26930236816406,
                52.11625671386719
              ],
              [
                103.84477996826172,
                51.84812545776367
              ],
              [
                103.5715560913086,
                51.580322265625
              ],
              [
                104.11831665039062,
                51.51342010498047
              ],
              [
                104.07151794433594,
                51.44654083251953
              ],
              [
                104.8341064453125,
                51.44654083251953
              ],
              [
                105.73986053466797,
                51.64724349975586
              ],
              [
                106.00601196289062,
                51.78114318847656
              ],
              [
                106.39828491210938,
                52.31757736206055
              ],
              [
                106.82475280761719,
                52.31757736206055
              ],
              [
                107.33287048339844,
                52.653533935546875
              ],
              [
                107.89716339111328,
                52.720787048339844
              ],
              [
                108.43193817138672,
                53.192195892333984
              ],
              [
                108.82823944091797,
                53.25962829589844
              ],
              [
                109.6395263671875,
                54.27390670776367
              ],
              [
                109.55289459228516,
                54.27390670776367
              ],
              [
                109.66371154785156,
                54.4095458984375
              ],
              [
                109.54580688476562,
                54.47740173339844
              ],
              [
                109.60151672363281,
                54.545284271240234
              ],
              [
                109.51469421386719,
                54.545284271240234
              ],
              [
                109.73892974853516,
                54.817054748535156
              ],
              [
                109.65190887451172,
                54.817054748535156
              ],
              [
                109.76487731933594,
                54.95309066772461
              ],
              [
                109.6777572631836,
                54.95309066772461
              ],
              [
                109.84825134277344,
                55.15733337402344
              ],
              [
                109.76097869873047,
                55.15733337402344
              ],
              [
                109.98802185058594,
                55.83982467651367
              ],
              [
                110.72030639648438,
                55.97663879394531
              ],
              [
                110.66129302978516,
                55.90821838378906
              ],
              [
                111.10041809082031,
                55.90821838378906
              ],
              [
                111.04131317138672,
                55.83982467651367
              ],
              [
                113.0237045288086,
                55.498252868652344
              ],
              [
                113.1112289428711,
                55.498252868652344
              ]
            ]
          ],
          [
            [
              [
                109.01948547363281,
                53.93522644042969
              ],
              [
                109.10588073730469,
                53.93522644042969
              ],
              [
                108.8687973022461,
                53.52959060668945
              ],
              [
                108.52436065673828,
                53.52959060668945
              ],
              [
                108.59855651855469,
                53.732303619384766
              ],
              [
                108.93309783935547,
                53.93522644042969
              ],
              [
                109.01948547363281,
                53.93522644042969
              ]
            ]
          ]
        ]
      }
    }
  ]
}
