{
  "type": "FeatureCollection",
  "features": [
    {
      "type": "Feature",
      "properties": {
        "Name": "Qin",
        "FromYear": -315,
        "ToYear": -278,
        "Area": 632146.6282532023,
        "Type": "POLITY",
        "Wikipedia": "Qin (state)",
        "Wikidata": "Q1471995",
        "SeshatID": "",
        "Components": "",
        "MemberOf": "(Warring States China)",
        "displayYear": -300,
        "sourceYear": -300,
        "mappedTerritoryId": "cliopatria_qin"
      },
      "geometry": {
        "type": "Polygon",
        "coordinates": [
          [
            [
              110.28290557861328,
              29.922264099121094
            ],
            [
              107.4593734741211,
              28.829526901245117
            ],
            [
              106.02836608886719,
              28.572391510009766
            ],
            [
              106.06861114501953,
              28.44382095336914
            ],
            [
              105.1286392211914,
              28.315250396728516
            ],
            [
              104.06596374511719,
              28.572391510009766
            ],
            [
              103.89775848388672,
              28.508106231689453
            ],
            [
              103.85684967041016,
              28.636676788330078
            ],
            [
              102.9273452758789,
              28.829526901245117
            ],
            [
              102.60204315185547,
              29.022375106811523
            ],
            [
              101.48049926757812,
              29.34377670288086
            ],
            [
              101.44043731689453,
              29.472333908081055
            ],
            [
              101.15557098388672,
              29.536611557006836
            ],
            [
              100.98237609863281,
              29.729440689086914
            ],
            [
              101.01869201660156,
              29.857990264892578
            ],
            [
              100.82791137695312,
              29.986536026000977
            ],
            [
              100.86476135253906,
              30.115081787109375
            ],
            [
              100.67433166503906,
              30.243623733520508
            ],
            [
              100.67346954345703,
              30.500701904296875
            ],
            [
              100.59754180908203,
              30.500701904296875
            ],
            [
              100.98189544677734,
              31.271915435791016
            ],
            [
              101.83576965332031,
              32.043148040771484
            ],
            [
              102.1578369140625,
              32.557350158691406
            ],
            [
              102.31184387207031,
              33.45735549926758
            ],
            [
              102.23511505126953,
              33.45735549926758
            ],
            [
              102.32524871826172,
              33.71455001831055
            ],
            [
              102.24845123291016,
              33.71455001831055
            ],
            [
              102.40869140625,
              34.164703369140625
            ],
            [
              103.0943603515625,
              34.3576545715332
            ],
            [
              103.37882232666016,
              34.2933349609375
            ],
            [
              103.4793472290039,
              34.3576545715332
            ],
            [
              103.49715423583984,
              34.614952087402344
            ],
            [
              104.13311767578125,
              34.87228775024414
            ],
            [
              106.18482971191406,
              35.38706970214844
            ],
            [
              106.49311065673828,
              35.58015823364258
            ],
            [
              106.8026351928711,
              35.58015823364258
            ],
            [
              106.85404968261719,
              35.708900451660156
            ],
            [
              107.06050872802734,
              35.644527435302734
            ],
            [
              108.06928253173828,
              36.03080368041992
            ],
            [
              109.36707305908203,
              36.3527946472168
            ],
            [
              109.4216079711914,
              36.48161697387695
            ],
            [
              109.80998229980469,
              36.48161697387695
            ],
            [
              110.69812774658203,
              36.73930740356445
            ],
            [
              110.75434112548828,
              36.8681755065918
            ],
            [
              110.88175964355469,
              36.80373764038086
            ],
            [
              111.4337158203125,
              36.9970588684082
            ],
            [
              114.08081817626953,
              39.1264533996582
            ],
            [
              114.11334228515625,
              39.19107437133789
            ],
            [
              114.27063751220703,
              39.19107437133789
            ],
            [
              114.33613586425781,
              39.320335388183594
            ],
            [
              114.80831146240234,
              39.320335388183594
            ],
            [
              114.35895538330078,
              38.738853454589844
            ],
            [
              113.88731384277344,
              38.416015625
            ],
            [
              113.70160675048828,
              38.028785705566406
            ],
            [
              113.77981567382812,
              38.028785705566406
            ],
            [
              113.63429260253906,
              37.38381576538086
            ],
            [
              113.91649627685547,
              37.3193473815918
            ],
            [
              113.93522644042969,
              37.1904182434082
            ],
            [
              113.72062683105469,
              37.06150817871094
            ],
            [
              112.2818832397461,
              36.80373764038086
            ],
            [
              111.97317504882812,
              36.09519577026367
            ],
            [
              112.05072021484375,
              36.09519577026367
            ],
            [
              111.88277435302734,
              35.51579284667969
            ],
            [
              111.59017944335938,
              34.614952087402344
            ],
            [
              110.71676635742188,
              34.743614196777344
            ],
            [
              110.69108581542969,
              34.48630142211914
            ],
            [
              110.8196029663086,
              34.42197799682617
            ],
            [
              110.74469757080078,
              34.03607940673828
            ],
            [
              110.51399993896484,
              34.03607940673828
            ],
            [
              110.49124145507812,
              33.77885055541992
            ],
            [
              110.31290435791016,
              33.71455001831055
            ],
            [
              110.21489715576172,
              33.45735549926758
            ],
            [
              109.85958099365234,
              33.32876968383789
            ],
            [
              109.76367950439453,
              33.07160949707031
            ],
            [
              109.86934661865234,
              32.94303894042969
            ],
            [
              109.3124771118164,
              31.593257904052734
            ],
            [
              109.4751968383789,
              31.40045166015625
            ],
            [
              109.4763412475586,
              30.950578689575195
            ],
            [
              109.91582489013672,
              30.436433792114258
            ],
            [
              110.4056167602539,
              30.307893753051758
            ],
            [
              110.22734069824219,
              29.986536026000977
            ],
            [
              110.35868835449219,
              29.922264099121094
            ],
            [
              110.28290557861328,
              29.922264099121094
            ]
          ]
        ]
      }
    }
  ]
}
