{
  "type": "FeatureCollection",
  "features": [
    {
      "type": "Feature",
      "properties": {
        "Name": "Ayutthaya Kingdom",
        "FromYear": 1619,
        "ToYear": 1661,
        "Area": 382305.43393624347,
        "Type": "POLITY",
        "Wikipedia": "Ayutthaya Kingdom",
        "Wikidata": "Q841364",
        "SeshatID": "th_ayutthaya",
        "Components": "",
        "MemberOf": "",
        "displayYear": 1627,
        "sourceYear": 1627,
        "mappedTerritoryId": "cliopatria_ayutthaya_kingdom"
      },
      "geometry": {
        "type": "Polygon",
        "coordinates": [
          [
            [
              102.74337005615234,
              12.050291061401367
            ],
            [
              102.84342956542969,
              12.307440757751465
            ],
            [
              102.4069595336914,
              13.014603614807129
            ],
            [
              102.39213562011719,
              13.528904914855957
            ],
            [
              102.70829010009766,
              13.721768379211426
            ],
            [
              102.90162658691406,
              14.107494354248047
            ],
            [
              103.2273178100586,
              14.364645004272461
            ],
            [
              103.4476547241211,
              14.364645004272461
            ],
            [
              103.61087036132812,
              14.493220329284668
            ],
            [
              103.2850341796875,
              14.81466007232666
            ],
            [
              103.23311614990234,
              15.52182674407959
            ],
            [
              103.04821014404297,
              15.77897834777832
            ],
            [
              103.05729675292969,
              16.35757064819336
            ],
            [
              103.23283386230469,
              16.550434112548828
            ],
            [
              102.10115051269531,
              16.87187385559082
            ],
            [
              101.87055969238281,
              16.807586669921875
            ],
            [
              101.61363220214844,
              17.06473731994629
            ],
            [
              101.4661636352539,
              17.06473731994629
            ],
            [
              101.3119888305664,
              17.514753341674805
            ],
            [
              101.016845703125,
              17.514753341674805
            ],
            [
              101.27169799804688,
              18.2219181060791
            ],
            [
              101.13379669189453,
              18.286205291748047
            ],
            [
              101.1832275390625,
              18.607641220092773
            ],
            [
              101.3509521484375,
              18.736217498779297
            ],
            [
              101.4008560180664,
              19.057653427124023
            ],
            [
              101.18492889404297,
              19.571949005126953
            ],
            [
              100.65670776367188,
              19.507661819458008
            ],
            [
              100.62686157226562,
              19.314802169799805
            ],
            [
              100.74503326416016,
              19.12194061279297
            ],
            [
              100.58715057373047,
              19.057653427124023
            ],
            [
              100.56733703613281,
              18.929079055786133
            ],
            [
              100.18769836425781,
              18.864791870117188
            ],
            [
              99.75928497314453,
              18.479066848754883
            ],
            [
              99.61148071289062,
              18.479066848754883
            ],
            [
              99.58235931396484,
              18.286205291748047
            ],
            [
              98.6411361694336,
              18.414779663085938
            ],
            [
              98.28834533691406,
              18.029054641723633
            ],
            [
              97.83582305908203,
              17.964767456054688
            ],
            [
              97.79826354980469,
              17.707616806030273
            ],
            [
              97.9365234375,
              17.643327713012695
            ],
            [
              97.9178695678711,
              17.514753341674805
            ],
            [
              98.62763977050781,
              16.807586669921875
            ],
            [
              98.63817596435547,
              16.35757064819336
            ],
            [
              98.93278503417969,
              16.35757064819336
            ],
            [
              98.90609741210938,
              16.16470718383789
            ],
            [
              98.6676254272461,
              16.036130905151367
            ],
            [
              98.67230224609375,
              15.52182674407959
            ],
            [
              98.26284790039062,
              15.200387001037598
            ],
            [
              98.23027801513672,
              14.943235397338867
            ],
            [
              98.54225158691406,
              14.493220329284668
            ],
            [
              98.1802749633789,
              13.914630889892578
            ],
            [
              98.17291259765625,
              13.850343704223633
            ],
            [
              98.54146575927734,
              13.207467079162598
            ],
            [
              98.52066802978516,
              13.014603614807129
            ],
            [
              98.64683532714844,
              12.821741104125977
            ],
            [
              98.61006927490234,
              11.728853225708008
            ],
            [
              98.75652313232422,
              11.728853225708008
            ],
            [
              98.65278625488281,
              11.407415390014648
            ],
            [
              98.6962661743164,
              11.085978507995605
            ],
            [
              98.59989166259766,
              10.828827857971191
            ],
            [
              98.4478530883789,
              10.764540672302246
            ],
            [
              98.51185607910156,
              9.800228118896484
            ],
            [
              98.13398742675781,
              8.707340240478516
            ],
            [
              98.21086883544922,
              7.743025779724121
            ],
            [
              98.43426513671875,
              7.807313442230225
            ],
            [
              98.38385009765625,
              8.128751754760742
            ],
            [
              98.4707260131836,
              8.321614265441895
            ],
            [
              98.61675262451172,
              8.321614265441895
            ],
            [
              98.67129516601562,
              8.06446361541748
            ],
            [
              98.95419311523438,
              7.935888767242432
            ],
            [
              98.936279296875,
              7.678738594055176
            ],
            [
              99.22378540039062,
              7.614450931549072
            ],
            [
              99.27500915527344,
              7.293012619018555
            ],
            [
              99.49390411376953,
              7.293012619018555
            ],
            [
              99.48112487792969,
              7.100150108337402
            ],
            [
              99.62703704833984,
              7.100150108337402
            ],
            [
              99.6103286743164,
              6.842999458312988
            ],
            [
              99.95465850830078,
              6.521561145782471
            ],
            [
              100.027587890625,
              6.521561145782471
            ],
            [
              100.32742309570312,
              6.650136470794678
            ],
            [
              100.88675689697266,
              6.264410972595215
            ],
            [
              100.97164916992188,
              6.457273483276367
            ],
            [
              101.19856262207031,
              6.585848808288574
            ],
            [
              101.1463623046875,
              6.907287120819092
            ],
            [
              101.07341766357422,
              6.907287120819092
            ],
            [
              100.85457611083984,
              6.907287120819092
            ],
            [
              100.65270233154297,
              7.164437294006348
            ],
            [
              100.50678253173828,
              7.164437294006348
            ],
            [
              100.52853393554688,
              7.485875606536865
            ],
            [
              100.3825912475586,
              7.485875606536865
            ],
            [
              100.46891784667969,
              7.678738594055176
            ],
            [
              100.33651733398438,
              7.871601104736328
            ],
            [
              100.30083465576172,
              8.385902404785156
            ],
            [
              100.08655548095703,
              8.450189590454102
            ],
            [
              99.95985412597656,
              8.707340240478516
            ],
            [
              99.93186950683594,
              9.285927772521973
            ],
            [
              99.64473724365234,
              9.350214958190918
            ],
            [
              99.34225463867188,
              9.221640586853027
            ],
            [
              99.29487609863281,
              9.543078422546387
            ],
            [
              99.15916442871094,
              9.671652793884277
            ],
            [
              99.3143081665039,
              10.635965347290039
            ],
            [
              99.47783660888672,
              10.828827857971191
            ],
            [
              99.60441589355469,
              11.407415390014648
            ],
            [
              99.85491180419922,
              11.728853225708008
            ],
            [
              99.8802261352539,
              11.986002922058105
            ],
            [
              100.03314208984375,
              12.050291061401367
            ],
            [
              100.10314178466797,
              13.40032958984375
            ],
            [
              100.5578842163086,
              13.528904914855957
            ],
            [
              100.99075317382812,
              13.464617729187012
            ],
            [
              100.82551574707031,
              12.628878593444824
            ],
            [
              101.5516128540039,
              12.564591407775879
            ],
            [
              101.78524780273438,
              12.69316577911377
            ],
            [
              102.11073303222656,
              12.307440757751465
            ],
            [
              102.25727081298828,
              12.307440757751465
            ],
            [
              102.22405242919922,
              11.986002922058105
            ],
            [
              102.44378662109375,
              11.986002922058105
            ],
            [
              102.60350799560547,
              12.114578247070312
            ],
            [
              102.67012023925781,
              12.050291061401367
            ],
            [
              102.74337005615234,
              12.050291061401367
            ]
          ]
        ]
      }
    }
  ]
}
