{
  "type": "FeatureCollection",
  "features": [
    {
      "type": "Feature",
      "properties": {
        "Name": "Khalji Dynasty",
        "FromYear": 1294,
        "ToYear": 1304,
        "Area": 839845.5324120906,
        "Type": "POLITY",
        "Wikipedia": "Khalji dynasty",
        "Wikidata": "Q919071",
        "SeshatID": "in_delhi_sultanate",
        "Components": "",
        "MemberOf": "(Delhi Sultanate)",
        "displayYear": 1294,
        "sourceYear": 1294,
        "mappedTerritoryId": "cliopatria_khalji_dynasty"
      },
      "geometry": {
        "type": "Polygon",
        "coordinates": [
          [
            [
              78.75440979003906,
              24.393482208251953
            ],
            [
              78.44664001464844,
              24.329193115234375
            ],
            [
              78.31525421142578,
              24.457773208618164
            ],
            [
              77.22156524658203,
              24.650644302368164
            ],
            [
              77.23973846435547,
              24.779226303100586
            ],
            [
              77.09022521972656,
              24.779226303100586
            ],
            [
              77.0337905883789,
              24.907808303833008
            ],
            [
              76.80945587158203,
              24.907808303833008
            ],
            [
              75.26602172851562,
              25.615020751953125
            ],
            [
              75.28520202636719,
              25.743606567382812
            ],
            [
              74.41493225097656,
              25.936485290527344
            ],
            [
              74.22901916503906,
              26.19365882873535
            ],
            [
              74.26538848876953,
              26.900876998901367
            ],
            [
              74.0503921508789,
              26.96516990661621
            ],
            [
              73.9961929321289,
              27.093751907348633
            ],
            [
              72.37342834472656,
              27.2866268157959
            ],
            [
              70.27766418457031,
              27.35091781616211
            ],
            [
              69.4803237915039,
              27.54378890991211
            ],
            [
              68.58717346191406,
              27.608078002929688
            ],
            [
              68.51190185546875,
              27.608078002929688
            ],
            [
              69.648681640625,
              28.12238883972168
            ],
            [
              70.27439880371094,
              28.700960159301758
            ],
            [
              70.84062194824219,
              31.65752601623535
            ],
            [
              70.71514892578125,
              31.78606605529785
            ],
            [
              71.17280578613281,
              32.493072509765625
            ],
            [
              71.22974395751953,
              32.75019073486328
            ],
            [
              71.59382629394531,
              33.00732421875
            ],
            [
              71.4844970703125,
              33.20018768310547
            ],
            [
              71.52877807617188,
              33.393062591552734
            ],
            [
              72.1407699584961,
              34.03607940673828
            ],
            [
              72.4638671875,
              34.10039138793945
            ],
            [
              72.4175033569336,
              33.90746307373047
            ],
            [
              73.07823181152344,
              33.77885055541992
            ],
            [
              73.20095825195312,
              33.65024948120117
            ],
            [
              73.15493774414062,
              33.45735549926758
            ],
            [
              73.44652557373047,
              33.393062591552734
            ],
            [
              73.56936645507812,
              33.26447677612305
            ],
            [
              73.5087890625,
              33.00732421875
            ],
            [
              73.63191223144531,
              32.878753662109375
            ],
            [
              74.2142333984375,
              32.75019073486328
            ],
            [
              74.39876556396484,
              32.557350158691406
            ],
            [
              74.78112030029297,
              32.557350158691406
            ],
            [
              75.33260345458984,
              32.30024337768555
            ],
            [
              76.4021987915039,
              32.30024337768555
            ],
            [
              76.52459716796875,
              32.171695709228516
            ],
            [
              77.04389953613281,
              32.107421875
            ],
            [
              77.30365753173828,
              31.91460609436035
            ],
            [
              78.0361099243164,
              31.78606605529785
            ],
            [
              78.4480209350586,
              31.593257904052734
            ],
            [
              78.43291473388672,
              31.528987884521484
            ],
            [
              78.22080993652344,
              31.271915435791016
            ],
            [
              77.9015884399414,
              31.20764923095703
            ],
            [
              77.61511993408203,
              30.950578689575195
            ],
            [
              77.22660064697266,
              29.857990264892578
            ],
            [
              77.85149383544922,
              29.21521759033203
            ],
            [
              78.40449523925781,
              28.958093643188477
            ],
            [
              78.64281463623047,
              28.636676788330078
            ],
            [
              78.7938003540039,
              28.636676788330078
            ],
            [
              79.04532623291016,
              28.379535675048828
            ],
            [
              79.07120513916016,
              28.12238883972168
            ],
            [
              79.29981994628906,
              27.736658096313477
            ],
            [
              79.4504165649414,
              27.736658096313477
            ],
            [
              79.50180053710938,
              27.608078002929688
            ],
            [
              79.79096984863281,
              27.54378890991211
            ],
            [
              79.84253692626953,
              27.41520881652832
            ],
            [
              79.99300384521484,
              27.41520881652832
            ],
            [
              80.3221206665039,
              27.158044815063477
            ],
            [
              82.24661254882812,
              26.57941436767578
            ],
            [
              83.92684173583984,
              26.32224464416504
            ],
            [
              84.78112030029297,
              26.06507110595703
            ],
            [
              87.05895233154297,
              25.807899475097656
            ],
            [
              87.86009216308594,
              25.67931365966797
            ],
            [
              88.06192016601562,
              25.55072784423828
            ],
            [
              88.79930877685547,
              25.48643684387207
            ],
            [
              88.98982238769531,
              25.29355812072754
            ],
            [
              88.96739959716797,
              25.164974212646484
            ],
            [
              89.16963958740234,
              25.03639030456543
            ],
            [
              89.23468017578125,
              24.07203483581543
            ],
            [
              89.41809844970703,
              23.814878463745117
            ],
            [
              89.41387176513672,
              23.30057144165039
            ],
            [
              89.72889709472656,
              22.914846420288086
            ],
            [
              89.95169067382812,
              22.400548934936523
            ],
            [
              89.86945343017578,
              21.821969985961914
            ],
            [
              88.72795104980469,
              21.629112243652344
            ],
            [
              88.71597290039062,
              22.079116821289062
            ],
            [
              88.64161682128906,
              22.079116821289062
            ],
            [
              88.51387023925781,
              21.693397521972656
            ],
            [
              88.19908142089844,
              21.5648250579834
            ],
            [
              88.20438385009766,
              22.143402099609375
            ],
            [
              87.48543548583984,
              22.85055923461914
            ],
            [
              87.50386810302734,
              22.97913360595703
            ],
            [
              86.51652526855469,
              23.36486053466797
            ],
            [
              86.39564514160156,
              23.557723999023438
            ],
            [
              85.76240539550781,
              23.814878463745117
            ],
            [
              84.34489440917969,
              23.814878463745117
            ],
            [
              83.16972351074219,
              23.943456649780273
            ],
            [
              82.56351470947266,
              23.879167556762695
            ],
            [
              82.56049287961584,
              23.879167556762695
            ],
            [
              82.93339145886151,
              24.297523058861724
            ],
            [
              83.57803266670822,
              24.386439087530235
            ],
            [
              83.02230748753003,
              24.786561216538537
            ],
            [
              82.46658230835183,
              24.831019230872794
            ],
            [
              81.39958996432969,
              25.364515402883864
            ],
            [
              81.04392584965564,
              25.72017951755791
            ],
            [
              80.75494875648297,
              25.764637531892166
            ],
            [
              80.04362052713489,
              26.14253065373334
            ],
            [
              79.55458236945807,
              25.94246958922919
            ],
            [
              79.53235336229095,
              25.6312634888894
            ],
            [
              78.82102513294285,
              25.09776731687833
            ],
            [
              78.82137728897894,
              24.393482208251953
            ],
            [
              78.75440979003906,
              24.393482208251953
            ]
          ]
        ]
      }
    }
  ]
}
