{"type": "FeatureCollection", "features": [{"type": "Feature", "properties": {"name": "Xianbei", "displayYear": 229, "fromYear": 224, "toYear": 237, "wikipedia": "Xianbei", "seshatId": "mn_xianbei", "areaKm2": 625236.6753487133, "source": "Seshat Cliopatria"}, "geometry": {"type": "MultiPolygon", "coordinates": [[[[112.28623962402344, 43.79821014404297], [114.74771881103516, 43.6026611328125], [114.70836639404297, 43.53750228881836], [116.15947723388672, 43.276947021484375], [116.24117279052734, 43.146724700927734], [117.08500671386719, 43.08163070678711], [117.04537200927734, 43.016544342041016], [117.3664321899414, 43.016544342041016], [117.32677459716797, 42.95146560668945], [118.37019348144531, 42.82133865356445], [118.33041381835938, 42.75628662109375], [121.9803466796875, 42.95146560668945], [121.9390640258789, 42.88639831542969], [122.98171997070312, 42.88639831542969], [122.94014739990234, 42.82133865356445], [123.61998748779297, 42.75628662109375], [123.57836151123047, 42.691246032714844], [124.77632904052734, 42.56119155883789], [124.73454284667969, 42.496177673339844], [125.01649475097656, 42.56119155883789], [125.01287078857422, 42.43117141723633], [125.09286499023438, 42.43117141723633], [124.60717010498047, 42.17123794555664], [123.1669921875, 41.911441802978516], [121.02125549316406, 41.26253128051758], [119.3900146484375, 41.32738494873047], [119.4281005859375, 41.39224624633789], [118.7917709350586, 41.39224624633789], [118.82975006103516, 41.45711898803711], [118.63268280029297, 41.39224624633789], [118.67061614990234, 41.45711898803711], [118.43190002441406, 41.45711898803711], [118.46986389160156, 41.521995544433594], [118.03404998779297, 41.45711898803711], [118.0718765258789, 41.521995544433594], [117.79130554199219, 41.586883544921875], [117.70792388916016, 41.71668243408203], [117.82256317138672, 41.911441802978516], [117.70140075683594, 41.97637939453125], [117.73728942871094, 42.17123794555664], [117.33787536621094, 42.17123794555664], [115.99239349365234, 41.781593322753906], [114.95846557617188, 40.93837356567383], [113.76039123535156, 40.4848747253418], [113.6225357055664, 40.225894927978516], [113.0043716430664, 39.64360046386719], [111.74313354492188, 37.51277160644531], [110.45503997802734, 37.7707405090332], [110.48439025878906, 37.835243225097656], [110.09367370605469, 37.835243225097656], [110.12300872802734, 37.89975357055664], [108.8433609008789, 37.835243225097656], [108.74501037597656, 37.96426773071289], [108.51044464111328, 37.96426773071289], [108.53948974609375, 38.028785705566406], [107.3586196899414, 37.835243225097656], [105.77377319335938, 37.96426773071289], [104.54096221923828, 37.641746520996094], [104.36157989501953, 37.7707405090332], [103.76398468017578, 37.835243225097656], [103.6626205444336, 37.96426773071289], [103.8799057006836, 38.28691864013672], [103.75135040283203, 38.351463317871094], [104.10753631591797, 38.80344009399414], [103.60787963867188, 38.738853454589844], [103.6653060913086, 38.8680305480957], [104.6977767944336, 39.57893371582031], [104.57040405273438, 39.64360046386719], [104.58282470703125, 39.8376350402832], [104.34613037109375, 39.8376350402832], [104.37670135498047, 39.90232849121094], [104.53026580810547, 40.54964065551758], [104.45108032226562, 40.54964065551758], [104.9252700805664, 41.65177917480469], [105.1517333984375, 41.781593322753906], [105.83779907226562, 42.62621307373047], [106.90727996826172, 43.407203674316406], [108.01302337646484, 43.79821014404297], [108.2052230834961, 43.99384307861328], [108.41002655029297, 43.92862319946289], [109.89105224609375, 44.25482940673828], [111.18809509277344, 44.12431716918945], [111.14956665039062, 44.05907440185547], [111.55331420898438, 44.05907440185547], [111.51470947265625, 43.99384307861328], [111.87631225585938, 44.05907440185547], [111.83758544921875, 43.99384307861328], [112.324951171875, 43.86341094970703], [112.28623962402344, 43.79821014404297]]], [[[83.18070220947266, 51.04566955566406], [82.85647583007812, 50.912200927734375], [83.09622192382812, 51.04566955566406], [83.18070220947266, 51.04566955566406]]]]}}]}