{
  "type": "FeatureCollection",
  "features": [
    {
      "type": "Feature",
      "properties": {
        "Name": "Hoysala Kingdom",
        "FromYear": 1188,
        "ToYear": 1240,
        "Area": 111238.38945047895,
        "Type": "POLITY",
        "Wikipedia": "Hoysala Kingdom",
        "Wikidata": "Q466581",
        "SeshatID": "in_hoysala_k",
        "Components": "",
        "MemberOf": "",
        "displayYear": 1211,
        "sourceYear": 1211,
        "mappedTerritoryId": "cliopatria_hoysala_kingdom"
      },
      "geometry": {
        "type": "Polygon",
        "coordinates": [
          [
            [
              76.742,
              15.443
            ],
            [
              76.199,
              15.307
            ],
            [
              75.867,
              15.011
            ],
            [
              75.237,
              14.796
            ],
            [
              75.092,
              14.581
            ],
            [
              74.45756475807815,
              14.15215879398769
            ],
            [
              74.591,
              13.934
            ],
            [
              74.81406842675456,
              12.82202985820842
            ],
            [
              75.20476139579642,
              11.98941515932013
            ],
            [
              75.619,
              12.057
            ],
            [
              76.608,
              11.654
            ],
            [
              77.047,
              11.609
            ],
            [
              77.48,
              11.857
            ],
            [
              77.733,
              12.265
            ],
            [
              78.185,
              13.599
            ],
            [
              78.128,
              14.179
            ],
            [
              77.058,
              14.311
            ],
            [
              76.922,
              14.543
            ],
            [
              76.935,
              15.238
            ],
            [
              76.838,
              15.341
            ],
            [
              76.742,
              15.443
            ]
          ]
        ]
      }
    }
  ]
}
