{
  "type": "FeatureCollection",
  "features": [
    {
      "type": "Feature",
      "properties": {
        "Name": "Alans",
        "FromYear": 417,
        "ToYear": 425,
        "Area": 225365.97065482798,
        "Type": "POLITY",
        "Wikipedia": "Alans",
        "Wikidata": "Q178054",
        "SeshatID": "",
        "Components": "",
        "MemberOf": "",
        "displayYear": 417,
        "sourceYear": 417,
        "mappedTerritoryId": "cliopatria_alans"
      },
      "geometry": {
        "type": "Polygon",
        "coordinates": [
          [
            [
              -0.313707679510117,
              39.1264533996582
            ],
            [
              -0.717669129371643,
              39.320335388183594
            ],
            [
              -1.066495299339294,
              39.90232849121094
            ],
            [
              -1.469062924385071,
              40.031734466552734
            ],
            [
              -1.639176487922668,
              40.225894927978516
            ],
            [
              -1.955395221710205,
              40.225894927978516
            ],
            [
              -2.60548210144043,
              40.4848747253418
            ],
            [
              -3.56974458694458,
              40.6791877746582
            ],
            [
              -4.362152099609375,
              40.6791877746582
            ],
            [
              -5.006678104400635,
              40.80876541137695
            ],
            [
              -6.260063171386719,
              41.521995544433594
            ],
            [
              -6.854352474212646,
              41.06801223754883
            ],
            [
              -6.795145511627197,
              40.42012023925781
            ],
            [
              -7.009046077728271,
              40.16116714477539
            ],
            [
              -7.325160026550293,
              40.16116714477539
            ],
            [
              -7.39228630065918,
              40.031734466552734
            ],
            [
              -7.781115055084229,
              39.9670295715332
            ],
            [
              -7.926864624023438,
              39.8376350402832
            ],
            [
              -8.97181224822998,
              40.031734466552734
            ],
            [
              -8.965371131896973,
              39.9670295715332
            ],
            [
              -9.044321060180664,
              39.9670295715332
            ],
            [
              -9.157164573669434,
              39.51427459716797
            ],
            [
              -9.387048721313477,
              39.449623107910156
            ],
            [
              -9.42748737335205,
              39.06184005737305
            ],
            [
              -9.571974754333496,
              38.93262481689453
            ],
            [
              -9.553065299987793,
              38.738853454589844
            ],
            [
              -9.38370418548584,
              38.60969924926758
            ],
            [
              -9.23299789428711,
              38.67427444458008
            ],
            [
              -9.20852279663086,
              38.416015625
            ],
            [
              -8.822718620300293,
              38.48057174682617
            ],
            [
              -8.818843841552734,
              37.5772590637207
            ],
            [
              -8.896896362304688,
              37.5772590637207
            ],
            [
              -9.00136661529541,
              36.9970588684082
            ],
            [
              -8.70113754272461,
              37.12596130371094
            ],
            [
              -7.677903652191162,
              36.9970588684082
            ],
            [
              -7.454815864562988,
              37.12596130371094
            ],
            [
              -7.465344429016113,
              37.254878997802734
            ],
            [
              -7.387404441833496,
              37.254878997802734
            ],
            [
              -7.502705097198486,
              37.706241607666016
            ],
            [
              -7.27909517288208,
              37.835243225097656
            ],
            [
              -7.14418888092041,
              38.09331130981445
            ],
            [
              -6.841842651367188,
              38.22237777709961
            ],
            [
              -6.137285709381104,
              38.22237777709961
            ],
            [
              -5.530804634094238,
              38.48057174682617
            ],
            [
              -5.055703163146973,
              38.416015625
            ],
            [
              -4.908567905426025,
              38.54513168334961
            ],
            [
              -4.673359394073486,
              38.54513168334961
            ],
            [
              -4.345908164978027,
              38.351463317871094
            ],
            [
              -4.032582759857178,
              38.351463317871094
            ],
            [
              -3.932049989700317,
              38.028785705566406
            ],
            [
              -3.441591501235962,
              37.706241607666016
            ],
            [
              -2.968941926956177,
              37.641746520996094
            ],
            [
              -2.718870639801025,
              37.38381576538086
            ],
            [
              -2.703214645385742,
              37.12596130371094
            ],
            [
              -2.376519203186035,
              36.8681755065918
            ],
            [
              -2.298712491989136,
              36.8681755065918
            ],
            [
              -1.987486004829407,
              36.8681755065918
            ],
            [
              -1.857354998588562,
              37.3193473815918
            ],
            [
              -1.623468399047852,
              37.3193473815918
            ],
            [
              -1.708719491958618,
              37.44829177856445
            ],
            [
              -0.704753637313843,
              37.641746520996094
            ],
            [
              -0.803495347499847,
              38.028785705566406
            ],
            [
              -0.660861134529114,
              38.28691864013672
            ],
            [
              0.099359586834908,
              38.738853454589844
            ],
            [
              -0.310234129428864,
              39.06184005737305
            ],
            [
              -0.313707679510117,
              39.1264533996582
            ]
          ]
        ]
      }
    }
  ]
}
