{
  "type": "FeatureCollection",
  "features": [
    {
      "type": "Feature",
      "properties": {
        "Name": "Qara Qoyunlu",
        "FromYear": 1375,
        "ToYear": 1384,
        "Area": 338765.8893990384,
        "Type": "POLITY",
        "Wikipedia": "Qara Qoyunlu",
        "Wikidata": "Q324470",
        "SeshatID": "tr_qara_qoyunlu",
        "Components": "",
        "MemberOf": "",
        "displayYear": 1375,
        "sourceYear": 1375,
        "mappedTerritoryId": "cliopatria_qara_qoyunlu"
      },
      "geometry": {
        "type": "Polygon",
        "coordinates": [
          [
            [
              47.4007568359375,
              39.51427459716797
            ],
            [
              46.668357849121094,
              38.93262481689453
            ],
            [
              46.186065673828125,
              38.8680305480957
            ],
            [
              46.05096435546875,
              38.997230529785156
            ],
            [
              46.08419418334961,
              39.19107437133789
            ],
            [
              45.87046432495117,
              39.320335388183594
            ],
            [
              45.892845153808594,
              39.449623107910156
            ],
            [
              45.7578010559082,
              39.57893371582031
            ],
            [
              45.51023864746094,
              39.51427459716797
            ],
            [
              45.31856155395508,
              39.77294921875
            ],
            [
              44.94651412963867,
              39.90232849121094
            ],
            [
              44.82231903076172,
              40.0964469909668
            ],
            [
              44.247188568115234,
              39.9670295715332
            ],
            [
              44.1246223449707,
              39.70827102661133
            ],
            [
              43.766693115234375,
              39.449623107910156
            ],
            [
              43.057979583740234,
              39.449623107910156
            ],
            [
              43.16796112060547,
              39.64360046386719
            ],
            [
              43.08913803100586,
              39.64360046386719
            ],
            [
              43.110111236572266,
              39.77294921875
            ],
            [
              42.8155517578125,
              39.90232849121094
            ],
            [
              42.489471435546875,
              39.8376350402832
            ],
            [
              42.2734260559082,
              39.9670295715332
            ],
            [
              41.86845779418945,
              39.90232849121094
            ],
            [
              41.42521667480469,
              40.0964469909668
            ],
            [
              41.3870735168457,
              40.355369567871094
            ],
            [
              41.149749755859375,
              40.355369567871094
            ],
            [
              40.734127044677734,
              40.225894927978516
            ],
            [
              40.11150360107422,
              40.29063034057617
            ],
            [
              40.03242492675781,
              40.29063034057617
            ],
            [
              39.67759704589844,
              40.031734466552734
            ],
            [
              39.73749542236328,
              39.90232849121094
            ],
            [
              40.04360580444336,
              39.8376350402832
            ],
            [
              41.059410095214844,
              39.77294921875
            ],
            [
              41.02999496459961,
              39.57893371582031
            ],
            [
              40.76475524902344,
              39.38497543334961
            ],
            [
              40.74570846557617,
              39.25570297241211
            ],
            [
              38.87467575073242,
              38.80344009399414
            ],
            [
              38.84877014160156,
              38.60969924926758
            ],
            [
              39.310611724853516,
              38.54513168334961
            ],
            [
              39.36298370361328,
              38.351463317871094
            ],
            [
              39.441314697265625,
              38.351463317871094
            ],
            [
              39.43267822265625,
              38.28691864013672
            ],
            [
              39.510986328125,
              38.28691864013672
            ],
            [
              39.50235366821289,
              38.22237777709961
            ],
            [
              39.71128845214844,
              38.028785705566406
            ],
            [
              39.94593048095703,
              38.028785705566406
            ],
            [
              40.15450668334961,
              37.835243225097656
            ],
            [
              40.4583625793457,
              37.7707405090332
            ],
            [
              41.15172576904297,
              37.12596130371094
            ],
            [
              41.14310073852539,
              37.06150817871094
            ],
            [
              41.46357727050781,
              36.5460319519043
            ],
            [
              41.610443115234375,
              36.48161697387695
            ],
            [
              41.59345626831055,
              36.3527946472168
            ],
            [
              41.80934524536133,
              36.2239875793457
            ],
            [
              41.79243469238281,
              36.09519577026367
            ],
            [
              42.00814437866211,
              35.9664192199707
            ],
            [
              41.991310119628906,
              35.837650299072266
            ],
            [
              42.12941360473633,
              35.708900451660156
            ],
            [
              42.370140075683594,
              35.77327346801758
            ],
            [
              42.43064498901367,
              35.644527435302734
            ],
            [
              42.65435028076172,
              35.58015823364258
            ],
            [
              43.514259338378906,
              35.644527435302734
            ],
            [
              43.49683380126953,
              35.51579284667969
            ],
            [
              43.720176696777344,
              35.45143127441406
            ],
            [
              43.91899490356445,
              35.77327346801758
            ],
            [
              44.46109390258789,
              35.77327346801758
            ],
            [
              44.866641998291016,
              35.902034759521484
            ],
            [
              45.00319290161133,
              35.77327346801758
            ],
            [
              46.15534973144531,
              35.708900451660156
            ],
            [
              46.408206939697266,
              35.32271194458008
            ],
            [
              46.38014602661133,
              35.12965774536133
            ],
            [
              46.59315490722656,
              35.00096893310547
            ],
            [
              46.57455062866211,
              34.87228775024414
            ],
            [
              46.796695709228516,
              34.80794906616211
            ],
            [
              47.22975158691406,
              35.12965774536133
            ],
            [
              47.38422775268555,
              35.12965774536133
            ],
            [
              47.50995635986328,
              34.93662643432617
            ],
            [
              47.741485595703125,
              34.93662643432617
            ],
            [
              47.84764862060547,
              35.12965774536133
            ],
            [
              47.702850341796875,
              35.194007873535156
            ],
            [
              47.6840705871582,
              35.58015823364258
            ],
            [
              47.94601058959961,
              35.77327346801758
            ],
            [
              48.158321380615234,
              35.644527435302734
            ],
            [
              48.62272644042969,
              35.644527435302734
            ],
            [
              48.68388748168945,
              36.03080368041992
            ],
            [
              49.15947341918945,
              36.09519577026367
            ],
            [
              49.212074279785156,
              36.417205810546875
            ],
            [
              48.844852447509766,
              36.5460319519043
            ],
            [
              48.88734817504883,
              36.80373764038086
            ],
            [
              49.04291915893555,
              36.80373764038086
            ],
            [
              49.62006759643555,
              37.44829177856445
            ],
            [
              49.54206085205078,
              37.44829177856445
            ],
            [
              49.08510208129883,
              37.51277160644531
            ],
            [
              48.82852554321289,
              37.835243225097656
            ],
            [
              48.801002502441406,
              38.997230529785156
            ],
            [
              48.91546630859375,
              39.19107437133789
            ],
            [
              49.16353225708008,
              39.25570297241211
            ],
            [
              49.17570495605469,
              39.320335388183594
            ],
            [
              49.030479431152344,
              39.38497543334961
            ],
            [
              49.000797271728516,
              39.64360046386719
            ],
            [
              48.77663040161133,
              39.70827102661133
            ],
            [
              48.722476959228516,
              39.8376350402832
            ],
            [
              48.091285705566406,
              39.8376350402832
            ],
            [
              47.89728927612305,
              39.64360046386719
            ],
            [
              47.4007568359375,
              39.51427459716797
            ]
          ]
        ]
      }
    }
  ]
}
