{
  "type": "FeatureCollection",
  "features": [
    {
      "type": "Feature",
      "properties": {
        "Name": "Afghanistan",
        "FromYear": 1983,
        "ToYear": 1986,
        "Area": 582212.9652993329,
        "Type": "POLITY",
        "Wikipedia": "Afghanistan",
        "Wikidata": "Q889",
        "SeshatID": "af_afghanistan_rep",
        "Components": "",
        "MemberOf": "",
        "displayYear": 1984,
        "sourceYear": 1984,
        "mappedTerritoryId": "cliopatria_afghanistan"
      },
      "geometry": {
        "type": "MultiPolygon",
        "coordinates": [
          [
            [
              [
                74.58694458007812,
                37.1904182434082
              ],
              [
                74.55056762695312,
                37.06150817871094
              ],
              [
                74.10740661621094,
                36.8681755065918
              ],
              [
                72.37832641601562,
                36.80373764038086
              ],
              [
                71.98176574707031,
                36.48161697387695
              ],
              [
                71.38785552978516,
                36.28839111328125
              ],
              [
                71.22772979736328,
                35.9664192199707
              ],
              [
                71.5497055053711,
                35.708900451660156
              ],
              [
                71.5172119140625,
                35.58015823364258
              ],
              [
                71.65575408935547,
                35.51579284667969
              ],
              [
                71.60736846923828,
                35.32271194458008
              ],
              [
                71.6846694946289,
                35.32271194458008
              ],
              [
                71.51179504394531,
                34.93662643432617
              ],
              [
                71.04795837402344,
                34.614952087402344
              ],
              [
                71.01707458496094,
                34.48630142211914
              ],
              [
                71.1557388305664,
                34.42197799682617
              ],
              [
                71.18670654296875,
                34.22901916503906
              ],
              [
                70.72654724121094,
                33.90746307373047
              ],
              [
                69.98755645751953,
                34.03607940673828
              ],
              [
                69.92847442626953,
                33.77885055541992
              ],
              [
                70.20632934570312,
                33.65024948120117
              ],
              [
                70.17707824707031,
                33.52165222167969
              ],
              [
                70.31597137451172,
                33.45735549926758
              ],
              [
                70.2580337524414,
                33.20018768310547
              ],
              [
                69.53977966308594,
                33.07160949707031
              ],
              [
                69.54618072509766,
                32.75019073486328
              ],
              [
                69.33792877197266,
                32.493072509765625
              ],
              [
                69.292724609375,
                31.91460609436035
              ],
              [
                69.08743286132812,
                31.65752601623535
              ],
              [
                68.78253173828125,
                31.65752601623535
              ],
              [
                68.6561279296875,
                31.78606605529785
              ],
              [
                68.12230682373047,
                31.78606605529785
              ],
              [
                67.93124389648438,
                31.593257904052734
              ],
              [
                67.61372375488281,
                31.528987884521484
              ],
              [
                67.6646499633789,
                31.40045166015625
              ],
              [
                67.81696319580078,
                31.40045166015625
              ],
              [
                67.71569061279297,
                31.271915435791016
              ],
              [
                66.87832641601562,
                31.271915435791016
              ],
              [
                66.43708038330078,
                30.950578689575195
              ],
              [
                66.33809661865234,
                29.986536026000977
              ],
              [
                66.26229095458984,
                29.986536026000977
              ],
              [
                66.25102233886719,
                29.922264099121094
              ],
              [
                65.99028778076172,
                29.729440689086914
              ],
              [
                65.12470245361328,
                29.536611557006836
              ],
              [
                64.52979278564453,
                29.600887298583984
              ],
              [
                64.11966705322266,
                29.40805435180664
              ],
              [
                63.827423095703125,
                29.472333908081055
              ],
              [
                63.837886810302734,
                29.536611557006836
              ],
              [
                63.76219177246094,
                29.536611557006836
              ],
              [
                63.75174331665039,
                29.472333908081055
              ],
              [
                62.3036994934082,
                29.40805435180664
              ],
              [
                61.001495361328125,
                29.79371452331543
              ],
              [
                60.92573928833008,
                29.79371452331543
              ],
              [
                60.95616912841797,
                29.986536026000977
              ],
              [
                61.38716506958008,
                30.307893753051758
              ],
              [
                61.87461853027344,
                30.950578689575195
              ],
              [
                61.91905212402344,
                31.20764923095703
              ],
              [
                61.72434997558594,
                31.40045166015625
              ],
              [
                61.115089416503906,
                31.40045166015625
              ],
              [
                60.84385299682617,
                31.593257904052734
              ],
              [
                60.88142776489258,
                32.23596954345703
              ],
              [
                60.65742874145508,
                32.685909271240234
              ],
              [
                60.692955017089844,
                32.878753662109375
              ],
              [
                60.61639404296875,
                32.878753662109375
              ],
              [
                60.68838119506836,
                33.26447677612305
              ],
              [
                60.890625,
                33.52165222167969
              ],
              [
                60.59587860107422,
                33.5859489440918
              ],
              [
                60.56838607788086,
                33.84315490722656
              ],
              [
                60.49154281616211,
                33.84315490722656
              ],
              [
                60.56644058227539,
                34.22901916503906
              ],
              [
                60.82268524169922,
                34.3576545715332
              ],
              [
                60.783958435058594,
                34.55062484741211
              ],
              [
                60.95094299316406,
                34.614952087402344
              ],
              [
                61.15635299682617,
                34.48630142211914
              ],
              [
                61.90065383911133,
                34.3576545715332
              ],
              [
                61.39073181152344,
                33.32876968383789
              ],
              [
                61.46742248535156,
                33.32876968383789
              ],
              [
                61.52305221557617,
                32.81447219848633
              ],
              [
                61.6640625,
                32.75019073486328
              ],
              [
                61.692596435546875,
                32.493072509765625
              ],
              [
                61.874393463134766,
                32.23596954345703
              ],
              [
                62.17992401123047,
                32.23596954345703
              ],
              [
                62.308937072753906,
                32.107421875
              ],
              [
                62.919715881347656,
                32.107421875
              ],
              [
                62.972164154052734,
                31.978878021240234
              ],
              [
                64.32142639160156,
                31.8503360748291
              ],
              [
                64.37348175048828,
                31.7217960357666
              ],
              [
                64.90718078613281,
                31.7217960357666
              ],
              [
                65.16047668457031,
                31.8503360748291
              ],
              [
                65.7831802368164,
                31.91460609436035
              ],
              [
                66.11359405517578,
                32.043148040771484
              ],
              [
                66.1390151977539,
                32.171695709228516
              ],
              [
                64.9562759399414,
                31.978878021240234
              ],
              [
                63.185020446777344,
                32.30024337768555
              ],
              [
                62.163360595703125,
                32.557350158691406
              ],
              [
                62.18757247924805,
                32.685909271240234
              ],
              [
                61.98231506347656,
                32.81447219848633
              ],
              [
                61.95470428466797,
                33.07160949707031
              ],
              [
                61.87808609008789,
                33.07160949707031
              ],
              [
                61.990299224853516,
                33.65024948120117
              ],
              [
                62.323463439941406,
                34.164703369140625
              ],
              [
                62.42867660522461,
                34.679283142089844
              ],
              [
                62.30107498168945,
                34.80794906616211
              ],
              [
                62.472572326660156,
                35.258358001708984
              ],
              [
                63.0549430847168,
                35.45143127441406
              ],
              [
                63.188148498535156,
                35.708900451660156
              ],
              [
                63.11072540283203,
                35.708900451660156
              ],
              [
                63.138858795166016,
                35.837650299072266
              ],
              [
                63.61789321899414,
                35.902034759521484
              ],
              [
                63.971099853515625,
                36.09519577026367
              ],
              [
                64.57685089111328,
                36.03080368041992
              ],
              [
                64.96099090576172,
                36.3527946472168
              ],
              [
                65.09716033935547,
                36.932613372802734
              ],
              [
                65.42393493652344,
                36.9970588684082
              ],
              [
                65.70548248291016,
                37.51277160644531
              ],
              [
                66.74937438964844,
                37.3193473815918
              ],
              [
                66.82524871826172,
                36.9970588684082
              ],
              [
                66.09332275390625,
                36.8681755065918
              ],
              [
                66.01602935791016,
                36.5460319519043
              ],
              [
                66.17268371582031,
                36.2239875793457
              ],
              [
                66.42071533203125,
                36.28839111328125
              ],
              [
                66.38909149169922,
                36.48161697387695
              ],
              [
                66.51324462890625,
                36.67487716674805
              ],
              [
                66.82421112060547,
                36.67487716674805
              ],
              [
                67.02609252929688,
                36.5460319519043
              ],
              [
                67.89665222167969,
                36.61045455932617
              ],
              [
                68.11386108398438,
                36.5460319519043
              ],
              [
                68.08211517333984,
                36.417205810546875
              ],
              [
                68.36100769042969,
                36.28839111328125
              ],
              [
                68.37541198730469,
                35.708900451660156
              ],
              [
                68.80889892578125,
                35.58015823364258
              ],
              [
                68.88780212402344,
                34.93662643432617
              ],
              [
                69.02702331542969,
                34.87228775024414
              ],
              [
                68.87490844726562,
                34.55062484741211
              ],
              [
                68.59944152832031,
                34.3576545715332
              ],
              [
                68.72403717041016,
                34.22901916503906
              ],
              [
                69.1060791015625,
                34.55062484741211
              ],
              [
                70.20130157470703,
                34.2933349609375
              ],
              [
                70.52438354492188,
                34.3576545715332
              ],
              [
                70.49310302734375,
                34.55062484741211
              ],
              [
                70.2467041015625,
                34.48630142211914
              ],
              [
                70.20011901855469,
                34.614952087402344
              ],
              [
                69.98411560058594,
                34.679283142089844
              ],
              [
                69.22822570800781,
                34.743614196777344
              ],
              [
                69.22657775878906,
                35.38706970214844
              ],
              [
                69.07193756103516,
                35.38706970214844
              ],
              [
                69.13400268554688,
                35.644527435302734
              ],
              [
                68.80935668945312,
                35.902034759521484
              ],
              [
                69.11137390136719,
                36.80373764038086
              ],
              [
                68.97216796875,
                36.8681755065918
              ],
              [
                69.0548095703125,
                37.1904182434082
              ],
              [
                69.3497543334961,
                37.12596130371094
              ],
              [
                69.5460205078125,
                37.5772590637207
              ],
              [
                70.07515716552734,
                37.51277160644531
              ],
              [
                70.26583862304688,
                37.641746520996094
              ],
              [
                70.16192626953125,
                37.835243225097656
              ],
              [
                70.2146987915039,
                38.028785705566406
              ],
              [
                70.71366119384766,
                38.416015625
              ],
              [
                71.18379211425781,
                38.416015625
              ],
              [
                71.3639907836914,
                38.22237777709961
              ],
              [
                71.27379608154297,
                37.89975357055664
              ],
              [
                71.56851959228516,
                37.835243225097656
              ],
              [
                71.41844177246094,
                36.9970588684082
              ],
              [
                71.58341979980469,
                36.73930740356445
              ],
              [
                72.24005126953125,
                36.8681755065918
              ],
              [
                73.33428192138672,
                37.44829177856445
              ],
              [
                73.72431945800781,
                37.44829177856445
              ],
              [
                73.82582092285156,
                37.254878997802734
              ],
              [
                74.09605407714844,
                37.38381576538086
              ],
              [
                74.79792022705078,
                37.38381576538086
              ],
              [
                74.91697692871094,
                37.254878997802734
              ],
              [
                74.58694458007812,
                37.1904182434082
              ]
            ],
            [
              [
                70.93431091308594,
                36.932613372802734
              ],
              [
                70.545166015625,
                36.932613372802734
              ],
              [
                70.2614517211914,
                36.73930740356445
              ],
              [
                70.47804260253906,
                36.67487716674805
              ],
              [
                70.52249145507812,
                36.5460319519043
              ],
              [
                70.84998321533203,
                36.61045455932617
              ],
              [
                70.86674499511719,
                36.67487716674805
              ],
              [
                70.94448852539062,
                36.67487716674805
              ],
              [
                70.93431091308594,
                36.932613372802734
              ]
            ],
            [
              [
                68.38367462158203,
                33.393062591552734
              ],
              [
                68.62794494628906,
                33.45735549926758
              ],
              [
                68.54564666748047,
                33.77885055541992
              ],
              [
                68.39200592041016,
                33.77885055541992
              ],
              [
                68.36347961425781,
                33.65024948120117
              ],
              [
                68.28669738769531,
                33.65024948120117
              ],
              [
                68.25839233398438,
                33.52165222167969
              ],
              [
                68.38367462158203,
                33.393062591552734
              ]
            ]
          ],
          [
            [
              [
                61.303009033203125,
                35.58015823364258
              ],
              [
                61.80400085449219,
                35.38706970214844
              ],
              [
                62.190589904785156,
                35.38706970214844
              ],
              [
                62.227210998535156,
                35.194007873535156
              ],
              [
                62.03245162963867,
                35.00096893310547
              ],
              [
                62.03001022338867,
                34.614952087402344
              ],
              [
                61.06689453125,
                34.80794906616211
              ],
              [
                61.303009033203125,
                35.58015823364258
              ]
            ]
          ],
          [
            [
              [
                68.27191162109375,
                36.8681755065918
              ],
              [
                68.03849029541016,
                36.8681755065918
              ],
              [
                68.16499328613281,
                37.06150817871094
              ],
              [
                68.68179321289062,
                37.254878997802734
              ],
              [
                68.75973510742188,
                37.254878997802734
              ],
              [
                68.67384338378906,
                36.61045455932617
              ],
              [
                68.27191162109375,
                36.8681755065918
              ]
            ]
          ],
          [
            [
              [
                67.89899444580078,
                36.932613372802734
              ],
              [
                67.43202209472656,
                36.932613372802734
              ],
              [
                67.55816650390625,
                37.12596130371094
              ],
              [
                67.63606262207031,
                37.12596130371094
              ],
              [
                67.8081283569336,
                37.1904182434082
              ],
              [
                67.9313735961914,
                37.06150817871094
              ],
              [
                67.89899444580078,
                36.932613372802734
              ]
            ]
          ],
          [
            [
              [
                67.30838775634766,
                37.06150817871094
              ],
              [
                67.13665008544922,
                36.9970588684082
              ],
              [
                66.99689483642578,
                37.06150817871094
              ],
              [
                67.0289535522461,
                37.1904182434082
              ],
              [
                66.95103454589844,
                37.1904182434082
              ],
              [
                66.98326110839844,
                37.3193473815918
              ],
              [
                67.34062194824219,
                37.1904182434082
              ],
              [
                67.30838775634766,
                37.06150817871094
              ]
            ]
          ]
        ]
      }
    }
  ]
}
