{
  "type": "FeatureCollection",
  "features": [
    {
      "type": "Feature",
      "properties": {
        "Name": "Kingdom of Bohemia",
        "FromYear": 1305,
        "ToYear": 1313,
        "Area": 155930.78256961686,
        "Type": "POLITY",
        "Wikipedia": "Kingdom of Bohemia",
        "Wikidata": "Q42585",
        "SeshatID": "cz_bohemian_k_1",
        "Components": "",
        "MemberOf": "(Holy Roman Empire);(Kingdom of Bohemia)",
        "displayYear": 1307,
        "sourceYear": 1307,
        "mappedTerritoryId": "cliopatria_kingdom_of_bohemia"
      },
      "geometry": {
        "type": "Polygon",
        "coordinates": [
          [
            [
              17.3731632232666,
              51.112430572509766
            ],
            [
              17.376596450805664,
              51.17921447753906
            ],
            [
              17.46116065979004,
              51.17921447753906
            ],
            [
              17.464651107788086,
              51.24601745605469
            ],
            [
              17.549257278442383,
              51.24601745605469
            ],
            [
              17.972288131713867,
              51.24601745605469
            ],
            [
              18.049345016479492,
              51.112430572509766
            ],
            [
              18.709320068359375,
              50.84549331665039
            ],
            [
              18.70132827758789,
              50.71213912963867
            ],
            [
              19.030193328857422,
              50.578861236572266
            ],
            [
              19.022031784057617,
              50.445655822753906
            ],
            [
              19.18613052368164,
              50.37908172607422
            ],
            [
              19.17385482788086,
              50.17946243286133
            ],
            [
              19.089900970458984,
              50.17946243286133
            ],
            [
              19.085887908935547,
              50.11296081542969
            ],
            [
              19.081897735595703,
              50.04647445678711
            ],
            [
              19.165773391723633,
              50.04647445678711
            ],
            [
              19.388931274414062,
              49.58156967163086
            ],
            [
              19.865541458129883,
              49.18375015258789
            ],
            [
              20.21193504333496,
              49.38258361816406
            ],
            [
              20.95870590209961,
              49.316287994384766
            ],
            [
              21.385677337646484,
              49.44889450073242
            ],
            [
              21.79827117919922,
              49.38258361816406
            ],
            [
              22.43976593017578,
              49.051273345947266
            ],
            [
              22.056705474853516,
              48.38986587524414
            ],
            [
              20.576623916625977,
              48.5881233215332
            ],
            [
              20.13701820373535,
              48.191749572753906
            ],
            [
              19.474376678466797,
              48.191749572753906
            ],
            [
              19.523818969726562,
              47.598209381103516
            ],
            [
              19.262161254882812,
              47.33478927612305
            ],
            [
              18.7745361328125,
              47.46647262573242
            ],
            [
              18.622739791870117,
              47.730003356933594
            ],
            [
              17.714326858520508,
              47.730003356933594
            ],
            [
              17.064254760742188,
              47.993770599365234
            ],
            [
              17.056297302246094,
              47.79592514038086
            ],
            [
              16.885942459106445,
              47.664100646972656
            ],
            [
              16.475584030151367,
              47.730003356933594
            ],
            [
              16.63585662841797,
              47.598209381103516
            ],
            [
              16.63099479675293,
              47.46647262573242
            ],
            [
              16.46375846862793,
              47.4006233215332
            ],
            [
              16.452110290527344,
              47.07159423828125
            ],
            [
              16.036643981933594,
              46.94007873535156
            ],
            [
              16.138551712036133,
              47.53233337402344
            ],
            [
              16.303508758544922,
              47.53233337402344
            ],
            [
              16.3150634765625,
              47.86185836791992
            ],
            [
              16.986814498901367,
              48.1257438659668
            ],
            [
              16.989469528198242,
              48.191749572753906
            ],
            [
              16.829010009765625,
              48.323814392089844
            ],
            [
              16.92527961730957,
              48.654239654541016
            ],
            [
              16.84486961364746,
              48.72037124633789
            ],
            [
              16.179914474487305,
              48.72037124633789
            ],
            [
              15.68774127960205,
              48.91886520385742
            ],
            [
              14.940543174743652,
              48.98506164550781
            ],
            [
              14.850005149841309,
              48.72037124633789
            ],
            [
              14.597285270690918,
              48.5881233215332
            ],
            [
              14.100465774536133,
              48.654239654541016
            ],
            [
              13.606999397277832,
              48.91886520385742
            ],
            [
              13.52376937866211,
              48.91886520385742
            ],
            [
              13.525009155273438,
              48.98506164550781
            ],
            [
              13.441741943359375,
              48.98506164550781
            ],
            [
              13.358475685119629,
              48.98506164550781
            ],
            [
              13.112967491149902,
              49.2500114440918
            ],
            [
              12.780244827270508,
              49.316287994384766
            ],
            [
              12.36764907836914,
              49.71431350708008
            ],
            [
              12.370920181274414,
              49.98000717163086
            ],
            [
              12.12159538269043,
              50.17946243286133
            ],
            [
              12.12234115600586,
              50.2459831237793
            ],
            [
              12.290331840515137,
              50.2459831237793
            ],
            [
              12.376081466674805,
              50.37908172607422
            ],
            [
              12.796454429626465,
              50.37908172607422
            ],
            [
              13.2220458984375,
              50.64549255371094
            ],
            [
              13.985281944274902,
              50.84549331665039
            ],
            [
              14.069639205932617,
              50.84549331665039
            ],
            [
              14.153997421264648,
              50.84549331665039
            ],
            [
              14.155805587768555,
              50.912200927734375
            ],
            [
              14.240204811096191,
              50.912200927734375
            ],
            [
              14.2420654296875,
              50.97892379760742
            ],
            [
              14.326505661010742,
              50.97892379760742
            ],
            [
              14.328418731689453,
              51.04566955566406
            ],
            [
              14.497381210327148,
              51.04566955566406
            ],
            [
              14.577799797058105,
              50.912200927734375
            ],
            [
              15.255345344543457,
              50.97892379760742
            ],
            [
              15.416954040527344,
              50.77880859375
            ],
            [
              15.922855377197266,
              50.77880859375
            ],
            [
              16.086057662963867,
              50.64549255371094
            ],
            [
              16.338764190673828,
              50.64549255371094
            ],
            [
              16.335948944091797,
              50.578861236572266
            ],
            [
              16.835050582885742,
              50.445655822753906
            ],
            [
              16.919164657592773,
              50.445655822753906
            ],
            [
              17.28526496887207,
              51.04566955566406
            ],
            [
              17.369747161865234,
              51.04566955566406
            ],
            [
              17.3731632232666,
              51.112430572509766
            ]
          ]
        ]
      }
    }
  ]
}
