{
  "type": "FeatureCollection",
  "features": [
    {
      "type": "Feature",
      "properties": {
        "Name": "Eastern Ganga Kingdom",
        "FromYear": 1056,
        "ToYear": 1151,
        "Area": 163984.74544627528,
        "Type": "POLITY",
        "Wikipedia": "Eastern Ganga dynasty",
        "Wikidata": "Q250515",
        "SeshatID": "in_ganga_k",
        "Components": "",
        "MemberOf": "",
        "displayYear": 1069,
        "sourceYear": 1069,
        "mappedTerritoryId": "cliopatria_eastern_ganga_kingdom"
      },
      "geometry": {
        "type": "Polygon",
        "coordinates": [
          [
            [
              87.238284092996,
              21.449479873526876
            ],
            [
              86.89155219584255,
              21.969577719257043
            ],
            [
              85.72752368397028,
              22.464909000904818
            ],
            [
              83.27563383981379,
              21.20181423270299
            ],
            [
              82.30973784060063,
              20.557883566560882
            ],
            [
              82.18590502018868,
              19.864419772253996
            ],
            [
              81.66580717445852,
              19.270022234276666
            ],
            [
              82.1363718920239,
              18.477492183640223
            ],
            [
              82.8050691222484,
              18.031694030157226
            ],
            [
              83.10226789123706,
              17.486829620344672
            ],
            [
              84.26629640310934,
              18.304126235063503
            ],
            [
              85.10835958191056,
              19.36908849060622
            ],
            [
              86.37145435011239,
              19.864419772253996
            ],
            [
              86.84201906767777,
              20.235918233489826
            ],
            [
              87.08968470850166,
              20.706482951055214
            ],
            [
              86.86678563176017,
              21.226580796785377
            ],
            [
              87.238284092996,
              21.449479873526876
            ]
          ]
        ]
      }
    }
  ]
}
