{"type": "FeatureCollection", "features": [{"type": "Feature", "properties": {"name": "Maitraka Dynasty", "displayYear": 600, "fromYear": 555, "toYear": 611, "wikipedia": "Maitraka dynasty", "seshatId": "in_maitraka_dyn", "areaKm2": 149998.20886854813, "source": "Seshat Cliopatria"}, "geometry": {"type": "Polygon", "coordinates": [[[72.884617643482, 20.768602562098703], [73.31131749894496, 21.030386675450607], [73.66299200976466, 21.500336302772716], [73.43738949338976, 22.38045960727579], [73.77579326795212, 22.564404556908872], [74.79763995976789, 22.607289840887525], [74.45260081707687, 23.352555893027517], [74.08102020187113, 23.80865195355691], [72.46199037847468, 24.036102789241387], [69.81447849513383, 23.90271351937204], [69.38317956677001, 24.114858727006876], [68.41748046874997, 23.571484375], [68.64072265625002, 23.18994140625], [69.2359375, 22.84853515625], [69.6646484375, 22.75908203125], [70.33945312500002, 22.939746093750003], [70.4892578125, 23.08950195312499], [70.17724609374997, 22.572753906250004], [69.2765625, 22.285498046874988], [69.05166015625, 22.43730468749999], [68.969921875, 22.290283203124993], [70.48505859375, 20.840185546875], [71.024609375, 20.738867187499988], [72.015234375, 21.15571289062499], [72.25400390625, 21.531005859375], [72.2103515625, 21.728222656249994], [72.03720703125002, 21.823046875], [72.27441406250001, 22.08974609374998], [72.30644531250003, 22.189208984375], [72.18281249999998, 22.2697265625], [72.59013671875003, 22.278125], [72.80917968749998, 22.233300781249977], [72.55302734375003, 22.159960937499996], [72.522265625, 21.976220703124977], [72.70019531249997, 21.971923828124996], [72.54306640624998, 21.69658203124999], [73.1125, 21.750439453125], [72.61328124999997, 21.461816406249977], [72.73476562500005, 21.470800781249984], [72.623828125, 21.371972656249984], [72.87890624999999, 20.82851562499998], [72.884617643482, 20.768602562098703]]]}}]}