{
  "type": "FeatureCollection",
  "features": [
    {
      "type": "Feature",
      "properties": {
        "Name": "Zheng",
        "FromYear": -750,
        "ToYear": -451,
        "Area": 5552.990150388705,
        "Type": "POLITY",
        "Wikipedia": "Zheng (state)",
        "Wikidata": "Q197598",
        "SeshatID": "",
        "Components": "",
        "MemberOf": "(Spring and Autumn States)",
        "displayYear": -506,
        "sourceYear": -506,
        "mappedTerritoryId": "cliopatria_zheng"
      },
      "geometry": {
        "type": "Polygon",
        "coordinates": [
          [
            [
              113.68472290039062,
              35.38706970214844
            ],
            [
              113.60740661621094,
              35.38706970214844
            ],
            [
              113.53009033203125,
              35.38706970214844
            ],
            [
              113.34137725830078,
              34.93662643432617
            ],
            [
              113.6738052368164,
              34.80794906616211
            ],
            [
              113.75093841552734,
              34.80794906616211
            ],
            [
              114.47205352783203,
              34.87228775024414
            ],
            [
              114.4990234375,
              34.93662643432617
            ],
            [
              114.3758544921875,
              35.194007873535156
            ],
            [
              114.4080810546875,
              35.45143127441406
            ],
            [
              114.33074188232422,
              35.45143127441406
            ],
            [
              114.30327606201172,
              35.38706970214844
            ],
            [
              114.2259521484375,
              35.38706970214844
            ],
            [
              113.76204681396484,
              35.38706970214844
            ],
            [
              113.68472290039062,
              35.38706970214844
            ]
          ]
        ]
      }
    }
  ]
}
