{
  "type": "FeatureCollection",
  "features": [
    {
      "type": "Feature",
      "properties": {
        "Name": "Netherlands Antilles",
        "FromYear": 1877,
        "ToYear": 2023,
        "Area": 149155.33638803955,
        "Type": "POLITY",
        "Wikipedia": "Netherlands Antilles",
        "Wikidata": "Q25227",
        "SeshatID": "",
        "Components": "",
        "MemberOf": "",
        "displayYear": 1898,
        "sourceYear": 1898,
        "mappedTerritoryId": "cliopatria_netherlands_antilles"
      },
      "geometry": {
        "type": "MultiPolygon",
        "coordinates": [
          [
            [
              [
                -54.96994400024414,
                2.535728216171265
              ],
              [
                -55.333988189697266,
                2.535728216171265
              ],
              [
                -55.5521125793457,
                2.407152891159058
              ],
              [
                -56.061912536621094,
                2.471440553665161
              ],
              [
                -56.207244873046875,
                2.342865228652954
              ],
              [
                -56.20698165893555,
                2.150002479553223
              ],
              [
                -55.988525390625,
                1.957139730453491
              ],
              [
                -56.134193420410156,
                1.828564524650574
              ],
              [
                -56.71652603149414,
                1.892852187156677
              ],
              [
                -56.935001373291016,
                2.150002479553223
              ],
              [
                -56.93560791015625,
                2.471440553665161
              ],
              [
                -57.2280387878418,
                2.7928786277771
              ],
              [
                -57.303497314453125,
                3.242892026901245
              ],
              [
                -57.66859817504883,
                3.371467113494873
              ],
              [
                -58.11049270629883,
                3.885768175125122
              ],
              [
                -58.11433410644531,
                4.207206249237061
              ],
              [
                -57.90019607543945,
                4.528644561767578
              ],
              [
                -57.90628433227539,
                4.914370536804199
              ],
              [
                -57.325496673583984,
                5.042945861816406
              ],
              [
                -57.33391571044922,
                5.492959022521973
              ],
              [
                -57.19075012207031,
                5.62153434753418
              ],
              [
                -57.12480926513672,
                5.942972660064697
              ],
              [
                -57.051902770996094,
                5.942972660064697
              ],
              [
                -56.4700813293457,
                6.007260322570801
              ],
              [
                -55.955501556396484,
                5.81439733505249
              ],
              [
                -55.88679504394531,
                6.007260322570801
              ],
              [
                -55.156288146972656,
                5.942972660064697
              ],
              [
                -55.08619689941406,
                6.071547985076904
              ],
              [
                -54.940372467041016,
                6.071547985076904
              ],
              [
                -54.20848083496094,
                5.942972660064697
              ],
              [
                -54.06001281738281,
                5.81439733505249
              ],
              [
                -54.058719635009766,
                5.750109672546387
              ],
              [
                -54.124351501464844,
                5.364383697509766
              ],
              [
                -54.41255569458008,
                5.171521186828613
              ],
              [
                -54.482295989990234,
                4.978658199310303
              ],
              [
                -54.47108840942383,
                4.142918586730957
              ],
              [
                -54.32212448120117,
                3.821480512619019
              ],
              [
                -54.10247039794922,
                3.692905426025391
              ],
              [
                -54.10001754760742,
                3.371467113494873
              ],
              [
                -54.244842529296875,
                3.242892026901245
              ],
              [
                -54.24263000488281,
                2.7928786277771
              ],
              [
                -54.46000671386719,
                2.407152891159058
              ],
              [
                -54.60551834106445,
                2.342865228652954
              ],
              [
                -54.96994400024414,
                2.535728216171265
              ]
            ]
          ],
          [
            [
              [
                -69.10977172851562,
                12.178865432739258
              ],
              [
                -69.12454223632812,
                12.37172794342041
              ],
              [
                -68.74346923828125,
                12.178865432739258
              ],
              [
                -68.65585327148438,
                11.986002922058105
              ],
              [
                -68.95360565185547,
                12.050291061401367
              ],
              [
                -68.95840454101562,
                12.114578247070312
              ],
              [
                -69.10977172851562,
                12.178865432739258
              ]
            ]
          ],
          [
            [
              [
                -68.16221618652344,
                12.24315357208252
              ],
              [
                -68.14785766601562,
                12.050291061401367
              ],
              [
                -68.29435729980469,
                12.050291061401367
              ],
              [
                -68.38201141357422,
                12.24315357208252
              ],
              [
                -68.38688659667969,
                12.307440757751465
              ],
              [
                -68.16221618652344,
                12.24315357208252
              ]
            ]
          ],
          [
            [
              [
                -70.01911926269531,
                12.564591407775879
              ],
              [
                -69.87254333496094,
                12.564591407775879
              ],
              [
                -69.78905487060547,
                12.436016082763672
              ],
              [
                -69.78401184082031,
                12.37172794342041
              ],
              [
                -69.93055725097656,
                12.37172794342041
              ],
              [
                -70.01911926269531,
                12.564591407775879
              ]
            ]
          ],
          [
            [
              [
                -63.16353225708008,
                18.2219181060791
              ],
              [
                -62.926856994628906,
                18.093341827392578
              ],
              [
                -62.91935729980469,
                18.029054641723633
              ],
              [
                -63.14089584350586,
                18.029054641723633
              ],
              [
                -63.16353225708008,
                18.2219181060791
              ]
            ]
          ]
        ]
      }
    }
  ]
}
