{
  "type": "FeatureCollection",
  "features": [
    {
      "type": "Feature",
      "properties": {
        "Name": "Malaya",
        "FromYear": 1305,
        "ToYear": 1343,
        "Area": 143273.2636071025,
        "Type": "POLITY",
        "Wikipedia": "Malaya",
        "Wikidata": "Q1479726",
        "SeshatID": "",
        "Components": "",
        "MemberOf": "",
        "displayYear": 1307,
        "sourceYear": 1307,
        "mappedTerritoryId": "cliopatria_malaya"
      },
      "geometry": {
        "type": "MultiPolygon",
        "coordinates": [
          [
            [
              [
                104.20345306396484,
                0.928538501262665
              ],
              [
                104.13066864013672,
                0.928538501262665
              ],
              [
                104.21234130859375,
                1.185688734054565
              ],
              [
                104.57401275634766,
                1.121401190757751
              ],
              [
                104.4902572631836,
                0.799963414669037
              ],
              [
                104.34469604492188,
                0.799963414669037
              ],
              [
                104.27623748779297,
                0.928538501262665
              ],
              [
                104.20345306396484,
                0.928538501262665
              ]
            ]
          ],
          [
            [
              [
                103.76675415039062,
                0.928538501262665
              ],
              [
                103.77337646484375,
                1.121401190757751
              ],
              [
                103.9234619140625,
                1.249976277351379
              ],
              [
                104.06676483154297,
                1.185688734054565
              ],
              [
                104.06228637695312,
                1.057113647460938
              ],
              [
                104.06007385253906,
                0.992826044559479
              ],
              [
                103.76675415039062,
                0.928538501262665
              ]
            ]
          ],
          [
            [
              [
                103.16619873046875,
                5.364383697509766
              ],
              [
                103.36314392089844,
                4.978658199310303
              ],
              [
                103.40839385986328,
                4.464356899261475
              ],
              [
                103.48124694824219,
                4.464356899261475
              ],
              [
                103.36668395996094,
                3.628617763519287
              ],
              [
                103.4043960571289,
                2.857166290283203
              ],
              [
                103.82755279541016,
                2.535728216171265
              ],
              [
                103.95481872558594,
                2.085714817047119
              ],
              [
                104.23108673095703,
                1.699989318847656
              ],
              [
                104.2192153930664,
                1.378551483154297
              ],
              [
                104.00084686279297,
                1.378551483154297
              ],
              [
                103.92806243896484,
                1.378551483154297
              ],
              [
                103.56411743164062,
                1.378551483154297
              ],
              [
                103.49132537841797,
                1.378551483154297
              ],
              [
                103.27066040039062,
                1.314263939857483
              ],
              [
                103.27527618408203,
                1.442839026451111
              ],
              [
                103.06398010253906,
                1.635701775550842
              ],
              [
                102.63202667236328,
                1.76427698135376
              ],
              [
                102.35320281982422,
                2.085714817047119
              ],
              [
                101.9917221069336,
                2.150002479553223
              ],
              [
                101.71080780029297,
                2.407152891159058
              ],
              [
                101.71607971191406,
                2.535728216171265
              ],
              [
                101.42749786376953,
                2.600015640258789
              ],
              [
                101.2171630859375,
                2.7928786277771
              ],
              [
                101.23393249511719,
                3.178604364395142
              ],
              [
                100.81448364257812,
                3.564330101013184
              ],
              [
                100.48112487792969,
                4.207206249237061
              ],
              [
                100.5107650756836,
                4.785795211791992
              ],
              [
                100.37185668945312,
                4.914370536804199
              ],
              [
                100.37530517578125,
                4.978658199310303
              ],
              [
                100.83380889892578,
                5.364383697509766
              ],
              [
                100.90669250488281,
                5.364383697509766
              ],
              [
                101.09375,
                6.071547985076904
              ],
              [
                100.67593383789062,
                6.392985820770264
              ],
              [
                100.70449829101562,
                6.842999458312988
              ],
              [
                100.56698608398438,
                6.971574783325195
              ],
              [
                100.64842224121094,
                7.100150108337402
              ],
              [
                100.72137451171875,
                7.100150108337402
              ],
              [
                100.85457611083984,
                6.907287120819092
              ],
              [
                101.51110076904297,
                6.907287120819092
              ],
              [
                101.84274291992188,
                6.392985820770264
              ],
              [
                102.4101333618164,
                6.135835647583008
              ],
              [
                102.40618896484375,
                6.071547985076904
              ],
              [
                103.16619873046875,
                5.364383697509766
              ]
            ]
          ]
        ]
      }
    }
  ]
}
