{
  "type": "FeatureCollection",
  "features": [
    {
      "type": "Feature",
      "properties": {
        "Name": "Thirtieth Dynasty of Egypt",
        "FromYear": -366,
        "ToYear": -351,
        "Area": 687438.3977928918,
        "Type": "POLITY",
        "Wikipedia": "Thirtieth Dynasty of Egypt",
        "Wikidata": "Q386303",
        "SeshatID": "",
        "Components": "",
        "MemberOf": "",
        "displayYear": -356,
        "sourceYear": -356,
        "mappedTerritoryId": "cliopatria_thirtieth_dynasty_of_egypt"
      },
      "geometry": {
        "type": "Polygon",
        "coordinates": [
          [
            [
              23.903419494628906,
              32.043148040771484
            ],
            [
              23.148635864257812,
              32.23596954345703
            ],
            [
              23.230775833129883,
              32.36451721191406
            ],
            [
              23.080799102783203,
              32.428794860839844
            ],
            [
              23.089431762695312,
              32.62162780761719
            ],
            [
              22.108469009399414,
              32.94303894042969
            ],
            [
              21.569839477539062,
              32.878753662109375
            ],
            [
              21.41167449951172,
              32.75019073486328
            ],
            [
              21.108016967773438,
              32.81447219848633
            ],
            [
              20.87124252319336,
              32.62162780761719
            ],
            [
              20.644094467163086,
              32.685909271240234
            ],
            [
              20.71593475341797,
              32.557350158691406
            ],
            [
              20.562992095947266,
              32.557350158691406
            ],
            [
              20.481992721557617,
              32.428794860839844
            ],
            [
              20.33134651184082,
              32.493072509765625
            ],
            [
              20.246112823486328,
              32.23596954345703
            ],
            [
              20.016965866088867,
              32.23596954345703
            ],
            [
              20.089075088500977,
              32.107421875
            ],
            [
              19.996076583862305,
              31.593257904052734
            ],
            [
              20.214296340942383,
              31.271915435791016
            ],
            [
              20.122089385986328,
              30.757776260375977
            ],
            [
              19.50142478942871,
              30.307893753051758
            ],
            [
              18.894386291503906,
              30.307893753051758
            ],
            [
              18.73456573486328,
              29.986536026000977
            ],
            [
              19.571928024291992,
              30.115081787109375
            ],
            [
              19.651369094848633,
              30.243623733520508
            ],
            [
              19.95670509338379,
              30.307893753051758
            ],
            [
              20.58220863342285,
              30.886310577392578
            ],
            [
              20.962331771850586,
              30.886310577392578
            ],
            [
              21.033994674682617,
              30.757776260375977
            ],
            [
              22.164297103881836,
              30.500701904296875
            ],
            [
              23.075429916381836,
              30.500701904296875
            ],
            [
              24.341167449951172,
              29.922264099121094
            ],
            [
              24.93060874938965,
              29.536611557006836
            ],
            [
              24.922361373901367,
              29.34377670288086
            ],
            [
              25.07642936706543,
              29.40805435180664
            ],
            [
              25.295034408569336,
              29.21521759033203
            ],
            [
              25.289506912231445,
              29.08665657043457
            ],
            [
              25.871749877929688,
              28.572391510009766
            ],
            [
              26.08164405822754,
              28.186676025390625
            ],
            [
              26.66266441345215,
              27.6723690032959
            ],
            [
              26.582015991210938,
              27.54378890991211
            ],
            [
              26.73253631591797,
              27.54378890991211
            ],
            [
              27.237552642822266,
              27.029460906982422
            ],
            [
              27.30211067199707,
              26.772293090820312
            ],
            [
              27.449689865112305,
              26.70800018310547
            ],
            [
              27.58422088623047,
              26.32224464416504
            ],
            [
              27.731687545776367,
              26.257951736450195
            ],
            [
              28.151123046875,
              25.48643684387207
            ],
            [
              28.143808364868164,
              25.29355812072754
            ],
            [
              28.288646697998047,
              25.164974212646484
            ],
            [
              28.421659469604492,
              24.714935302734375
            ],
            [
              29.672801971435547,
              24.200613021850586
            ],
            [
              29.95948028564453,
              23.879167556762695
            ],
            [
              30.10871124267578,
              23.879167556762695
            ],
            [
              30.10396385192871,
              23.75058937072754
            ],
            [
              30.39519500732422,
              23.557723999023438
            ],
            [
              30.462675094604492,
              23.36486053466797
            ],
            [
              30.537214279174805,
              23.36486053466797
            ],
            [
              31.670488357543945,
              23.75058937072754
            ],
            [
              32.040863037109375,
              23.68630027770996
            ],
            [
              33.38899612426758,
              23.814878463745117
            ],
            [
              33.6817741394043,
              23.68630027770996
            ],
            [
              33.75636291503906,
              23.68630027770996
            ],
            [
              35.10795974731445,
              23.879167556762695
            ],
            [
              35.55257034301758,
              23.814878463745117
            ],
            [
              35.558753967285156,
              23.943456649780273
            ],
            [
              35.85411834716797,
              23.879167556762695
            ],
            [
              35.860408782958984,
              24.00774574279785
            ],
            [
              35.145530700683594,
              24.650644302368164
            ],
            [
              34.60763931274414,
              25.807899475097656
            ],
            [
              34.461280822753906,
              25.8721923828125
            ],
            [
              34.197208404541016,
              26.515121459960938
            ],
            [
              34.05074691772461,
              26.57941436767578
            ],
            [
              34.07311248779297,
              26.96516990661621
            ],
            [
              33.92659378051758,
              27.029460906982422
            ],
            [
              33.7991943359375,
              27.41520881652832
            ],
            [
              33.585105895996094,
              27.608078002929688
            ],
            [
              33.60887145996094,
              27.993812561035156
            ],
            [
              33.10531997680664,
              28.379535675048828
            ],
            [
              32.83612823486328,
              28.893810272216797
            ],
            [
              32.68916320800781,
              28.958093643188477
            ],
            [
              32.638694763183594,
              29.34377670288086
            ],
            [
              32.428688049316406,
              29.600887298583984
            ],
            [
              32.52609634399414,
              29.922264099121094
            ],
            [
              32.60188293457031,
              29.922264099121094
            ],
            [
              32.913997650146484,
              30.050809860229492
            ],
            [
              32.860877990722656,
              30.372163772583008
            ],
            [
              32.718238830566406,
              30.500701904296875
            ],
            [
              32.817466735839844,
              30.822044372558594
            ],
            [
              32.741458892822266,
              30.822044372558594
            ],
            [
              32.755619049072266,
              31.014846801757812
            ],
            [
              32.8316764831543,
              31.014846801757812
            ],
            [
              32.836448669433594,
              31.079113006591797
            ],
            [
              32.53215408325195,
              31.079113006591797
            ],
            [
              32.38941192626953,
              31.20764923095703
            ],
            [
              32.23719787597656,
              31.20764923095703
            ],
            [
              32.303932189941406,
              31.079113006591797
            ],
            [
              31.999635696411133,
              31.079113006591797
            ],
            [
              31.93739891052246,
              31.271915435791016
            ],
            [
              31.780553817749023,
              31.20764923095703
            ],
            [
              31.875221252441406,
              31.464719772338867
            ],
            [
              31.265825271606445,
              31.464719772338867
            ],
            [
              31.117990493774414,
              31.528987884521484
            ],
            [
              31.203296661376953,
              31.65752601623535
            ],
            [
              30.974620819091797,
              31.65752601623535
            ],
            [
              30.965608596801758,
              31.528987884521484
            ],
            [
              30.80877685546875,
              31.464719772338867
            ],
            [
              30.351730346679688,
              31.464719772338867
            ],
            [
              30.271244049072266,
              31.40045166015625
            ],
            [
              30.33879280090332,
              31.271915435791016
            ],
            [
              29.882049560546875,
              31.271915435791016
            ],
            [
              29.8017635345459,
              31.20764923095703
            ],
            [
              29.86956024169922,
              31.079113006591797
            ],
            [
              29.633193969726562,
              30.950578689575195
            ],
            [
              29.485143661499023,
              31.014846801757812
            ],
            [
              29.3970890045166,
              30.822044372558594
            ],
            [
              28.865032196044922,
              30.822044372558594
            ],
            [
              28.496395111083984,
              31.014846801757812
            ],
            [
              27.514896392822266,
              31.143381118774414
            ],
            [
              27.297456741333008,
              31.336183547973633
            ],
            [
              26.847702026367188,
              31.464719772338867
            ],
            [
              25.248035430908203,
              31.464719772338867
            ],
            [
              25.102048873901367,
              31.593257904052734
            ],
            [
              25.11168098449707,
              31.78606605529785
            ],
            [
              24.892484664916992,
              31.978878021240234
            ],
            [
              23.97974967956543,
              32.043148040771484
            ],
            [
              23.903419494628906,
              32.043148040771484
            ]
          ]
        ]
      }
    }
  ]
}
