{
  "type": "FeatureCollection",
  "features": [
    {
      "type": "Feature",
      "properties": {
        "Name": "First Bulgarian Empire",
        "FromYear": 926,
        "ToYear": 935,
        "Area": 420547.6507430652,
        "Type": "POLITY",
        "Wikipedia": "First Bulgarian Empire",
        "Wikidata": "Q203817",
        "SeshatID": "bg_bulgaria_medieval",
        "Components": "",
        "MemberOf": "",
        "displayYear": 926,
        "sourceYear": 926,
        "mappedTerritoryId": "cliopatria_first_bulgarian_empire"
      },
      "geometry": {
        "type": "MultiPolygon",
        "coordinates": [
          [
            [
              [
                19.24553108215332,
                42.236209869384766
              ],
              [
                19.165618896484375,
                42.236209869384766
              ],
              [
                19.168758392333984,
                42.30118942260742
              ],
              [
                19.248699188232422,
                42.30118942260742
              ],
              [
                19.24553108215332,
                42.236209869384766
              ]
            ]
          ],
          [
            [
              [
                34.036380767822266,
                47.53233337402344
              ],
              [
                34.11886215209961,
                47.53233337402344
              ],
              [
                34.079959869384766,
                47.26897048950195
              ],
              [
                33.69384002685547,
                46.87434005737305
              ],
              [
                32.918460845947266,
                46.61152267456055
              ],
              [
                32.171756744384766,
                46.54585266113281
              ],
              [
                32.180442810058594,
                46.61152267456055
              ],
              [
                32.03373336791992,
                46.74290466308594
              ],
              [
                31.787527084350586,
                46.74290466308594
              ],
              [
                31.606428146362305,
                46.61152267456055
              ],
              [
                30.87657928466797,
                46.677207946777344
              ],
              [
                30.297666549682617,
                45.95537567138672
              ],
              [
                30.044963836669922,
                45.889827728271484
              ],
              [
                29.85890007019043,
                45.693260192871094
              ],
              [
                29.614274978637695,
                45.693260192871094
              ],
              [
                29.58445930480957,
                45.431331634521484
              ],
              [
                29.66587257385254,
                45.431331634521484
              ],
              [
                29.525348663330078,
                44.908016204833984
              ],
              [
                29.024105072021484,
                44.77729415893555
              ],
              [
                29.04557228088379,
                44.973392486572266
              ],
              [
                28.802005767822266,
                44.973392486572266
              ],
              [
                28.84072494506836,
                44.58129119873047
              ],
              [
                28.576906204223633,
                44.38538360595703
              ],
              [
                28.53555679321289,
                43.99384307861328
              ],
              [
                28.616275787353516,
                43.99384307861328
              ],
              [
                28.48109245300293,
                43.472347259521484
              ],
              [
                28.159194946289062,
                43.472347259521484
              ],
              [
                28.22636604309082,
                43.342071533203125
              ],
              [
                27.89820098876953,
                43.276947021484375
              ],
              [
                27.80489730834961,
                43.146724700927734
              ],
              [
                27.84662628173828,
                42.75628662109375
              ],
              [
                27.513538360595703,
                42.62621307373047
              ],
              [
                27.494890213012695,
                42.43117141723633
              ],
              [
                27.936981201171875,
                42.041324615478516
              ],
              [
                27.93072509765625,
                41.97637939453125
              ],
              [
                27.451948165893555,
                41.97637939453125
              ],
              [
                27.384279251098633,
                42.10627746582031
              ],
              [
                27.064865112304688,
                42.10627746582031
              ],
              [
                26.568437576293945,
                41.911441802978516
              ],
              [
                25.930295944213867,
                41.911441802978516
              ],
              [
                25.707355499267578,
                42.10627746582031
              ],
              [
                25.222936630249023,
                42.041324615478516
              ],
              [
                25.212387084960938,
                41.911441802978516
              ],
              [
                24.808441162109375,
                41.84651184082031
              ],
              [
                24.778104782104492,
                41.45711898803711
              ],
              [
                24.52469253540039,
                41.26253128051758
              ],
              [
                24.20674705505371,
                41.26253128051758
              ],
              [
                23.473424911499023,
                41.00318908691406
              ],
              [
                22.997167587280273,
                41.00318908691406
              ],
              [
                22.508596420288086,
                40.80876541137695
              ],
              [
                22.171741485595703,
                40.4848747253418
              ],
              [
                21.128570556640625,
                40.225894927978516
              ],
              [
                20.55560302734375,
                39.8376350402832
              ],
              [
                20.39780616760254,
                39.8376350402832
              ],
              [
                20.318906784057617,
                39.8376350402832
              ],
              [
                19.994253158569336,
                39.64360046386719
              ],
              [
                19.921405792236328,
                39.77294921875
              ],
              [
                20.00027847290039,
                39.77294921875
              ],
              [
                20.009418487548828,
                39.9670295715332
              ],
              [
                19.62952995300293,
                40.29063034057617
              ],
              [
                19.47136878967285,
                40.29063034057617
              ],
              [
                19.48629379272461,
                40.614410400390625
              ],
              [
                19.2486515045166,
                40.614410400390625
              ],
              [
                19.254547119140625,
                40.74397277832031
              ],
              [
                19.33381462097168,
                40.74397277832031
              ],
              [
                19.81257438659668,
                40.80876541137695
              ],
              [
                19.825313568115234,
                41.06801223754883
              ],
              [
                19.90471839904785,
                41.06801223754883
              ],
              [
                19.917755126953125,
                41.32738494873047
              ],
              [
                19.765199661254883,
                41.45711898803711
              ],
              [
                19.857959747314453,
                41.71668243408203
              ],
              [
                19.708423614501953,
                41.911441802978516
              ],
              [
                19.711719512939453,
                41.97637939453125
              ],
              [
                19.48526382446289,
                42.236209869384766
              ],
              [
                19.32225227355957,
                42.17123794555664
              ],
              [
                19.251876831054688,
                42.36617660522461
              ],
              [
                19.08881950378418,
                42.30118942260742
              ],
              [
                19.018171310424805,
                42.496177673339844
              ],
              [
                18.70105743408203,
                42.56119155883789
              ],
              [
                18.615074157714844,
                42.43117141723633
              ],
              [
                18.143457412719727,
                42.62621307373047
              ],
              [
                18.15188980102539,
                42.82133865356445
              ],
              [
                17.515670776367188,
                42.95146560668945
              ],
              [
                17.29008674621582,
                43.342071533203125
              ],
              [
                16.8217830657959,
                43.73301696777344
              ],
              [
                16.741186141967773,
                43.73301696777344
              ],
              [
                16.506162643432617,
                43.92862319946289
              ],
              [
                16.441120147705078,
                44.38538360595703
              ],
              [
                16.943588256835938,
                44.842647552490234
              ],
              [
                17.847118377685547,
                45.10417556762695
              ],
              [
                18.57839012145996,
                45.10417556762695
              ],
              [
                18.97171974182129,
                44.842647552490234
              ],
              [
                19.235076904296875,
                45.23500442504883
              ],
              [
                19.885604858398438,
                45.23500442504883
              ],
              [
                20.055559158325195,
                45.36587905883789
              ],
              [
                20.21086883544922,
                45.23500442504883
              ],
              [
                20.454818725585938,
                45.23500442504883
              ],
              [
                21.032119750976562,
                45.36587905883789
              ],
              [
                21.42641258239746,
                45.169586181640625
              ],
              [
                21.401302337646484,
                44.77729415893555
              ],
              [
                21.87479591369629,
                44.58129119873047
              ],
              [
                22.1177921295166,
                44.58129119873047
              ],
              [
                22.126689910888672,
                44.71194839477539
              ],
              [
                22.297855377197266,
                44.842647552490234
              ],
              [
                22.541231155395508,
                44.842647552490234
              ],
              [
                22.636333465576172,
                45.03877639770508
              ],
              [
                22.879995346069336,
                45.03877639770508
              ],
              [
                22.87523651123047,
                44.973392486572266
              ],
              [
                22.942081451416016,
                44.77729415893555
              ],
              [
                23.499759674072266,
                44.64661407470703
              ],
              [
                23.519737243652344,
                44.908016204833984
              ],
              [
                24.41246223449707,
                44.908016204833984
              ],
              [
                24.72614097595215,
                44.77729415893555
              ],
              [
                24.980562210083008,
                44.908016204833984
              ],
              [
                25.137239456176758,
                44.842647552490234
              ],
              [
                25.554460525512695,
                44.973392486572266
              ],
              [
                26.203969955444336,
                44.973392486572266
              ],
              [
                26.378604888916016,
                45.10417556762695
              ],
              [
                26.69735336303711,
                45.03877639770508
              ],
              [
                26.79116439819336,
                45.169586181640625
              ],
              [
                27.522722244262695,
                45.169586181640625
              ],
              [
                28.037626266479492,
                45.431331634521484
              ],
              [
                28.051286697387695,
                45.56227111816406
              ],
              [
                28.28878402709961,
                45.496795654296875
              ],
              [
                28.46567726135254,
                45.62776184082031
              ],
              [
                28.657102584838867,
                45.889827728271484
              ],
              [
                28.589677810668945,
                46.02093505859375
              ],
              [
                28.671382904052734,
                46.02093505859375
              ],
              [
                28.707326889038086,
                46.348915100097656
              ],
              [
                28.632658004760742,
                46.414546966552734
              ],
              [
                28.811044692993164,
                46.54585266113281
              ],
              [
                28.7583065032959,
                46.808616638183594
              ],
              [
                28.92251205444336,
                46.808616638183594
              ],
              [
                28.959793090820312,
                47.13737487792969
              ],
              [
                29.124338150024414,
                47.13737487792969
              ],
              [
                29.31961441040039,
                47.4006233215332
              ],
              [
                30.671463012695312,
                47.664100646972656
              ],
              [
                33.633575439453125,
                47.598209381103516
              ],
              [
                33.62398910522461,
                47.53233337402344
              ],
              [
                34.036380767822266,
                47.53233337402344
              ]
            ]
          ]
        ]
      }
    }
  ]
}
