{
  "type": "FeatureCollection",
  "features": [
    {
      "type": "Feature",
      "properties": {
        "Name": "Kingdom of Armenia",
        "FromYear": -256,
        "ToYear": -231,
        "Area": 224124.54929404767,
        "Type": "POLITY",
        "Wikipedia": "Kingdom of Armenia (antiquity)",
        "Wikidata": "Q208404",
        "SeshatID": "",
        "Components": "",
        "MemberOf": "",
        "displayYear": -250,
        "sourceYear": -250,
        "mappedTerritoryId": "cliopatria_kingdom_of_armenia"
      },
      "geometry": {
        "type": "MultiPolygon",
        "coordinates": [
          [
            [
              [
                45.1911735534668,
                41.26253128051758
              ],
              [
                45.234519958496094,
                41.06801223754883
              ],
              [
                45.47273254394531,
                41.06801223754883
              ],
              [
                45.6746711730957,
                40.873565673828125
              ],
              [
                45.492156982421875,
                40.74397277832031
              ],
              [
                45.52407455444336,
                40.4848747253418
              ],
              [
                46.493221282958984,
                40.16116714477539
              ],
              [
                46.536746978759766,
                39.9670295715332
              ],
              [
                46.773597717285156,
                39.9670295715332
              ],
              [
                47.053768157958984,
                39.77294921875
              ],
              [
                47.381195068359375,
                39.8376350402832
              ],
              [
                47.51506805419922,
                39.70827102661133
              ],
              [
                48.30354690551758,
                39.70827102661133
              ],
              [
                48.673282623291016,
                39.57893371582031
              ],
              [
                48.80645751953125,
                39.449623107910156
              ],
              [
                48.782222747802734,
                39.320335388183594
              ],
              [
                48.92751693725586,
                39.25570297241211
              ],
              [
                48.74217987060547,
                38.67427444458008
              ],
              [
                48.82062911987305,
                38.67427444458008
              ],
              [
                48.80677032470703,
                38.157840728759766
              ],
              [
                48.795413970947266,
                38.09331130981445
              ],
              [
                48.32598876953125,
                38.09331130981445
              ],
              [
                47.25161361694336,
                38.67427444458008
              ],
              [
                46.12089157104492,
                38.48057174682617
              ],
              [
                45.85390853881836,
                38.28691864013672
              ],
              [
                45.634883880615234,
                37.89975357055664
              ],
              [
                45.22376251220703,
                37.7707405090332
              ],
              [
                45.17365264892578,
                37.44829177856445
              ],
              [
                45.25165939331055,
                37.44829177856445
              ],
              [
                45.290000915527344,
                37.1904182434082
              ],
              [
                45.44583511352539,
                37.1904182434082
              ],
              [
                45.2508544921875,
                36.932613372802734
              ],
              [
                44.871337890625,
                36.9970588684082
              ],
              [
                44.74457931518555,
                37.1904182434082
              ],
              [
                44.773807525634766,
                37.38381576538086
              ],
              [
                44.41306686401367,
                37.5772590637207
              ],
              [
                43.94475173950195,
                37.5772590637207
              ],
              [
                42.50818634033203,
                37.89975357055664
              ],
              [
                41.96101379394531,
                37.89975357055664
              ],
              [
                41.66663360595703,
                38.028785705566406
              ],
              [
                40.57164001464844,
                38.028785705566406
              ],
              [
                40.598331451416016,
                38.22237777709961
              ],
              [
                40.520050048828125,
                38.22237777709961
              ],
              [
                40.51398468017578,
                38.738853454589844
              ],
              [
                40.6575927734375,
                39.19107437133789
              ],
              [
                40.50969314575195,
                39.25570297241211
              ],
              [
                40.478416442871094,
                39.57893371582031
              ],
              [
                39.848045349121094,
                39.57893371582031
              ],
              [
                39.750633239746094,
                39.449623107910156
              ],
              [
                39.20852279663086,
                39.51427459716797
              ],
              [
                38.95417022705078,
                39.38497543334961
              ],
              [
                38.74488830566406,
                39.57893371582031
              ],
              [
                38.92983627319336,
                39.77294921875
              ],
              [
                38.790401458740234,
                39.90232849121094
              ],
              [
                40.39818572998047,
                40.0964469909668
              ],
              [
                40.50690841674805,
                40.29063034057617
              ],
              [
                40.754215240478516,
                40.355369567871094
              ],
              [
                40.77444839477539,
                40.4848747253418
              ],
              [
                40.56735610961914,
                40.6791877746582
              ],
              [
                41.005123138427734,
                40.93837356567383
              ],
              [
                41.12204360961914,
                40.6791877746582
              ],
              [
                41.359764099121094,
                40.6791877746582
              ],
              [
                41.534793853759766,
                41.26253128051758
              ],
              [
                42.25017166137695,
                41.26253128051758
              ],
              [
                42.36305618286133,
                41.45711898803711
              ],
              [
                42.62437438964844,
                41.586883544921875
              ],
              [
                44.181358337402344,
                41.39224624633789
              ],
              [
                44.30506896972656,
                41.19768524169922
              ],
              [
                44.634765625,
                41.26253128051758
              ],
              [
                44.71425247192383,
                41.26253128051758
              ],
              [
                45.11168670654297,
                41.26253128051758
              ],
              [
                45.1911735534668,
                41.26253128051758
              ]
            ]
          ],
          [
            [
              [
                47.06560134887695,
                39.8376350402832
              ],
              [
                47.077476501464844,
                39.90232849121094
              ],
              [
                47.156402587890625,
                39.90232849121094
              ],
              [
                47.144500732421875,
                39.8376350402832
              ],
              [
                47.06560134887695,
                39.8376350402832
              ]
            ]
          ],
          [
            [
              [
                46.91962814331055,
                39.90232849121094
              ],
              [
                46.93149948120117,
                39.9670295715332
              ],
              [
                47.01044845581055,
                39.9670295715332
              ],
              [
                46.99855422973633,
                39.90232849121094
              ],
              [
                46.91962814331055,
                39.90232849121094
              ]
            ]
          ]
        ]
      }
    }
  ]
}
