{
  "type": "FeatureCollection",
  "features": [
    {
      "type": "Feature",
      "properties": {
        "Name": "Emirate of Jabal Shammar",
        "FromYear": 1895,
        "ToYear": 1904,
        "Area": 674959.8794521838,
        "Type": "POLITY",
        "Wikipedia": "Emirate of Jabal Shammar",
        "Wikidata": "Q5362837",
        "SeshatID": "",
        "Components": "",
        "MemberOf": "",
        "displayYear": 1895,
        "sourceYear": 1895,
        "mappedTerritoryId": "cliopatria_emirate_of_jabal_shammar"
      },
      "geometry": {
        "type": "Polygon",
        "coordinates": [
          [
            [
              45.08794021606445,
              29.022375106811523
            ],
            [
              47.032344818115234,
              28.829526901245117
            ],
            [
              47.10787582397461,
              28.829526901245117
            ],
            [
              47.549190521240234,
              27.993812561035156
            ],
            [
              47.654869079589844,
              27.54378890991211
            ],
            [
              47.79905700683594,
              27.4794979095459
            ],
            [
              48.03797149658203,
              26.836584091186523
            ],
            [
              48.18215560913086,
              26.772293090820312
            ],
            [
              49.07245635986328,
              24.97209930419922
            ],
            [
              49.43046188354492,
              24.779226303100586
            ],
            [
              49.48435974121094,
              24.522062301635742
            ],
            [
              49.69307327270508,
              24.329193115234375
            ],
            [
              50.50940704345703,
              24.264904022216797
            ],
            [
              50.50423812866211,
              24.200613021850586
            ],
            [
              50.24995040893555,
              23.814878463745117
            ],
            [
              49.85740280151367,
              23.557723999023438
            ],
            [
              48.25054168701172,
              22.97913360595703
            ],
            [
              48.24163818359375,
              22.85055923461914
            ],
            [
              48.02265548706055,
              22.914846420288086
            ],
            [
              47.56709671020508,
              22.786272048950195
            ],
            [
              46.04104232788086,
              22.20768928527832
            ],
            [
              45.707767486572266,
              21.629112243652344
            ],
            [
              45.394989013671875,
              21.371967315673828
            ],
            [
              45.01597595214844,
              21.24339485168457
            ],
            [
              44.92644500732422,
              20.986249923706055
            ],
            [
              44.228580474853516,
              20.471960067749023
            ],
            [
              44.13573455810547,
              20.150527954101562
            ],
            [
              43.980045318603516,
              20.021955490112305
            ],
            [
              43.9763069152832,
              19.95766830444336
            ],
            [
              43.68737030029297,
              20.08624267578125
            ],
            [
              43.694766998291016,
              20.214815139770508
            ],
            [
              43.27187728881836,
              20.60053253173828
            ],
            [
              43.1416130065918,
              20.921964645385742
            ],
            [
              42.78487777709961,
              21.179107666015625
            ],
            [
              42.44926071166992,
              21.821969985961914
            ],
            [
              42.16621398925781,
              22.079116821289062
            ],
            [
              42.17338943481445,
              22.20768928527832
            ],
            [
              41.81938171386719,
              22.529123306274414
            ],
            [
              41.550594329833984,
              23.043420791625977
            ],
            [
              41.40525817871094,
              23.107707977294922
            ],
            [
              41.41260528564453,
              23.236284255981445
            ],
            [
              41.26723861694336,
              23.30057144165039
            ],
            [
              40.86863327026367,
              24.136323928833008
            ],
            [
              40.51856994628906,
              24.522062301635742
            ],
            [
              40.39302444458008,
              24.907808303833008
            ],
            [
              40.24751663208008,
              24.97209930419922
            ],
            [
              39.92338562011719,
              25.743606567382812
            ],
            [
              39.77783966064453,
              25.807899475097656
            ],
            [
              39.31482696533203,
              26.70800018310547
            ],
            [
              39.169185638427734,
              26.772293090820312
            ],
            [
              39.17836380004883,
              26.900876998901367
            ],
            [
              39.03269958496094,
              26.96516990661621
            ],
            [
              39.04197311401367,
              27.093751907348633
            ],
            [
              38.89628219604492,
              27.158044815063477
            ],
            [
              38.90565490722656,
              27.2866268157959
            ],
            [
              38.75993347167969,
              27.35091781616211
            ],
            [
              38.70368576049805,
              27.608078002929688
            ],
            [
              38.426597595214844,
              27.92952537536621
            ],
            [
              38.50193786621094,
              27.92952537536621
            ],
            [
              38.587100982666016,
              28.058101654052734
            ],
            [
              39.04938507080078,
              28.186676025390625
            ],
            [
              39.29619598388672,
              28.44382095336914
            ],
            [
              39.91048049926758,
              28.572391510009766
            ],
            [
              40.22878646850586,
              28.765243530273438
            ],
            [
              40.60638427734375,
              28.765243530273438
            ],
            [
              40.77435302734375,
              28.958093643188477
            ],
            [
              41.524166107177734,
              28.893810272216797
            ],
            [
              41.9952392578125,
              29.08665657043457
            ],
            [
              45.01236343383789,
              29.022375106811523
            ],
            [
              45.08794021606445,
              29.022375106811523
            ]
          ]
        ]
      }
    }
  ]
}
