{
  "type": "FeatureCollection",
  "features": [
    {
      "type": "Feature",
      "properties": {
        "Name": "White Huns",
        "FromYear": 490,
        "ToYear": 522,
        "Area": 3300387.7930988763,
        "Type": "POLITY",
        "Wikipedia": "White Huns",
        "Wikidata": "Q41761342",
        "SeshatID": "af_hephthalite_emp",
        "Components": "",
        "MemberOf": "",
        "displayYear": 510,
        "sourceYear": 510,
        "mappedTerritoryId": "cliopatria_white_huns"
      },
      "geometry": {
        "type": "Polygon",
        "coordinates": [
          [
            [
              68.47792053222656,
              23.36486053466797
            ],
            [
              68.3359375,
              23.429147720336914
            ],
            [
              68.35022735595703,
              23.557723999023438
            ],
            [
              68.12652587890625,
              23.557723999023438
            ],
            [
              68.15538787841797,
              23.814878463745117
            ],
            [
              67.63314819335938,
              23.814878463745117
            ],
            [
              67.49114990234375,
              23.879167556762695
            ],
            [
              67.43836975097656,
              24.07203483581543
            ],
            [
              67.28907775878906,
              24.07203483581543
            ],
            [
              67.32612609863281,
              24.393482208251953
            ],
            [
              67.25143432617188,
              24.393482208251953
            ],
            [
              67.2146987915039,
              24.714935302734375
            ],
            [
              66.63204956054688,
              24.843517303466797
            ],
            [
              66.67909240722656,
              25.229267120361328
            ],
            [
              66.34514617919922,
              25.55072784423828
            ],
            [
              66.02147674560547,
              25.357851028442383
            ],
            [
              64.8160629272461,
              25.29355812072754
            ],
            [
              64.80064392089844,
              25.164974212646484
            ],
            [
              64.2845230102539,
              25.229267120361328
            ],
            [
              64.22502136230469,
              25.357851028442383
            ],
            [
              63.62620544433594,
              25.357851028442383
            ],
            [
              63.46138381958008,
              25.229267120361328
            ],
            [
              63.38655471801758,
              25.229267120361328
            ],
            [
              63.52873229980469,
              26.386537551879883
            ],
            [
              63.178462982177734,
              26.57941436767578
            ],
            [
              63.0040397644043,
              26.96516990661621
            ],
            [
              62.79581069946289,
              27.093751907348633
            ],
            [
              62.813194274902344,
              27.222335815429688
            ],
            [
              62.6050910949707,
              27.35091781616211
            ],
            [
              62.62275314331055,
              27.4794979095459
            ],
            [
              62.348426818847656,
              27.6723690032959
            ],
            [
              62.17684555053711,
              28.058101654052734
            ],
            [
              61.96910858154297,
              28.186676025390625
            ],
            [
              61.987648010253906,
              28.315250396728516
            ],
            [
              61.78001403808594,
              28.44382095336914
            ],
            [
              61.798824310302734,
              28.572391510009766
            ],
            [
              61.657310485839844,
              28.636676788330078
            ],
            [
              61.7518424987793,
              28.765243530273438
            ],
            [
              61.48815155029297,
              29.022375106811523
            ],
            [
              61.451602935791016,
              29.279497146606445
            ],
            [
              60.98139572143555,
              29.665164947509766
            ],
            [
              61.001495361328125,
              29.79371452331543
            ],
            [
              60.84998321533203,
              29.79371452331543
            ],
            [
              60.58731460571289,
              30.050809860229492
            ],
            [
              60.607749938964844,
              30.179353713989258
            ],
            [
              60.34550094604492,
              30.436433792114258
            ],
            [
              60.19367980957031,
              30.436433792114258
            ],
            [
              60.38129806518555,
              32.428794860839844
            ],
            [
              60.30485916137695,
              32.428794860839844
            ],
            [
              60.4583625793457,
              33.26447677612305
            ],
            [
              60.381690979003906,
              33.26447677612305
            ],
            [
              60.56838607788086,
              33.84315490722656
            ],
            [
              60.49154281616211,
              33.84315490722656
            ],
            [
              60.56644058227539,
              34.22901916503906
            ],
            [
              60.82268524169922,
              34.3576545715332
            ],
            [
              60.783958435058594,
              34.55062484741211
            ],
            [
              61.05390167236328,
              34.743614196777344
            ],
            [
              61.18545150756836,
              35.38706970214844
            ],
            [
              61.26276779174805,
              35.38706970214844
            ],
            [
              61.343589782714844,
              35.77327346801758
            ],
            [
              61.21587371826172,
              35.902034759521484
            ],
            [
              61.19877243041992,
              36.5460319519043
            ],
            [
              60.43560028076172,
              36.61045455932617
            ],
            [
              59.92444610595703,
              37.12596130371094
            ],
            [
              59.40696334838867,
              37.254878997802734
            ],
            [
              59.16501998901367,
              37.5772590637207
            ],
            [
              58.39836883544922,
              37.641746520996094
            ],
            [
              57.907169342041016,
              37.89975357055664
            ],
            [
              57.51633071899414,
              37.89975357055664
            ],
            [
              57.19456481933594,
              38.22237777709961
            ],
            [
              56.895294189453125,
              38.28691864013672
            ],
            [
              56.582061767578125,
              38.28691864013672
            ],
            [
              56.306182861328125,
              38.09331130981445
            ],
            [
              55.1976318359375,
              38.028785705566406
            ],
            [
              54.832679748535156,
              37.7707405090332
            ],
            [
              54.794071197509766,
              37.5772590637207
            ],
            [
              54.61253356933594,
              37.44829177856445
            ],
            [
              54.041534423828125,
              37.3193473815918
            ],
            [
              53.96357345581055,
              37.3193473815918
            ],
            [
              53.90790557861328,
              37.835243225097656
            ],
            [
              53.82976150512695,
              37.835243225097656
            ],
            [
              53.98678207397461,
              38.997230529785156
            ],
            [
              53.5175895690918,
              39.38497543334961
            ],
            [
              53.13750457763672,
              39.449623107910156
            ],
            [
              53.54492950439453,
              39.51427459716797
            ],
            [
              53.498451232910156,
              40.031734466552734
            ],
            [
              52.72255325317383,
              40.0964469909668
            ],
            [
              52.71352767944336,
              40.42012023925781
            ],
            [
              52.792659759521484,
              40.42012023925781
            ],
            [
              52.89295959472656,
              40.873565673828125
            ],
            [
              52.97228240966797,
              40.873565673828125
            ],
            [
              52.943321228027344,
              40.74397277832031
            ],
            [
              53.33966064453125,
              40.74397277832031
            ],
            [
              53.448211669921875,
              40.873565673828125
            ],
            [
              53.40435791015625,
              40.6791877746582
            ],
            [
              54.38508224487305,
              40.80876541137695
            ],
            [
              56.82743835449219,
              40.74397277832031
            ],
            [
              57.464874267578125,
              41.39224624633789
            ],
            [
              58.256591796875,
              43.472347259521484
            ],
            [
              58.41754150390625,
              43.472347259521484
            ],
            [
              58.63294982910156,
              43.6678352355957
            ],
            [
              59.1235237121582,
              43.407203674316406
            ],
            [
              60.287200927734375,
              43.53750228881836
            ],
            [
              60.50489044189453,
              43.73301696777344
            ],
            [
              60.600128173828125,
              44.05907440185547
            ],
            [
              60.78084945678711,
              44.12431716918945
            ],
            [
              61.01693344116211,
              44.64661407470703
            ],
            [
              61.582332611083984,
              44.908016204833984
            ],
            [
              61.702110290527344,
              45.300437927246094
            ],
            [
              62.55617904663086,
              45.169586181640625
            ],
            [
              62.9012336730957,
              44.973392486572266
            ],
            [
              64.48036193847656,
              44.58129119873047
            ],
            [
              66.94773864746094,
              44.45067596435547
            ],
            [
              67.69822692871094,
              44.5159797668457
            ],
            [
              67.65413665771484,
              44.38538360595703
            ],
            [
              68.74201202392578,
              44.25482940673828
            ],
            [
              69.57650756835938,
              43.86341094970703
            ],
            [
              69.841064453125,
              43.92862319946289
            ],
            [
              69.85404205322266,
              43.73301696777344
            ],
            [
              70.1538314819336,
              43.6678352355957
            ],
            [
              70.38568878173828,
              43.407203674316406
            ],
            [
              71.37527465820312,
              43.016544342041016
            ],
            [
              72.49897003173828,
              43.016544342041016
            ],
            [
              74.0146713256836,
              43.211830139160156
            ],
            [
              74.3034896850586,
              43.342071533203125
            ],
            [
              74.68995666503906,
              43.08163070678711
            ],
            [
              75.34037017822266,
              42.88639831542969
            ],
            [
              75.74139404296875,
              42.88639831542969
            ],
            [
              75.87004852294922,
              43.016544342041016
            ],
            [
              77.85164642333984,
              42.95146560668945
            ],
            [
              77.93187713623047,
              42.95146560668945
            ],
            [
              79.0846176147461,
              42.82133865356445
            ],
            [
              79.24919128417969,
              42.62621307373047
            ],
            [
              79.40936279296875,
              42.62621307373047
            ],
            [
              79.43895721435547,
              42.496177673339844
            ],
            [
              80.02848815917969,
              42.36617660522461
            ],
            [
              77.79533386230469,
              41.521995544433594
            ],
            [
              78.04263305664062,
              41.32738494873047
            ],
            [
              78.0516357421875,
              41.132843017578125
            ],
            [
              78.28992462158203,
              41.132843017578125
            ],
            [
              78.24312591552734,
              41.00318908691406
            ],
            [
              78.38825225830078,
              40.74397277832031
            ],
            [
              78.28510284423828,
              40.225894927978516
            ],
            [
              78.36415100097656,
              40.225894927978516
            ],
            [
              78.257568359375,
              39.449623107910156
            ],
            [
              78.33631134033203,
              39.449623107910156
            ],
            [
              78.02503204345703,
              38.738853454589844
            ],
            [
              77.47245788574219,
              38.48057174682617
            ],
            [
              77.39407348632812,
              38.48057174682617
            ],
            [
              77.21984100341797,
              38.67427444458008
            ],
            [
              76.61248016357422,
              38.738853454589844
            ],
            [
              75.98468017578125,
              38.738853454589844
            ],
            [
              74.98388671875,
              38.54513168334961
            ],
            [
              74.8084945678711,
              38.22237777709961
            ],
            [
              74.65192413330078,
              38.22237777709961
            ],
            [
              74.53800964355469,
              37.835243225097656
            ],
            [
              74.61614990234375,
              37.835243225097656
            ],
            [
              74.54139709472656,
              37.5772590637207
            ],
            [
              74.660400390625,
              37.44829177856445
            ],
            [
              74.52727508544922,
              37.254878997802734
            ],
            [
              74.68315887451172,
              37.254878997802734
            ],
            [
              74.5687255859375,
              37.12596130371094
            ],
            [
              74.78418731689453,
              37.06150817871094
            ],
            [
              74.67008209228516,
              36.932613372802734
            ],
            [
              74.74790954589844,
              36.932613372802734
            ],
            [
              74.71186828613281,
              36.80373764038086
            ],
            [
              74.84945678710938,
              36.73930740356445
            ],
            [
              75.00040435791016,
              36.15959167480469
            ],
            [
              75.197998046875,
              36.03080368041992
            ],
            [
              75.1630859375,
              35.902034759521484
            ],
            [
              75.34337615966797,
              35.708900451660156
            ],
            [
              75.27667999267578,
              34.87228775024414
            ],
            [
              75.44131469726562,
              34.614952087402344
            ],
            [
              75.29823303222656,
              34.3576545715332
            ],
            [
              75.37522888183594,
              34.3576545715332
            ],
            [
              75.32215881347656,
              33.84315490722656
            ],
            [
              75.39900207519531,
              33.84315490722656
            ],
            [
              75.47050476074219,
              33.20018768310547
            ],
            [
              75.62380981445312,
              33.20018768310547
            ],
            [
              75.92877197265625,
              32.878753662109375
            ],
            [
              76.09748840332031,
              32.94303894042969
            ],
            [
              76.11190795898438,
              32.685909271240234
            ],
            [
              76.49385833740234,
              32.36451721191406
            ],
            [
              76.64669799804688,
              32.36451721191406
            ],
            [
              76.69253540039062,
              32.23596954345703
            ],
            [
              76.84529876708984,
              32.23596954345703
            ],
            [
              76.89120483398438,
              32.107421875
            ],
            [
              77.74622344970703,
              31.8503360748291
            ],
            [
              77.73106384277344,
              31.78606605529785
            ],
            [
              76.30069732666016,
              30.500701904296875
            ],
            [
              76.2415771484375,
              29.857990264892578
            ],
            [
              76.12644958496094,
              29.665164947509766
            ],
            [
              76.25188446044922,
              29.536611557006836
            ],
            [
              76.25080871582031,
              29.150936126708984
            ],
            [
              76.37682342529297,
              29.022375106811523
            ],
            [
              76.3394546508789,
              28.829526901245117
            ],
            [
              76.41498565673828,
              28.829526901245117
            ],
            [
              76.64723205566406,
              28.058101654052734
            ],
            [
              76.84980010986328,
              27.92952537536621
            ],
            [
              76.82649993896484,
              27.800947189331055
            ],
            [
              77.01778411865234,
              27.608078002929688
            ],
            [
              77.04529571533203,
              26.900876998901367
            ],
            [
              76.85206604003906,
              26.643707275390625
            ],
            [
              76.701904296875,
              26.643707275390625
            ],
            [
              75.28520202636719,
              25.743606567382812
            ],
            [
              75.26602172851562,
              25.615020751953125
            ],
            [
              74.76078796386719,
              25.229267120361328
            ],
            [
              74.77278900146484,
              24.779226303100586
            ],
            [
              74.60582733154297,
              24.650644302368164
            ],
            [
              74.59717559814453,
              24.586353302001953
            ],
            [
              74.5715103149414,
              24.393482208251953
            ],
            [
              74.27156510065744,
              24.334937407734635
            ],
            [
              74.16705805263072,
              24.207911440391236
            ],
            [
              74.08743363508657,
              23.930738164825318
            ],
            [
              74.00283269144589,
              23.598255625859313
            ],
            [
              71.90627829769826,
              24.039132757825072
            ],
            [
              70.05501058979824,
              24.120914871676938
            ],
            [
              69.8924440706458,
              23.981551141093437
            ],
            [
              68.79097296128593,
              23.857208385551033
            ],
            [
              68.73733958304418,
              23.839310256932905
            ],
            [
              68.41748046874997,
              23.571484375
            ],
            [
              68.52876939216803,
              23.36486053466797
            ],
            [
              68.47792053222656,
              23.36486053466797
            ]
          ],
          [
            [
              77.37258911132812,
              42.10627746582031
            ],
            [
              78.0357666015625,
              42.17123794555664
            ],
            [
              78.58354949951172,
              42.56119155883789
            ],
            [
              78.65859985351562,
              42.75628662109375
            ],
            [
              76.52626037597656,
              42.62621307373047
            ],
            [
              76.50984191894531,
              42.36617660522461
            ],
            [
              77.29273223876953,
              42.10627746582031
            ],
            [
              77.37258911132812,
              42.10627746582031
            ]
          ]
        ]
      }
    }
  ]
}
