{
  "type": "FeatureCollection",
  "features": [
    {
      "type": "Feature",
      "properties": {
        "Name": "Principality of Bulgaria",
        "FromYear": 1912,
        "ToYear": 1912,
        "Area": 153443.24223222106,
        "Type": "POLITY",
        "Wikipedia": "Principality of Bulgaria",
        "Wikidata": "Q815731",
        "SeshatID": "",
        "Components": "",
        "MemberOf": "",
        "displayYear": 1912,
        "sourceYear": 1912,
        "mappedTerritoryId": "cliopatria_principality_of_bulgaria"
      },
      "geometry": {
        "type": "Polygon",
        "coordinates": [
          [
            [
              28.501420974731445,
              43.6678352355957
            ],
            [
              28.48109245300293,
              43.472347259521484
            ],
            [
              28.159194946289062,
              43.472347259521484
            ],
            [
              28.22636604309082,
              43.342071533203125
            ],
            [
              27.89820098876953,
              43.276947021484375
            ],
            [
              27.80489730834961,
              43.146724700927734
            ],
            [
              27.84662628173828,
              42.75628662109375
            ],
            [
              27.513538360595703,
              42.62621307373047
            ],
            [
              27.494890213012695,
              42.43117141723633
            ],
            [
              27.796031951904297,
              42.236209869384766
            ],
            [
              27.783546447753906,
              42.10627746582031
            ],
            [
              28.004253387451172,
              41.911441802978516
            ],
            [
              27.979368209838867,
              41.65177917480469
            ],
            [
              28.21833038330078,
              41.65177917480469
            ],
            [
              28.27918243408203,
              41.45711898803711
            ],
            [
              28.432037353515625,
              41.39224624633789
            ],
            [
              28.077255249023438,
              41.00318908691406
            ],
            [
              27.527481079101562,
              41.06801223754883
            ],
            [
              27.017187118530273,
              40.6791877746582
            ],
            [
              26.921367645263672,
              40.4848747253418
            ],
            [
              26.62644386291504,
              40.74397277832031
            ],
            [
              26.140260696411133,
              40.614410400390625
            ],
            [
              26.082168579101562,
              40.873565673828125
            ],
            [
              25.37845802307129,
              41.00318908691406
            ],
            [
              24.34656524658203,
              41.00318908691406
            ],
            [
              24.010608673095703,
              40.74397277832031
            ],
            [
              23.93134117126465,
              40.74397277832031
            ],
            [
              23.865724563598633,
              40.93837356567383
            ],
            [
              22.984365463256836,
              40.80876541137695
            ],
            [
              22.688053131103516,
              41.132843017578125
            ],
            [
              22.215518951416016,
              41.19768524169922
            ],
            [
              22.227760314941406,
              41.39224624633789
            ],
            [
              22.07272720336914,
              41.45711898803711
            ],
            [
              22.08087158203125,
              41.586883544921875
            ],
            [
              22.332313537597656,
              41.781593322753906
            ],
            [
              22.18121910095215,
              41.911441802978516
            ],
            [
              22.286426544189453,
              42.30118942260742
            ],
            [
              22.210737228393555,
              42.36617660522461
            ],
            [
              22.290706634521484,
              42.36617660522461
            ],
            [
              22.303613662719727,
              42.56119155883789
            ],
            [
              22.468109130859375,
              42.62621307373047
            ],
            [
              22.583864212036133,
              43.146724700927734
            ],
            [
              22.749074935913086,
              43.211830139160156
            ],
            [
              22.75822639465332,
              43.342071533203125
            ],
            [
              22.373964309692383,
              43.6026611328125
            ],
            [
              22.400911331176758,
              43.99384307861328
            ],
            [
              22.65691566467285,
              44.18956756591797
            ],
            [
              22.894636154174805,
              44.12431716918945
            ],
            [
              22.951791763305664,
              43.79821014404297
            ],
            [
              23.601760864257812,
              43.86341094970703
            ],
            [
              24.15087890625,
              43.6678352355957
            ],
            [
              24.881397247314453,
              43.73301696777344
            ],
            [
              25.434297561645508,
              43.6026611328125
            ],
            [
              25.84855079650879,
              43.73301696777344
            ],
            [
              26.113985061645508,
              43.99384307861328
            ],
            [
              26.610553741455078,
              44.12431716918945
            ],
            [
              27.337581634521484,
              44.12431716918945
            ],
            [
              28.508222579956055,
              43.73301696777344
            ],
            [
              28.501420974731445,
              43.6678352355957
            ]
          ],
          [
            [
              26.778804779052734,
              41.586883544921875
            ],
            [
              26.716402053833008,
              41.781593322753906
            ],
            [
              26.47159767150879,
              41.71668243408203
            ],
            [
              26.46030044555664,
              41.586883544921875
            ],
            [
              26.608213424682617,
              41.45711898803711
            ],
            [
              26.69917869567871,
              41.586883544921875
            ],
            [
              26.778804779052734,
              41.586883544921875
            ]
          ]
        ]
      }
    }
  ]
}
