{
  "type": "FeatureCollection",
  "features": [
    {
      "type": "Feature",
      "properties": {
        "Name": "Novgorod Republic",
        "FromYear": 1056,
        "ToYear": 1084,
        "Area": 378386.40424347966,
        "Type": "POLITY",
        "Wikipedia": "Novgorod Republic",
        "Wikidata": "Q151536",
        "SeshatID": "",
        "Components": "",
        "MemberOf": "",
        "displayYear": 1069,
        "sourceYear": 1069,
        "mappedTerritoryId": "cliopatria_novgorod_republic"
      },
      "geometry": {
        "type": "Polygon",
        "coordinates": [
          [
            [
              37.59649658203125,
              63.98548889160156
            ],
            [
              37.3864631652832,
              63.91307830810547
            ],
            [
              36.553855895996094,
              63.98548889160156
            ],
            [
              36.253456115722656,
              64.27558898925781
            ],
            [
              35.96824264526367,
              64.27558898925781
            ],
            [
              35.817100524902344,
              64.4209213256836
            ],
            [
              35.150604248046875,
              64.4209213256836
            ],
            [
              34.998104095458984,
              64.56643676757812
            ],
            [
              34.80738830566406,
              64.56643676757812
            ],
            [
              34.579322814941406,
              64.4209213256836
            ],
            [
              34.410343170166016,
              64.13044738769531
            ],
            [
              34.012611389160156,
              64.05794525146484
            ],
            [
              33.88200378417969,
              63.91307830810547
            ],
            [
              32.14411544799805,
              63.768394470214844
            ],
            [
              31.733552932739258,
              63.623897552490234
            ],
            [
              31.4028263092041,
              63.4074821472168
            ],
            [
              31.371437072753906,
              63.263427734375
            ],
            [
              31.183259963989258,
              63.263427734375
            ],
            [
              31.261789321899414,
              63.191463470458984
            ],
            [
              31.121566772460938,
              62.9758415222168
            ],
            [
              30.622587203979492,
              62.83230972290039
            ],
            [
              30.189647674560547,
              62.54574966430664
            ],
            [
              28.80137062072754,
              62.117156982421875
            ],
            [
              28.68195152282715,
              61.97461700439453
            ],
            [
              27.691015243530273,
              61.618961334228516
            ],
            [
              27.573986053466797,
              61.47697448730469
            ],
            [
              26.891876220703125,
              61.264278411865234
            ],
            [
              26.857065200805664,
              61.05192565917969
            ],
            [
              26.765018463134766,
              61.05192565917969
            ],
            [
              26.82254981994629,
              60.83990478515625
            ],
            [
              26.616230010986328,
              60.69873809814453
            ],
            [
              26.47992515563965,
              60.416839599609375
            ],
            [
              27.05181121826172,
              60.557716369628906
            ],
            [
              27.772703170776367,
              60.48725891113281
            ],
            [
              28.54265594482422,
              60.69873809814453
            ],
            [
              28.492643356323242,
              60.416839599609375
            ],
            [
              28.990642547607422,
              60.135501861572266
            ],
            [
              29.65558433532715,
              60.276100158691406
            ],
            [
              29.99431037902832,
              60.135501861572266
            ],
            [
              29.967727661132812,
              59.99503707885742
            ],
            [
              30.16336441040039,
              60.065250396728516
            ],
            [
              30.136613845825195,
              59.92485809326172
            ],
            [
              29.94129180908203,
              59.85470962524414
            ],
            [
              29.069183349609375,
              60.065250396728516
            ],
            [
              28.849285125732422,
              59.85470962524414
            ],
            [
              28.406457901000977,
              59.92485809326172
            ],
            [
              28.291200637817383,
              59.78459548950195
            ],
            [
              27.927438735961914,
              59.78459548950195
            ],
            [
              27.88040542602539,
              59.504478454589844
            ],
            [
              28.061809539794922,
              59.504478454589844
            ],
            [
              28.038253784179688,
              59.36461639404297
            ],
            [
              27.743431091308594,
              59.22488784790039
            ],
            [
              27.719879150390625,
              58.528167724609375
            ],
            [
              27.450220108032227,
              58.528167724609375
            ],
            [
              27.40618324279785,
              58.2503662109375
            ],
            [
              27.56344223022461,
              58.11164855957031
            ],
            [
              27.94413948059082,
              58.2503662109375
            ],
            [
              27.977479934692383,
              57.903804779052734
            ],
            [
              27.72037696838379,
              57.97305679321289
            ],
            [
              27.319580078125,
              57.696231842041016
            ],
            [
              27.298233032226562,
              57.55800247192383
            ],
            [
              27.721967697143555,
              57.41988754272461
            ],
            [
              27.5580997467041,
              56.937416076660156
            ],
            [
              27.80249786376953,
              56.799827575683594
            ],
            [
              27.901763916015625,
              56.86860656738281
            ],
            [
              27.990324020385742,
              56.86860656738281
            ],
            [
              28.377832412719727,
              57.07511901855469
            ],
            [
              29.418987274169922,
              56.937416076660156
            ],
            [
              29.749645233154297,
              56.799827575683594
            ],
            [
              30.108091354370117,
              56.319149017333984
            ],
            [
              30.472759246826172,
              56.387733459472656
            ],
            [
              30.83788299560547,
              56.45634460449219
            ],
            [
              31.128190994262695,
              57.07511901855469
            ],
            [
              31.93999481201172,
              57.14401626586914
            ],
            [
              32.452354431152344,
              57.488929748535156
            ],
            [
              32.63044738769531,
              57.488929748535156
            ],
            [
              32.864906311035156,
              57.7653923034668
            ],
            [
              33.13270950317383,
              57.7653923034668
            ],
            [
              33.37158966064453,
              57.62710189819336
            ],
            [
              33.34282684326172,
              57.488929748535156
            ],
            [
              33.506492614746094,
              57.41988754272461
            ],
            [
              33.477752685546875,
              57.28189468383789
            ],
            [
              33.6411018371582,
              57.21294021606445
            ],
            [
              33.61238479614258,
              57.07511901855469
            ],
            [
              33.909461975097656,
              56.799827575683594
            ],
            [
              33.92634963989258,
              56.45634460449219
            ],
            [
              34.014591217041016,
              56.45634460449219
            ],
            [
              34.04583740234375,
              56.182064056396484
            ],
            [
              34.20764923095703,
              56.11355972290039
            ],
            [
              34.23881530761719,
              55.83982467651367
            ],
            [
              34.64900207519531,
              55.70311737060547
            ],
            [
              34.955562591552734,
              55.90821838378906
            ],
            [
              34.86773681640625,
              55.90821838378906
            ],
            [
              34.911495208740234,
              56.11355972290039
            ],
            [
              35.131900787353516,
              56.319149017333984
            ],
            [
              35.20680618286133,
              56.662349700927734
            ],
            [
              35.5298957824707,
              56.524986267089844
            ],
            [
              36.106449127197266,
              56.731075286865234
            ],
            [
              36.551456451416016,
              58.2503662109375
            ],
            [
              36.461795806884766,
              58.2503662109375
            ],
            [
              36.511962890625,
              58.45867156982422
            ],
            [
              36.42213439941406,
              58.45867156982422
            ],
            [
              36.450199127197266,
              58.94581604003906
            ],
            [
              36.03256607055664,
              59.08528518676758
            ],
            [
              35.99268341064453,
              59.294734954833984
            ],
            [
              35.902156829833984,
              59.294734954833984
            ],
            [
              35.913124084472656,
              59.714515686035156
            ],
            [
              35.76533126831055,
              59.85470962524414
            ],
            [
              35.8166389465332,
              60.065250396728516
            ],
            [
              35.72545623779297,
              60.065250396728516
            ],
            [
              35.84642028808594,
              60.557716369628906
            ],
            [
              36.74334716796875,
              60.83990478515625
            ],
            [
              38.232330322265625,
              60.91054153442383
            ],
            [
              38.25162124633789,
              60.9812126159668
            ],
            [
              38.382476806640625,
              61.12267303466797
            ],
            [
              38.21764373779297,
              61.193458557128906
            ],
            [
              38.28205108642578,
              61.7611083984375
            ],
            [
              38.64052200317383,
              62.045867919921875
            ],
            [
              38.85619354248047,
              62.474212646484375
            ],
            [
              38.63771057128906,
              62.68894577026367
            ],
            [
              38.283897399902344,
              62.76060485839844
            ],
            [
              38.27205276489258,
              63.047672271728516
            ],
            [
              38.17816925048828,
              63.047672271728516
            ],
            [
              38.239906311035156,
              63.263427734375
            ],
            [
              38.145816802978516,
              63.263427734375
            ],
            [
              38.270477294921875,
              63.69612503051758
            ],
            [
              37.83928680419922,
              63.84071350097656
            ],
            [
              37.880855560302734,
              63.98548889160156
            ],
            [
              37.6912841796875,
              63.98548889160156
            ],
            [
              37.59649658203125,
              63.98548889160156
            ]
          ]
        ]
      }
    }
  ]
}
