{
  "type": "FeatureCollection",
  "features": [
    {
      "type": "Feature",
      "properties": {
        "Name": "East Franks",
        "FromYear": 880,
        "ToYear": 881,
        "Area": 484365.3137405157,
        "Type": "POLITY",
        "Wikipedia": "East Francia",
        "Wikidata": "Q153080",
        "SeshatID": "de_east_francia",
        "Components": "",
        "MemberOf": "(Carolingian Empire)",
        "displayYear": 881,
        "sourceYear": 881,
        "mappedTerritoryId": "cliopatria_east_franks"
      },
      "geometry": {
        "type": "Polygon",
        "coordinates": [
          [
            [
              11.7313871383667,
              53.057395935058594
            ],
            [
              10.35936450958252,
              53.462066650390625
            ],
            [
              10.359575271606445,
              53.597137451171875
            ],
            [
              10.187278747558594,
              53.664710998535156
            ],
            [
              10.187337875366211,
              53.86756134033203
            ],
            [
              10.014577865600586,
              53.93522644042969
            ],
            [
              10.100866317749023,
              54.341712951660156
            ],
            [
              9.148486137390137,
              54.20612335205078
            ],
            [
              8.887362480163574,
              54.341712951660156
            ],
            [
              8.802155494689941,
              54.20612335205078
            ],
            [
              8.80289077758789,
              54.138362884521484
            ],
            [
              8.892172813415527,
              53.86756134033203
            ],
            [
              8.459527015686035,
              53.93522644042969
            ],
            [
              8.376045227050781,
              53.732303619384766
            ],
            [
              8.37701416015625,
              53.664710998535156
            ],
            [
              8.466897964477539,
              53.39456558227539
            ],
            [
              8.29688835144043,
              53.25962829589844
            ],
            [
              7.356264591217041,
              53.057395935058594
            ],
            [
              7.270477771759033,
              53.057395935058594
            ],
            [
              7.102196216583252,
              52.92268753051758
            ],
            [
              6.845108985900879,
              52.92268753051758
            ],
            [
              6.668092727661133,
              53.124786376953125
            ],
            [
              6.4964280128479,
              53.124786376953125
            ],
            [
              6.326824188232422,
              53.057395935058594
            ],
            [
              6.335031509399414,
              52.78806686401367
            ],
            [
              6.078215599060059,
              52.78806686401367
            ],
            [
              5.911537170410156,
              52.653533935546875
            ],
            [
              5.654990673065186,
              52.653533935546875
            ],
            [
              5.559673309326172,
              52.92268753051758
            ],
            [
              5.38828182220459,
              52.92268753051758
            ],
            [
              5.390830039978027,
              52.85536575317383
            ],
            [
              5.305179595947266,
              52.85536575317383
            ],
            [
              5.307767868041992,
              52.78806686401367
            ],
            [
              5.222162246704102,
              52.78806686401367
            ],
            [
              5.224790573120117,
              52.720787048339844
            ],
            [
              5.227413654327393,
              52.653533935546875
            ],
            [
              5.320633411407471,
              52.4518928527832
            ],
            [
              5.149869918823242,
              52.4518928527832
            ],
            [
              5.051530512645154,
              52.250450134277344
            ],
            [
              4.987296104431152,
              52.250450134277344
            ],
            [
              4.646299362182617,
              52.250450134277344
            ],
            [
              4.496551513671875,
              51.78114318847656
            ],
            [
              4.499491691589355,
              51.71418380737305
            ],
            [
              4.244784832000732,
              51.71418380737305
            ],
            [
              4.150527000427246,
              51.91512680053711
            ],
            [
              3.980464458465576,
              51.91512680053711
            ],
            [
              3.895433187484741,
              51.91512680053711
            ],
            [
              3.810401916503906,
              51.91512680053711
            ],
            [
              3.81699013710022,
              51.78114318847656
            ],
            [
              3.647099733352661,
              51.78114318847656
            ],
            [
              3.738690614700317,
              51.64724349975586
            ],
            [
              3.399252653121948,
              51.64724349975586
            ],
            [
              3.40621018409729,
              51.51342010498047
            ],
            [
              3.74530816078186,
              51.51342010498047
            ],
            [
              3.494410037994385,
              51.44654083251953
            ],
            [
              3.409677743911743,
              51.44654083251953
            ],
            [
              3.504641532897949,
              51.24601745605469
            ],
            [
              4.263070583343506,
              51.31283950805664
            ],
            [
              4.034165859222412,
              50.77880859375
            ],
            [
              3.538282871246338,
              50.578861236572266
            ],
            [
              3.548239946365356,
              50.37908172607422
            ],
            [
              3.632314682006836,
              50.37908172607422
            ],
            [
              3.635580539703369,
              50.312522888183594
            ],
            [
              3.816332101821899,
              50.04647445678711
            ],
            [
              4.576823711395264,
              49.91355895996094
            ],
            [
              4.679802417755127,
              49.44889450073242
            ],
            [
              5.026719093322754,
              49.11750411987305
            ],
            [
              4.865273475646973,
              48.98506164550781
            ],
            [
              4.883440971374512,
              48.52202224731445
            ],
            [
              5.303273677825928,
              48.38986587524414
            ],
            [
              5.47376823425293,
              48.257774353027344
            ],
            [
              5.480661869049072,
              48.059749603271484
            ],
            [
              6.975266933441162,
              47.86185836791992
            ],
            [
              7.135842800140381,
              48.059749603271484
            ],
            [
              7.041702270507812,
              48.52202224731445
            ],
            [
              7.206159114837646,
              48.5881233215332
            ],
            [
              7.198314666748047,
              48.91886520385742
            ],
            [
              7.528380393981934,
              49.051273345947266
            ],
            [
              8.112674713134766,
              48.98506164550781
            ],
            [
              8.118504524230957,
              48.654239654541016
            ],
            [
              8.451854705810547,
              48.5881233215332
            ],
            [
              8.783166885375977,
              48.654239654541016
            ],
            [
              8.946935653686523,
              48.852684020996094
            ],
            [
              9.776742935180664,
              49.18375015258789
            ],
            [
              9.859366416931152,
              49.316287994384766
            ],
            [
              10.276451110839844,
              49.38258361816406
            ],
            [
              10.44354248046875,
              49.316287994384766
            ],
            [
              10.61106014251709,
              48.5881233215332
            ],
            [
              10.11336898803711,
              48.455936431884766
            ],
            [
              9.950777053833008,
              47.86185836791992
            ],
            [
              9.868124008178711,
              47.86185836791992
            ],
            [
              9.951154708862305,
              47.79592514038086
            ],
            [
              9.951531410217285,
              47.730003356933594
            ],
            [
              9.541373252868652,
              47.4006233215332
            ],
            [
              9.627367973327637,
              46.94007873535156
            ],
            [
              9.383280754089355,
              46.677207946777344
            ],
            [
              9.385669708251953,
              46.414546966552734
            ],
            [
              10.041536331176758,
              46.283294677734375
            ],
            [
              10.122788429260254,
              46.414546966552734
            ],
            [
              10.040886878967285,
              46.414546966552734
            ],
            [
              10.039896965026855,
              46.61152267456055
            ],
            [
              10.859914779663086,
              46.54585266113281
            ],
            [
              11.598238945007324,
              46.677207946777344
            ],
            [
              13.646848678588867,
              46.54585266113281
            ],
            [
              13.72764778137207,
              46.480194091796875
            ],
            [
              13.643445014953613,
              46.348915100097656
            ],
            [
              13.963357925415039,
              45.95537567138672
            ],
            [
              13.959587097167969,
              45.75876998901367
            ],
            [
              14.281725883483887,
              45.56227111816406
            ],
            [
              14.278955459594727,
              45.431331634521484
            ],
            [
              14.930253028869629,
              45.431331634521484
            ],
            [
              15.089664459228516,
              45.300437927246094
            ],
            [
              15.415056228637695,
              45.300437927246094
            ],
            [
              15.57205581665039,
              45.10417556762695
            ],
            [
              15.978317260742188,
              45.10417556762695
            ],
            [
              16.136579513549805,
              44.973392486572266
            ],
            [
              16.461332321166992,
              44.973392486572266
            ],
            [
              16.537961959838867,
              44.842647552490234
            ],
            [
              16.78371238708496,
              44.908016204833984
            ],
            [
              16.864870071411133,
              44.908016204833984
            ],
            [
              17.351810455322266,
              44.908016204833984
            ],
            [
              17.519447326660156,
              45.03877639770508
            ],
            [
              17.760351181030273,
              44.973392486572266
            ],
            [
              17.92837142944336,
              45.10417556762695
            ],
            [
              18.73775291442871,
              45.03877639770508
            ],
            [
              18.80946922302246,
              44.842647552490234
            ],
            [
              19.056106567382812,
              44.908016204833984
            ],
            [
              19.13726234436035,
              44.908016204833984
            ],
            [
              19.23841667175293,
              45.300437927246094
            ],
            [
              18.997617721557617,
              45.36587905883789
            ],
            [
              19.004117965698242,
              45.496795654296875
            ],
            [
              18.92267417907715,
              45.496795654296875
            ],
            [
              18.9258975982666,
              45.56227111816406
            ],
            [
              18.77879524230957,
              45.889827728271484
            ],
            [
              18.86043357849121,
              45.889827728271484
            ],
            [
              19.05011558532715,
              46.414546966552734
            ],
            [
              18.81411361694336,
              46.61152267456055
            ],
            [
              18.83701515197754,
              47.07159423828125
            ],
            [
              19.1728572845459,
              47.20316696166992
            ],
            [
              19.186756134033203,
              47.46647262573242
            ],
            [
              19.025299072265625,
              47.53233337402344
            ],
            [
              18.95307159423828,
              47.730003356933594
            ],
            [
              17.714326858520508,
              47.730003356933594
            ],
            [
              17.064254760742188,
              47.993770599365234
            ],
            [
              16.663206100463867,
              48.323814392089844
            ],
            [
              16.078336715698242,
              48.191749572753906
            ],
            [
              15.498525619506836,
              48.191749572753906
            ],
            [
              15.17097282409668,
              48.323814392089844
            ],
            [
              14.506157875061035,
              48.257774353027344
            ],
            [
              14.509366989135742,
              48.38986587524414
            ],
            [
              14.180566787719727,
              48.52202224731445
            ],
            [
              14.183547973632812,
              48.654239654541016
            ],
            [
              13.605730056762695,
              48.852684020996094
            ],
            [
              13.112967491149902,
              49.2500114440918
            ],
            [
              12.69770336151123,
              49.38258361816406
            ],
            [
              12.532414436340332,
              49.51522445678711
            ],
            [
              12.534139633178711,
              49.64793395996094
            ],
            [
              12.36764907836914,
              49.71431350708008
            ],
            [
              12.370920181274414,
              49.98000717163086
            ],
            [
              12.038346290588379,
              50.2459831237793
            ],
            [
              12.04199504852295,
              50.578861236572266
            ],
            [
              12.21121883392334,
              50.64549255371094
            ],
            [
              12.131903648376465,
              51.04566955566406
            ],
            [
              11.288854598999023,
              51.31283950805664
            ],
            [
              11.290238380432129,
              51.51342010498047
            ],
            [
              11.545768737792969,
              51.64724349975586
            ],
            [
              11.547623634338379,
              51.84812545776367
            ],
            [
              11.804885864257812,
              52.0491943359375
            ],
            [
              11.719767570495605,
              52.0491943359375
            ],
            [
              11.55083179473877,
              52.18334197998047
            ],
            [
              11.552154541015625,
              52.31757736206055
            ],
            [
              11.637447357177734,
              52.31757736206055
            ],
            [
              11.641072273254395,
              52.653533935546875
            ],
            [
              11.726588249206543,
              52.653533935546875
            ],
            [
              11.730573654174805,
              52.99003219604492
            ],
            [
              11.7313871383667,
              53.057395935058594
            ]
          ]
        ]
      }
    }
  ]
}
