{
  "type": "FeatureCollection",
  "features": [
    {
      "type": "Feature",
      "properties": {
        "Name": "Najahid Dynasty",
        "FromYear": 1099,
        "ToYear": 1138,
        "Area": 204195.42444839346,
        "Type": "POLITY",
        "Wikipedia": "Najahid dynasty",
        "Wikidata": "Q1411866",
        "SeshatID": "",
        "Components": "",
        "MemberOf": "",
        "displayYear": 1125,
        "sourceYear": 1125,
        "mappedTerritoryId": "cliopatria_najahid_dynasty"
      },
      "geometry": {
        "type": "Polygon",
        "coordinates": [
          [
            [
              44.61093521118164,
              16.9361629486084
            ],
            [
              44.66971969604492,
              16.67901039123535
            ],
            [
              45.22568130493164,
              16.100418090820312
            ],
            [
              45.21470260620117,
              15.907554626464844
            ],
            [
              45.365570068359375,
              15.971842765808105
            ],
            [
              45.579044342041016,
              15.843266487121582
            ],
            [
              46.0206184387207,
              15.843266487121582
            ],
            [
              46.17527389526367,
              15.971842765808105
            ],
            [
              46.46971130371094,
              15.971842765808105
            ],
            [
              46.377445220947266,
              15.650403022766113
            ],
            [
              46.23029327392578,
              15.650403022766113
            ],
            [
              46.14939498901367,
              15.52182674407959
            ],
            [
              46.5062255859375,
              15.328963279724121
            ],
            [
              47.52838134765625,
              15.200387001037598
            ],
            [
              47.811405181884766,
              15.007523536682129
            ],
            [
              48.535369873046875,
              14.81466007232666
            ],
            [
              49.48698043823242,
              14.750371932983398
            ],
            [
              48.7861213684082,
              14.043206214904785
            ],
            [
              47.75149917602539,
              13.914630889892578
            ],
            [
              47.668033599853516,
              13.721768379211426
            ],
            [
              46.844635009765625,
              13.40032958984375
            ],
            [
              45.74114990234375,
              13.336042404174805
            ],
            [
              45.28290939331055,
              12.950316429138184
            ],
            [
              45.209590911865234,
              12.950316429138184
            ],
            [
              44.92522430419922,
              13.143178939819336
            ],
            [
              44.85188674926758,
              13.143178939819336
            ],
            [
              44.48225021362305,
              13.07889175415039
            ],
            [
              44.323944091796875,
              12.821741104125977
            ],
            [
              44.391502380371094,
              12.69316577911377
            ],
            [
              44.38864517211914,
              12.628878593444824
            ],
            [
              43.658504486083984,
              12.69316577911377
            ],
            [
              43.585205078125,
              12.69316577911377
            ],
            [
              43.751834869384766,
              13.143178939819336
            ],
            [
              43.6139030456543,
              13.336042404174805
            ],
            [
              43.63174819946289,
              13.721768379211426
            ],
            [
              43.497100830078125,
              13.97891902923584
            ],
            [
              43.582881927490234,
              14.236069679260254
            ],
            [
              43.43913269042969,
              14.300357818603516
            ],
            [
              43.3751106262207,
              14.493220329284668
            ],
            [
              43.004695892333984,
              14.428933143615723
            ],
            [
              43.00782012939453,
              14.493220329284668
            ],
            [
              42.88957214355469,
              15.07181167602539
            ],
            [
              42.74578857421875,
              15.136098861694336
            ],
            [
              42.765567779541016,
              15.52182674407959
            ],
            [
              42.6920051574707,
              15.52182674407959
            ],
            [
              42.8239860534668,
              16.614723205566406
            ],
            [
              42.476654052734375,
              17.000450134277344
            ],
            [
              42.48373794555664,
              17.129026412963867
            ],
            [
              42.33625793457031,
              17.129026412963867
            ],
            [
              42.34688949584961,
              17.321889877319336
            ],
            [
              42.21000289916992,
              17.514753341674805
            ],
            [
              42.51232147216797,
              17.643327713012695
            ],
            [
              42.44570541381836,
              17.77190399169922
            ],
            [
              42.663536071777344,
              17.707616806030273
            ],
            [
              42.82570266723633,
              17.964767456054688
            ],
            [
              43.35369110107422,
              18.157629013061523
            ],
            [
              43.897132873535156,
              18.607641220092773
            ],
            [
              44.08096694946289,
              17.964767456054688
            ],
            [
              44.41978073120117,
              17.450464248657227
            ],
            [
              44.338478088378906,
              17.321889877319336
            ],
            [
              44.47471618652344,
              17.129026412963867
            ],
            [
              44.622196197509766,
              17.129026412963867
            ],
            [
              44.53721618652344,
              16.9361629486084
            ],
            [
              44.61093521118164,
              16.9361629486084
            ]
          ]
        ]
      }
    }
  ]
}
