{
  "type": "FeatureCollection",
  "features": [
    {
      "type": "Feature",
      "properties": {
        "Name": "Tibet",
        "FromYear": 1700,
        "ToYear": 1701,
        "Area": 1604860.8163292804,
        "Type": "POLITY",
        "Wikipedia": "History of Tibet",
        "Wikidata": "Q521263",
        "SeshatID": "",
        "Components": "",
        "MemberOf": "",
        "displayYear": 1700,
        "sourceYear": 1700,
        "mappedTerritoryId": "cliopatria_tibet"
      },
      "geometry": {
        "type": "Polygon",
        "coordinates": [
          [
            [
              98.372802734375,
              28.44382095336914
            ],
            [
              98.56698608398438,
              28.315250396728516
            ],
            [
              98.53511810302734,
              28.186676025390625
            ],
            [
              98.86866760253906,
              28.315250396728516
            ],
            [
              99.02532196044922,
              29.21521759033203
            ],
            [
              99.23507690429688,
              29.150936126708984
            ],
            [
              99.3970718383789,
              29.472333908081055
            ],
            [
              99.53097534179688,
              29.40805435180664
            ],
            [
              99.41088104248047,
              28.958093643188477
            ],
            [
              99.48644256591797,
              28.958093643188477
            ],
            [
              99.42909240722656,
              28.44382095336914
            ],
            [
              99.53131103515625,
              28.25096321105957
            ],
            [
              99.69830322265625,
              28.315250396728516
            ],
            [
              99.73815155029297,
              28.765243530273438
            ],
            [
              99.98152923583984,
              28.829526901245117
            ],
            [
              100.67941284179688,
              29.729440689086914
            ],
            [
              101.1021957397461,
              31.65752601623535
            ],
            [
              101.17842102050781,
              31.65752601623535
            ],
            [
              101.87380981445312,
              33.52165222167969
            ],
            [
              100.8563461303711,
              33.90746307373047
            ],
            [
              98.84729766845703,
              34.10039138793945
            ],
            [
              98.32051086425781,
              34.3576545715332
            ],
            [
              98.28814697265625,
              34.48630142211914
            ],
            [
              97.71641540527344,
              34.614952087402344
            ],
            [
              97.68412017822266,
              34.743614196777344
            ],
            [
              97.45277404785156,
              34.743614196777344
            ],
            [
              96.552001953125,
              35.258358001708984
            ],
            [
              95.76936340332031,
              35.45143127441406
            ],
            [
              93.54402160644531,
              36.61045455932617
            ],
            [
              92.60234832763672,
              36.80373764038086
            ],
            [
              92.36028289794922,
              36.9970588684082
            ],
            [
              91.79238891601562,
              36.932613372802734
            ],
            [
              91.39037322998047,
              36.67487716674805
            ],
            [
              91.24541473388672,
              36.48161697387695
            ],
            [
              90.25768280029297,
              36.5460319519043
            ],
            [
              89.82537078857422,
              36.417205810546875
            ],
            [
              89.71379852294922,
              36.5460319519043
            ],
            [
              88.66944122314453,
              36.67487716674805
            ],
            [
              87.24166870117188,
              36.3527946472168
            ],
            [
              86.79684448242188,
              36.417205810546875
            ],
            [
              86.5221176147461,
              36.28839111328125
            ],
            [
              86.24337005615234,
              35.902034759521484
            ],
            [
              85.89291381835938,
              35.77327346801758
            ],
            [
              85.70098114013672,
              35.902034759521484
            ],
            [
              85.00362396240234,
              35.902034759521484
            ],
            [
              84.63399505615234,
              35.708900451660156
            ],
            [
              83.87940216064453,
              35.77327346801758
            ],
            [
              83.27902221679688,
              35.58015823364258
            ],
            [
              82.81473541259766,
              35.58015823364258
            ],
            [
              82.73713684082031,
              35.837650299072266
            ],
            [
              82.34982299804688,
              35.837650299072266
            ],
            [
              82.0219497680664,
              35.51579284667969
            ],
            [
              81.67485809326172,
              35.38706970214844
            ],
            [
              81.48043060302734,
              35.51579284667969
            ],
            [
              80.22421264648438,
              35.45143127441406
            ],
            [
              80.205810546875,
              35.38706970214844
            ],
            [
              80.17362213134766,
              35.00096893310547
            ],
            [
              80.02449798583984,
              34.743614196777344
            ],
            [
              79.58578491210938,
              34.55062484741211
            ],
            [
              79.4462890625,
              34.03607940673828
            ],
            [
              78.9848861694336,
              34.03607940673828
            ],
            [
              78.9262924194336,
              33.52165222167969
            ],
            [
              78.8328628540039,
              33.45735549926758
            ],
            [
              78.98632049560547,
              33.45735549926758
            ],
            [
              79.08979034423828,
              33.26447677612305
            ],
            [
              79.36327362060547,
              33.13589859008789
            ],
            [
              79.33027648925781,
              33.00732421875
            ],
            [
              79.51081085205078,
              32.81447219848633
            ],
            [
              79.46202087402344,
              32.62162780761719
            ],
            [
              79.10797882080078,
              32.428794860839844
            ],
            [
              78.87867736816406,
              32.428794860839844
            ],
            [
              78.7131576538086,
              32.685909271240234
            ],
            [
              78.62064361572266,
              32.62162780761719
            ],
            [
              78.54415130615234,
              32.62162780761719
            ],
            [
              78.46499633789062,
              32.30024337768555
            ],
            [
              78.54139709472656,
              32.30024337768555
            ],
            [
              78.5552978515625,
              32.043148040771484
            ],
            [
              78.75325775146484,
              31.91460609436035
            ],
            [
              78.81387329101562,
              31.528987884521484
            ],
            [
              79.10343933105469,
              31.464719772338867
            ],
            [
              79.4549560546875,
              31.014846801757812
            ],
            [
              79.97239685058594,
              30.950578689575195
            ],
            [
              80.26356506347656,
              30.564971923828125
            ],
            [
              80.8416519165039,
              30.436433792114258
            ],
            [
              81.01100158691406,
              30.179353713989258
            ],
            [
              81.29988098144531,
              30.115081787109375
            ],
            [
              81.58596801757812,
              30.372163772583008
            ],
            [
              82.04134368896484,
              30.372163772583008
            ],
            [
              82.46930694580078,
              29.922264099121094
            ],
            [
              83.305908203125,
              29.600887298583984
            ],
            [
              83.42857360839844,
              29.472333908081055
            ],
            [
              83.44743347167969,
              29.21521759033203
            ],
            [
              83.66020965576172,
              29.150936126708984
            ],
            [
              83.8397216796875,
              29.279497146606445
            ],
            [
              84.14226531982422,
              29.279497146606445
            ],
            [
              84.26506042480469,
              29.150936126708984
            ],
            [
              84.22280883789062,
              28.958093643188477
            ],
            [
              84.4076919555664,
              28.765243530273438
            ],
            [
              84.81932067871094,
              28.572391510009766
            ],
            [
              85.19670867919922,
              28.572391510009766
            ],
            [
              85.15557098388672,
              28.379535675048828
            ],
            [
              85.35469818115234,
              28.25096321105957
            ],
            [
              85.745361328125,
              28.315250396728516
            ],
            [
              85.97926330566406,
              27.993812561035156
            ],
            [
              86.2323226928711,
              28.12238883972168
            ],
            [
              86.28067779541016,
              27.993812561035156
            ],
            [
              86.8970947265625,
              28.058101654052734
            ],
            [
              87.44561767578125,
              27.800947189331055
            ],
            [
              88.13705444335938,
              27.865236282348633
            ],
            [
              88.21238708496094,
              27.865236282348633
            ],
            [
              88.47978973388672,
              28.058101654052734
            ],
            [
              88.78125762939453,
              28.058101654052734
            ],
            [
              88.95187377929688,
              27.800947189331055
            ],
            [
              88.79541015625,
              27.41520881652832
            ],
            [
              88.87064361572266,
              27.41520881652832
            ],
            [
              88.94587707519531,
              27.41520881652832
            ],
            [
              89.72833251953125,
              28.25096321105957
            ],
            [
              90.27063751220703,
              28.315250396728516
            ],
            [
              90.43932342529297,
              28.058101654052734
            ],
            [
              91.56981658935547,
              28.058101654052734
            ],
            [
              91.75271606445312,
              27.865236282348633
            ],
            [
              91.66815948486328,
              27.4794979095459
            ],
            [
              92.09185028076172,
              27.35091781616211
            ],
            [
              92.105712890625,
              27.41520881652832
            ],
            [
              93.0367660522461,
              27.54378890991211
            ],
            [
              94.38845825195312,
              28.186676025390625
            ],
            [
              94.76673126220703,
              28.508106231689453
            ],
            [
              95.58457946777344,
              28.765243530273438
            ],
            [
              96.18873596191406,
              28.765243530273438
            ],
            [
              96.38323211669922,
              28.636676788330078
            ],
            [
              96.3954086303711,
              28.379535675048828
            ],
            [
              96.86382293701172,
              28.44382095336914
            ],
            [
              97.34449005126953,
              28.25096321105957
            ],
            [
              97.4198989868164,
              28.25096321105957
            ],
            [
              97.55886840820312,
              28.508106231689453
            ],
            [
              97.70979309082031,
              28.508106231689453
            ],
            [
              98.15814971923828,
              28.186676025390625
            ],
            [
              98.372802734375,
              28.44382095336914
            ]
          ]
        ]
      }
    }
  ]
}
