{
  "type": "FeatureCollection",
  "features": [
    {
      "type": "Feature",
      "properties": {
        "Name": "Hamdanid Emirates",
        "FromYear": 1034,
        "ToYear": 1045,
        "Area": 723030.6399572778,
        "Type": "POLITY",
        "Wikipedia": "Hamdanid dynasty",
        "Wikidata": "Q837187",
        "SeshatID": "",
        "Components": "",
        "MemberOf": "",
        "displayYear": 1038,
        "sourceYear": 1038,
        "mappedTerritoryId": "cliopatria_hamdanid_emirates"
      },
      "geometry": {
        "type": "MultiPolygon",
        "coordinates": [
          [
            [
              [
                39.77942657470703,
                26.900876998901367
              ],
              [
                39.77472686767578,
                26.836584091186523
              ],
              [
                39.770050048828125,
                26.772293090820312
              ],
              [
                39.694942474365234,
                26.772293090820312
              ],
              [
                39.699607849121094,
                26.836584091186523
              ],
              [
                39.70429229736328,
                26.900876998901367
              ],
              [
                39.77942657470703,
                26.900876998901367
              ]
            ]
          ],
          [
            [
              [
                48.722476959228516,
                39.8376350402832
              ],
              [
                48.77663040161133,
                39.70827102661133
              ],
              [
                48.934326171875,
                39.70827102661133
              ],
              [
                49.030479431152344,
                39.38497543334961
              ],
              [
                49.17570495605469,
                39.320335388183594
              ],
              [
                49.16353225708008,
                39.25570297241211
              ],
              [
                48.91546630859375,
                39.19107437133789
              ],
              [
                48.801002502441406,
                38.997230529785156
              ],
              [
                48.76274490356445,
                38.351463317871094
              ],
              [
                48.8410758972168,
                38.351463317871094
              ],
              [
                48.88429260253906,
                37.706241607666016
              ],
              [
                49.08510208129883,
                37.51277160644531
              ],
              [
                49.38604736328125,
                37.44829177856445
              ],
              [
                49.464054107666016,
                37.44829177856445
              ],
              [
                49.15312957763672,
                36.9970588684082
              ],
              [
                48.852516174316406,
                37.06150817871094
              ],
              [
                48.79628372192383,
                37.1904182434082
              ],
              [
                48.38528060913086,
                37.06150817871094
              ],
              [
                48.26158142089844,
                37.254878997802734
              ],
              [
                48.08439254760742,
                37.12596130371094
              ],
              [
                47.627525329589844,
                37.1904182434082
              ],
              [
                47.196571350097656,
                36.932613372802734
              ],
              [
                47.280792236328125,
                36.48161697387695
              ],
              [
                47.10540008544922,
                36.3527946472168
              ],
              [
                46.872501373291016,
                36.3527946472168
              ],
              [
                46.814735412597656,
                36.48161697387695
              ],
              [
                46.26120376586914,
                36.417205810546875
              ],
              [
                45.84403610229492,
                36.2239875793457
              ],
              [
                45.62080383300781,
                36.28839111328125
              ],
              [
                45.350242614746094,
                36.03080368041992
              ],
              [
                45.1176643371582,
                36.03080368041992
              ],
              [
                44.898380279541016,
                35.58015823364258
              ],
              [
                44.40733337402344,
                35.38706970214844
              ],
              [
                44.1740608215332,
                34.80794906616211
              ],
              [
                43.92555618286133,
                34.679283142089844
              ],
              [
                43.81462097167969,
                34.42197799682617
              ],
              [
                43.660587310791016,
                34.42197799682617
              ],
              [
                43.39646530151367,
                34.164703369140625
              ],
              [
                43.242584228515625,
                34.164703369140625
              ],
              [
                42.89459991455078,
                33.84315490722656
              ],
              [
                42.57145309448242,
                33.71455001831055
              ],
              [
                42.37131118774414,
                33.32876968383789
              ],
              [
                42.32563400268555,
                32.94303894042969
              ],
              [
                42.40221405029297,
                32.94303894042969
              ],
              [
                42.47052764892578,
                31.528987884521484
              ],
              [
                42.54671859741211,
                31.528987884521484
              ],
              [
                42.68495178222656,
                30.69350814819336
              ],
              [
                42.60897445678711,
                30.69350814819336
              ],
              [
                41.50025939941406,
                30.243623733520508
              ],
              [
                40.91420364379883,
                29.665164947509766
              ],
              [
                40.72746658325195,
                29.279497146606445
              ],
              [
                40.570438385009766,
                29.21521759033203
              ],
              [
                40.309837341308594,
                28.829526901245117
              ],
              [
                40.368812561035156,
                28.636676788330078
              ],
              [
                40.21782684326172,
                28.636676788330078
              ],
              [
                39.873512268066406,
                28.12238883972168
              ],
              [
                39.709007263183594,
                26.96516990661621
              ],
              [
                39.70429229736328,
                26.900876998901367
              ],
              [
                39.35213088989258,
                27.222335815429688
              ],
              [
                38.89356994628906,
                28.12238883972168
              ],
              [
                38.677425384521484,
                28.25096321105957
              ],
              [
                38.68751907348633,
                28.379535675048828
              ],
              [
                38.12966537475586,
                28.958093643188477
              ],
              [
                37.939510345458984,
                29.40805435180664
              ],
              [
                37.658016204833984,
                29.665164947509766
              ],
              [
                37.603782653808594,
                29.922264099121094
              ],
              [
                37.3872184753418,
                30.050809860229492
              ],
              [
                37.26835250854492,
                30.436433792114258
              ],
              [
                37.122039794921875,
                30.500701904296875
              ],
              [
                37.0035400390625,
                30.886310577392578
              ],
              [
                36.85709762573242,
                30.950578689575195
              ],
              [
                36.8093376159668,
                31.271915435791016
              ],
              [
                36.668487548828125,
                31.40045166015625
              ],
              [
                36.632781982421875,
                31.8503360748291
              ],
              [
                36.55650329589844,
                31.8503360748291
              ],
              [
                36.5155143737793,
                32.23596954345703
              ],
              [
                36.591896057128906,
                32.23596954345703
              ],
              [
                36.6219596862793,
                32.557350158691406
              ],
              [
                36.47505187988281,
                32.62162780761719
              ],
              [
                36.48719024658203,
                32.75019073486328
              ],
              [
                36.169097900390625,
                32.62162780761719
              ],
              [
                35.633670806884766,
                32.62162780761719
              ],
              [
                35.42167663574219,
                32.81447219848633
              ],
              [
                35.04472732543945,
                32.878753662109375
              ],
              [
                35.05051803588867,
                32.94303894042969
              ],
              [
                35.39840316772461,
                33.393062591552734
              ],
              [
                35.34577560424805,
                33.65024948120117
              ],
              [
                35.49934768676758,
                33.65024948120117
              ],
              [
                35.4470100402832,
                33.90746307373047
              ],
              [
                35.68381118774414,
                33.971771240234375
              ],
              [
                35.64447784423828,
                34.3576545715332
              ],
              [
                35.79212951660156,
                34.2933349609375
              ],
              [
                36.048770904541016,
                34.55062484741211
              ],
              [
                36.055240631103516,
                34.614952087402344
              ],
              [
                36.29301834106445,
                34.679283142089844
              ],
              [
                36.312767028808594,
                34.87228775024414
              ],
              [
                36.165035247802734,
                34.93662643432617
              ],
              [
                36.184871673583984,
                35.12965774536133
              ],
              [
                36.35274124145508,
                35.258358001708984
              ],
              [
                36.343345642089844,
                35.902034759521484
              ],
              [
                36.688385009765625,
                36.2239875793457
              ],
              [
                37.01310729980469,
                36.3527946472168
              ],
              [
                37.027557373046875,
                36.48161697387695
              ],
              [
                37.282623291015625,
                36.67487716674805
              ],
              [
                38.394161224365234,
                36.8681755065918
              ],
              [
                38.487579345703125,
                36.9970588684082
              ],
              [
                38.72113037109375,
                36.9970588684082
              ],
              [
                38.73698043823242,
                37.12596130371094
              ],
              [
                39.39286422729492,
                37.38381576538086
              ],
              [
                40.692726135253906,
                37.7707405090332
              ],
              [
                41.39582061767578,
                37.7707405090332
              ],
              [
                41.3779182434082,
                37.641746520996094
              ],
              [
                41.59423065185547,
                37.51277160644531
              ],
              [
                41.57643508911133,
                37.38381576538086
              ],
              [
                41.81039047241211,
                37.38381576538086
              ],
              [
                42.17344665527344,
                38.28691864013672
              ],
              [
                42.55543518066406,
                38.22237777709961
              ],
              [
                42.57698059082031,
                37.835243225097656
              ],
              [
                42.65512466430664,
                37.835243225097656
              ],
              [
                42.6959114074707,
                37.5772590637207
              ],
              [
                42.842708587646484,
                37.51277160644531
              ],
              [
                44.354591369628906,
                37.706241607666016
              ],
              [
                44.45244216918945,
                37.835243225097656
              ],
              [
                44.30603790283203,
                37.89975357055664
              ],
              [
                44.34591293334961,
                38.157840728759766
              ],
              [
                44.485198974609375,
                38.54513168334961
              ],
              [
                44.584285736083984,
                38.67427444458008
              ],
              [
                44.89808654785156,
                38.67427444458008
              ],
              [
                45.108097076416016,
                38.997230529785156
              ],
              [
                45.343814849853516,
                38.997230529785156
              ],
              [
                45.365482330322266,
                39.1264533996582
              ],
              [
                44.869144439697266,
                39.449623107910156
              ],
              [
                44.834251403808594,
                39.70827102661133
              ],
              [
                44.75540542602539,
                39.70827102661133
              ],
              [
                44.5518913269043,
                39.90232849121094
              ],
              [
                44.66431427001953,
                40.0964469909668
              ],
              [
                44.82231903076172,
                40.0964469909668
              ],
              [
                44.87879180908203,
                39.9670295715332
              ],
              [
                45.83774948120117,
                40.031734466552734
              ],
              [
                46.030792236328125,
                40.225894927978516
              ],
              [
                46.34701156616211,
                40.225894927978516
              ],
              [
                46.44994354248047,
                40.355369567871094
              ],
              [
                46.86980438232422,
                40.4848747253418
              ],
              [
                46.9367561340332,
                40.42012023925781
              ],
              [
                46.79737854003906,
                40.0964469909668
              ],
              [
                46.99855422973633,
                39.90232849121094
              ],
              [
                47.31425094604492,
                39.90232849121094
              ],
              [
                47.412532806396484,
                39.57893371582031
              ],
              [
                48.327980041503906,
                39.8376350402832
              ],
              [
                48.40687942504883,
                39.8376350402832
              ],
              [
                48.722476959228516,
                39.8376350402832
              ]
            ]
          ],
          [
            [
              [
                48.331478118896484,
                41.84651184082031
              ],
              [
                48.411216735839844,
                41.84651184082031
              ],
              [
                48.39771270751953,
                41.781593322753906
              ],
              [
                48.47742462158203,
                41.781593322753906
              ],
              [
                48.2778205871582,
                41.586883544921875
              ],
              [
                48.118568420410156,
                41.586883544921875
              ],
              [
                48.131866455078125,
                41.65177917480469
              ],
              [
                48.1191520690918,
                41.97637939453125
              ],
              [
                48.265220642089844,
                41.911441802978516
              ],
              [
                48.34498977661133,
                41.911441802978516
              ],
              [
                48.331478118896484,
                41.84651184082031
              ]
            ]
          ]
        ]
      }
    }
  ]
}
