{
  "type": "FeatureCollection",
  "features": [
    {
      "type": "Feature",
      "properties": {
        "Name": "Rashtrakuta Dynasty",
        "FromYear": 947,
        "ToYear": 979,
        "Area": 768553.1066202733,
        "Type": "POLITY",
        "Wikipedia": "Rashtrakuta dynasty",
        "Wikidata": "Q856691",
        "SeshatID": "in_rashtrakuta_emp",
        "Components": "",
        "MemberOf": "",
        "displayYear": 947,
        "sourceYear": 947,
        "mappedTerritoryId": "cliopatria_rashtrakuta_dynasty"
      },
      "geometry": {
        "type": "Polygon",
        "coordinates": [
          [
            [
              74.14128875732422,
              22.079116821289062
            ],
            [
              75.96370697021484,
              22.400548934936523
            ],
            [
              77.2363510131836,
              22.46483612060547
            ],
            [
              77.70645904541016,
              22.657697677612305
            ],
            [
              79.07891082763672,
              22.914846420288086
            ],
            [
              79.74919128417969,
              22.914846420288086
            ],
            [
              79.94783782958984,
              22.72198486328125
            ],
            [
              79.93147277832031,
              22.59341049194336
            ],
            [
              80.28728485107422,
              22.46483612060547
            ],
            [
              80.47804260253906,
              22.20768928527832
            ],
            [
              81.27179718017578,
              22.014829635620117
            ],
            [
              81.1492691040039,
              21.629112243652344
            ],
            [
              81.1601791381836,
              21.114822387695312
            ],
            [
              80.91397857666016,
              20.921964645385742
            ],
            [
              81.02330780029297,
              20.60053253173828
            ],
            [
              80.8360824584961,
              20.279102325439453
            ],
            [
              80.64539337158203,
              19.314802169799805
            ],
            [
              80.48963928222656,
              19.25051498413086
            ],
            [
              80.44322204589844,
              18.864791870117188
            ],
            [
              80.36927032470703,
              18.864791870117188
            ],
            [
              80.30781555175781,
              18.350492477416992
            ],
            [
              80.38169860839844,
              18.350492477416992
            ],
            [
              80.3359603881836,
              17.964767456054688
            ],
            [
              80.46846008300781,
              17.836191177368164
            ],
            [
              80.44579315185547,
              17.643327713012695
            ],
            [
              80.34949493408203,
              17.450464248657227
            ],
            [
              80.04694366455078,
              17.38617706298828
            ],
            [
              79.788818359375,
              17.06473731994629
            ],
            [
              79.88152313232422,
              15.907554626464844
            ],
            [
              79.95512390136719,
              15.907554626464844
            ],
            [
              80.04779052734375,
              15.393251419067383
            ],
            [
              80.19488525390625,
              15.393251419067383
            ],
            [
              80.0882339477539,
              15.07181167602539
            ],
            [
              80.21576690673828,
              14.878947257995605
            ],
            [
              80.20819854736328,
              14.043206214904785
            ],
            [
              80.2816162109375,
              14.043206214904785
            ],
            [
              80.24600982666016,
              13.657480239868164
            ],
            [
              80.1726303100586,
              13.657480239868164
            ],
            [
              80.16680908203125,
              13.593193054199219
            ],
            [
              78.83470916748047,
              13.464617729187012
            ],
            [
              78.76134490966797,
              13.464617729187012
            ],
            [
              77.63890075683594,
              13.207467079162598
            ],
            [
              76.87369537353516,
              12.821741104125977
            ],
            [
              75.530029296875,
              11.535990715026855
            ],
            [
              75.3384780883789,
              11.92171573638916
            ],
            [
              75.1967544555664,
              11.986002922058105
            ],
            [
              75.20634460449219,
              12.114578247070312
            ],
            [
              75.06465148925781,
              12.178865432739258
            ],
            [
              74.74769592285156,
              12.821741104125977
            ],
            [
              74.66364288330078,
              13.593193054199219
            ],
            [
              74.4706802368164,
              13.914630889892578
            ],
            [
              74.3744888305664,
              14.493220329284668
            ],
            [
              73.97454071044922,
              14.943235397338867
            ],
            [
              73.74736785888672,
              15.650403022766113
            ],
            [
              73.53911590576172,
              15.77897834777832
            ],
            [
              73.41714477539062,
              16.036130905151367
            ],
            [
              73.32787322998047,
              16.614723205566406
            ],
            [
              73.25418853759766,
              16.614723205566406
            ],
            [
              73.25337219238281,
              17.321889877319336
            ],
            [
              72.95886993408203,
              18.029054641723633
            ],
            [
              72.87482452392578,
              19.314802169799805
            ],
            [
              72.73371887207031,
              19.379087448120117
            ],
            [
              72.7613525390625,
              19.6362361907959
            ],
            [
              72.63394165039062,
              19.8290958404541
            ],
            [
              72.84673016139978,
              20.43170991700734
            ],
            [
              73.40628620528649,
              20.44902253197805
            ],
            [
              73.95370407590208,
              21.202540501594665
            ],
            [
              73.94872754980558,
              21.735130439950762
            ],
            [
              74.10568234696828,
              22.079116821289062
            ],
            [
              74.14128875732422,
              22.079116821289062
            ]
          ]
        ]
      }
    }
  ]
}
