{
  "type": "FeatureCollection",
  "features": [
    {
      "type": "Feature",
      "properties": {
        "Name": "Tughlaq Dynasty",
        "FromYear": 1326,
        "ToYear": 1332,
        "Area": 2446788.471741286,
        "Type": "POLITY",
        "Wikipedia": "Tughlaq dynasty",
        "Wikidata": "Q1124402",
        "SeshatID": "in_delhi_sultanate",
        "Components": "",
        "MemberOf": "(Delhi Sultanate)",
        "displayYear": 1328,
        "sourceYear": 1328,
        "mappedTerritoryId": "cliopatria_tughlaq_dynasty"
      },
      "geometry": {
        "type": "Polygon",
        "coordinates": [
          [
            [
              74.66255950927734,
              14.428933143615723
            ],
            [
              74.45954132080078,
              14.621796607971191
            ],
            [
              74.30680084228516,
              14.55750846862793
            ],
            [
              73.97454071044922,
              14.943235397338867
            ],
            [
              73.93107604980469,
              15.26467514038086
            ],
            [
              73.79009246826172,
              15.328963279724121
            ],
            [
              73.74736785888672,
              15.650403022766113
            ],
            [
              73.53911590576172,
              15.77897834777832
            ],
            [
              73.25418853759766,
              16.614723205566406
            ],
            [
              73.30036163330078,
              17.06473731994629
            ],
            [
              72.95886993408203,
              18.029054641723633
            ],
            [
              72.87482452392578,
              19.314802169799805
            ],
            [
              72.73371887207031,
              19.379087448120117
            ],
            [
              72.7613525390625,
              19.6362361907959
            ],
            [
              72.63394165039062,
              19.8290958404541
            ],
            [
              72.8372573852539,
              20.343387603759766
            ],
            [
              72.89940643310547,
              20.921964645385742
            ],
            [
              72.56289672851562,
              21.24339485168457
            ],
            [
              72.76029968261719,
              21.693397521972656
            ],
            [
              72.54438781738281,
              21.7576847076416
            ],
            [
              72.52674865722656,
              22.271976470947266
            ],
            [
              72.37797546386719,
              22.271976470947266
            ],
            [
              72.34249877929688,
              21.950544357299805
            ],
            [
              72.11245727539062,
              21.88625717163086
            ],
            [
              72.17279815673828,
              21.7576847076416
            ],
            [
              72.3214340209961,
              21.7576847076416
            ],
            [
              72.18476104736328,
              21.179107666015625
            ],
            [
              71.4084701538086,
              20.857677459716797
            ],
            [
              71.32078552246094,
              20.72910499572754
            ],
            [
              70.72064208984375,
              20.664819717407227
            ],
            [
              70.29546356201172,
              20.857677459716797
            ],
            [
              69.88987731933594,
              21.24339485168457
            ],
            [
              69.90315246582031,
              21.371967315673828
            ],
            [
              69.49736022949219,
              21.7576847076416
            ],
            [
              69.34872436523438,
              21.7576847076416
            ],
            [
              68.94945526123047,
              22.20768928527832
            ],
            [
              68.97650909423828,
              22.46483612060547
            ],
            [
              69.19975280761719,
              22.46483612060547
            ],
            [
              69.2605209350586,
              22.33626365661621
            ],
            [
              69.40931701660156,
              22.33626365661621
            ],
            [
              69.49740600585938,
              22.46483612060547
            ],
            [
              69.86946868896484,
              22.46483612060547
            ],
            [
              70.26250457763672,
              22.657697677612305
            ],
            [
              70.36528778076172,
              22.914846420288086
            ],
            [
              70.0673828125,
              22.914846420288086
            ],
            [
              69.74840545654297,
              22.72198486328125
            ],
            [
              69.23419952392578,
              22.786272048950195
            ],
            [
              68.80825805664062,
              22.97913360595703
            ],
            [
              68.55245971679688,
              23.36486053466797
            ],
            [
              68.3359375,
              23.429147720336914
            ],
            [
              68.35022735595703,
              23.557723999023438
            ],
            [
              68.12652587890625,
              23.557723999023438
            ],
            [
              68.15538787841797,
              23.814878463745117
            ],
            [
              67.63314819335938,
              23.814878463745117
            ],
            [
              67.49114990234375,
              23.879167556762695
            ],
            [
              67.43836975097656,
              24.07203483581543
            ],
            [
              67.36372375488281,
              24.07203483581543
            ],
            [
              67.53521728515625,
              24.264904022216797
            ],
            [
              67.76142883300781,
              24.907808303833008
            ],
            [
              68.21728515625,
              25.55072784423828
            ],
            [
              68.19380187988281,
              25.936485290527344
            ],
            [
              68.06137084960938,
              26.06507110595703
            ],
            [
              67.99220275878906,
              26.643707275390625
            ],
            [
              67.91712188720703,
              26.643707275390625
            ],
            [
              68.0865478515625,
              27.2866268157959
            ],
            [
              68.52191162109375,
              27.6723690032959
            ],
            [
              69.06927490234375,
              27.800947189331055
            ],
            [
              69.4979248046875,
              28.12238883972168
            ],
            [
              69.648681640625,
              28.12238883972168
            ],
            [
              69.75604248046875,
              28.315250396728516
            ],
            [
              70.1657943725586,
              28.508106231689453
            ],
            [
              70.39486694335938,
              28.958093643188477
            ],
            [
              70.84062194824219,
              31.65752601623535
            ],
            [
              70.71514892578125,
              31.78606605529785
            ],
            [
              71.17280578613281,
              32.493072509765625
            ],
            [
              71.22974395751953,
              32.75019073486328
            ],
            [
              71.59382629394531,
              33.00732421875
            ],
            [
              71.4844970703125,
              33.20018768310547
            ],
            [
              71.52877807617188,
              33.393062591552734
            ],
            [
              71.95632934570312,
              33.90746307373047
            ],
            [
              72.31002807617188,
              34.10039138793945
            ],
            [
              72.54078674316406,
              34.10039138793945
            ],
            [
              72.66459655761719,
              34.2933349609375
            ],
            [
              73.02003479003906,
              34.48630142211914
            ],
            [
              73.32818603515625,
              34.48630142211914
            ],
            [
              73.33984375,
              33.90746307373047
            ],
            [
              73.41670227050781,
              33.90746307373047
            ],
            [
              73.4926986694336,
              33.26447677612305
            ],
            [
              73.56936645507812,
              33.26447677612305
            ],
            [
              73.5087890625,
              33.00732421875
            ],
            [
              73.63191223144531,
              32.878753662109375
            ],
            [
              74.2142333984375,
              32.75019073486328
            ],
            [
              74.39876556396484,
              32.557350158691406
            ],
            [
              75.20977020263672,
              32.428794860839844
            ],
            [
              75.33260345458984,
              32.30024337768555
            ],
            [
              76.4021987915039,
              32.30024337768555
            ],
            [
              76.52459716796875,
              32.171695709228516
            ],
            [
              77.04389953613281,
              32.107421875
            ],
            [
              77.30365753173828,
              31.91460609436035
            ],
            [
              78.0361099243164,
              31.78606605529785
            ],
            [
              78.4480209350586,
              31.593257904052734
            ],
            [
              78.43291473388672,
              31.528987884521484
            ],
            [
              78.22080993652344,
              31.271915435791016
            ],
            [
              77.9015884399414,
              31.20764923095703
            ],
            [
              77.61511993408203,
              30.950578689575195
            ],
            [
              77.22660064697266,
              29.857990264892578
            ],
            [
              77.3647232055664,
              29.79371452331543
            ],
            [
              77.33805084228516,
              29.665164947509766
            ],
            [
              77.46300506591797,
              29.536611557006836
            ],
            [
              77.61439514160156,
              29.536611557006836
            ],
            [
              78.1150894165039,
              29.022375106811523
            ],
            [
              78.5427474975586,
              28.893810272216797
            ],
            [
              78.59268951416016,
              28.765243530273438
            ],
            [
              78.88200378417969,
              28.700960159301758
            ],
            [
              78.93211364746094,
              28.572391510009766
            ],
            [
              79.48538970947266,
              28.315250396728516
            ],
            [
              81.62174987792969,
              27.6723690032959
            ],
            [
              82.86630249023438,
              27.093751907348633
            ],
            [
              83.8072509765625,
              26.900876998901367
            ],
            [
              83.93360137939453,
              26.772293090820312
            ],
            [
              84.29721069335938,
              26.70800018310547
            ],
            [
              84.48697662353516,
              26.515121459960938
            ],
            [
              86.30399322509766,
              26.19365882873535
            ],
            [
              87.42899322509766,
              26.19365882873535
            ],
            [
              88.74291229248047,
              26.000778198242188
            ],
            [
              90.02947235107422,
              26.06507110595703
            ],
            [
              90.1551284790039,
              25.936485290527344
            ],
            [
              90.89250183105469,
              25.8721923828125
            ],
            [
              91.44367980957031,
              25.615020751953125
            ],
            [
              91.54610443115234,
              25.357851028442383
            ],
            [
              91.47704315185547,
              24.97209930419922
            ],
            [
              91.55182647705078,
              24.97209930419922
            ],
            [
              91.48505401611328,
              24.586353302001953
            ],
            [
              91.55977630615234,
              24.586353302001953
            ],
            [
              91.42046356201172,
              24.200613021850586
            ],
            [
              91.5592041015625,
              24.136323928833008
            ],
            [
              91.49696350097656,
              22.786272048950195
            ],
            [
              90.93775177001953,
              22.529123306274414
            ],
            [
              90.77967071533203,
              21.950544357299805
            ],
            [
              90.6309814453125,
              21.950544357299805
            ],
            [
              90.64935302734375,
              22.079116821289062
            ],
            [
              90.42626953125,
              22.079116821289062
            ],
            [
              90.3154067993164,
              21.821969985961914
            ],
            [
              90.15770721435547,
              21.7576847076416
            ],
            [
              89.89663696289062,
              22.014829635620117
            ],
            [
              89.86945343017578,
              21.821969985961914
            ],
            [
              89.71179962158203,
              21.7576847076416
            ],
            [
              89.11725616455078,
              21.7576847076416
            ],
            [
              89.09945678710938,
              21.629112243652344
            ],
            [
              88.72795104980469,
              21.629112243652344
            ],
            [
              88.71597290039062,
              22.079116821289062
            ],
            [
              88.64161682128906,
              22.079116821289062
            ],
            [
              88.51387023925781,
              21.693397521972656
            ],
            [
              88.3652572631836,
              21.693397521972656
            ],
            [
              88.34766387939453,
              21.5648250579834
            ],
            [
              88.133544921875,
              21.629112243652344
            ],
            [
              88.17765045166016,
              21.950544357299805
            ],
            [
              87.76203918457031,
              21.629112243652344
            ],
            [
              87.3818588256836,
              21.5648250579834
            ],
            [
              86.9881591796875,
              21.950544357299805
            ],
            [
              86.83946990966797,
              21.950544357299805
            ],
            [
              86.79136657714844,
              22.143402099609375
            ],
            [
              86.28453062613904,
              22.400548934936523
            ],
            [
              86.21856161595704,
              22.470946200007123
            ],
            [
              86.00954751990382,
              22.7052795773096
            ],
            [
              85.0540545093748,
              22.90712799260763
            ],
            [
              83.29734079730844,
              22.608837661331755
            ],
            [
              83.13255751395064,
              22.457264066442217
            ],
            [
              82.87571593457882,
              21.693397521972656
            ],
            [
              82.86636352539062,
              21.693397521972656
            ],
            [
              82.19757843017578,
              21.693397521972656
            ],
            [
              80.83374786376953,
              22.079116821289062
            ],
            [
              80.57070922851562,
              21.7576847076416
            ],
            [
              79.87052154541016,
              21.500539779663086
            ],
            [
              79.85494995117188,
              21.371967315673828
            ],
            [
              79.7064208984375,
              21.371967315673828
            ],
            [
              78.8800048828125,
              20.664819717407227
            ],
            [
              78.4327621459961,
              19.379087448120117
            ],
            [
              78.39515686035156,
              19.057653427124023
            ],
            [
              78.46913146972656,
              19.057653427124023
            ],
            [
              78.54948425292969,
              18.479066848754883
            ],
            [
              78.68231964111328,
              18.350492477416992
            ],
            [
              78.65994262695312,
              18.157629013061523
            ],
            [
              79.04358673095703,
              17.643327713012695
            ],
            [
              79.1911849975586,
              17.643327713012695
            ],
            [
              79.31660461425781,
              17.450464248657227
            ],
            [
              79.67070770263672,
              17.321889877319336
            ],
            [
              80.20922088623047,
              16.87187385559082
            ],
            [
              80.43035125732422,
              16.87187385559082
            ],
            [
              80.70323181152344,
              16.67901039123535
            ],
            [
              81.43276977539062,
              16.614723205566406
            ],
            [
              81.6391372680664,
              16.486146926879883
            ],
            [
              81.62456512451172,
              16.35757064819336
            ],
            [
              81.32273864746094,
              16.293283462524414
            ],
            [
              81.11875915527344,
              15.77897834777832
            ],
            [
              80.61058044433594,
              15.843266487121582
            ],
            [
              80.37598419189453,
              15.714691162109375
            ],
            [
              80.10137939453125,
              15.200387001037598
            ],
            [
              80.19024658203125,
              14.621796607971191
            ],
            [
              80.26371765136719,
              14.621796607971191
            ],
            [
              80.24600982666016,
              13.657480239868164
            ],
            [
              80.16102600097656,
              13.528904914855957
            ],
            [
              80.3077621459961,
              13.528904914855957
            ],
            [
              80.43157196044922,
              13.271754264831543
            ],
            [
              80.30301666259766,
              12.628878593444824
            ],
            [
              79.8844223022461,
              11.986002922058105
            ],
            [
              79.83012390136719,
              11.278841018676758
            ],
            [
              79.9033203125,
              11.278841018676758
            ],
            [
              79.92509460449219,
              10.571678161621094
            ],
            [
              79.19815826416016,
              10.635965347290039
            ],
            [
              79.21644592285156,
              10.893115997314453
            ],
            [
              77.32316589355469,
              11.021690368652344
            ],
            [
              76.60047149658203,
              11.15026569366455
            ],
            [
              76.53642272949219,
              11.278841018676758
            ],
            [
              76.16590118408203,
              11.214552879333496
            ],
            [
              75.89608764648438,
              11.535990715026855
            ],
            [
              75.90542602539062,
              11.664566040039062
            ],
            [
              75.76368713378906,
              11.728853225708008
            ],
            [
              75.71256362983202,
              12.027279788171004
            ],
            [
              75.959,
              11.949
            ],
            [
              76.608,
              11.654
            ],
            [
              77.047,
              11.609
            ],
            [
              77.311,
              11.697
            ],
            [
              77.933,
              12.681
            ],
            [
              77.871,
              12.885
            ],
            [
              78.185,
              13.599
            ],
            [
              78.128,
              14.179
            ],
            [
              77.265,
              14.243
            ],
            [
              76.98506495971611,
              14.434491172253145
            ],
            [
              77.42473819924219,
              14.69677495297344
            ],
            [
              77.54938325336151,
              14.98880018881003
            ],
            [
              77.4598406227358,
              15.11703607159019
            ],
            [
              77.10331734336766,
              15.07885830573617
            ],
            [
              76.92584822817956,
              14.974708787199145
            ],
            [
              76.935,
              15.238
            ],
            [
              76.718,
              15.449
            ],
            [
              76.199,
              15.307
            ],
            [
              75.867,
              15.011
            ],
            [
              75.237,
              14.796
            ],
            [
              74.905,
              14.452
            ],
            [
              74.72703009898287,
              14.328277608918567
            ],
            [
              74.73026275634766,
              14.364645004272461
            ],
            [
              74.73600769042969,
              14.428933143615723
            ],
            [
              74.66255950927734,
              14.428933143615723
            ]
          ]
        ]
      }
    }
  ]
}
