{
  "type": "FeatureCollection",
  "features": [
    {
      "type": "Feature",
      "properties": {
        "Name": "Sind-Habbari Dynasty",
        "FromYear": 1111,
        "ToYear": 1176,
        "Area": 225335.74573935012,
        "Type": "POLITY",
        "Wikipedia": "Habbari dynasty",
        "Wikidata": "Q5636647",
        "SeshatID": "pk_sind_abbasid_fatimid",
        "Components": "",
        "MemberOf": "",
        "displayYear": 1125,
        "sourceYear": 1125,
        "mappedTerritoryId": "cliopatria_sind_habbari_dynasty"
      },
      "geometry": {
        "type": "Polygon",
        "coordinates": [
          [
            [
              68.09404538961819,
              23.700601358327603
            ],
            [
              68.94992828101697,
              24.004061755136874
            ],
            [
              69.12025358378516,
              24.70103032068187
            ],
            [
              69.34327469696754,
              25.02264574048315
            ],
            [
              70.22033936755324,
              25.700316369845044
            ],
            [
              70.2617631020798,
              26.30423204857131
            ],
            [
              70.40388505033937,
              26.588475945090455
            ],
            [
              70.63128016755469,
              26.61690033474237
            ],
            [
              70.8912653465076,
              26.486907745265913
            ],
            [
              71.45559051032481,
              27.24925646652258
            ],
            [
              71.99738355052764,
              28.315250396728516
            ],
            [
              72.3301263299842,
              28.9699317176398
            ],
            [
              72.36469346316119,
              29.36126075756646
            ],
            [
              72.12092655184443,
              29.84783243513933
            ],
            [
              71.49250167823537,
              29.96278152727261
            ],
            [
              70.27924664157528,
              29.95434403023164
            ],
            [
              70.003,
              29.812
            ],
            [
              69.638,
              29.361
            ],
            [
              68.698,
              29.191
            ],
            [
              68.13159206148322,
              29.39023856890966
            ],
            [
              67.643,
              29.277
            ],
            [
              67.522,
              29.123
            ],
            [
              67.502,
              28.366
            ],
            [
              67.168,
              27.448
            ],
            [
              67.15658170513986,
              26.09928693063883
            ],
            [
              67.03425310803958,
              25.5534989750413
            ],
            [
              66.6714054112437,
              25.02740957593902
            ],
            [
              66.66686433397464,
              24.86426889276107
            ],
            [
              66.658,
              24.829
            ],
            [
              67.09895411496873,
              24.76299228767003
            ],
            [
              67.4221383049033,
              23.96800918692524
            ],
            [
              67.685,
              23.785
            ],
            [
              67.852,
              23.908
            ],
            [
              68.02628255742556,
              23.74599609046575
            ],
            [
              68.0389672119493,
              23.87545612984522
            ],
            [
              68.05320952116516,
              23.72270150808626
            ],
            [
              68.09404538961819,
              23.700601358327603
            ]
          ]
        ]
      }
    }
  ]
}
