{
  "type": "FeatureCollection",
  "features": [
    {
      "type": "Feature",
      "properties": {
        "Name": "Ethiopian Empire",
        "FromYear": 1908,
        "ToYear": 1931,
        "Area": 1128249.3337494435,
        "Type": "POLITY",
        "Wikipedia": "Ethiopian Empire",
        "Wikidata": "Q207521",
        "SeshatID": "",
        "Components": "",
        "MemberOf": "",
        "displayYear": 1912,
        "sourceYear": 1912,
        "mappedTerritoryId": "cliopatria_ethiopian_empire"
      },
      "geometry": {
        "type": "Polygon",
        "coordinates": [
          [
            [
              47.85315704345703,
              7.807313442230225
            ],
            [
              47.328739166259766,
              7.421587944030762
            ],
            [
              47.324310302734375,
              7.293012619018555
            ],
            [
              46.198280334472656,
              6.328698635101318
            ],
            [
              46.1942024230957,
              6.200123310089111
            ],
            [
              45.595001220703125,
              5.685822010040283
            ],
            [
              45.59110641479492,
              5.557246685028076
            ],
            [
              45.36857604980469,
              5.428671360015869
            ],
            [
              45.063812255859375,
              4.978658199310303
            ],
            [
              44.768619537353516,
              4.850082874298096
            ],
            [
              43.45695877075195,
              4.850082874298096
            ],
            [
              42.7852897644043,
              4.271493911743164
            ],
            [
              42.12790298461914,
              4.207206249237061
            ],
            [
              41.75687789916992,
              3.950055837631226
            ],
            [
              41.24530792236328,
              3.885768175125122
            ],
            [
              40.95726776123047,
              4.01434326171875
            ],
            [
              40.74542236328125,
              4.271493911743164
            ],
            [
              40.5997200012207,
              4.271493911743164
            ],
            [
              40.08477783203125,
              4.078630924224854
            ],
            [
              39.5634880065918,
              3.628617763519287
            ],
            [
              39.48585510253906,
              3.435754776000977
            ],
            [
              39.26736831665039,
              3.435754776000977
            ],
            [
              37.961124420166016,
              3.628617763519287
            ],
            [
              37.60165786743164,
              3.821480512619019
            ],
            [
              37.10439682006836,
              4.335781574249268
            ],
            [
              36.01472091674805,
              4.464356899261475
            ],
            [
              35.73115539550781,
              4.785795211791992
            ],
            [
              35.8135986328125,
              5.171521186828613
            ],
            [
              35.0943717956543,
              5.557246685028076
            ],
            [
              34.75592803955078,
              6.585848808288574
            ],
            [
              34.11272430419922,
              7.100150108337402
            ],
            [
              34.04645538330078,
              7.357300281524658
            ],
            [
              33.68999099731445,
              7.678738594055176
            ],
            [
              33.325077056884766,
              7.678738594055176
            ],
            [
              33.03813552856445,
              7.871601104736328
            ],
            [
              33.04484558105469,
              8.128751754760742
            ],
            [
              33.27238464355469,
              8.450189590454102
            ],
            [
              33.85480880737305,
              8.385902404785156
            ],
            [
              34.15392303466797,
              8.643052101135254
            ],
            [
              34.16642379760742,
              9.09306526184082
            ],
            [
              34.09336853027344,
              9.09306526184082
            ],
            [
              34.032997131347656,
              9.543078422546387
            ],
            [
              34.1846923828125,
              9.735940933227539
            ],
            [
              34.192134857177734,
              9.993090629577637
            ],
            [
              34.342124938964844,
              10.121665954589844
            ],
            [
              34.357418060302734,
              10.635965347290039
            ],
            [
              34.50957489013672,
              10.828827857971191
            ],
            [
              34.65589904785156,
              10.828827857971191
            ],
            [
              34.725128173828125,
              10.7002534866333
            ],
            [
              34.94656753540039,
              10.764540672302246
            ],
            [
              35.20514678955078,
              11.986002922058105
            ],
            [
              35.35377502441406,
              12.050291061401367
            ],
            [
              35.43568420410156,
              12.307440757751465
            ],
            [
              35.81542205810547,
              12.69316577911377
            ],
            [
              36.18421173095703,
              12.757453918457031
            ],
            [
              36.28096389770508,
              13.40032958984375
            ],
            [
              36.51567459106445,
              13.786055564880371
            ],
            [
              36.60921859741211,
              14.300357818603516
            ],
            [
              37.04985809326172,
              14.300357818603516
            ],
            [
              37.34888458251953,
              14.428933143615723
            ],
            [
              37.414432525634766,
              14.236069679260254
            ],
            [
              37.63210678100586,
              14.171781539916992
            ],
            [
              37.952884674072266,
              14.81466007232666
            ],
            [
              38.52411651611328,
              14.428933143615723
            ],
            [
              38.744476318359375,
              14.428933143615723
            ],
            [
              39.04669952392578,
              14.621796607971191
            ],
            [
              39.187992095947266,
              14.493220329284668
            ],
            [
              40.28696823120117,
              14.428933143615723
            ],
            [
              41.280540466308594,
              13.657480239868164
            ],
            [
              41.274925231933594,
              13.528904914855957
            ],
            [
              42.195220947265625,
              12.757453918457031
            ],
            [
              42.18980407714844,
              12.628878593444824
            ],
            [
              42.4015998840332,
              12.436016082763672
            ],
            [
              41.8602294921875,
              11.728853225708008
            ],
            [
              41.830623626708984,
              10.957403182983398
            ],
            [
              42.0477180480957,
              10.893115997314453
            ],
            [
              42.34526824951172,
              11.021690368652344
            ],
            [
              42.85749435424805,
              11.021690368652344
            ],
            [
              42.76240539550781,
              10.443102836608887
            ],
            [
              43.035945892333984,
              9.928803443908691
            ],
            [
              43.25056457519531,
              9.800228118896484
            ],
            [
              43.38283157348633,
              9.41450309753418
            ],
            [
              43.59975051879883,
              9.350214958190918
            ],
            [
              43.809783935546875,
              9.09306526184082
            ],
            [
              46.69668197631836,
              8.128751754760742
            ],
            [
              46.83811569213867,
              8.000176429748535
            ],
            [
              47.85776901245117,
              7.935888767242432
            ],
            [
              47.85315704345703,
              7.807313442230225
            ]
          ]
        ]
      }
    }
  ]
}
