{
  "type": "FeatureCollection",
  "features": [
    {
      "type": "Feature",
      "properties": {
        "Name": "Republic of the Niger",
        "FromYear": 1961,
        "ToYear": 2023,
        "Area": 1178829.6700256544,
        "Type": "POLITY",
        "Wikipedia": "Niger",
        "Wikidata": "Q1032",
        "SeshatID": "",
        "Components": "",
        "MemberOf": "",
        "displayYear": 2012,
        "sourceYear": 2012,
        "mappedTerritoryId": "cliopatria_republic_of_the_niger"
      },
      "geometry": {
        "type": "Polygon",
        "coordinates": [
          [
            [
              14.209542274475098,
              22.657697677612305
            ],
            [
              13.467179298400879,
              23.236284255981445
            ],
            [
              12.051462173461914,
              23.493436813354492
            ],
            [
              10.56188678741455,
              22.72198486328125
            ],
            [
              10.41339111328125,
              22.529123306274414
            ],
            [
              9.373394966125488,
              22.014829635620117
            ],
            [
              9.225394248962402,
              21.821969985961914
            ],
            [
              9.076741218566895,
              21.821969985961914
            ],
            [
              8.18804931640625,
              21.179107666015625
            ],
            [
              8.039565086364746,
              21.179107666015625
            ],
            [
              7.892045021057129,
              20.986249923706055
            ],
            [
              7.743610858917236,
              20.986249923706055
            ],
            [
              6.046844482421875,
              19.507661819458008
            ],
            [
              5.529878616333008,
              19.314802169799805
            ],
            [
              5.085845947265625,
              19.314802169799805
            ],
            [
              4.347359180450439,
              19.12194061279297
            ],
            [
              4.360510349273682,
              17.06473731994629
            ],
            [
              4.286777973175049,
              17.06473731994629
            ],
            [
              4.289169311523438,
              16.550434112548828
            ],
            [
              4.06956958770752,
              16.228994369506836
            ],
            [
              3.997740268707275,
              15.77897834777832
            ],
            [
              3.410955905914307,
              15.328963279724121
            ],
            [
              2.89586067199707,
              15.393251419067383
            ],
            [
              1.425769448280334,
              15.26467514038086
            ],
            [
              0.913317382335663,
              14.943235397338867
            ],
            [
              0.25179722905159,
              14.943235397338867
            ],
            [
              0.255122452974319,
              14.493220329284668
            ],
            [
              0.479109406471252,
              13.914630889892578
            ],
            [
              0.774379253387451,
              13.593193054199219
            ],
            [
              1.288802146911621,
              13.40032958984375
            ],
            [
              1.215951085090637,
              13.271754264831543
            ],
            [
              1.069255471229553,
              13.271754264831543
            ],
            [
              1.144002914428711,
              12.886029243469238
            ],
            [
              1.58457338809967,
              12.628878593444824
            ],
            [
              2.097512245178223,
              12.69316577911377
            ],
            [
              2.244332313537598,
              12.564591407775879
            ],
            [
              2.171589612960815,
              12.178865432739258
            ],
            [
              2.391514778137207,
              11.986002922058105
            ],
            [
              2.53777813911438,
              12.307440757751465
            ],
            [
              2.904086589813232,
              12.37172794342041
            ],
            [
              3.270466566085815,
              12.050291061401367
            ],
            [
              3.270430326461792,
              11.92171573638916
            ],
            [
              3.636523246765137,
              11.793140411376953
            ],
            [
              3.710121631622314,
              12.500303268432617
            ],
            [
              4.1499342918396,
              13.014603614807129
            ],
            [
              4.223119735717773,
              13.464617729187012
            ],
            [
              4.589862823486328,
              13.721768379211426
            ],
            [
              5.103571891784668,
              13.721768379211426
            ],
            [
              5.250380516052246,
              13.850343704223633
            ],
            [
              5.837568759918213,
              13.850343704223633
            ],
            [
              6.130897045135498,
              13.657480239868164
            ],
            [
              6.424422264099121,
              13.657480239868164
            ],
            [
              6.936327457427979,
              13.014603614807129
            ],
            [
              7.229631900787354,
              13.014603614807129
            ],
            [
              7.744143486022949,
              13.336042404174805
            ],
            [
              8.110910415649414,
              13.336042404174805
            ],
            [
              8.40315055847168,
              13.07889175415039
            ],
            [
              8.76948070526123,
              13.014603614807129
            ],
            [
              8.988409042358398,
              12.821741104125977
            ],
            [
              9.42788314819336,
              12.757453918457031
            ],
            [
              9.721511840820312,
              12.821741104125977
            ],
            [
              10.164381980895996,
              13.271754264831543
            ],
            [
              10.752090454101562,
              13.40032958984375
            ],
            [
              11.558514595031738,
              13.336042404174805
            ],
            [
              12.143057823181152,
              13.07889175415039
            ],
            [
              12.436383247375488,
              13.07889175415039
            ],
            [
              12.880118370056152,
              13.464617729187012
            ],
            [
              13.616464614868164,
              13.721768379211426
            ],
            [
              13.551064491271973,
              14.493220329284668
            ],
            [
              13.772802352905273,
              14.621796607971191
            ],
            [
              14.150142669677734,
              15.52182674407959
            ],
            [
              15.415517807006836,
              16.67901039123535
            ],
            [
              15.566201210021973,
              16.9361629486084
            ],
            [
              15.747442245483398,
              19.764808654785156
            ],
            [
              15.974318504333496,
              20.214815139770508
            ],
            [
              15.97686767578125,
              20.471960067749023
            ],
            [
              15.68202018737793,
              20.664819717407227
            ],
            [
              15.684854507446289,
              20.986249923706055
            ],
            [
              15.317275047302246,
              21.43625259399414
            ],
            [
              15.249016761779785,
              22.271976470947266
            ],
            [
              15.174630165100098,
              22.271976470947266
            ],
            [
              15.03004264831543,
              22.914846420288086
            ],
            [
              14.209542274475098,
              22.657697677612305
            ]
          ]
        ]
      }
    }
  ]
}
