{
  "type": "FeatureCollection",
  "features": [
    {
      "type": "Feature",
      "properties": {
        "Name": "Scandinavian minor kingdoms",
        "FromYear": 800,
        "ToYear": 805,
        "Area": 423261.01911562035,
        "Type": "POLITY",
        "Wikipedia": "Viking Age",
        "Wikidata": "Q213649",
        "SeshatID": "sv_scandinavian_minor_k",
        "Components": "",
        "MemberOf": "",
        "displayYear": 800,
        "sourceYear": 800,
        "mappedTerritoryId": "cliopatria_scandinavian_minor_kingdoms"
      },
      "geometry": {
        "type": "MultiPolygon",
        "coordinates": [
          [
            [
              [
                14.64396858215332,
                55.29362487792969
              ],
              [
                14.990630149841309,
                55.225467681884766
              ],
              [
                15.077948570251465,
                55.225467681884766
              ],
              [
                15.069417953491211,
                55.021148681640625
              ],
              [
                14.636160850524902,
                55.089229583740234
              ],
              [
                14.64396858215332,
                55.29362487792969
              ]
            ]
          ],
          [
            [
              [
                10.62817668914795,
                55.97663879394531
              ],
              [
                10.627213478088379,
                55.77145767211914
              ],
              [
                10.539490699768066,
                55.77145767211914
              ],
              [
                10.364044189453125,
                55.77145767211914
              ],
              [
                10.452422142028809,
                55.97663879394531
              ],
              [
                10.62817668914795,
                55.97663879394531
              ]
            ]
          ],
          [
            [
              [
                10.277146339416504,
                56.25059127807617
              ],
              [
                10.276667594909668,
                55.97663879394531
              ],
              [
                9.925338745117188,
                55.83982467651367
              ],
              [
                9.925520896911621,
                55.70311737060547
              ],
              [
                9.750177383422852,
                55.70311737060547
              ],
              [
                9.750565528869629,
                55.56651306152344
              ],
              [
                10.626581192016602,
                55.63479995727539
              ],
              [
                10.625955581665039,
                55.498252868652344
              ],
              [
                10.800582885742188,
                55.430015563964844
              ],
              [
                10.798959732055664,
                55.15733337402344
              ],
              [
                10.88622760772705,
                55.15733337402344
              ],
              [
                10.796977043151855,
                54.817054748535156
              ],
              [
                10.535674095153809,
                54.74907684326172
              ],
              [
                10.536654472351074,
                55.021148681640625
              ],
              [
                9.926376342773438,
                55.089229583740234
              ],
              [
                10.013643264770508,
                55.021148681640625
              ],
              [
                9.9271879196167,
                54.545284271240234
              ],
              [
                8.799209594726562,
                54.47740173339844
              ],
              [
                8.797733306884766,
                54.613189697265625
              ],
              [
                8.534452438354492,
                54.817054748535156
              ],
              [
                8.530884742736816,
                55.089229583740234
              ],
              [
                8.443666458129883,
                55.089229583740234
              ],
              [
                8.52729320526123,
                55.36180877685547
              ],
              [
                8.350449562072754,
                55.498252868652344
              ],
              [
                8.087891578674316,
                55.498252868652344
              ],
              [
                8.085573196411133,
                55.63479995727539
              ],
              [
                7.997951984405518,
                55.63479995727539
              ],
              [
                8.077386856079102,
                56.11355972290039
              ],
              [
                7.989406585693359,
                56.11355972290039
              ],
              [
                7.979492664337158,
                56.662349700927734
              ],
              [
                8.243602752685547,
                56.731075286865234
              ],
              [
                8.152853965759277,
                56.86860656738281
              ],
              [
                8.502391815185547,
                57.21294021606445
              ],
              [
                9.39068603515625,
                57.21294021606445
              ],
              [
                9.656455039978027,
                57.41988754272461
              ],
              [
                9.655976295471191,
                57.55800247192383
              ],
              [
                9.834181785583496,
                57.55800247192383
              ],
              [
                9.923136711120605,
                57.696231842041016
              ],
              [
                10.458671569824219,
                57.7653923034668
              ],
              [
                10.545770645141602,
                57.28189468383789
              ],
              [
                10.278702735900879,
                57.07511901855469
              ],
              [
                10.277772903442383,
                56.59365463256836
              ],
              [
                10.895707130432129,
                56.524986267089844
              ],
              [
                10.805220603942871,
                56.182064056396484
              ],
              [
                10.541122436523438,
                56.182064056396484
              ],
              [
                10.540846824645996,
                56.11355972290039
              ],
              [
                10.364885330200195,
                56.11355972290039
              ],
              [
                10.36523151397705,
                56.25059127807617
              ],
              [
                10.277146339416504,
                56.25059127807617
              ]
            ]
          ],
          [
            [
              [
                17.056563638635424,
                68.1207046508789
              ],
              [
                17.155208587646484,
                68.1207046508789
              ],
              [
                17.1489315032959,
                68.04534912109375
              ],
              [
                17.0499210357666,
                68.04534912109375
              ],
              [
                17.04375457763672,
                67.97005462646484
              ],
              [
                16.944828033447266,
                67.97005462646484
              ],
              [
                16.938772201538086,
                67.89481353759766
              ],
              [
                16.839927673339844,
                67.89481353759766
              ],
              [
                16.833982467651367,
                67.81964111328125
              ],
              [
                16.73522186279297,
                67.81964111328125
              ],
              [
                16.741067055103287,
                67.89460717879842
              ],
              [
                16.636459350585938,
                67.81964111328125
              ],
              [
                16.433443562671002,
                67.74452209472656
              ],
              [
                16.532028198242188,
                67.74452209472656
              ],
              [
                16.526382446289062,
                67.66946411132812
              ],
              [
                16.427785873413086,
                67.66946411132812
              ],
              [
                16.433346959777868,
                67.74448635014436
              ],
              [
                16.230592727661133,
                67.66946411132812
              ],
              [
                16.318300247192383,
                67.51952362060547
              ],
              [
                15.717890739440918,
                67.36980438232422
              ],
              [
                13.78988265991211,
                65.95866394042969
              ],
              [
                13.59634017944336,
                65.95866394042969
              ],
              [
                12.902427673339844,
                65.44363403320312
              ],
              [
                12.897788047790527,
                65.29694366455078
              ],
              [
                12.7012939453125,
                65.15044403076172
              ],
              [
                12.411541938781738,
                65.07727813720703
              ],
              [
                12.503439903259277,
                64.93107604980469
              ],
              [
                12.216273307800293,
                64.93107604980469
              ],
              [
                12.021615982055664,
                64.78507995605469
              ],
              [
                12.018424987792969,
                64.63926696777344
              ],
              [
                11.729398727416992,
                64.49365234375
              ],
              [
                11.726683616638184,
                64.34822845458984
              ],
              [
                11.436739921569824,
                64.05794525146484
              ],
              [
                11.433395385742188,
                63.84071350097656
              ],
              [
                11.338749885559082,
                63.84071350097656
              ],
              [
                11.33668041229248,
                63.69612503051758
              ],
              [
                11.049908638000488,
                63.4074821472168
              ],
              [
                11.142387390136719,
                63.263427734375
              ],
              [
                10.954209327697754,
                63.263427734375
              ],
              [
                10.952749252319336,
                63.11954879760742
              ],
              [
                10.858798027038574,
                63.11954879760742
              ],
              [
                10.856833457946777,
                62.904052734375
              ],
              [
                10.76308536529541,
                62.904052734375
              ],
              [
                10.85489273071289,
                62.68894577026367
              ],
              [
                10.57381820678711,
                62.61732482910156
              ],
              [
                10.936767578125,
                61.47697448730469
              ],
              [
                11.21065616607666,
                61.193458557128906
              ],
              [
                11.389244079589844,
                60.76930236816406
              ],
              [
                11.932159423828125,
                60.34645080566406
              ],
              [
                12.294785499572754,
                60.20578384399414
              ],
              [
                12.479050636291504,
                60.276100158691406
              ],
              [
                12.475739479064941,
                60.135501861572266
              ],
              [
                12.656455039978027,
                60.065250396728516
              ],
              [
                13.836724281311035,
                59.92485809326172
              ],
              [
                14.195422172546387,
                59.78459548950195
              ],
              [
                14.380191802978516,
                59.85470962524414
              ],
              [
                14.647065162658691,
                59.714515686035156
              ],
              [
                15.377649307250977,
                59.78459548950195
              ],
              [
                15.646751403808594,
                59.714515686035156
              ],
              [
                15.836201667785645,
                59.85470962524414
              ],
              [
                16.56855010986328,
                59.92485809326172
              ],
              [
                16.76413917541504,
                60.135501861572266
              ],
              [
                17.133869171142578,
                60.20578384399414
              ],
              [
                17.621078491210938,
                60.628211975097656
              ],
              [
                17.987768173217773,
                60.628211975097656
              ],
              [
                18.068532943725586,
                60.48725891113281
              ],
              [
                18.612024307250977,
                60.416839599609375
              ],
              [
                18.503421783447266,
                60.20578384399414
              ],
              [
                18.777332305908203,
                60.20578384399414
              ],
              [
                19.033178329467773,
                59.99503707885742
              ],
              [
                19.00933265686035,
                59.714515686035156
              ],
              [
                18.827571868896484,
                59.714515686035156
              ],
              [
                18.628820419311523,
                59.504478454589844
              ],
              [
                18.351261138916016,
                59.434532165527344
              ],
              [
                18.414575576782227,
                59.08528518676758
              ],
              [
                18.143529891967773,
                59.08528518676758
              ],
              [
                17.947494506835938,
                58.876129150390625
              ],
              [
                17.496623992919922,
                58.876129150390625
              ],
              [
                17.487049102783203,
                58.73685073852539
              ],
              [
                17.126813888549805,
                58.73685073852539
              ],
              [
                17.02781105041504,
                58.59769821166992
              ],
              [
                16.847923278808594,
                58.59769821166992
              ],
              [
                16.83926010131836,
                58.45867156982422
              ],
              [
                16.65959930419922,
                58.45867156982422
              ],
              [
                16.830646514892578,
                58.31977081298828
              ],
              [
                16.813568115234375,
                58.042335510253906
              ],
              [
                16.626346588134766,
                57.903804779052734
              ],
              [
                16.71156883239746,
                57.8345832824707
              ],
              [
                16.703289031982422,
                57.696231842041016
              ],
              [
                16.614076614379883,
                57.696231842041016
              ],
              [
                16.68687629699707,
                57.41988754272461
              ],
              [
                16.500974655151367,
                57.28189468383789
              ],
              [
                16.477506637573242,
                56.86860656738281
              ],
              [
                16.755352020263672,
                57.07511901855469
              ],
              [
                16.860679626464844,
                57.35087585449219
              ],
              [
                17.131839752197266,
                57.41988754272461
              ],
              [
                17.12316131591797,
                57.28189468383789
              ],
              [
                16.936981201171875,
                57.14401626586914
              ],
              [
                16.924457550048828,
                56.937416076660156
              ],
              [
                16.739154815673828,
                56.799827575683594
              ],
              [
                16.62702751159668,
                56.387733459472656
              ],
              [
                16.266908645629883,
                56.25059127807617
              ],
              [
                16.28167724609375,
                56.524986267089844
              ],
              [
                16.193382263183594,
                56.524986267089844
              ],
              [
                16.090740203857422,
                56.25059127807617
              ],
              [
                15.819687843322754,
                56.11355972290039
              ],
              [
                14.76668930053711,
                56.182064056396484
              ],
              [
                14.758404731750488,
                55.97663879394531
              ],
              [
                14.228706359863281,
                55.90821838378906
              ],
              [
                14.296913146972656,
                55.36180877685547
              ],
              [
                12.810799598693848,
                55.36180877685547
              ],
              [
                12.726422309875488,
                55.498252868652344
              ],
              [
                12.903090476989746,
                55.56651306152344
              ],
              [
                12.908012390136719,
                55.77145767211914
              ],
              [
                12.561474800109863,
                55.97663879394531
              ],
              [
                12.555678367614746,
                55.70311737060547
              ],
              [
                12.202529907226562,
                55.56651306152344
              ],
              [
                12.375022888183594,
                55.430015563964844
              ],
              [
                12.371088027954102,
                55.225467681884766
              ],
              [
                12.107980728149414,
                55.15733337402344
              ],
              [
                12.101152420043945,
                54.74907684326172
              ],
              [
                10.88355827331543,
                54.74907684326172
              ],
              [
                10.97249698638916,
                55.021148681640625
              ],
              [
                11.66806411743164,
                54.88506317138672
              ],
              [
                11.670741081237793,
                55.089229583740234
              ],
              [
                11.497906684875488,
                55.225467681884766
              ],
              [
                10.974503517150879,
                55.29362487792969
              ],
              [
                11.064117431640625,
                55.56651306152344
              ],
              [
                10.889443397521973,
                55.63479995727539
              ],
              [
                10.890382766723633,
                55.77145767211914
              ],
              [
                11.241952896118164,
                55.83982467651367
              ],
              [
                11.331932067871094,
                56.04508590698242
              ],
              [
                11.595718383789062,
                56.04508590698242
              ],
              [
                11.768598556518555,
                55.83982467651367
              ],
              [
                11.860556602478027,
                56.11355972290039
              ],
              [
                12.477840423583984,
                56.182064056396484
              ],
              [
                12.480693817138672,
                56.319149017333984
              ],
              [
                12.656968116760254,
                56.319149017333984
              ],
              [
                12.573304176330566,
                56.524986267089844
              ],
              [
                12.749893188476562,
                56.524986267089844
              ],
              [
                12.75311279296875,
                56.662349700927734
              ],
              [
                12.402325630187988,
                56.799827575683594
              ],
              [
                12.405158996582031,
                56.937416076660156
              ],
              [
                12.14184856414795,
                57.07511901855469
              ],
              [
                12.058022499084473,
                57.35087585449219
              ],
              [
                11.792279243469238,
                57.41988754272461
              ],
              [
                11.713647842407227,
                58.11164855957031
              ],
              [
                11.44500732421875,
                58.11164855957031
              ],
              [
                11.44767951965332,
                58.31977081298828
              ],
              [
                11.179258346557617,
                58.38920593261719
              ],
              [
                11.09703254699707,
                59.15507125854492
              ],
              [
                10.825811386108398,
                59.15507125854492
              ],
              [
                10.555644989013672,
                59.36461639404297
              ],
              [
                10.557076454162598,
                59.64447021484375
              ],
              [
                10.374953269958496,
                59.504478454589844
              ],
              [
                10.465357780456543,
                59.434532165527344
              ],
              [
                10.373775482177734,
                59.15507125854492
              ],
              [
                10.192960739135742,
                59.15507125854492
              ],
              [
                10.012155532836914,
                58.94581604003906
              ],
              [
                9.65099048614502,
                59.015533447265625
              ],
              [
                9.561288833618164,
                58.876129150390625
              ],
              [
                9.380940437316895,
                58.876129150390625
              ],
              [
                9.381759643554688,
                58.73685073852539
              ],
              [
                9.111583709716797,
                58.73685073852539
              ],
              [
                9.112746238708496,
                58.59769821166992
              ],
              [
                8.932857513427734,
                58.59769821166992
              ],
              [
                8.66648006439209,
                58.31977081298828
              ],
              [
                7.597545146942139,
                57.97305679321289
              ],
              [
                6.611622333526611,
                58.042335510253906
              ],
              [
                6.515511512756348,
                58.2503662109375
              ],
              [
                5.974997520446777,
                58.31977081298828
              ],
              [
                5.514988899230957,
                58.59769821166992
              ],
              [
                5.497633457183838,
                59.015533447265625
              ],
              [
                5.949085235595703,
                59.015533447265625
              ],
              [
                6.026472091674805,
                59.36461639404297
              ],
              [
                5.842586994171143,
                59.434532165527344
              ],
              [
                5.848016262054443,
                59.294734954833984
              ],
              [
                5.214344501495361,
                59.294734954833984
              ],
              [
                5.283252716064453,
                59.78459548950195
              ],
              [
                5.192312240600586,
                59.78459548950195
              ],
              [
                5.18274974822998,
                59.99503707885742
              ],
              [
                5.450062274932861,
                60.135501861572266
              ],
              [
                5.261251449584961,
                60.276100158691406
              ],
              [
                4.899204254150391,
                60.20578384399414
              ],
              [
                4.888944625854492,
                60.416839599609375
              ],
              [
                5.160153865814209,
                60.48725891113281
              ],
              [
                4.949739456176758,
                61.05192565917969
              ],
              [
                5.127170562744141,
                61.193458557128906
              ],
              [
                5.034996509552002,
                61.193458557128906
              ],
              [
                4.928883075714111,
                61.47697448730469
              ],
              [
                5.199532508850098,
                61.618961334228516
              ],
              [
                4.921859741210938,
                61.618961334228516
              ],
              [
                4.91480016708374,
                61.7611083984375
              ],
              [
                5.186155319213867,
                61.90340805053711
              ],
              [
                5.076096057891846,
                62.259857177734375
              ],
              [
                5.451878070831299,
                62.18848419189453
              ],
              [
                5.44224739074707,
                62.4027214050293
              ],
              [
                5.722079753875732,
                62.4027214050293
              ],
              [
                5.731114864349365,
                62.18848419189453
              ],
              [
                5.917273044586182,
                62.18848419189453
              ],
              [
                5.908635139465332,
                62.4027214050293
              ],
              [
                6.559149742126465,
                62.474212646484375
              ],
              [
                6.642990112304688,
                62.76060485839844
              ],
              [
                7.395575523376465,
                62.61732482910156
              ],
              [
                7.391887664794922,
                62.76060485839844
              ],
              [
                6.921638965606689,
                62.83230972290039
              ],
              [
                6.915043354034424,
                63.047672271728516
              ],
              [
                7.94775915145874,
                63.047672271728516
              ],
              [
                7.944839000701904,
                63.191463470458984
              ],
              [
                8.601008415222168,
                63.33543014526367
              ],
              [
                8.600020408630371,
                63.4074821472168
              ],
              [
                8.223114013671875,
                63.4074821472168
              ],
              [
                8.22437858581543,
                63.33543014526367
              ],
              [
                7.753591537475586,
                63.33543014526367
              ],
              [
                7.843117713928223,
                63.55171203613281
              ],
              [
                8.221847534179688,
                63.479576110839844
              ],
              [
                8.501543998718262,
                63.69612503051758
              ],
              [
                9.068572044372559,
                63.69612503051758
              ],
              [
                8.976213455200195,
                63.479576110839844
              ],
              [
                9.259605407714844,
                63.4074821472168
              ],
              [
                9.352522850036621,
                63.623897552490234
              ],
              [
                9.54139232635498,
                63.623897552490234
              ],
              [
                9.540202140808105,
                63.91307830810547
              ],
              [
                9.919048309326172,
                63.98548889160156
              ],
              [
                9.919021606445312,
                64.13044738769531
              ],
              [
                10.29927921295166,
                64.27558898925781
              ],
              [
                10.299833297729492,
                64.4209213256836
              ],
              [
                10.873260498046875,
                64.63926696777344
              ],
              [
                11.159551620483398,
                64.63926696777344
              ],
              [
                11.34825611114502,
                64.49365234375
              ],
              [
                11.444689750671387,
                64.56643676757812
              ],
              [
                11.353676795959473,
                64.8580551147461
              ],
              [
                11.449325561523438,
                64.8580551147461
              ],
              [
                11.451669692993164,
                65.004150390625
              ],
              [
                11.740456581115723,
                65.07727813720703
              ],
              [
                11.839288711547852,
                65.22367095947266
              ],
              [
                12.12563419342041,
                65.15044403076172
              ],
              [
                12.03625774383545,
                65.44363403320312
              ],
              [
                12.132498741149902,
                65.44363403320312
              ],
              [
                12.135971069335938,
                65.59053039550781
              ],
              [
                12.525640487670898,
                65.73763275146484
              ],
              [
                12.529778480529785,
                65.88493347167969
              ],
              [
                12.336389541625977,
                65.88493347167969
              ],
              [
                12.439126968383789,
                66.10628509521484
              ],
              [
                12.342202186584473,
                66.10628509521484
              ],
              [
                12.346120834350586,
                66.25411987304688
              ],
              [
                12.637356758117676,
                66.25411987304688
              ],
              [
                12.632975578308105,
                66.10628509521484
              ],
              [
                12.824494361877441,
                66.0324478149414
              ],
              [
                12.928592681884766,
                66.25411987304688
              ],
              [
                13.122750282287598,
                66.25411987304688
              ],
              [
                12.940890312194824,
                66.6246337890625
              ],
              [
                13.233297348022461,
                66.6246337890625
              ],
              [
                13.238768577575684,
                66.77322387695312
              ],
              [
                13.629276275634766,
                66.77322387695312
              ],
              [
                13.540666580200195,
                66.99652099609375
              ],
              [
                13.641645431518555,
                67.0710678100586
              ],
              [
                14.13137435913086,
                67.0710678100586
              ],
              [
                14.436574935913086,
                67.29503631591797
              ],
              [
                14.546525001525879,
                67.51952362060547
              ],
              [
                14.94884204864502,
                67.66946411132812
              ],
              [
                15.065190315246582,
                67.97005462646484
              ],
              [
                15.36197566986084,
                67.97005462646484
              ],
              [
                15.579607009887695,
                68.27159118652344
              ],
              [
                15.877401351928711,
                68.27159118652344
              ],
              [
                15.882658958435059,
                68.34712219238281
              ],
              [
                15.092460632324219,
                68.42272186279297
              ],
              [
                14.984017372131348,
                68.27159118652344
              ],
              [
                14.186103820800781,
                68.19611358642578
              ],
              [
                14.193711280822754,
                68.34712219238281
              ],
              [
                14.400439262390137,
                68.49837493896484
              ],
              [
                14.902517318725586,
                68.57408905029297
              ],
              [
                14.911535263061523,
                68.7257080078125
              ],
              [
                14.408551216125488,
                68.64987182617188
              ],
              [
                14.520834922790527,
                68.87757110595703
              ],
              [
                15.134926795959473,
                69.10584259033203
              ],
              [
                15.130109786987305,
                69.0296859741211
              ],
              [
                15.330366134643555,
                69.0296859741211
              ],
              [
                15.315542221069336,
                68.8016128540039
              ],
              [
                15.515274047851562,
                68.8016128540039
              ],
              [
                15.440682411193848,
                69.18205261230469
              ],
              [
                15.752424240112305,
                69.33467864990234
              ],
              [
                16.154354095458984,
                69.33467864990234
              ],
              [
                16.14281463623047,
                69.18205261230469
              ],
              [
                15.93665599822998,
                69.10584259033203
              ],
              [
                15.92017650604248,
                68.87757110595703
              ],
              [
                16.61984634399414,
                68.87757110595703
              ],
              [
                16.607778549194336,
                68.7257080078125
              ],
              [
                17.212993621826172,
                68.8016128540039
              ],
              [
                17.23280143737793,
                69.0296859741211
              ],
              [
                17.332929611206055,
                69.0296859741211
              ],
              [
                17.319517135620117,
                68.87757110595703
              ],
              [
                17.519424438476562,
                68.87757110595703
              ],
              [
                17.647384643554688,
                69.18205261230469
              ],
              [
                17.03903579711914,
                69.10584259033203
              ],
              [
                16.958213806152344,
                69.33467864990234
              ],
              [
                16.85773277282715,
                69.33467864990234
              ],
              [
                16.87064552307129,
                69.487548828125
              ],
              [
                17.892112731933594,
                69.64068603515625
              ],
              [
                17.977924346923828,
                69.487548828125
              ],
              [
                18.581893920898438,
                69.487548828125
              ],
              [
                18.58993148803711,
                69.5640869140625
              ],
              [
                18.18692398071289,
                69.5640869140625
              ],
              [
                18.311208724975586,
                69.79407501220703
              ],
              [
                18.917354583740234,
                69.79407501220703
              ],
              [
                18.79143524169922,
                69.5640869140625
              ],
              [
                19.378469467163086,
                69.41107940673828
              ],
              [
                19.160371780395508,
                69.25833129882812
              ],
              [
                18.65043067932129,
                69.18205261230469
              ],
              [
                18.426651000976562,
                68.95359802246094
              ],
              [
                18.019187927246094,
                68.87757110595703
              ],
              [
                17.9049072265625,
                68.7257080078125
              ],
              [
                18.00468635559082,
                68.7257080078125
              ],
              [
                17.99748420715332,
                68.64987182617188
              ],
              [
                17.286537170410156,
                68.49837493896484
              ],
              [
                17.26711082458496,
                68.27159118652344
              ],
              [
                17.056563638635424,
                68.1207046508789
              ]
            ],
            [
              [
                17.056084051555004,
                68.1203609595929
              ],
              [
                16.951412475383993,
                68.04534912109375
              ],
              [
                17.0499210357666,
                68.04534912109375
              ],
              [
                17.056084051555004,
                68.1203609595929
              ]
            ],
            [
              [
                16.950877711786507,
                68.04496588810848
              ],
              [
                16.84634648063575,
                67.97005462646484
              ],
              [
                16.944828033447266,
                67.97005462646484
              ],
              [
                16.950877711786507,
                68.04496588810848
              ]
            ],
            [
              [
                16.845872629272407,
                67.96971504562313
              ],
              [
                16.741355008327798,
                67.89481353759766
              ],
              [
                16.839927673339844,
                67.89481353759766
              ],
              [
                16.845872629272407,
                67.96971504562313
              ]
            ]
          ],
          [
            [
              [
                16.427785873413086,
                67.66946411132812
              ],
              [
                16.4222469329834,
                67.5944595336914
              ],
              [
                16.323732376098633,
                67.5944595336914
              ],
              [
                16.32918930053711,
                67.66946411132812
              ],
              [
                16.427785873413086,
                67.66946411132812
              ]
            ]
          ],
          [
            [
              [
                12.787290573120117,
                67.89481353759766
              ],
              [
                12.79240608215332,
                68.04534912109375
              ],
              [
                12.891417503356934,
                68.04534912109375
              ],
              [
                12.894081115722656,
                68.1207046508789
              ],
              [
                13.19136905670166,
                68.1207046508789
              ],
              [
                13.185554504394531,
                67.97005462646484
              ],
              [
                12.787290573120117,
                67.89481353759766
              ]
            ]
          ],
          [
            [
              [
                14.086923599243164,
                68.19611358642578
              ],
              [
                13.587753295898438,
                68.1207046508789
              ],
              [
                13.584501266479492,
                68.04534912109375
              ],
              [
                13.38647747039795,
                68.04534912109375
              ],
              [
                13.38956069946289,
                68.1207046508789
              ],
              [
                13.392661094665527,
                68.19611358642578
              ],
              [
                13.700368881225586,
                68.42272186279297
              ],
              [
                14.098109245300293,
                68.42272186279297
              ],
              [
                14.086923599243164,
                68.19611358642578
              ]
            ]
          ],
          [
            [
              [
                19.04520034790039,
                57.97305679321289
              ],
              [
                19.03397560119629,
                57.8345832824707
              ],
              [
                18.844388961791992,
                57.696231842041016
              ],
              [
                18.911693572998047,
                57.41988754272461
              ],
              [
                18.45128059387207,
                57.21294021606445
              ],
              [
                18.342275619506836,
                56.937416076660156
              ],
              [
                18.076435089111328,
                56.937416076660156
              ],
              [
                18.02667236328125,
                57.488929748535156
              ],
              [
                18.031593322753906,
                57.55800247192383
              ],
              [
                18.230064392089844,
                57.8345832824707
              ],
              [
                18.598026275634766,
                57.97305679321289
              ],
              [
                19.04520034790039,
                57.97305679321289
              ]
            ]
          ],
          [
            [
              [
                16.73522186279297,
                67.81964111328125
              ],
              [
                16.729385375976562,
                67.74452209472656
              ],
              [
                16.630706787109375,
                67.74452209472656
              ],
              [
                16.636459350585938,
                67.81964111328125
              ],
              [
                16.73522186279297,
                67.81964111328125
              ]
            ]
          ],
          [
            [
              [
                17.777206420898438,
                68.42272186279297
              ],
              [
                17.677772521972656,
                68.42272186279297
              ],
              [
                17.684619903564453,
                68.49837493896484
              ],
              [
                17.78413963317871,
                68.49837493896484
              ],
              [
                17.88365936279297,
                68.49837493896484
              ],
              [
                17.87664222717285,
                68.42272186279297
              ],
              [
                17.777206420898438,
                68.42272186279297
              ]
            ]
          ],
          [
            [
              [
                18.075511932373047,
                68.42272186279297
              ],
              [
                17.890710830688477,
                68.57408905029297
              ],
              [
                18.196870803833008,
                68.64987182617188
              ],
              [
                18.082700729370117,
                68.49837493896484
              ],
              [
                18.075511932373047,
                68.42272186279297
              ]
            ]
          ]
        ]
      }
    }
  ]
}
