{
  "type": "FeatureCollection",
  "features": [
    {
      "type": "Feature",
      "properties": {
        "Name": "Crown of Aragon",
        "FromYear": 1294,
        "ToYear": 1304,
        "Area": 122292.67710094909,
        "Type": "POLITY",
        "Wikipedia": "Crown of Aragon",
        "Wikidata": "Q204920",
        "SeshatID": "es_aragon_crown",
        "Components": "",
        "MemberOf": "",
        "displayYear": 1300,
        "sourceYear": 1300,
        "mappedTerritoryId": "cliopatria_crown_of_aragon"
      },
      "geometry": {
        "type": "MultiPolygon",
        "coordinates": [
          [
            [
              [
                14.571182250976562,
                35.9664192199707
              ],
              [
                14.568227767944336,
                35.77327346801758
              ],
              [
                14.33681869506836,
                35.837650299072266
              ],
              [
                14.339592933654785,
                36.03080368041992
              ],
              [
                14.417119026184082,
                36.03080368041992
              ],
              [
                14.571182250976562,
                35.9664192199707
              ]
            ]
          ],
          [
            [
              [
                15.213889122009277,
                37.1904182434082
              ],
              [
                15.210210800170898,
                36.9970588684082
              ],
              [
                15.049844741821289,
                36.73930740356445
              ],
              [
                14.661029815673828,
                36.73930740356445
              ],
              [
                14.27791690826416,
                37.12596130371094
              ],
              [
                13.578389167785645,
                37.254878997802734
              ],
              [
                13.192005157470703,
                37.5772590637207
              ],
              [
                12.490468978881836,
                37.706241607666016
              ],
              [
                12.49189567565918,
                37.89975357055664
              ],
              [
                12.649824142456055,
                38.09331130981445
              ],
              [
                13.040358543395996,
                38.028785705566406
              ],
              [
                13.119925498962402,
                38.157840728759766
              ],
              [
                13.354706764221191,
                38.157840728759766
              ],
              [
                13.665236473083496,
                37.96426773071289
              ],
              [
                14.05618953704834,
                37.96426773071289
              ],
              [
                15.6271390914917,
                38.28691864013672
              ],
              [
                15.62426471710205,
                38.157840728759766
              ],
              [
                15.389483451843262,
                38.157840728759766
              ],
              [
                15.065269470214844,
                37.5772590637207
              ],
              [
                15.064054489135742,
                37.51277160644531
              ],
              [
                15.059245109558105,
                37.254878997802734
              ],
              [
                15.213889122009277,
                37.1904182434082
              ]
            ]
          ],
          [
            [
              [
                1.657540321350098,
                38.997230529785156
              ],
              [
                1.430543661117554,
                38.80344009399414
              ],
              [
                1.273545265197754,
                38.80344009399414
              ],
              [
                1.183109045028687,
                39.06184005737305
              ],
              [
                1.258725643157959,
                39.1264533996582
              ],
              [
                1.337347388267517,
                39.1264533996582
              ],
              [
                1.651834011077881,
                39.1264533996582
              ],
              [
                1.657540321350098,
                38.997230529785156
              ]
            ]
          ],
          [
            [
              [
                3.19298791885376,
                39.9670295715332
              ],
              [
                3.197866439819336,
                39.8376350402832
              ],
              [
                3.515789270401001,
                39.77294921875
              ],
              [
                3.295835733413696,
                39.320335388183594
              ],
              [
                2.82365870475769,
                39.320335388183594
              ],
              [
                2.658556938171387,
                39.51427459716797
              ],
              [
                2.346148252487183,
                39.449623107910156
              ],
              [
                2.338095426559448,
                39.64360046386719
              ],
              [
                2.877186298370361,
                39.9670295715332
              ],
              [
                2.956136703491211,
                39.9670295715332
              ],
              [
                3.19298791885376,
                39.9670295715332
              ]
            ]
          ],
          [
            [
              [
                4.302449703216553,
                39.8376350402832
              ],
              [
                3.826826572418213,
                39.90232849121094
              ],
              [
                3.741101741790771,
                40.0964469909668
              ],
              [
                3.820104122161865,
                40.0964469909668
              ],
              [
                4.215116024017334,
                40.0964469909668
              ],
              [
                4.302449703216553,
                39.8376350402832
              ]
            ]
          ],
          [
            [
              [
                1.418739318847656,
                42.36617660522461
              ],
              [
                1.505239844322205,
                42.236209869384766
              ],
              [
                2.860961675643921,
                42.30118942260742
              ],
              [
                2.863730669021606,
                42.236209869384766
              ],
              [
                3.114119291305542,
                41.97637939453125
              ],
              [
                2.885612010955811,
                41.71668243408203
              ],
              [
                2.333626985549927,
                41.586883544921875
              ],
              [
                2.106574535369873,
                41.32738494873047
              ],
              [
                1.238392949104309,
                41.19768524169922
              ],
              [
                0.695793092250824,
                40.93837356567383
              ],
              [
                0.709256291389465,
                40.6791877746582
              ],
              [
                0.474957317113876,
                40.614410400390625
              ],
              [
                0.247769102454185,
                40.42012023925781
              ],
              [
                0.182543575763702,
                40.16116714477539
              ],
              [
                -0.201878547668457,
                39.9670295715332
              ],
              [
                -0.345421016216278,
                39.70827102661133
              ],
              [
                -0.313707679510117,
                39.1264533996582
              ],
              [
                0.099359586834908,
                38.738853454589844
              ],
              [
                -0.432753294706345,
                38.416015625
              ],
              [
                -0.5111083984375,
                38.416015625
              ],
              [
                -0.899328827857971,
                38.351463317871094
              ],
              [
                -0.771014451980591,
                38.8680305480957
              ],
              [
                -1.092494964599609,
                38.997230529785156
              ],
              [
                -1.111150026321411,
                39.320335388183594
              ],
              [
                -0.968677043914795,
                39.57893371582031
              ],
              [
                -1.2127445936203,
                39.70827102661133
              ],
              [
                -1.15704333782196,
                40.0964469909668
              ],
              [
                -1.726450324058533,
                40.355369567871094
              ],
              [
                -1.513591289520264,
                40.74397277832031
              ],
              [
                -2.098877191543579,
                41.19768524169922
              ],
              [
                -2.116528034210205,
                41.45711898803711
              ],
              [
                -1.8821781873703,
                41.521995544433594
              ],
              [
                -1.979450225830078,
                41.781593322753906
              ],
              [
                -1.820028781890869,
                41.781593322753906
              ],
              [
                -1.828825831413269,
                41.911441802978516
              ],
              [
                -1.429987907409668,
                41.911441802978516
              ],
              [
                -1.438547492027283,
                42.041324615478516
              ],
              [
                -1.442844986915588,
                42.10627746582031
              ],
              [
                -1.388849973678589,
                42.496177673339844
              ],
              [
                -0.857915937900543,
                42.95146560668945
              ],
              [
                -0.288277387619019,
                42.82133865356445
              ],
              [
                0.040142297744751,
                42.691246032714844
              ],
              [
                0.994516909122467,
                42.82133865356445
              ],
              [
                1.074691534042358,
                42.82133865356445
              ],
              [
                1.485537886619568,
                42.62621307373047
              ],
              [
                1.488844156265259,
                42.56119155883789
              ],
              [
                1.492141246795654,
                42.496177673339844
              ],
              [
                1.412113666534424,
                42.496177673339844
              ],
              [
                1.415431022644043,
                42.43117141723633
              ],
              [
                1.418739318847656,
                42.36617660522461
              ]
            ]
          ]
        ]
      }
    }
  ]
}
