{
  "type": "FeatureCollection",
  "features": [
    {
      "type": "Feature",
      "properties": {
        "Name": "Western Chalukya Empire",
        "FromYear": 1040,
        "ToYear": 1093,
        "Area": 602424.0308424782,
        "Type": "POLITY",
        "Wikipedia": "Western Chalukya Empire",
        "Wikidata": "Q14624218",
        "SeshatID": "in_kalyani_chalukya_emp",
        "Components": "",
        "MemberOf": "",
        "displayYear": 1044,
        "sourceYear": 1044,
        "mappedTerritoryId": "cliopatria_western_chalukya_empire"
      },
      "geometry": {
        "type": "Polygon",
        "coordinates": [
          [
            [
              79.45128631591797,
              22.914846420288086
            ],
            [
              79.74919128417969,
              22.914846420288086
            ],
            [
              79.94783782958984,
              22.72198486328125
            ],
            [
              79.93147277832031,
              22.59341049194336
            ],
            [
              80.28728485107422,
              22.46483612060547
            ],
            [
              80.47804260253906,
              22.20768928527832
            ],
            [
              81.27179718017578,
              22.014829635620117
            ],
            [
              81.1492691040039,
              21.629112243652344
            ],
            [
              81.1601791381836,
              21.114822387695312
            ],
            [
              80.91397857666016,
              20.921964645385742
            ],
            [
              81.02330780029297,
              20.60053253173828
            ],
            [
              80.8360824584961,
              20.279102325439453
            ],
            [
              80.64539337158203,
              19.314802169799805
            ],
            [
              80.48963928222656,
              19.25051498413086
            ],
            [
              80.36156463623047,
              18.800504684448242
            ],
            [
              80.62643432617188,
              18.543354034423828
            ],
            [
              80.8481674194336,
              18.543354034423828
            ],
            [
              80.83272552490234,
              18.414779663085938
            ],
            [
              81.22972106933594,
              18.029054641723633
            ],
            [
              81.06669616699219,
              17.90047836303711
            ],
            [
              81.05905151367188,
              17.836191177368164
            ],
            [
              80.03952026367188,
              17.321889877319336
            ],
            [
              79.66334533691406,
              17.257600784301758
            ],
            [
              79.33192443847656,
              16.9361629486084
            ],
            [
              78.70657348632812,
              16.614723205566406
            ],
            [
              78.5173110961914,
              16.228994369506836
            ],
            [
              78.37003326416016,
              16.228994369506836
            ],
            [
              78.38388061523438,
              16.35757064819336
            ],
            [
              78.16292572021484,
              16.35757064819336
            ],
            [
              77.77410125732422,
              16.16470718383789
            ],
            [
              77.20539855957031,
              15.650403022766113
            ],
            [
              77.00688171386719,
              15.136098861694336
            ],
            [
              76.547119140625,
              14.943235397338867
            ],
            [
              76.52273559570312,
              14.686083793640137
            ],
            [
              76.13748931884766,
              14.493220329284668
            ],
            [
              75.69088745117188,
              14.428933143615723
            ],
            [
              75.19917297363281,
              13.850343704223633
            ],
            [
              74.60106658935547,
              13.721768379211426
            ],
            [
              74.60651397705078,
              13.786055564880371
            ],
            [
              74.4706802368164,
              13.914630889892578
            ],
            [
              74.3125991821289,
              14.621796607971191
            ],
            [
              73.97454071044922,
              14.943235397338867
            ],
            [
              73.93107604980469,
              15.26467514038086
            ],
            [
              73.79009246826172,
              15.328963279724121
            ],
            [
              73.74736785888672,
              15.650403022766113
            ],
            [
              73.53911590576172,
              15.77897834777832
            ],
            [
              73.30835723876953,
              16.421857833862305
            ],
            [
              73.25337219238281,
              17.321889877319336
            ],
            [
              72.95886993408203,
              18.029054641723633
            ],
            [
              72.87482452392578,
              19.314802169799805
            ],
            [
              72.73371887207031,
              19.379087448120117
            ],
            [
              72.7613525390625,
              19.6362361907959
            ],
            [
              72.63394165039062,
              19.8290958404541
            ],
            [
              72.76312255859375,
              20.343387603759766
            ],
            [
              72.84673016139978,
              20.43170991700734
            ],
            [
              73.40628620528649,
              20.44902253197805
            ],
            [
              73.95370407590208,
              21.202540501594665
            ],
            [
              73.94872754980558,
              21.735130439950762
            ],
            [
              74.10568234696828,
              22.079116821289062
            ],
            [
              75.96370697021484,
              22.400548934936523
            ],
            [
              77.2363510131836,
              22.46483612060547
            ],
            [
              78.0121841430664,
              22.72198486328125
            ],
            [
              79.3768081665039,
              22.914846420288086
            ],
            [
              79.45128631591797,
              22.914846420288086
            ]
          ]
        ]
      }
    }
  ]
}
