{
  "type": "FeatureCollection",
  "features": [
    {
      "type": "Feature",
      "properties": {
        "Name": "Yuan Dynasty",
        "FromYear": 1294,
        "ToYear": 1351,
        "Area": 14249991.494234271,
        "Type": "POLITY",
        "Wikipedia": "Yuan dynasty",
        "Wikidata": "Q7313",
        "SeshatID": "cn_yuan_dyn",
        "Components": "",
        "MemberOf": "",
        "displayYear": 1311,
        "sourceYear": 1311,
        "mappedTerritoryId": "cliopatria_yuan_dynasty"
      },
      "geometry": {
        "type": "MultiPolygon",
        "coordinates": [
          [
            [
              [
                109.86219787597656,
                18.350492477416992
              ],
              [
                109.84064483642578,
                18.2219181060791
              ],
              [
                109.24968719482422,
                18.2219181060791
              ],
              [
                109.12333679199219,
                18.350492477416992
              ],
              [
                108.76459503173828,
                18.414779663085938
              ],
              [
                108.63818359375,
                18.543354034423828
              ],
              [
                108.70427703857422,
                19.379087448120117
              ],
              [
                109.20277404785156,
                19.700523376464844
              ],
              [
                109.2463607788086,
                19.95766830444336
              ],
              [
                110.15737915039062,
                20.08624267578125
              ],
              [
                110.59095001220703,
                20.021955490112305
              ],
              [
                110.613037109375,
                20.150527954101562
              ],
              [
                110.90947723388672,
                20.150527954101562
              ],
              [
                111.08741760253906,
                19.893383026123047
              ],
              [
                111.03193664550781,
                19.571949005126953
              ],
              [
                110.88386535644531,
                19.571949005126953
              ],
              [
                110.85066986083984,
                19.379087448120117
              ],
              [
                110.68057250976562,
                19.25051498413086
              ],
              [
                110.50775909423828,
                18.67193031311035
              ],
              [
                110.1902847290039,
                18.543354034423828
              ],
              [
                110.1794204711914,
                18.479066848754883
              ],
              [
                109.86219787597656,
                18.350492477416992
              ]
            ]
          ],
          [
            [
              [
                122.2725830078125,
                30.179353713989258
              ],
              [
                122.27982330322266,
                29.986536026000977
              ],
              [
                121.97661590576172,
                29.986536026000977
              ],
              [
                122.02213287353516,
                30.115081787109375
              ],
              [
                122.04503631591797,
                30.179353713989258
              ],
              [
                122.2725830078125,
                30.179353713989258
              ]
            ]
          ],
          [
            [
              [
                126.1387710571289,
                33.20018768310547
              ],
              [
                126.35626983642578,
                33.52165222167969
              ],
              [
                126.99883270263672,
                33.5859489440918
              ],
              [
                126.7801284790039,
                33.26447677612305
              ],
              [
                126.70345306396484,
                33.26447677612305
              ],
              [
                126.1387710571289,
                33.20018768310547
              ]
            ]
          ],
          [
            [
              [
                125.70343780517578,
                61.12267303466797
              ],
              [
                135.93345642089844,
                61.05192565917969
              ],
              [
                135.84732055664062,
                60.9812126159668
              ],
              [
                139.8979034423828,
                60.91054153442383
              ],
              [
                139.80941772460938,
                60.83990478515625
              ],
              [
                139.99313354492188,
                60.83990478515625
              ],
              [
                139.90478515625,
                60.76930236816406
              ],
              [
                140.08837890625,
                60.76930236816406
              ],
              [
                140.00013732910156,
                60.69873809814453
              ],
              [
                140.18359375,
                60.69873809814453
              ],
              [
                140.09547424316406,
                60.628211975097656
              ],
              [
                140.19082641601562,
                60.557716369628906
              ],
              [
                139.1715545654297,
                59.504478454589844
              ],
              [
                139.26844787597656,
                59.434532165527344
              ],
              [
                138.6083221435547,
                58.80647277832031
              ],
              [
                138.6984405517578,
                58.80647277832031
              ],
              [
                137.44993591308594,
                57.41988754272461
              ],
              [
                137.53892517089844,
                57.41988754272461
              ],
              [
                135.18763732910156,
                55.021148681640625
              ],
              [
                135.27481079101562,
                55.021148681640625
              ],
              [
                135.23583984375,
                54.817054748535156
              ],
              [
                135.6869659423828,
                54.74907684326172
              ],
              [
                135.6161651611328,
                54.681121826171875
              ],
              [
                136.9199981689453,
                54.681121826171875
              ],
              [
                136.84866333007812,
                54.613189697265625
              ],
              [
                136.95118713378906,
                54.545284271240234
              ],
              [
                136.809326171875,
                54.4095458984375
              ],
              [
                136.9120635986328,
                54.341712951660156
              ],
              [
                136.6818084716797,
                53.86756134033203
              ],
              [
                137.0271759033203,
                53.86756134033203
              ],
              [
                137.2366485595703,
                54.07062530517578
              ],
              [
                137.85813903808594,
                54.00291442871094
              ],
              [
                137.2677001953125,
                53.597137451171875
              ],
              [
                138.09605407714844,
                53.732303619384766
              ],
              [
                138.37677001953125,
                54.00291442871094
              ],
              [
                138.6204376220703,
                54.07062530517578
              ],
              [
                138.51837158203125,
                54.138362884521484
              ],
              [
                138.73233032226562,
                54.341712951660156
              ],
              [
                140.0325164794922,
                54.341712951660156
              ],
              [
                139.96026611328125,
                54.27390670776367
              ],
              [
                140.13352966308594,
                54.27390670776367
              ],
              [
                140.07598876953125,
                54.138362884521484
              ],
              [
                140.2490692138672,
                54.138362884521484
              ],
              [
                140.20689392089844,
                53.93522644042969
              ],
              [
                140.58224487304688,
                53.799922943115234
              ],
              [
                140.5110626220703,
                53.732303619384766
              ],
              [
                140.76980590820312,
                53.732303619384766
              ],
              [
                140.69869995117188,
                53.664710998535156
              ],
              [
                140.87110900878906,
                53.664710998535156
              ],
              [
                140.80010986328125,
                53.597137451171875
              ],
              [
                140.98765563964844,
                53.52959060668945
              ],
              [
                140.91696166992188,
                53.462066650390625
              ],
              [
                141.46395874023438,
                53.32708740234375
              ],
              [
                141.1139678955078,
                52.99003219604492
              ],
              [
                141.3017120361328,
                52.92268753051758
              ],
              [
                141.23243713378906,
                52.85536575317383
              ],
              [
                141.3512420654297,
                52.720787048339844
              ],
              [
                141.1456756591797,
                52.51908493041992
              ],
              [
                141.23109436035156,
                52.51908493041992
              ],
              [
                141.19793701171875,
                52.31757736206055
              ],
              [
                141.55662536621094,
                52.250450134277344
              ],
              [
                141.3546142578125,
                52.0491943359375
              ],
              [
                141.45787048339844,
                51.98215103149414
              ],
              [
                140.95657348632812,
                51.64724349975586
              ],
              [
                140.82566833496094,
                51.51342010498047
              ],
              [
                140.93002319335938,
                51.44654083251953
              ],
              [
                140.65115356445312,
                51.24601745605469
              ],
              [
                140.77642822265625,
                51.112430572509766
              ],
              [
                140.48045349121094,
                50.71213912963867
              ],
              [
                140.56472778320312,
                50.71213912963867
              ],
              [
                140.4396209716797,
                50.578861236572266
              ],
              [
                140.54571533203125,
                50.51224899291992
              ],
              [
                140.42181396484375,
                50.37908172607422
              ],
              [
                140.50588989257812,
                50.37908172607422
              ],
              [
                140.48951721191406,
                50.17946243286133
              ],
              [
                140.74139404296875,
                50.17946243286133
              ],
              [
                140.43783569335938,
                49.84712600708008
              ],
              [
                140.5929718017578,
                49.64793395996094
              ],
              [
                140.38092041015625,
                49.316287994384766
              ],
              [
                140.46437072753906,
                49.316287994384766
              ],
              [
                140.2825469970703,
                48.91886520385742
              ],
              [
                140.36578369140625,
                48.91886520385742
              ],
              [
                140.19395446777344,
                48.72037124633789
              ],
              [
                140.27706909179688,
                48.72037124633789
              ],
              [
                140.16339111328125,
                48.5881233215332
              ],
              [
                140.24642944335938,
                48.5881233215332
              ],
              [
                140.02110290527344,
                48.323814392089844
              ],
              [
                139.35755920410156,
                47.92780685424805
              ],
              [
                138.8994903564453,
                47.26897048950195
              ],
              [
                138.62857055664062,
                47.13737487792969
              ],
              [
                138.41775512695312,
                46.87434005737305
              ],
              [
                138.49989318847656,
                46.87434005737305
              ],
              [
                138.34307861328125,
                46.677207946777344
              ],
              [
                138.42510986328125,
                46.677207946777344
              ],
              [
                137.8590850830078,
                45.95537567138672
              ],
              [
                136.71914672851562,
                45.10417556762695
              ],
              [
                136.1484375,
                44.45067596435547
              ],
              [
                135.986572265625,
                44.45067596435547
              ],
              [
                135.28416442871094,
                43.6026611328125
              ],
              [
                134.22183227539062,
                43.016544342041016
              ],
              [
                133.2723388671875,
                42.691246032714844
              ],
              [
                132.95187377929688,
                42.691246032714844
              ],
              [
                132.99696350097656,
                42.75628662109375
              ],
              [
                132.5611114501953,
                42.82133865356445
              ],
              [
                132.60623168945312,
                42.88639831542969
              ],
              [
                132.20521545410156,
                42.88639831542969
              ],
              [
                132.27102661132812,
                43.211830139160156
              ],
              [
                132.0999298095703,
                43.08163070678711
              ],
              [
                131.77874755859375,
                43.08163070678711
              ],
              [
                131.9146728515625,
                43.276947021484375
              ],
              [
                131.75390625,
                43.276947021484375
              ],
              [
                131.22511291503906,
                42.62621307373047
              ],
              [
                130.90475463867188,
                42.62621307373047
              ],
              [
                130.60537719726562,
                42.30118942260742
              ],
              [
                130.32212829589844,
                42.236209869384766
              ],
              [
                129.7823486328125,
                41.781593322753906
              ],
              [
                129.69317626953125,
                41.521995544433594
              ],
              [
                129.8822021484375,
                41.19768524169922
              ],
              [
                129.75584411621094,
                40.873565673828125
              ],
              [
                129.23776245117188,
                40.6791877746582
              ],
              [
                129.0777130126953,
                40.42012023925781
              ],
              [
                128.6822052001953,
                40.29063034057617
              ],
              [
                128.3679962158203,
                40.031734466552734
              ],
              [
                127.9345932006836,
                39.9670295715332
              ],
              [
                127.58325958251953,
                39.77294921875
              ],
              [
                127.665283203125,
                39.64360046386719
              ],
              [
                127.48323059082031,
                39.19107437133789
              ],
              [
                127.79782104492188,
                39.19107437133789
              ],
              [
                127.92344665527344,
                38.997230529785156
              ],
              [
                128.36380004882812,
                38.80344009399414
              ],
              [
                128.83999633789062,
                37.96426773071289
              ],
              [
                129.10020446777344,
                37.5772590637207
              ],
              [
                129.2563018798828,
                37.5772590637207
              ],
              [
                129.4748077392578,
                37.254878997802734
              ],
              [
                129.40687561035156,
                37.12596130371094
              ],
              [
                129.52882385253906,
                37.06150817871094
              ],
              [
                129.39639282226562,
                36.3527946472168
              ],
              [
                129.47402954101562,
                36.3527946472168
              ],
              [
                129.42141723632812,
                36.09519577026367
              ],
              [
                129.57652282714844,
                36.09519577026367
              ],
              [
                129.6669158935547,
                35.9664192199707
              ],
              [
                129.5386505126953,
                35.708900451660156
              ],
              [
                129.61607360839844,
                35.708900451660156
              ],
              [
                129.14712524414062,
                35.065311431884766
              ],
              [
                128.52938842773438,
                35.065311431884766
              ],
              [
                128.5451202392578,
                34.93662643432617
              ],
              [
                128.80740356445312,
                35.00096893310547
              ],
              [
                128.6848602294922,
                34.743614196777344
              ],
              [
                128.32968139648438,
                34.80794906616211
              ],
              [
                128.31358337402344,
                34.93662643432617
              ],
              [
                128.08206176757812,
                34.93662643432617
              ],
              [
                128.0679168701172,
                34.743614196777344
              ],
              [
                127.75946044921875,
                34.743614196777344
              ],
              [
                127.37831115722656,
                34.42197799682617
              ],
              [
                127.22427368164062,
                34.42197799682617
              ],
              [
                127.12974548339844,
                34.55062484741211
              ],
              [
                127.29676055908203,
                34.743614196777344
              ],
              [
                127.21964263916016,
                34.743614196777344
              ],
              [
                127.02291107177734,
                34.48630142211914
              ],
              [
                126.62617492675781,
                34.2933349609375
              ],
              [
                126.42462921142578,
                34.3576545715332
              ],
              [
                126.48365783691406,
                34.48630142211914
              ],
              [
                126.3476333618164,
                34.3576545715332
              ],
              [
                126.11663818359375,
                34.3576545715332
              ],
              [
                126.4784164428711,
                34.80794906616211
              ],
              [
                126.1998062133789,
                34.87228775024414
              ],
              [
                126.38115692138672,
                35.258358001708984
              ],
              [
                126.30387878417969,
                35.258358001708984
              ],
              [
                126.51919555664062,
                35.708900451660156
              ],
              [
                126.76777648925781,
                35.902034759521484
              ],
              [
                126.61280822753906,
                35.902034759521484
              ],
              [
                126.67567443847656,
                36.03080368041992
              ],
              [
                126.52062225341797,
                36.03080368041992
              ],
              [
                126.42864227294922,
                36.15959167480469
              ],
              [
                126.45157623291016,
                36.67487716674805
              ],
              [
                126.26383972167969,
                36.61045455932617
              ],
              [
                126.04977416992188,
                36.80373764038086
              ],
              [
                126.30320739746094,
                36.9970588684082
              ],
              [
                126.64752197265625,
                37.06150817871094
              ],
              [
                126.7022933959961,
                37.3193473815918
              ],
              [
                126.53524017333984,
                37.44829177856445
              ],
              [
                126.6025161743164,
                37.5772590637207
              ],
              [
                126.24594116210938,
                37.641746520996094
              ],
              [
                126.34768676757812,
                37.835243225097656
              ],
              [
                125.84493255615234,
                37.7707405090332
              ],
              [
                125.83466339111328,
                37.89975357055664
              ],
              [
                125.6783218383789,
                37.89975357055664
              ],
              [
                125.38711547851562,
                37.641746520996094
              ],
              [
                125.23096466064453,
                37.641746520996094
              ],
              [
                125.29808044433594,
                37.7707405090332
              ],
              [
                125.20932006835938,
                37.89975357055664
              ],
              [
                124.89665222167969,
                37.89975357055664
              ],
              [
                125.07669067382812,
                38.09331130981445
              ],
              [
                124.76374053955078,
                38.09331130981445
              ],
              [
                124.86637115478516,
                38.28691864013672
              ],
              [
                124.7880630493164,
                38.28691864013672
              ],
              [
                124.96138000488281,
                38.60969924926758
              ],
              [
                125.15330505371094,
                38.67427444458008
              ],
              [
                125.18850708007812,
                38.738853454589844
              ],
              [
                125.03155517578125,
                38.738853454589844
              ],
              [
                125.39002990722656,
                39.38497543334961
              ],
              [
                125.30574798583984,
                39.51427459716797
              ],
              [
                124.86974334716797,
                39.57893371582031
              ],
              [
                124.86456298828125,
                39.70827102661133
              ],
              [
                124.51239776611328,
                39.64360046386719
              ],
              [
                124.3446044921875,
                39.90232849121094
              ],
              [
                124.03396606445312,
                39.77294921875
              ],
              [
                123.32411193847656,
                39.77294921875
              ],
              [
                122.51297760009766,
                39.449623107910156
              ],
              [
                122.17044830322266,
                39.25570297241211
              ],
              [
                122.0653076171875,
                39.06184005737305
              ],
              [
                121.71622467041016,
                38.997230529785156
              ],
              [
                121.42170715332031,
                38.738853454589844
              ],
              [
                121.02933502197266,
                38.738853454589844
              ],
              [
                121.20073699951172,
                39.06184005737305
              ],
              [
                121.51512908935547,
                39.06184005737305
              ],
              [
                121.69013214111328,
                39.38497543334961
              ],
              [
                121.2965316772461,
                39.38497543334961
              ],
              [
                121.20963287353516,
                39.51427459716797
              ],
              [
                121.28069305419922,
                39.64360046386719
              ],
              [
                121.43833923339844,
                39.64360046386719
              ],
              [
                121.50332641601562,
                39.90232849121094
              ],
              [
                121.7764663696289,
                39.9670295715332
              ],
              [
                122.23056030273438,
                40.4848747253418
              ],
              [
                122.10609436035156,
                40.6791877746582
              ],
              [
                121.82695770263672,
                40.74397277832031
              ],
              [
                121.82366180419922,
                40.873565673828125
              ],
              [
                121.1097640991211,
                40.873565673828125
              ],
              [
                120.9967269897461,
                40.6791877746582
              ],
              [
                120.64734649658203,
                40.4848747253418
              ],
              [
                120.50029754638672,
                40.225894927978516
              ],
              [
                119.38044738769531,
                39.77294921875
              ],
              [
                119.21530151367188,
                39.320335388183594
              ],
              [
                118.98941802978516,
                39.19107437133789
              ],
              [
                118.44984436035156,
                39.06184005737305
              ],
              [
                118.0568618774414,
                39.06184005737305
              ],
              [
                118.04566192626953,
                39.19107437133789
              ],
              [
                117.77603912353516,
                39.1264533996582
              ],
              [
                117.57643127441406,
                38.738853454589844
              ],
              [
                117.6549072265625,
                38.738853454589844
              ],
              [
                117.60245513916016,
                38.48057174682617
              ],
              [
                117.75920867919922,
                38.48057174682617
              ],
              [
                117.77266693115234,
                38.351463317871094
              ],
              [
                118.05360412597656,
                38.28691864013672
              ],
              [
                118.06742095947266,
                38.157840728759766
              ],
              [
                118.58300018310547,
                38.09331130981445
              ],
              [
                118.64759826660156,
                38.22237777709961
              ],
              [
                118.80416870117188,
                38.22237777709961
              ],
              [
                118.77176666259766,
                38.157840728759766
              ],
              [
                119.4571304321289,
                37.96426773071289
              ],
              [
                119.3928451538086,
                37.835243225097656
              ],
              [
                119.23655700683594,
                37.835243225097656
              ],
              [
                118.98403930664062,
                37.3193473815918
              ],
              [
                119.13996124267578,
                37.3193473815918
              ],
              [
                119.15568542480469,
                37.1904182434082
              ],
              [
                119.70111083984375,
                37.1904182434082
              ],
              [
                119.82661437988281,
                37.44829177856445
              ],
              [
                120.20220184326172,
                37.5772590637207
              ],
              [
                120.18807220458984,
                37.706241607666016
              ],
              [
                120.75377655029297,
                37.89975357055664
              ],
              [
                121.11202239990234,
                37.835243225097656
              ],
              [
                121.17103576660156,
                37.641746520996094
              ],
              [
                121.48333740234375,
                37.641746520996094
              ],
              [
                121.49687957763672,
                37.51277160644531
              ],
              [
                122.15351867675781,
                37.5772590637207
              ],
              [
                122.1211166381836,
                37.51277160644531
              ],
              [
                122.71288299560547,
                37.44829177856445
              ],
              [
                122.47421264648438,
                37.12596130371094
              ],
              [
                122.56636810302734,
                36.9970588684082
              ],
              [
                122.39389038085938,
                36.80373764038086
              ],
              [
                121.91207885742188,
                36.932613372802734
              ],
              [
                121.21208190917969,
                36.61045455932617
              ],
              [
                120.97892761230469,
                36.61045455932617
              ],
              [
                120.96481323242188,
                36.417205810546875
              ],
              [
                120.73184967041016,
                36.417205810546875
              ],
              [
                120.65852355957031,
                36.09519577026367
              ],
              [
                120.31848907470703,
                36.03080368041992
              ],
              [
                119.98648071289062,
                35.644527435302734
              ],
              [
                119.61874389648438,
                35.51579284667969
              ],
              [
                119.22760772705078,
                34.80794906616211
              ],
              [
                119.45901489257812,
                34.80794906616211
              ],
              [
                119.43090057373047,
                34.743614196777344
              ],
              [
                119.71125030517578,
                34.679283142089844
              ],
              [
                119.73230743408203,
                34.55062484741211
              ],
              [
                120.3418197631836,
                34.3576545715332
              ],
              [
                120.48936462402344,
                34.164703369140625
              ],
              [
                120.55045318603516,
                33.5859489440918
              ],
              [
                120.92630004882812,
                33.20018768310547
              ],
              [
                120.91920471191406,
                32.62162780761719
              ],
              [
                121.40264892578125,
                32.493072509765625
              ],
              [
                121.50330352783203,
                32.171695709228516
              ],
              [
                121.9613265991211,
                31.978878021240234
              ],
              [
                121.93677520751953,
                31.7217960357666
              ],
              [
                121.83556365966797,
                31.65752601623535
              ],
              [
                121.96309661865234,
                31.593257904052734
              ],
              [
                121.91353607177734,
                31.464719772338867
              ],
              [
                121.58425903320312,
                31.40045166015625
              ],
              [
                121.73657989501953,
                31.40045166015625
              ],
              [
                121.99526977539062,
                31.079113006591797
              ],
              [
                121.89926147460938,
                30.822044372558594
              ],
              [
                121.51921844482422,
                30.822044372558594
              ],
              [
                121.19719696044922,
                30.564971923828125
              ],
              [
                121.04530334472656,
                30.564971923828125
              ],
              [
                120.67976379394531,
                30.179353713989258
              ],
              [
                120.80880737304688,
                30.115081787109375
              ],
              [
                121.10469055175781,
                30.307893753051758
              ],
              [
                121.48409271240234,
                30.307893753051758
              ],
              [
                121.6202392578125,
                30.050809860229492
              ],
              [
                122.02978515625,
                29.922264099121094
              ],
              [
                121.864501953125,
                29.665164947509766
              ],
              [
                122.01595306396484,
                29.665164947509766
              ],
              [
                121.93843078613281,
                29.21521759033203
              ],
              [
                121.71156311035156,
                29.21521759033203
              ],
              [
                121.74463653564453,
                29.536611557006836
              ],
              [
                121.57134246826172,
                29.472333908081055
              ],
              [
                121.64702606201172,
                29.472333908081055
              ],
              [
                121.53888702392578,
                29.150936126708984
              ],
              [
                121.74431610107422,
                29.08665657043457
              ],
              [
                121.7143325805664,
                28.765243530273438
              ],
              [
                121.52177429199219,
                28.636676788330078
              ],
              [
                121.65211486816406,
                28.572391510009766
              ],
              [
                121.64590454101562,
                28.315250396728516
              ],
              [
                121.15326690673828,
                28.186676025390625
              ],
              [
                121.1933822631836,
                28.315250396728516
              ],
              [
                121.11795806884766,
                28.315250396728516
              ],
              [
                121.03816223144531,
                28.058101654052734
              ],
              [
                120.86773681640625,
                27.993812561035156
              ],
              [
                120.71461486816406,
                27.736658096313477
              ],
              [
                120.65725708007812,
                27.54378890991211
              ],
              [
                120.73251342773438,
                27.54378890991211
              ],
              [
                120.54503631591797,
                27.158044815063477
              ],
              [
                120.39466857910156,
                27.158044815063477
              ],
              [
                120.24666595458984,
                26.900876998901367
              ],
              [
                120.09639739990234,
                26.900876998901367
              ],
              [
                120.06058502197266,
                26.772293090820312
              ],
              [
                120.21080017089844,
                26.772293090820312
              ],
              [
                120.1576919555664,
                26.57941436767578
              ],
              [
                119.83992767333984,
                26.515121459960938
              ],
              [
                119.93810272216797,
                26.32224464416504
              ],
              [
                119.5870132446289,
                26.129364013671875
              ],
              [
                119.77836608886719,
                26.000778198242188
              ],
              [
                119.52989959716797,
                25.615020751953125
              ],
              [
                119.90438079833984,
                25.615020751953125
              ],
              [
                119.87213897705078,
                25.48643684387207
              ],
              [
                119.46599578857422,
                25.357851028442383
              ],
              [
                119.42289733886719,
                25.48643684387207
              ],
              [
                119.27314758300781,
                25.48643684387207
              ],
              [
                119.39114379882812,
                25.357851028442383
              ],
              [
                119.34419250488281,
                25.164974212646484
              ],
              [
                119.02947998046875,
                25.100683212280273
              ],
              [
                119.07367706298828,
                24.97209930419922
              ],
              [
                118.8191146850586,
                24.843517303466797
              ],
              [
                118.75972747802734,
                24.586353302001953
              ],
              [
                118.14736938476562,
                24.522062301635742
              ],
              [
                118.07573699951172,
                24.200613021850586
              ],
              [
                117.72126770019531,
                23.943456649780273
              ],
              [
                117.69377136230469,
                23.814878463745117
              ],
              [
                117.46995544433594,
                23.814878463745117
              ],
              [
                117.1788330078125,
                23.493436813354492
              ],
              [
                116.8938980102539,
                23.557723999023438
              ],
              [
                116.7796401977539,
                23.36486053466797
              ],
              [
                116.81497955322266,
                23.171995162963867
              ],
              [
                116.59144592285156,
                23.171995162963867
              ],
              [
                116.54004669189453,
                22.914846420288086
              ],
              [
                115.69562530517578,
                22.786272048950195
              ],
              [
                115.67061614990234,
                22.657697677612305
              ],
              [
                115.37285614013672,
                22.657697677612305
              ],
              [
                115.17442321777344,
                22.786272048950195
              ],
              [
                114.90156555175781,
                22.529123306274414
              ],
              [
                114.75272369384766,
                22.529123306274414
              ],
              [
                114.64081573486328,
                22.72198486328125
              ],
              [
                114.53111267089844,
                22.143402099609375
              ],
              [
                114.37039184570312,
                22.079116821289062
              ],
              [
                113.99858856201172,
                22.079116821289062
              ],
              [
                113.99634552001953,
                22.46483612060547
              ],
              [
                113.78524017333984,
                22.529123306274414
              ],
              [
                113.7474365234375,
                22.72198486328125
              ],
              [
                113.59854125976562,
                22.72198486328125
              ],
              [
                113.69869995117188,
                22.46483612060547
              ],
              [
                113.63867950439453,
                22.143402099609375
              ],
              [
                113.41557312011719,
                22.143402099609375
              ],
              [
                113.31752014160156,
                22.014829635620117
              ],
              [
                113.10626220703125,
                22.079116821289062
              ],
              [
                113.07096862792969,
                21.88625717163086
              ],
              [
                112.77362823486328,
                21.88625717163086
              ],
              [
                112.44146728515625,
                21.693397521972656
              ],
              [
                111.85850524902344,
                21.7576847076416
              ],
              [
                111.6640625,
                21.500539779663086
              ],
              [
                110.98419189453125,
                21.43625259399414
              ],
              [
                110.73885345458984,
                21.307680130004883
              ],
              [
                110.71642303466797,
                21.179107666015625
              ],
              [
                110.41944885253906,
                21.179107666015625
              ],
              [
                110.48252868652344,
                21.114822387695312
              ],
              [
                110.36384582519531,
                20.857677459716797
              ],
              [
                110.61627197265625,
                20.60053253173828
              ],
              [
                110.48687744140625,
                20.279102325439453
              ],
              [
                109.88289642333984,
                20.214815139770508
              ],
              [
                109.9267807006836,
                20.471960067749023
              ],
              [
                109.7894515991211,
                20.53624725341797
              ],
              [
                109.7702407836914,
                20.857677459716797
              ],
              [
                109.69603729248047,
                20.857677459716797
              ],
              [
                109.87005615234375,
                21.43625259399414
              ],
              [
                109.80696105957031,
                21.500539779663086
              ],
              [
                109.11621856689453,
                21.371967315673828
              ],
              [
                109.08638000488281,
                21.629112243652344
              ],
              [
                108.65169525146484,
                21.693397521972656
              ],
              [
                108.55519104003906,
                21.5648250579834
              ],
              [
                108.17271423339844,
                21.500539779663086
              ],
              [
                108.09842681884766,
                21.500539779663086
              ],
              [
                107.97187042236328,
                21.629112243652344
              ],
              [
                107.58939361572266,
                21.5648250579834
              ],
              [
                107.4627456665039,
                21.693397521972656
              ],
              [
                107.23982238769531,
                21.693397521972656
              ],
              [
                106.71125030517578,
                22.079116821289062
              ],
              [
                106.60701751708984,
                22.33626365661621
              ],
              [
                106.77223205566406,
                22.85055923461914
              ],
              [
                106.70928955078125,
                22.914846420288086
              ],
              [
                106.32543182373047,
                22.85055923461914
              ],
              [
                106.19947814941406,
                22.97913360595703
              ],
              [
                105.75257110595703,
                22.97913360595703
              ],
              [
                105.43790435791016,
                23.30057144165039
              ],
              [
                105.21431732177734,
                23.30057144165039
              ],
              [
                104.95609283447266,
                23.107707977294922
              ],
              [
                104.83610534667969,
                22.85055923461914
              ],
              [
                104.51583099365234,
                22.72198486328125
              ],
              [
                104.15472412109375,
                22.786272048950195
              ],
              [
                104.0359878540039,
                22.529123306274414
              ],
              [
                103.88714599609375,
                22.529123306274414
              ],
              [
                103.77134704589844,
                22.72198486328125
              ],
              [
                103.53697204589844,
                22.657697677612305
              ],
              [
                103.32465362548828,
                22.72198486328125
              ],
              [
                103.21734619140625,
                22.529123306274414
              ],
              [
                102.91966247558594,
                22.529123306274414
              ],
              [
                102.86701202392578,
                22.657697677612305
              ],
              [
                102.58016967773438,
                22.72198486328125
              ],
              [
                102.15396881103516,
                22.400548934936523
              ],
              [
                101.71820831298828,
                22.46483612060547
              ],
              [
                101.64425659179688,
                22.014829635620117
              ],
              [
                101.87920379638672,
                21.629112243652344
              ],
              [
                101.88160705566406,
                21.179107666015625
              ],
              [
                101.3619155883789,
                21.179107666015625
              ],
              [
                101.31816864013672,
                21.371967315673828
              ],
              [
                101.17981719970703,
                21.43625259399414
              ],
              [
                101.15673828125,
                21.7576847076416
              ],
              [
                100.74431610107422,
                21.500539779663086
              ],
              [
                100.22432708740234,
                21.500539779663086
              ],
              [
                100.03181457519531,
                21.693397521972656
              ],
              [
                100.07260131835938,
                21.950544357299805
              ],
              [
                99.94442749023438,
                22.079116821289062
              ],
              [
                99.28540802001953,
                22.143402099609375
              ],
              [
                99.57035827636719,
                22.97913360595703
              ],
              [
                99.00663757324219,
                23.171995162963867
              ],
              [
                98.87066650390625,
                23.68630027770996
              ],
              [
                98.7326431274414,
                23.75058937072754
              ],
              [
                98.95002746582031,
                24.136323928833008
              ],
              [
                99.08069610595703,
                25.229267120361328
              ],
              [
                99.005859375,
                25.229267120361328
              ],
              [
                99.0441665649414,
                25.422143936157227
              ],
              [
                98.87154388427734,
                25.67931365966797
              ],
              [
                98.89795684814453,
                25.807899475097656
              ],
              [
                98.68645477294922,
                25.8721923828125
              ],
              [
                98.83740234375,
                26.57941436767578
              ],
              [
                98.7623291015625,
                26.57941436767578
              ],
              [
                98.81936645507812,
                26.836584091186523
              ],
              [
                98.74424743652344,
                26.836584091186523
              ],
              [
                98.78654479980469,
                27.35091781616211
              ],
              [
                98.56119537353516,
                27.6723690032959
              ],
              [
                98.32012176513672,
                27.608078002929688
              ],
              [
                98.17091369628906,
                27.92952537536621
              ],
              [
                97.4198989868164,
                28.25096321105957
              ],
              [
                97.34449005126953,
                28.25096321105957
              ],
              [
                96.86382293701172,
                28.44382095336914
              ],
              [
                96.3954086303711,
                28.379535675048828
              ],
              [
                96.38323211669922,
                28.636676788330078
              ],
              [
                96.18873596191406,
                28.765243530273438
              ],
              [
                95.58457946777344,
                28.765243530273438
              ],
              [
                94.76673126220703,
                28.508106231689453
              ],
              [
                94.38845825195312,
                28.186676025390625
              ],
              [
                93.560546875,
                27.865236282348633
              ],
              [
                93.2015380859375,
                27.608078002929688
              ],
              [
                92.2701416015625,
                27.4794979095459
              ],
              [
                92.09185028076172,
                27.35091781616211
              ],
              [
                91.72953796386719,
                27.41520881652832
              ],
              [
                91.60681915283203,
                27.54378890991211
              ],
              [
                91.63074493408203,
                27.993812561035156
              ],
              [
                91.19298553466797,
                28.058101654052734
              ],
              [
                90.93831634521484,
                27.92952537536621
              ],
              [
                90.81615447998047,
                28.058101654052734
              ],
              [
                90.36395263671875,
                28.058101654052734
              ],
              [
                90.33158874511719,
                28.25096321105957
              ],
              [
                90.19522094726562,
                28.315250396728516
              ],
              [
                89.96895599365234,
                28.315250396728516
              ],
              [
                89.62443542480469,
                28.12238883972168
              ],
              [
                88.8706283569336,
                28.12238883972168
              ],
              [
                88.84268188476562,
                27.993812561035156
              ],
              [
                88.5551528930664,
                28.058101654052734
              ],
              [
                88.21238708496094,
                27.865236282348633
              ],
              [
                87.74687194824219,
                27.800947189331055
              ],
              [
                87.37030792236328,
                27.800947189331055
              ],
              [
                86.82172393798828,
                28.058101654052734
              ],
              [
                86.34259796142578,
                27.92952537536621
              ],
              [
                86.2323226928711,
                28.12238883972168
              ],
              [
                85.96589660644531,
                27.92952537536621
              ],
              [
                85.745361328125,
                28.315250396728516
              ],
              [
                85.1419906616211,
                28.315250396728516
              ],
              [
                85.0937728881836,
                28.44382095336914
              ],
              [
                85.19670867919922,
                28.572391510009766
              ],
              [
                84.74384307861328,
                28.572391510009766
              ],
              [
                84.69590759277344,
                28.700960159301758
              ],
              [
                84.4076919555664,
                28.765243530273438
              ],
              [
                84.23683166503906,
                29.022375106811523
              ],
              [
                83.58460235595703,
                29.150936126708984
              ],
              [
                83.26295471191406,
                29.40805435180664
              ],
              [
                82.45887756347656,
                29.536611557006836
              ],
              [
                81.9858169555664,
                29.79371452331543
              ],
              [
                81.75855255126953,
                29.79371452331543
              ],
              [
                81.37571716308594,
                30.115081787109375
              ],
              [
                81.0723876953125,
                30.115081787109375
              ],
              [
                80.8416519165039,
                30.436433792114258
              ],
              [
                80.26356506347656,
                30.564971923828125
              ],
              [
                79.97239685058594,
                30.950578689575195
              ],
              [
                79.4549560546875,
                31.014846801757812
              ],
              [
                79.10343933105469,
                31.464719772338867
              ],
              [
                78.82906341552734,
                31.593257904052734
              ],
              [
                78.75285339355469,
                31.593257904052734
              ],
              [
                78.75325775146484,
                31.91460609436035
              ],
              [
                78.5552978515625,
                32.043148040771484
              ],
              [
                78.54139709472656,
                32.30024337768555
              ],
              [
                78.46499633789062,
                32.30024337768555
              ],
              [
                78.52821350097656,
                32.557350158691406
              ],
              [
                78.69712829589844,
                32.62162780761719
              ],
              [
                78.80223846435547,
                32.428794860839844
              ],
              [
                79.01564025878906,
                32.36451721191406
              ],
              [
                79.35331726074219,
                32.493072509765625
              ],
              [
                79.57101440429688,
                32.75019073486328
              ],
              [
                79.18309020996094,
                33.32876968383789
              ],
              [
                78.90959167480469,
                33.45735549926758
              ],
              [
                79.01982116699219,
                33.5859489440918
              ],
              [
                79.0617904663086,
                34.03607940673828
              ],
              [
                79.3521957397461,
                33.971771240234375
              ],
              [
                79.54047393798828,
                34.10039138793945
              ],
              [
                79.55061340332031,
                34.42197799682617
              ],
              [
                80.11954498291016,
                34.80794906616211
              ],
              [
                80.28716278076172,
                35.12965774536133
              ],
              [
                80.20992279052734,
                35.12965774536133
              ],
              [
                80.24267578125,
                35.51579284667969
              ],
              [
                79.67899322509766,
                35.708900451660156
              ],
              [
                79.44332122802734,
                35.9664192199707
              ],
              [
                79.49940490722656,
                36.15959167480469
              ],
              [
                79.69229888916016,
                36.28839111328125
              ],
              [
                80.39008331298828,
                36.5460319519043
              ],
              [
                81.26437377929688,
                36.61045455932617
              ],
              [
                81.71249389648438,
                36.80373764038086
              ],
              [
                82.1014175415039,
                36.80373764038086
              ],
              [
                85.1133804321289,
                37.44829177856445
              ],
              [
                85.35621643066406,
                37.706241607666016
              ],
              [
                85.81294250488281,
                37.89975357055664
              ],
              [
                86.08140563964844,
                38.22237777709961
              ],
              [
                86.77645874023438,
                38.416015625
              ],
              [
                87.66171264648438,
                38.48057174682617
              ],
              [
                88.7458267211914,
                38.8680305480957
              ],
              [
                89.13844299316406,
                38.8680305480957
              ],
              [
                90.56585693359375,
                39.70827102661133
              ],
              [
                90.82918548583984,
                40.355369567871094
              ],
              [
                90.72469329833984,
                40.4848747253418
              ],
              [
                90.77880096435547,
                40.614410400390625
              ],
              [
                90.64751434326172,
                40.6791877746582
              ],
              [
                90.70207214355469,
                40.80876541137695
              ],
              [
                90.57084655761719,
                40.873565673828125
              ],
              [
                90.62584686279297,
                41.00318908691406
              ],
              [
                90.49466705322266,
                41.06801223754883
              ],
              [
                90.45655059814453,
                41.71668243408203
              ],
              [
                90.37686920166016,
                41.71668243408203
              ],
              [
                90.4622802734375,
                41.911441802978516
              ],
              [
                90.35997772216797,
                42.041324615478516
              ],
              [
                90.41753387451172,
                42.17123794555664
              ],
              [
                90.337646484375,
                42.17123794555664
              ],
              [
                90.39546203613281,
                42.30118942260742
              ],
              [
                90.31552124023438,
                42.30118942260742
              ],
              [
                90.4027328491211,
                42.496177673339844
              ],
              [
                90.30107879638672,
                42.62621307373047
              ],
              [
                90.35977935791016,
                42.75628662109375
              ],
              [
                90.2796401977539,
                42.75628662109375
              ],
              [
                90.33856964111328,
                42.88639831542969
              ],
              [
                90.25836944580078,
                42.88639831542969
              ],
              [
                90.27593231201172,
                43.276947021484375
              ],
              [
                90.19554901123047,
                43.276947021484375
              ],
              [
                90.28536987304688,
                43.472347259521484
              ],
              [
                90.20489501953125,
                43.472347259521484
              ],
              [
                90.29522705078125,
                43.6678352355957
              ],
              [
                90.21466064453125,
                43.6678352355957
              ],
              [
                90.3309097290039,
                44.77729415893555
              ],
              [
                89.90609741210938,
                44.908016204833984
              ],
              [
                89.93704986572266,
                44.973392486572266
              ],
              [
                89.6934814453125,
                44.973392486572266
              ],
              [
                89.46122741699219,
                45.169586181640625
              ],
              [
                89.21737670898438,
                45.169586181640625
              ],
              [
                88.98453521728516,
                45.36587905883789
              ],
              [
                88.44551849365234,
                45.431331634521484
              ],
              [
                88.21177673339844,
                45.62776184082031
              ],
              [
                87.9163589477539,
                45.693260192871094
              ],
              [
                87.94703674316406,
                45.75876998901367
              ],
              [
                87.51875305175781,
                45.889827728271484
              ],
              [
                87.54942321777344,
                45.95537567138672
              ],
              [
                86.72171783447266,
                46.283294677734375
              ],
              [
                86.59892272949219,
                46.54585266113281
              ],
              [
                86.43498992919922,
                46.54585266113281
              ],
              [
                86.36344146728516,
                46.74290466308594
              ],
              [
                86.19930267333984,
                46.74290466308594
              ],
              [
                86.12783813476562,
                46.94007873535156
              ],
              [
                85.96349334716797,
                46.94007873535156
              ],
              [
                85.89212799072266,
                47.13737487792969
              ],
              [
                85.72757720947266,
                47.13737487792969
              ],
              [
                85.73870849609375,
                47.33478927612305
              ],
              [
                85.55406188964844,
                47.46647262573242
              ],
              [
                85.61689758300781,
                47.598209381103516
              ],
              [
                85.5149154663086,
                47.730003356933594
              ],
              [
                85.55940246582031,
                47.993770599365234
              ],
              [
                85.47667694091797,
                47.993770599365234
              ],
              [
                85.66998291015625,
                48.38986587524414
              ],
              [
                85.5692138671875,
                48.52202224731445
              ],
              [
                85.6347427368164,
                48.654239654541016
              ],
              [
                85.55166625976562,
                48.654239654541016
              ],
              [
                85.6175537109375,
                48.786521911621094
              ],
              [
                85.48428344726562,
                48.852684020996094
              ],
              [
                85.55069732666016,
                48.98506164550781
              ],
              [
                85.25177764892578,
                49.38258361816406
              ],
              [
                85.3043441772461,
                49.64793395996094
              ],
              [
                85.13705444335938,
                49.64793395996094
              ],
              [
                85.02344512939453,
                49.91355895996094
              ],
              [
                84.72274780273438,
                49.98000717163086
              ],
              [
                84.75737762451172,
                50.04647445678711
              ],
              [
                83.90352630615234,
                50.17946243286133
              ],
              [
                83.93812561035156,
                50.2459831237793
              ],
              [
                83.41918182373047,
                50.37908172607422
              ],
              [
                83.22184753417969,
                50.64549255371094
              ],
              [
                83.29209899902344,
                50.77880859375
              ],
              [
                83.10967254638672,
                50.912200927734375
              ],
              [
                83.16768646240234,
                51.17921447753906
              ],
              [
                83.08312225341797,
                51.17921447753906
              ],
              [
                83.1911392211914,
                51.37968063354492
              ],
              [
                83.09423828125,
                51.51342010498047
              ],
              [
                83.25630950927734,
                52.11625671386719
              ],
              [
                83.16088104248047,
                52.250450134277344
              ],
              [
                83.23626708984375,
                52.38472366333008
              ],
              [
                83.10338592529297,
                52.4518928527832
              ],
              [
                83.1793441772461,
                52.586299896240234
              ],
              [
                83.04647827148438,
                52.653533935546875
              ],
              [
                83.12299346923828,
                52.78806686401367
              ],
              [
                82.9901351928711,
                52.85536575317383
              ],
              [
                83.06720733642578,
                52.99003219604492
              ],
              [
                82.88727569580078,
                53.124786376953125
              ],
              [
                82.96504974365234,
                53.25962829589844
              ],
              [
                82.7852554321289,
                53.39456558227539
              ],
              [
                82.82442474365234,
                53.462066650390625
              ],
              [
                82.65229797363281,
                53.462066650390625
              ],
              [
                82.59783935546875,
                53.664710998535156
              ],
              [
                82.4254379272461,
                53.664710998535156
              ],
              [
                82.2777099609375,
                54.00291442871094
              ],
              [
                81.79129028320312,
                54.20612335205078
              ],
              [
                81.7843017578125,
                54.341712951660156
              ],
              [
                81.61094665527344,
                54.341712951660156
              ],
              [
                81.6040267944336,
                54.47740173339844
              ],
              [
                81.29678344726562,
                54.545284271240234
              ],
              [
                81.28992462158203,
                54.681121826171875
              ],
              [
                80.9822006225586,
                54.74907684326172
              ],
              [
                81.02227020263672,
                54.817054748535156
              ],
              [
                81.10929107666016,
                54.817054748535156
              ],
              [
                82.06651306152344,
                54.817054748535156
              ],
              [
                84.10415649414062,
                55.15733337402344
              ],
              [
                84.53854370117188,
                55.29362487792969
              ],
              [
                84.62433624267578,
                55.430015563964844
              ],
              [
                84.75621795654297,
                55.36180877685547
              ],
              [
                85.32359313964844,
                55.56651306152344
              ],
              [
                88.09349822998047,
                57.21294021606445
              ],
              [
                88.14799499511719,
                57.41988754272461
              ],
              [
                88.55998229980469,
                57.62710189819336
              ],
              [
                88.75521087646484,
                57.903804779052734
              ],
              [
                89.06349182128906,
                57.8345832824707
              ],
              [
                89.69869995117188,
                57.97305679321289
              ],
              [
                93.8438949584961,
                58.2503662109375
              ],
              [
                96.178466796875,
                58.59769821166992
              ],
              [
                98.4635009765625,
                59.08528518676758
              ],
              [
                100.77677154541016,
                59.36461639404297
              ],
              [
                102.83013153076172,
                59.434532165527344
              ],
              [
                109.38520812988281,
                60.628211975097656
              ],
              [
                109.77144622802734,
                60.83990478515625
              ],
              [
                109.97901916503906,
                60.76930236816406
              ],
              [
                113.64596557617188,
                61.40604019165039
              ],
              [
                117.39707946777344,
                61.547950744628906
              ],
              [
                117.32254028320312,
                61.47697448730469
              ],
              [
                119.37259674072266,
                61.40604019165039
              ],
              [
                119.4649658203125,
                61.40604019165039
              ],
              [
                125.78296661376953,
                61.193458557128906
              ],
              [
                125.70343780517578,
                61.12267303466797
              ]
            ]
          ]
        ]
      }
    }
  ]
}
