{
  "type": "FeatureCollection",
  "features": [
    {
      "type": "Feature",
      "properties": {
        "Name": "Jalayirid Sultanate",
        "FromYear": 1344,
        "ToYear": 1362,
        "Area": 503892.9269400275,
        "Type": "POLITY",
        "Wikipedia": "Jalayirid Sultanate",
        "Wikidata": "Q866716",
        "SeshatID": "ir_jayarid_khanate",
        "Components": "",
        "MemberOf": "",
        "displayYear": 1351,
        "sourceYear": 1351,
        "mappedTerritoryId": "cliopatria_jalayirid_sultanate"
      },
      "geometry": {
        "type": "Polygon",
        "coordinates": [
          [
            [
              50.856666564941406,
              35.58015823364258
            ],
            [
              50.25233840942383,
              35.194007873535156
            ],
            [
              49.2379150390625,
              35.12965774536133
            ],
            [
              48.340660095214844,
              35.32271194458008
            ],
            [
              48.1384162902832,
              35.51579284667969
            ],
            [
              47.36481857299805,
              35.51579284667969
            ],
            [
              46.25180435180664,
              35.837650299072266
            ],
            [
              45.78702163696289,
              35.837650299072266
            ],
            [
              45.350242614746094,
              36.03080368041992
            ],
            [
              45.37849426269531,
              36.2239875793457
            ],
            [
              45.09638595581055,
              36.417205810546875
            ],
            [
              45.056724548339844,
              36.67487716674805
            ],
            [
              44.910770416259766,
              36.73930740356445
            ],
            [
              44.86170959472656,
              36.932613372802734
            ],
            [
              44.210906982421875,
              36.73930740356445
            ],
            [
              43.781429290771484,
              36.9970588684082
            ],
            [
              42.84722137451172,
              36.9970588684082
            ],
            [
              41.4550895690918,
              36.48161697387695
            ],
            [
              41.30818176269531,
              36.5460319519043
            ],
            [
              41.213661193847656,
              36.417205810546875
            ],
            [
              41.058353424072266,
              36.417205810546875
            ],
            [
              40.51013946533203,
              35.12965774536133
            ],
            [
              40.54866027832031,
              34.80794906616211
            ],
            [
              40.7723274230957,
              34.743614196777344
            ],
            [
              40.96498489379883,
              34.42197799682617
            ],
            [
              41.04199981689453,
              34.42197799682617
            ],
            [
              41.426979064941406,
              33.77885055541992
            ],
            [
              41.86487579345703,
              33.5859489440918
            ],
            [
              42.064544677734375,
              33.32876968383789
            ],
            [
              42.578269958496094,
              33.13589859008789
            ],
            [
              42.708534240722656,
              32.94303894042969
            ],
            [
              43.152584075927734,
              32.81447219848633
            ],
            [
              44.459014892578125,
              31.593257904052734
            ],
            [
              44.44402313232422,
              31.464719772338867
            ],
            [
              44.657562255859375,
              31.336183547973633
            ],
            [
              44.63529586791992,
              31.143381118774414
            ],
            [
              44.79490280151367,
              31.20764923095703
            ],
            [
              45.39815139770508,
              30.500701904296875
            ],
            [
              45.55000686645508,
              30.500701904296875
            ],
            [
              46.09901428222656,
              29.986536026000977
            ],
            [
              46.53215789794922,
              29.79371452331543
            ],
            [
              46.58648681640625,
              29.600887298583984
            ],
            [
              46.74504852294922,
              29.665164947509766
            ],
            [
              46.868003845214844,
              29.40805435180664
            ],
            [
              47.10211944580078,
              29.472333908081055
            ],
            [
              47.383392333984375,
              29.279497146606445
            ],
            [
              47.45903015136719,
              29.279497146606445
            ],
            [
              47.570716857910156,
              29.600887298583984
            ],
            [
              48.069862365722656,
              29.986536026000977
            ],
            [
              48.14566421508789,
              29.986536026000977
            ],
            [
              48.903682708740234,
              29.986536026000977
            ],
            [
              49.034664154052734,
              30.436433792114258
            ],
            [
              49.04267883300781,
              30.500701904296875
            ],
            [
              49.34452438354492,
              31.079113006591797
            ],
            [
              49.691444396972656,
              31.40045166015625
            ],
            [
              49.990196228027344,
              31.91460609436035
            ],
            [
              50.41706848144531,
              32.23596954345703
            ],
            [
              50.43545150756836,
              32.36451721191406
            ],
            [
              50.759769439697266,
              32.493072509765625
            ],
            [
              50.91222381591797,
              33.00732421875
            ],
            [
              51.587974548339844,
              33.90746307373047
            ],
            [
              52.5175666809082,
              34.42197799682617
            ],
            [
              52.6374397277832,
              34.679283142089844
            ],
            [
              52.129798889160156,
              34.87228775024414
            ],
            [
              52.151302337646484,
              35.00096893310547
            ],
            [
              52.007659912109375,
              35.065311431884766
            ],
            [
              52.07279586791992,
              35.45143127441406
            ],
            [
              51.93999099731445,
              35.58015823364258
            ],
            [
              51.97303009033203,
              35.77327346801758
            ],
            [
              51.297855377197266,
              35.902034759521484
            ],
            [
              51.01142501831055,
              35.58015823364258
            ],
            [
              50.856666564941406,
              35.58015823364258
            ]
          ]
        ]
      }
    }
  ]
}
