{
  "type": "FeatureCollection",
  "features": [
    {
      "type": "Feature",
      "properties": {
        "Name": "Republic of China",
        "FromYear": 1948,
        "ToYear": 1948,
        "Area": 5972969.690985736,
        "Type": "POLITY",
        "Wikipedia": "Republic of China (1912-1949)",
        "Wikidata": "Q148",
        "SeshatID": "cn_chinese_rep",
        "Components": "",
        "MemberOf": "",
        "displayYear": 1948,
        "sourceYear": 1948,
        "mappedTerritoryId": "republic_of_china"
      },
      "geometry": {
        "type": "MultiPolygon",
        "coordinates": [
          [
            [
              [
                109.84064483642578,
                18.2219181060791
              ],
              [
                109.24968719482422,
                18.2219181060791
              ],
              [
                109.12333679199219,
                18.350492477416992
              ],
              [
                108.76459503173828,
                18.414779663085938
              ],
              [
                108.63818359375,
                18.543354034423828
              ],
              [
                108.70427703857422,
                19.379087448120117
              ],
              [
                109.20277404785156,
                19.700523376464844
              ],
              [
                109.2463607788086,
                19.95766830444336
              ],
              [
                110.15737915039062,
                20.08624267578125
              ],
              [
                110.59095001220703,
                20.021955490112305
              ],
              [
                110.613037109375,
                20.150527954101562
              ],
              [
                110.90947723388672,
                20.150527954101562
              ],
              [
                111.08741760253906,
                19.893383026123047
              ],
              [
                111.03193664550781,
                19.571949005126953
              ],
              [
                110.88386535644531,
                19.571949005126953
              ],
              [
                110.85066986083984,
                19.379087448120117
              ],
              [
                110.68057250976562,
                19.25051498413086
              ],
              [
                110.50775909423828,
                18.67193031311035
              ],
              [
                110.1902847290039,
                18.543354034423828
              ],
              [
                110.1794204711914,
                18.479066848754883
              ],
              [
                109.86219787597656,
                18.350492477416992
              ],
              [
                109.84064483642578,
                18.2219181060791
              ]
            ]
          ],
          [
            [
              [
                121.004150390625,
                22.529123306274414
              ],
              [
                120.88876342773438,
                21.950544357299805
              ],
              [
                120.66573333740234,
                21.950544357299805
              ],
              [
                120.59334564208984,
                22.33626365661621
              ],
              [
                120.4445571899414,
                22.33626365661621
              ],
              [
                120.19844818115234,
                22.59341049194336
              ],
              [
                120.1413345336914,
                23.043420791625977
              ],
              [
                120.00564575195312,
                23.107707977294922
              ],
              [
                120.12039184570312,
                23.30057144165039
              ],
              [
                120.1697998046875,
                23.879167556762695
              ],
              [
                120.34734344482422,
                24.00774574279785
              ],
              [
                120.5234375,
                24.457773208618164
              ],
              [
                120.9125747680664,
                24.843517303466797
              ],
              [
                120.95889282226562,
                25.03639030456543
              ],
              [
                121.47096252441406,
                25.29355812072754
              ],
              [
                121.77032470703125,
                25.29355812072754
              ],
              [
                122.00607299804688,
                25.03639030456543
              ],
              [
                121.55017852783203,
                23.36486053466797
              ],
              [
                121.53646850585938,
                23.30057144165039
              ],
              [
                121.38095092773438,
                22.914846420288086
              ],
              [
                121.004150390625,
                22.529123306274414
              ]
            ]
          ],
          [
            [
              [
                122.27982330322266,
                29.986536026000977
              ],
              [
                121.97661590576172,
                29.986536026000977
              ],
              [
                122.02213287353516,
                30.115081787109375
              ],
              [
                122.04503631591797,
                30.179353713989258
              ],
              [
                122.2725830078125,
                30.179353713989258
              ],
              [
                122.27982330322266,
                29.986536026000977
              ]
            ]
          ],
          [
            [
              [
                90.38095092773438,
                45.56227111816406
              ],
              [
                90.57553100585938,
                45.62776184082031
              ],
              [
                90.65704345703125,
                45.62776184082031
              ],
              [
                90.59378051757812,
                45.496795654296875
              ],
              [
                90.74337005615234,
                45.300437927246094
              ],
              [
                90.90606689453125,
                45.300437927246094
              ],
              [
                91.00562286376953,
                45.169586181640625
              ],
              [
                91.78665924072266,
                45.10417556762695
              ],
              [
                91.7549057006836,
                45.03877639770508
              ],
              [
                93.59053802490234,
                44.973392486572266
              ],
              [
                93.55815887451172,
                44.908016204833984
              ],
              [
                93.80162811279297,
                44.908016204833984
              ],
              [
                93.94771575927734,
                44.71194839477539
              ],
              [
                94.45006561279297,
                44.58129119873047
              ],
              [
                94.41761016845703,
                44.5159797668457
              ],
              [
                94.57954406738281,
                44.5159797668457
              ],
              [
                94.54708099365234,
                44.45067596435547
              ],
              [
                94.70895385742188,
                44.45067596435547
              ],
              [
                94.80583190917969,
                44.32010269165039
              ],
              [
                95.3393325805664,
                44.25482940673828
              ],
              [
                95.32258605957031,
                44.05907440185547
              ],
              [
                95.53234100341797,
                43.99384307861328
              ],
              [
                95.773681640625,
                43.6678352355957
              ],
              [
                95.70925903320312,
                43.53750228881836
              ],
              [
                95.83810424804688,
                43.472347259521484
              ],
              [
                95.77397918701172,
                43.342071533203125
              ],
              [
                95.870849609375,
                43.211830139160156
              ],
              [
                96.03155517578125,
                43.211830139160156
              ],
              [
                96.0480728149414,
                43.08163070678711
              ],
              [
                96.20865631103516,
                43.08163070678711
              ],
              [
                96.3221664428711,
                42.82133865356445
              ],
              [
                96.48251342773438,
                42.82133865356445
              ],
              [
                96.57940673828125,
                42.691246032714844
              ],
              [
                97.7331314086914,
                42.75628662109375
              ],
              [
                97.7010269165039,
                42.691246032714844
              ],
              [
                98.18172454833984,
                42.691246032714844
              ],
              [
                98.14952087402344,
                42.62621307373047
              ],
              [
                98.95038604736328,
                42.62621307373047
              ],
              [
                98.91797637939453,
                42.56119155883789
              ],
              [
                101.55985260009766,
                42.56119155883789
              ],
              [
                101.52655792236328,
                42.496177673339844
              ],
              [
                101.81334686279297,
                42.43117141723633
              ],
              [
                101.826904296875,
                42.30118942260742
              ],
              [
                102.31999969482422,
                42.17123794555664
              ],
              [
                102.2868881225586,
                42.10627746582031
              ],
              [
                103.25830078125,
                41.97637939453125
              ],
              [
                103.22509002685547,
                41.911441802978516
              ],
              [
                103.75015258789062,
                41.84651184082031
              ],
              [
                103.7169418334961,
                41.781593322753906
              ],
              [
                104.46781158447266,
                41.84651184082031
              ],
              [
                104.5270004272461,
                41.65177917480469
              ],
              [
                104.84561157226562,
                41.65177917480469
              ],
              [
                104.81227111816406,
                41.586883544921875
              ],
              [
                105.81177520751953,
                41.97637939453125
              ],
              [
                106.40858459472656,
                41.132843017578125
              ],
              [
                106.29048156738281,
                40.74397277832031
              ],
              [
                107.05035400390625,
                40.6791877746582
              ],
              [
                107.01765441894531,
                40.614410400390625
              ],
              [
                107.17607879638672,
                40.614410400390625
              ],
              [
                107.14344024658203,
                40.54964065551758
              ],
              [
                107.30181121826172,
                40.54964065551758
              ],
              [
                107.26923370361328,
                40.4848747253418
              ],
              [
                107.42755126953125,
                40.4848747253418
              ],
              [
                107.39503479003906,
                40.42012023925781
              ],
              [
                107.55329895019531,
                40.42012023925781
              ],
              [
                107.64665985107422,
                40.29063034057617
              ],
              [
                107.53367614746094,
                39.90232849121094
              ],
              [
                107.25035095214844,
                39.64360046386719
              ],
              [
                107.44159698486328,
                39.38497543334961
              ],
              [
                107.64695739746094,
                39.320335388183594
              ],
              [
                107.28584289550781,
                38.54513168334961
              ],
              [
                107.4915771484375,
                38.48057174682617
              ],
              [
                107.40830993652344,
                37.7707405090332
              ],
              [
                107.4864273071289,
                37.7707405090332
              ],
              [
                107.4234619140625,
                37.44829177856445
              ],
              [
                107.50146484375,
                37.44829177856445
              ],
              [
                107.3901596069336,
                37.1904182434082
              ],
              [
                107.46807861328125,
                37.1904182434082
              ],
              [
                107.4827651977539,
                36.67487716674805
              ],
              [
                108.20257568359375,
                36.3527946472168
              ],
              [
                108.22660827636719,
                36.2239875793457
              ],
              [
                108.38179016113281,
                36.2239875793457
              ],
              [
                108.5344467163086,
                36.03080368041992
              ],
              [
                108.37547302246094,
                35.258358001708984
              ],
              [
                109.35618591308594,
                35.58015823364258
              ],
              [
                109.97522735595703,
                35.58015823364258
              ],
              [
                109.999755859375,
                35.45143127441406
              ],
              [
                110.15443420410156,
                35.45143127441406
              ],
              [
                110.15286254882812,
                35.258358001708984
              ],
              [
                110.23014068603516,
                35.258358001708984
              ],
              [
                110.15182495117188,
                35.065311431884766
              ],
              [
                109.6627197265625,
                34.80794906616211
              ],
              [
                109.61163330078125,
                34.679283142089844
              ],
              [
                109.74136352539062,
                34.42197799682617
              ],
              [
                110.9742431640625,
                34.22901916503906
              ],
              [
                111.00059509277344,
                34.10039138793945
              ],
              [
                112.5393295288086,
                33.90746307373047
              ],
              [
                112.59030151367188,
                34.03607940673828
              ],
              [
                112.48770141601562,
                34.164703369140625
              ],
              [
                113.23755645751953,
                34.87228775024414
              ],
              [
                113.98568725585938,
                35.00096893310547
              ],
              [
                114.3948974609375,
                34.87228775024414
              ],
              [
                114.74748229980469,
                34.42197799682617
              ],
              [
                115.1300048828125,
                34.22901916503906
              ],
              [
                115.59467315673828,
                34.42197799682617
              ],
              [
                116.1968994140625,
                34.93662643432617
              ],
              [
                116.8143081665039,
                34.93662643432617
              ],
              [
                117.00260162353516,
                35.194007873535156
              ],
              [
                119.2031021118164,
                35.45143127441406
              ],
              [
                119.29229736328125,
                36.15959167480469
              ],
              [
                119.92516326904297,
                36.3527946472168
              ],
              [
                119.98554229736328,
                36.48161697387695
              ],
              [
                119.89085388183594,
                36.61045455932617
              ],
              [
                120.13813781738281,
                36.80373764038086
              ],
              [
                120.44927215576172,
                36.80373764038086
              ],
              [
                120.59033203125,
                36.61045455932617
              ],
              [
                120.97892761230469,
                36.61045455932617
              ],
              [
                120.9482421875,
                36.5460319519043
              ],
              [
                121.02593994140625,
                36.5460319519043
              ],
              [
                120.96481323242188,
                36.417205810546875
              ],
              [
                120.73184967041016,
                36.417205810546875
              ],
              [
                120.65852355957031,
                36.09519577026367
              ],
              [
                120.31848907470703,
                36.03080368041992
              ],
              [
                119.98648071289062,
                35.644527435302734
              ],
              [
                119.61874389648438,
                35.51579284667969
              ],
              [
                119.22760772705078,
                34.80794906616211
              ],
              [
                119.45901489257812,
                34.80794906616211
              ],
              [
                119.43090057373047,
                34.743614196777344
              ],
              [
                119.71125030517578,
                34.679283142089844
              ],
              [
                119.73230743408203,
                34.55062484741211
              ],
              [
                120.3418197631836,
                34.3576545715332
              ],
              [
                120.48936462402344,
                34.164703369140625
              ],
              [
                120.55045318603516,
                33.5859489440918
              ],
              [
                120.92630004882812,
                33.20018768310547
              ],
              [
                120.91920471191406,
                32.62162780761719
              ],
              [
                121.40264892578125,
                32.493072509765625
              ],
              [
                121.50330352783203,
                32.171695709228516
              ],
              [
                121.9613265991211,
                31.978878021240234
              ],
              [
                121.93677520751953,
                31.7217960357666
              ],
              [
                121.83556365966797,
                31.65752601623535
              ],
              [
                121.96309661865234,
                31.593257904052734
              ],
              [
                121.91353607177734,
                31.464719772338867
              ],
              [
                121.58425903320312,
                31.40045166015625
              ],
              [
                121.73657989501953,
                31.40045166015625
              ],
              [
                121.99526977539062,
                31.079113006591797
              ],
              [
                121.89926147460938,
                30.822044372558594
              ],
              [
                121.51921844482422,
                30.822044372558594
              ],
              [
                121.19719696044922,
                30.564971923828125
              ],
              [
                121.04530334472656,
                30.564971923828125
              ],
              [
                120.67976379394531,
                30.179353713989258
              ],
              [
                120.80880737304688,
                30.115081787109375
              ],
              [
                121.10469055175781,
                30.307893753051758
              ],
              [
                121.48409271240234,
                30.307893753051758
              ],
              [
                121.6202392578125,
                30.050809860229492
              ],
              [
                122.02978515625,
                29.922264099121094
              ],
              [
                121.864501953125,
                29.665164947509766
              ],
              [
                122.01595306396484,
                29.665164947509766
              ],
              [
                121.93843078613281,
                29.21521759033203
              ],
              [
                121.71156311035156,
                29.21521759033203
              ],
              [
                121.74463653564453,
                29.536611557006836
              ],
              [
                121.57134246826172,
                29.472333908081055
              ],
              [
                121.64702606201172,
                29.472333908081055
              ],
              [
                121.53888702392578,
                29.150936126708984
              ],
              [
                121.74431610107422,
                29.08665657043457
              ],
              [
                121.7143325805664,
                28.765243530273438
              ],
              [
                121.52177429199219,
                28.636676788330078
              ],
              [
                121.65211486816406,
                28.572391510009766
              ],
              [
                121.64590454101562,
                28.315250396728516
              ],
              [
                121.15326690673828,
                28.186676025390625
              ],
              [
                121.1933822631836,
                28.315250396728516
              ],
              [
                121.11795806884766,
                28.315250396728516
              ],
              [
                121.03816223144531,
                28.058101654052734
              ],
              [
                120.86773681640625,
                27.993812561035156
              ],
              [
                120.71461486816406,
                27.736658096313477
              ],
              [
                120.65725708007812,
                27.54378890991211
              ],
              [
                120.73251342773438,
                27.54378890991211
              ],
              [
                120.54503631591797,
                27.158044815063477
              ],
              [
                120.39466857910156,
                27.158044815063477
              ],
              [
                120.24666595458984,
                26.900876998901367
              ],
              [
                120.09639739990234,
                26.900876998901367
              ],
              [
                120.06058502197266,
                26.772293090820312
              ],
              [
                120.21080017089844,
                26.772293090820312
              ],
              [
                120.1576919555664,
                26.57941436767578
              ],
              [
                119.83992767333984,
                26.515121459960938
              ],
              [
                119.93810272216797,
                26.32224464416504
              ],
              [
                119.5870132446289,
                26.129364013671875
              ],
              [
                119.77836608886719,
                26.000778198242188
              ],
              [
                119.52989959716797,
                25.615020751953125
              ],
              [
                119.90438079833984,
                25.615020751953125
              ],
              [
                119.87213897705078,
                25.48643684387207
              ],
              [
                119.46599578857422,
                25.357851028442383
              ],
              [
                119.42289733886719,
                25.48643684387207
              ],
              [
                119.27314758300781,
                25.48643684387207
              ],
              [
                119.39114379882812,
                25.357851028442383
              ],
              [
                119.34419250488281,
                25.164974212646484
              ],
              [
                119.02947998046875,
                25.100683212280273
              ],
              [
                119.07367706298828,
                24.97209930419922
              ],
              [
                118.8191146850586,
                24.843517303466797
              ],
              [
                118.75972747802734,
                24.586353302001953
              ],
              [
                118.14736938476562,
                24.522062301635742
              ],
              [
                118.07573699951172,
                24.200613021850586
              ],
              [
                117.72126770019531,
                23.943456649780273
              ],
              [
                117.69377136230469,
                23.814878463745117
              ],
              [
                117.46995544433594,
                23.814878463745117
              ],
              [
                117.1788330078125,
                23.493436813354492
              ],
              [
                116.8938980102539,
                23.557723999023438
              ],
              [
                116.7796401977539,
                23.36486053466797
              ],
              [
                116.81497955322266,
                23.171995162963867
              ],
              [
                116.59144592285156,
                23.171995162963867
              ],
              [
                116.54004669189453,
                22.914846420288086
              ],
              [
                115.69562530517578,
                22.786272048950195
              ],
              [
                115.67061614990234,
                22.657697677612305
              ],
              [
                115.37285614013672,
                22.657697677612305
              ],
              [
                115.17442321777344,
                22.786272048950195
              ],
              [
                114.90156555175781,
                22.529123306274414
              ],
              [
                114.75272369384766,
                22.529123306274414
              ],
              [
                114.64081573486328,
                22.72198486328125
              ],
              [
                114.61614990234375,
                22.59341049194336
              ],
              [
                114.6038818359375,
                22.529123306274414
              ],
              [
                114.31842803955078,
                22.59341049194336
              ],
              [
                113.99634552001953,
                22.46483612060547
              ],
              [
                113.92193603515625,
                22.46483612060547
              ],
              [
                113.78524017333984,
                22.529123306274414
              ],
              [
                113.7474365234375,
                22.72198486328125
              ],
              [
                113.59854125976562,
                22.72198486328125
              ],
              [
                113.69869995117188,
                22.46483612060547
              ],
              [
                113.68661499023438,
                22.400548934936523
              ],
              [
                113.4513931274414,
                22.33626365661621
              ],
              [
                113.41557312011719,
                22.143402099609375
              ],
              [
                113.4037094116211,
                22.079116821289062
              ],
              [
                113.10626220703125,
                22.079116821289062
              ],
              [
                113.07096862792969,
                21.88625717163086
              ],
              [
                112.77362823486328,
                21.88625717163086
              ],
              [
                112.44146728515625,
                21.693397521972656
              ],
              [
                111.85850524902344,
                21.7576847076416
              ],
              [
                111.6640625,
                21.500539779663086
              ],
              [
                110.98419189453125,
                21.43625259399414
              ],
              [
                110.73885345458984,
                21.307680130004883
              ],
              [
                110.71642303466797,
                21.179107666015625
              ],
              [
                110.41944885253906,
                21.179107666015625
              ],
              [
                110.48252868652344,
                21.114822387695312
              ],
              [
                110.36384582519531,
                20.857677459716797
              ],
              [
                110.61627197265625,
                20.60053253173828
              ],
              [
                110.5720443725586,
                20.343387603759766
              ],
              [
                110.0311279296875,
                20.214815139770508
              ],
              [
                109.88289642333984,
                20.214815139770508
              ],
              [
                109.9267807006836,
                20.471960067749023
              ],
              [
                109.7894515991211,
                20.53624725341797
              ],
              [
                109.7702407836914,
                20.857677459716797
              ],
              [
                109.69603729248047,
                20.857677459716797
              ],
              [
                109.87005615234375,
                21.43625259399414
              ],
              [
                109.80696105957031,
                21.500539779663086
              ],
              [
                109.11621856689453,
                21.371967315673828
              ],
              [
                109.08638000488281,
                21.629112243652344
              ],
              [
                108.65169525146484,
                21.693397521972656
              ],
              [
                108.55519104003906,
                21.5648250579834
              ],
              [
                108.17271423339844,
                21.500539779663086
              ],
              [
                108.09842681884766,
                21.500539779663086
              ],
              [
                107.97187042236328,
                21.629112243652344
              ],
              [
                107.58939361572266,
                21.5648250579834
              ],
              [
                107.4627456665039,
                21.693397521972656
              ],
              [
                107.23982238769531,
                21.693397521972656
              ],
              [
                106.71125030517578,
                22.079116821289062
              ],
              [
                106.60701751708984,
                22.33626365661621
              ],
              [
                106.77223205566406,
                22.85055923461914
              ],
              [
                106.70928955078125,
                22.914846420288086
              ],
              [
                106.32543182373047,
                22.85055923461914
              ],
              [
                106.19947814941406,
                22.97913360595703
              ],
              [
                105.75257110595703,
                22.97913360595703
              ],
              [
                105.43790435791016,
                23.30057144165039
              ],
              [
                105.21431732177734,
                23.30057144165039
              ],
              [
                104.95609283447266,
                23.107707977294922
              ],
              [
                104.83610534667969,
                22.85055923461914
              ],
              [
                104.51583099365234,
                22.72198486328125
              ],
              [
                104.15472412109375,
                22.786272048950195
              ],
              [
                104.0359878540039,
                22.529123306274414
              ],
              [
                103.88714599609375,
                22.529123306274414
              ],
              [
                103.77134704589844,
                22.72198486328125
              ],
              [
                103.32465362548828,
                22.72198486328125
              ],
              [
                103.21734619140625,
                22.529123306274414
              ],
              [
                102.91966247558594,
                22.529123306274414
              ],
              [
                102.86701202392578,
                22.657697677612305
              ],
              [
                102.58016967773438,
                22.72198486328125
              ],
              [
                102.15396881103516,
                22.400548934936523
              ],
              [
                101.71820831298828,
                22.46483612060547
              ],
              [
                101.64425659179688,
                22.014829635620117
              ],
              [
                101.87920379638672,
                21.629112243652344
              ],
              [
                101.80736541748047,
                21.179107666015625
              ],
              [
                101.3619155883789,
                21.179107666015625
              ],
              [
                101.31816864013672,
                21.371967315673828
              ],
              [
                101.17981719970703,
                21.43625259399414
              ],
              [
                101.15673828125,
                21.7576847076416
              ],
              [
                100.74431610107422,
                21.500539779663086
              ],
              [
                100.22432708740234,
                21.500539779663086
              ],
              [
                100.03181457519531,
                21.693397521972656
              ],
              [
                100.07260131835938,
                21.950544357299805
              ],
              [
                99.94442749023438,
                22.079116821289062
              ],
              [
                99.28540802001953,
                22.143402099609375
              ],
              [
                99.57035827636719,
                22.97913360595703
              ],
              [
                98.94291687011719,
                23.236284255981445
              ],
              [
                98.87066650390625,
                23.68630027770996
              ],
              [
                98.7326431274414,
                23.75058937072754
              ],
              [
                98.8753662109375,
                24.136323928833008
              ],
              [
                97.64704895019531,
                23.943456649780273
              ],
              [
                97.78995513916016,
                24.329193115234375
              ],
              [
                97.58908081054688,
                24.457773208618164
              ],
              [
                97.64815521240234,
                24.779226303100586
              ],
              [
                97.82181549072266,
                24.907808303833008
              ],
              [
                97.87094116210938,
                25.164974212646484
              ],
              [
                98.13310241699219,
                25.357851028442383
              ],
              [
                98.17144775390625,
                25.55072784423828
              ],
              [
                98.67317199707031,
                25.807899475097656
              ],
              [
                98.83740234375,
                26.57941436767578
              ],
              [
                98.7623291015625,
                26.57941436767578
              ],
              [
                98.81936645507812,
                26.836584091186523
              ],
              [
                98.74424743652344,
                26.836584091186523
              ],
              [
                98.81714630126953,
                27.158044815063477
              ],
              [
                98.74195861816406,
                27.158044815063477
              ],
              [
                98.74139404296875,
                27.4794979095459
              ],
              [
                98.56119537353516,
                27.6723690032959
              ],
              [
                98.26004791259766,
                27.6723690032959
              ],
              [
                98.15814971923828,
                28.186676025390625
              ],
              [
                97.97955322265625,
                28.379535675048828
              ],
              [
                97.55886840820312,
                28.508106231689453
              ],
              [
                97.4198989868164,
                28.25096321105957
              ],
              [
                96.86382293701172,
                28.44382095336914
              ],
              [
                96.3954086303711,
                28.379535675048828
              ],
              [
                96.3673095703125,
                28.572391510009766
              ],
              [
                96.64185333251953,
                28.765243530273438
              ],
              [
                96.61506652832031,
                28.958093643188477
              ],
              [
                96.25357818603516,
                29.022375106811523
              ],
              [
                96.31958770751953,
                29.279497146606445
              ],
              [
                96.20170593261719,
                29.40805435180664
              ],
              [
                95.89904022216797,
                29.40805435180664
              ],
              [
                95.43846130371094,
                29.08665657043457
              ],
              [
                94.57997131347656,
                29.279497146606445
              ],
              [
                93.92314910888672,
                28.765243530273438
              ],
              [
                93.45452117919922,
                28.700960159301758
              ],
              [
                93.18201446533203,
                28.508106231689453
              ],
              [
                93.01691436767578,
                28.765243530273438
              ],
              [
                92.79035949707031,
                28.765243530273438
              ],
              [
                92.6102523803711,
                28.958093643188477
              ],
              [
                92.4591293334961,
                28.958093643188477
              ],
              [
                92.5061264038086,
                29.150936126708984
              ],
              [
                92.74879455566406,
                29.21521759033203
              ],
              [
                92.78070831298828,
                29.34377670288086
              ],
              [
                92.64543914794922,
                29.40805435180664
              ],
              [
                92.63455200195312,
                29.665164947509766
              ],
              [
                92.40737915039062,
                29.665164947509766
              ],
              [
                92.43058013916016,
                30.050809860229492
              ],
              [
                92.3547592163086,
                30.050809860229492
              ],
              [
                92.42206573486328,
                30.307893753051758
              ],
              [
                92.5738296508789,
                30.307893753051758
              ],
              [
                92.60796356201172,
                30.436433792114258
              ],
              [
                92.41455078125,
                30.564971923828125
              ],
              [
                92.466552734375,
                30.757776260375977
              ],
              [
                92.3320083618164,
                30.822044372558594
              ],
              [
                92.26805114746094,
                31.143381118774414
              ],
              [
                92.13365936279297,
                31.20764923095703
              ],
              [
                92.16942596435547,
                31.336183547973633
              ],
              [
                92.03509521484375,
                31.40045166015625
              ],
              [
                92.03134155273438,
                31.65752601623535
              ],
              [
                91.79962921142578,
                31.91460609436035
              ],
              [
                91.79750061035156,
                32.171695709228516
              ],
              [
                91.24246215820312,
                32.36451721191406
              ],
              [
                91.29891204833984,
                32.557350158691406
              ],
              [
                91.54732513427734,
                32.62162780761719
              ],
              [
                91.68124389648438,
                32.81447219848633
              ],
              [
                91.77821350097656,
                33.13589859008789
              ],
              [
                91.62677764892578,
                33.393062591552734
              ],
              [
                91.686279296875,
                33.5859489440918
              ],
              [
                91.26542663574219,
                33.71455001831055
              ],
              [
                91.21202850341797,
                34.03607940673828
              ],
              [
                90.94117736816406,
                33.90746307373047
              ],
              [
                90.34617614746094,
                33.971771240234375
              ],
              [
                89.83432006835938,
                34.55062484741211
              ],
              [
                90.07548522949219,
                35.065311431884766
              ],
              [
                89.96256256103516,
                35.194007873535156
              ],
              [
                90.04627227783203,
                35.45143127441406
              ],
              [
                89.89159393310547,
                35.45143127441406
              ],
              [
                89.91992950439453,
                35.77327346801758
              ],
              [
                89.84249114990234,
                35.77327346801758
              ],
              [
                90.14807891845703,
                36.2239875793457
              ],
              [
                89.98067474365234,
                36.417205810546875
              ],
              [
                89.71379852294922,
                36.5460319519043
              ],
              [
                88.66944122314453,
                36.67487716674805
              ],
              [
                87.24166870117188,
                36.3527946472168
              ],
              [
                86.79684448242188,
                36.417205810546875
              ],
              [
                86.5221176147461,
                36.28839111328125
              ],
              [
                86.24337005615234,
                35.902034759521484
              ],
              [
                85.89291381835938,
                35.77327346801758
              ],
              [
                85.70098114013672,
                35.902034759521484
              ],
              [
                85.00362396240234,
                35.902034759521484
              ],
              [
                84.63399505615234,
                35.708900451660156
              ],
              [
                83.87940216064453,
                35.77327346801758
              ],
              [
                83.27902221679688,
                35.58015823364258
              ],
              [
                82.81473541259766,
                35.58015823364258
              ],
              [
                82.73713684082031,
                35.837650299072266
              ],
              [
                82.34982299804688,
                35.837650299072266
              ],
              [
                82.0219497680664,
                35.51579284667969
              ],
              [
                81.67485809326172,
                35.38706970214844
              ],
              [
                81.48043060302734,
                35.51579284667969
              ],
              [
                80.22421264648438,
                35.45143127441406
              ],
              [
                80.1468734741211,
                35.45143127441406
              ],
              [
                79.73794555664062,
                35.644527435302734
              ],
              [
                79.44332122802734,
                35.9664192199707
              ],
              [
                78.97828674316406,
                35.9664192199707
              ],
              [
                78.47664642333984,
                35.837650299072266
              ],
              [
                78.42212677001953,
                35.644527435302734
              ],
              [
                78.09453582763672,
                35.58015823364258
              ],
              [
                77.98138427734375,
                35.45143127441406
              ],
              [
                77.51734924316406,
                35.45143127441406
              ],
              [
                77.64811706542969,
                35.644527435302734
              ],
              [
                77.58860778808594,
                35.708900451660156
              ],
              [
                76.92737579345703,
                35.837650299072266
              ],
              [
                76.8081283569336,
                35.9664192199707
              ],
              [
                76.80255126953125,
                36.2239875793457
              ],
              [
                76.27738952636719,
                36.28839111328125
              ],
              [
                76.23583221435547,
                36.417205810546875
              ],
              [
                76.02091979980469,
                36.48161697387695
              ],
              [
                76.00286865234375,
                36.417205810546875
              ],
              [
                75.7826156616211,
                36.73930740356445
              ],
              [
                75.41193389892578,
                36.80373764038086
              ],
              [
                75.31097412109375,
                36.9970588684082
              ],
              [
                74.55056762695312,
                37.06150817871094
              ],
              [
                74.58694458007812,
                37.1904182434082
              ],
              [
                74.91697692871094,
                37.254878997802734
              ],
              [
                75.0504379272461,
                37.44829177856445
              ],
              [
                74.9724349975586,
                37.44829177856445
              ],
              [
                75.0284423828125,
                37.641746520996094
              ],
              [
                74.86949920654297,
                37.89975357055664
              ],
              [
                74.8675537109375,
                38.157840728759766
              ],
              [
                74.78929138183594,
                38.157840728759766
              ],
              [
                74.86648559570312,
                38.416015625
              ],
              [
                74.47406005859375,
                38.67427444458008
              ],
              [
                74.1602554321289,
                38.67427444458008
              ],
              [
                73.96465301513672,
                38.54513168334961
              ],
              [
                73.76799774169922,
                38.67427444458008
              ],
              [
                73.78703308105469,
                38.997230529785156
              ],
              [
                73.61043548583984,
                39.19107437133789
              ],
              [
                73.7104263305664,
                39.51427459716797
              ],
              [
                73.88824462890625,
                39.57893371582031
              ],
              [
                73.93253326416016,
                39.9670295715332
              ],
              [
                74.46929931640625,
                40.16116714477539
              ],
              [
                74.89260864257812,
                40.4848747253418
              ],
              [
                75.18754577636719,
                40.42012023925781
              ],
              [
                75.49051666259766,
                40.614410400390625
              ],
              [
                75.6489486694336,
                40.614410400390625
              ],
              [
                75.64057159423828,
                40.355369567871094
              ],
              [
                75.77702331542969,
                40.29063034057617
              ],
              [
                76.27342987060547,
                40.355369567871094
              ],
              [
                76.45368957519531,
                40.42012023925781
              ],
              [
                76.89373016357422,
                41.00318908691406
              ],
              [
                78.02827453613281,
                41.06801223754883
              ],
              [
                78.77457427978516,
                41.586883544921875
              ],
              [
                80.14240264892578,
                42.041324615478516
              ],
              [
                80.19259643554688,
                42.17123794555664
              ],
              [
                80.64276123046875,
                42.30118942260742
              ],
              [
                80.77716827392578,
                42.236209869384766
              ],
              [
                81.8677749633789,
                42.36617660522461
              ],
              [
                81.91825866699219,
                42.691246032714844
              ],
              [
                82.95976257324219,
                42.691246032714844
              ],
              [
                83.46802520751953,
                42.95146560668945
              ],
              [
                83.62849426269531,
                42.95146560668945
              ],
              [
                83.57440185546875,
                42.82133865356445
              ],
              [
                83.89509582519531,
                42.82133865356445
              ],
              [
                84.10989379882812,
                42.95146560668945
              ],
              [
                84.78866577148438,
                43.6026611328125
              ],
              [
                84.94973754882812,
                43.6026611328125
              ],
              [
                85.42444610595703,
                44.32010269165039
              ],
              [
                85.61510467529297,
                44.38538360595703
              ],
              [
                85.67308044433594,
                44.5159797668457
              ],
              [
                85.54015350341797,
                44.58129119873047
              ],
              [
                85.73780822753906,
                44.842647552490234
              ],
              [
                85.55286407470703,
                44.973392486572266
              ],
              [
                85.61148834228516,
                45.10417556762695
              ],
              [
                85.45574951171875,
                45.300437927246094
              ],
              [
                86.1094741821289,
                46.02093505859375
              ],
              [
                87.51875305175781,
                45.889827728271484
              ],
              [
                87.48814392089844,
                45.82429504394531
              ],
              [
                87.73296356201172,
                45.82429504394531
              ],
              [
                87.52926635742188,
                45.56227111816406
              ],
              [
                88.39478302001953,
                45.496795654296875
              ],
              [
                88.47622680664062,
                45.496795654296875
              ],
              [
                90.17393493652344,
                45.300437927246094
              ],
              [
                90.38095092773438,
                45.56227111816406
              ]
            ]
          ],
          [
            [
              [
                114.70158386230469,
                35.77327346801758
              ],
              [
                114.41361236572266,
                35.644527435302734
              ],
              [
                114.41973114013672,
                35.837650299072266
              ],
              [
                114.34226989746094,
                35.837650299072266
              ],
              [
                114.68734741210938,
                36.09519577026367
              ],
              [
                114.70158386230469,
                35.77327346801758
              ]
            ]
          ],
          [
            [
              [
                117.6894302368164,
                39.70827102661133
              ],
              [
                117.62044525146484,
                39.57893371582031
              ],
              [
                117.75407409667969,
                39.38497543334961
              ],
              [
                117.95616149902344,
                39.320335388183594
              ],
              [
                117.88837432861328,
                39.19107437133789
              ],
              [
                117.85466003417969,
                39.1264533996582
              ],
              [
                117.57643127441406,
                38.738853454589844
              ],
              [
                117.6549072265625,
                38.738853454589844
              ],
              [
                117.635009765625,
                38.54513168334961
              ],
              [
                117.60245513916016,
                38.48057174682617
              ],
              [
                117.17823028564453,
                38.416015625
              ],
              [
                116.97177124023438,
                38.157840728759766
              ],
              [
                116.62706756591797,
                38.09331130981445
              ],
              [
                116.44103240966797,
                38.351463317871094
              ],
              [
                116.43191528320312,
                38.80344009399414
              ],
              [
                116.02619171142578,
                38.93262481689453
              ],
              [
                115.93473815917969,
                39.06184005737305
              ],
              [
                116.01071166992188,
                39.51427459716797
              ],
              [
                115.23500061035156,
                39.38497543334961
              ],
              [
                114.81564331054688,
                38.8680305480957
              ],
              [
                113.84143829345703,
                38.80344009399414
              ],
              [
                114.27774047851562,
                39.51427459716797
              ],
              [
                114.68187713623047,
                39.8376350402832
              ],
              [
                113.79258728027344,
                39.64360046386719
              ],
              [
                113.82589721679688,
                39.70827102661133
              ],
              [
                113.66820526123047,
                39.70827102661133
              ],
              [
                113.5772933959961,
                39.8376350402832
              ],
              [
                113.85970306396484,
                40.225894927978516
              ],
              [
                115.64407348632812,
                40.74397277832031
              ],
              [
                115.96114349365234,
                40.74397277832031
              ],
              [
                116.45366668701172,
                41.19768524169922
              ],
              [
                116.85671997070312,
                41.06801223754883
              ],
              [
                116.98502349853516,
                40.873565673828125
              ],
              [
                117.33893585205078,
                40.93837356567383
              ],
              [
                117.20020294189453,
                40.54964065551758
              ],
              [
                117.35858154296875,
                40.54964065551758
              ],
              [
                117.45270538330078,
                40.29063034057617
              ],
              [
                117.68994903564453,
                40.29063034057617
              ],
              [
                117.69786071777344,
                40.16116714477539
              ],
              [
                117.6624755859375,
                40.0964469909668
              ],
              [
                117.56636810302734,
                39.77294921875
              ],
              [
                117.6894302368164,
                39.70827102661133
              ]
            ]
          ],
          [
            [
              [
                123.7253646850586,
                41.911441802978516
              ],
              [
                123.36597442626953,
                41.84651184082031
              ],
              [
                123.44672393798828,
                41.97637939453125
              ],
              [
                123.2871322631836,
                41.97637939453125
              ],
              [
                123.44807434082031,
                42.10627746582031
              ],
              [
                123.5279312133789,
                42.10627746582031
              ],
              [
                123.808349609375,
                42.17123794555664
              ],
              [
                123.7253646850586,
                41.911441802978516
              ]
            ]
          ],
          [
            [
              [
                126.36194610595703,
                43.146724700927734
              ],
              [
                125.91731262207031,
                43.08163070678711
              ],
              [
                126.04666900634766,
                43.276947021484375
              ],
              [
                126.0899887084961,
                43.342071533203125
              ],
              [
                126.45518493652344,
                43.407203674316406
              ],
              [
                126.36194610595703,
                43.146724700927734
              ]
            ]
          ]
        ]
      }
    }
  ]
}
