{"type": "FeatureCollection", "features": [{"type": "Feature", "properties": {"name": "Kingdom of León", "displayYear": 1000, "fromYear": 990, "toYear": 1009, "wikipedia": "Kingdom of León", "seshatId": "es_leon_k", "areaKm2": 132744.41822457046, "source": "Seshat Cliopatria"}, "geometry": {"type": "Polygon", "coordinates": [[[-5.726631164550781, 43.53750228881836], [-7.175715446472168, 43.53750228881836], [-7.343485832214355, 43.6026611328125], [-7.276463031768799, 43.73301696777344], [-8.243616104125977, 43.73301696777344], [-8.39044189453125, 43.6026611328125], [-8.369025230407715, 43.407203674316406], [-8.851689338684082, 43.407203674316406], [-9.158673286437988, 43.276947021484375], [-9.30460262298584, 43.146724700927734], [-9.275152206420898, 42.88639831542969], [-9.100251197814941, 42.75628662109375], [-9.078654289245605, 42.56119155883789], [-8.65738296508789, 42.36617660522461], [-8.956093788146973, 42.17123794555664], [-8.740129470825195, 40.873565673828125], [-8.73353099822998, 40.80876541137695], [-8.25776195526123, 40.80876541137695], [-7.873907566070557, 40.93837356567383], [-7.23301362991333, 40.873565673828125], [-7.220865726470947, 40.74397277832031], [-6.886032104492188, 40.54964065551758], [-6.789322853088379, 40.355369567871094], [-6.472893238067627, 40.355369567871094], [-6.405184268951416, 40.4848747253418], [-6.094161033630371, 40.54964065551758], [-5.913626670837402, 40.29063034057617], [-5.602712154388428, 40.355369567871094], [-5.333653450012207, 39.9670295715332], [-5.017851829528809, 39.9670295715332], [-4.707091808319092, 40.031734466552734], [-4.717220783233643, 40.16116714477539], [-4.480135440826416, 40.16116714477539], [-4.035295486450195, 40.54964065551758], [-3.8769211769104, 40.54964065551758], [-3.728225946426392, 40.6791877746582], [-3.742851734161377, 40.873565673828125], [-4.508909225463867, 41.521995544433594], [-4.455811977386475, 41.84651184082031], [-4.157865047454834, 42.10627746582031], [-4.20598316192627, 42.691246032714844], [-4.286098957061768, 42.691246032714844], [-4.427267551422119, 43.407203674316406], [-4.507711410522461, 43.407203674316406], [-5.646126270294189, 43.53750228881836], [-5.726631164550781, 43.53750228881836]]]}}]}