{
  "type": "FeatureCollection",
  "features": [
    {
      "type": "Feature",
      "properties": {
        "Name": "Northern Yuan",
        "FromYear": 1422,
        "ToYear": 1430,
        "Area": 2184493.7529110294,
        "Type": "POLITY",
        "Wikipedia": "Northern Yuan",
        "Wikidata": "Q8959",
        "SeshatID": "mn_mongol_late",
        "Components": "",
        "MemberOf": "",
        "displayYear": 1425,
        "sourceYear": 1425,
        "mappedTerritoryId": "cliopatria_northern_yuan"
      },
      "geometry": {
        "type": "MultiPolygon",
        "coordinates": [
          [
            [
              [
                113.19874572753906,
                55.498252868652344
              ],
              [
                114.53324890136719,
                55.225467681884766
              ],
              [
                114.47345733642578,
                55.15733337402344
              ],
              [
                116.47303771972656,
                54.95309066772461
              ],
              [
                116.41266632080078,
                54.88506317138672
              ],
              [
                117.1356430053711,
                54.817054748535156
              ],
              [
                117.0751724243164,
                54.74907684326172
              ],
              [
                117.48372650146484,
                54.817054748535156
              ],
              [
                117.362548828125,
                54.681121826171875
              ],
              [
                118.94352722167969,
                54.4095458984375
              ],
              [
                118.88286590576172,
                54.341712951660156
              ],
              [
                119.14289855957031,
                54.341712951660156
              ],
              [
                119.08226776123047,
                54.27390670776367
              ],
              [
                119.25553131103516,
                54.27390670776367
              ],
              [
                119.19497680664062,
                54.20612335205078
              ],
              [
                119.9652099609375,
                54.00291442871094
              ],
              [
                119.90484619140625,
                53.93522644042969
              ],
              [
                120.41481018066406,
                53.732303619384766
              ],
              [
                120.35478210449219,
                53.664710998535156
              ],
              [
                120.92413330078125,
                53.52959060668945
              ],
              [
                120.86427307128906,
                53.462066650390625
              ],
              [
                121.1486587524414,
                53.39456558227539
              ],
              [
                121.08898162841797,
                53.32708740234375
              ],
              [
                121.57874298095703,
                53.39456558227539
              ],
              [
                121.45909881591797,
                53.25962829589844
              ],
              [
                121.63095092773438,
                53.25962829589844
              ],
              [
                121.59769439697266,
                53.124786376953125
              ],
              [
                122.13888549804688,
                53.057395935058594
              ],
              [
                122.07943725585938,
                52.99003219604492
              ],
              [
                122.53434753417969,
                52.92268753051758
              ],
              [
                122.4749984741211,
                52.85536575317383
              ],
              [
                122.81759643554688,
                52.85536575317383
              ],
              [
                122.75825500488281,
                52.78806686401367
              ],
              [
                123.01506805419922,
                52.78806686401367
              ],
              [
                122.95578002929688,
                52.720787048339844
              ],
              [
                123.12689971923828,
                52.720787048339844
              ],
              [
                123.06771087646484,
                52.653533935546875
              ],
              [
                123.52153778076172,
                52.586299896240234
              ],
              [
                123.46245574951172,
                52.51908493041992
              ],
              [
                123.63330841064453,
                52.51908493041992
              ],
              [
                123.57432556152344,
                52.4518928527832
              ],
              [
                124.42152404785156,
                52.250450134277344
              ],
              [
                124.36278533935547,
                52.18334197998047
              ],
              [
                124.87401580810547,
                52.18334197998047
              ],
              [
                124.81520080566406,
                52.11625671386719
              ],
              [
                125.07068634033203,
                52.11625671386719
              ],
              [
                125.0119400024414,
                52.0491943359375
              ],
              [
                125.26729583740234,
                52.0491943359375
              ],
              [
                125.20861053466797,
                51.98215103149414
              ],
              [
                125.60175323486328,
                51.84812545776367
              ],
              [
                125.57014465332031,
                51.71418380737305
              ],
              [
                125.73994445800781,
                51.71418380737305
              ],
              [
                125.81759643554688,
                51.31283950805664
              ],
              [
                125.9022445678711,
                51.31283950805664
              ],
              [
                125.90042114257812,
                51.112430572509766
              ],
              [
                126.06868743896484,
                50.912200927734375
              ],
              [
                125.95647430419922,
                50.77880859375
              ],
              [
                126.0977783203125,
                50.64549255371094
              ],
              [
                125.98693084716797,
                50.51224899291992
              ],
              [
                126.12911987304688,
                50.37908172607422
              ],
              [
                126.0196533203125,
                50.2459831237793
              ],
              [
                126.13313293457031,
                50.17946243286133
              ],
              [
                126.00093841552734,
                49.91355895996094
              ],
              [
                126.11492919921875,
                49.84712600708008
              ],
              [
                125.9644546508789,
                49.44889450073242
              ],
              [
                126.04798126220703,
                49.44889450073242
              ],
              [
                125.90312957763672,
                49.051273345947266
              ],
              [
                125.98643493652344,
                49.051273345947266
              ],
              [
                125.71331787109375,
                48.5881233215332
              ],
              [
                125.7963638305664,
                48.5881233215332
              ],
              [
                125.46593475341797,
                47.92780685424805
              ],
              [
                125.54862213134766,
                47.92780685424805
              ],
              [
                125.40247344970703,
                47.730003356933594
              ],
              [
                125.48505401611328,
                47.730003356933594
              ],
              [
                125.10108184814453,
                47.20316696166992
              ],
              [
                125.18338775634766,
                47.20316696166992
              ],
              [
                124.80722045898438,
                46.677207946777344
              ],
              [
                124.23861694335938,
                46.21768569946289
              ],
              [
                124.19296264648438,
                46.1520881652832
              ],
              [
                123.62057495117188,
                46.1520881652832
              ],
              [
                121.91911315917969,
                45.693260192871094
              ],
              [
                118.73088073730469,
                45.431331634521484
              ],
              [
                116.44084930419922,
                44.5159797668457
              ],
              [
                115.30732727050781,
                44.38538360595703
              ],
              [
                114.30026245117188,
                43.92862319946289
              ],
              [
                112.53473663330078,
                43.53750228881836
              ],
              [
                111.46968841552734,
                42.95146560668945
              ],
              [
                110.51307678222656,
                42.82133865356445
              ],
              [
                107.59097290039062,
                42.75628662109375
              ],
              [
                103.767333984375,
                42.496177673339844
              ],
              [
                101.52655792236328,
                42.496177673339844
              ],
              [
                101.55985260009766,
                42.56119155883789
              ],
              [
                100.75928497314453,
                42.56119155883789
              ],
              [
                100.79236602783203,
                42.62621307373047
              ],
              [
                98.91797637939453,
                42.56119155883789
              ],
              [
                98.95038604736328,
                42.62621307373047
              ],
              [
                98.14952087402344,
                42.62621307373047
              ],
              [
                98.18172454833984,
                42.691246032714844
              ],
              [
                97.7010269165039,
                42.691246032714844
              ],
              [
                97.7331314086914,
                42.75628662109375
              ],
              [
                96.57940673828125,
                42.691246032714844
              ],
              [
                96.48251342773438,
                42.82133865356445
              ],
              [
                96.3221664428711,
                42.82133865356445
              ],
              [
                96.20865631103516,
                43.08163070678711
              ],
              [
                96.0480728149414,
                43.08163070678711
              ],
              [
                96.03155517578125,
                43.211830139160156
              ],
              [
                95.870849609375,
                43.211830139160156
              ],
              [
                95.77397918701172,
                43.342071533203125
              ],
              [
                95.83810424804688,
                43.472347259521484
              ],
              [
                95.70925903320312,
                43.53750228881836
              ],
              [
                95.773681640625,
                43.6678352355957
              ],
              [
                95.53234100341797,
                43.99384307861328
              ],
              [
                95.32258605957031,
                44.05907440185547
              ],
              [
                95.3393325805664,
                44.25482940673828
              ],
              [
                94.80583190917969,
                44.32010269165039
              ],
              [
                94.70895385742188,
                44.45067596435547
              ],
              [
                94.54708099365234,
                44.45067596435547
              ],
              [
                94.57954406738281,
                44.5159797668457
              ],
              [
                94.41761016845703,
                44.5159797668457
              ],
              [
                94.45006561279297,
                44.58129119873047
              ],
              [
                93.94771575927734,
                44.71194839477539
              ],
              [
                93.80162811279297,
                44.908016204833984
              ],
              [
                93.55815887451172,
                44.908016204833984
              ],
              [
                93.59053802490234,
                44.973392486572266
              ],
              [
                92.8598403930664,
                44.973392486572266
              ],
              [
                92.8919906616211,
                45.03877639770508
              ],
              [
                92.51792907714844,
                45.10417556762695
              ],
              [
                93.75438690185547,
                45.62776184082031
              ],
              [
                94.47686767578125,
                46.08650588989258
              ],
              [
                95.49909210205078,
                46.480194091796875
              ],
              [
                96.552001953125,
                47.07159423828125
              ],
              [
                96.62310028076172,
                47.20316696166992
              ],
              [
                98.9783706665039,
                48.455936431884766
              ],
              [
                99.58324432373047,
                48.91886520385742
              ],
              [
                99.74970245361328,
                48.91886520385742
              ],
              [
                99.99227905273438,
                49.18375015258789
              ],
              [
                100.86211395263672,
                49.64793395996094
              ],
              [
                102.17485809326172,
                50.64549255371094
              ],
              [
                103.19407653808594,
                51.64724349975586
              ],
              [
                103.2120361328125,
                51.91512680053711
              ],
              [
                103.29706573486328,
                51.91512680053711
              ],
              [
                103.30683135986328,
                52.0491943359375
              ],
              [
                103.47706604003906,
                52.0491943359375
              ],
              [
                103.42950439453125,
                51.98215103149414
              ],
              [
                103.59964752197266,
                51.98215103149414
              ],
              [
                103.55216217041016,
                51.91512680053711
              ],
              [
                103.80725860595703,
                51.91512680053711
              ],
              [
                103.5715560913086,
                51.580322265625
              ],
              [
                103.82600402832031,
                51.580322265625
              ],
              [
                103.77922058105469,
                51.51342010498047
              ],
              [
                104.8341064453125,
                51.44654083251953
              ],
              [
                106.00601196289062,
                51.78114318847656
              ],
              [
                106.39828491210938,
                52.31757736206055
              ],
              [
                106.82475280761719,
                52.31757736206055
              ],
              [
                107.33287048339844,
                52.653533935546875
              ],
              [
                108.03414154052734,
                52.78806686401367
              ],
              [
                108.43193817138672,
                53.192195892333984
              ],
              [
                108.82823944091797,
                53.25962829589844
              ],
              [
                109.6395263671875,
                54.27390670776367
              ],
              [
                109.55289459228516,
                54.27390670776367
              ],
              [
                109.66371154785156,
                54.4095458984375
              ],
              [
                109.54580688476562,
                54.47740173339844
              ],
              [
                109.60151672363281,
                54.545284271240234
              ],
              [
                109.51469421386719,
                54.545284271240234
              ],
              [
                109.73892974853516,
                54.817054748535156
              ],
              [
                109.65190887451172,
                54.817054748535156
              ],
              [
                109.76487731933594,
                54.95309066772461
              ],
              [
                109.6777572631836,
                54.95309066772461
              ],
              [
                109.84825134277344,
                55.15733337402344
              ],
              [
                109.76097869873047,
                55.15733337402344
              ],
              [
                109.98802185058594,
                55.83982467651367
              ],
              [
                110.72030639648438,
                55.97663879394531
              ],
              [
                110.66129302978516,
                55.90821838378906
              ],
              [
                111.10041809082031,
                55.90821838378906
              ],
              [
                111.04131317138672,
                55.83982467651367
              ],
              [
                113.1112289428711,
                55.498252868652344
              ],
              [
                113.19874572753906,
                55.498252868652344
              ]
            ]
          ],
          [
            [
              [
                103.12700653076172,
                51.91512680053711
              ],
              [
                103.17427825927734,
                51.98215103149414
              ],
              [
                103.25935363769531,
                51.98215103149414
              ],
              [
                103.2120361328125,
                51.91512680053711
              ],
              [
                103.12700653076172,
                51.91512680053711
              ]
            ]
          ],
          [
            [
              [
                109.10588073730469,
                53.93522644042969
              ],
              [
                108.8687973022461,
                53.52959060668945
              ],
              [
                108.52436065673828,
                53.52959060668945
              ],
              [
                108.59855651855469,
                53.732303619384766
              ],
              [
                108.93309783935547,
                53.93522644042969
              ],
              [
                109.01948547363281,
                53.93522644042969
              ],
              [
                109.10588073730469,
                53.93522644042969
              ]
            ]
          ]
        ]
      }
    }
  ]
}
