{
  "type": "FeatureCollection",
  "features": [
    {
      "type": "Feature",
      "properties": {
        "Name": "Holy Roman Empire Minor States",
        "FromYear": 1344,
        "ToYear": 1351,
        "Area": 509433.6567424103,
        "Type": "POLITY",
        "Wikipedia": "Holy Roman Empire",
        "Wikidata": "Q12548",
        "SeshatID": "de_empire_3",
        "Components": "",
        "MemberOf": "(Holy Roman Empire)",
        "displayYear": 1351,
        "sourceYear": 1351,
        "mappedTerritoryId": "cliopatria_holy_roman_empire_minor_states"
      },
      "geometry": {
        "type": "MultiPolygon",
        "coordinates": [
          [
            [
              [
                11.015789985656738,
                42.62621307373047
              ],
              [
                11.01634693145752,
                42.82133865356445
              ],
              [
                10.776015281677246,
                42.95146560668945
              ],
              [
                10.77629566192627,
                43.146724700927734
              ],
              [
                10.776388168334961,
                43.211830139160156
              ],
              [
                10.857099533081055,
                43.407203674316406
              ],
              [
                11.259588241577148,
                43.472347259521484
              ],
              [
                11.580705642700195,
                43.342071533203125
              ],
              [
                11.659855842590332,
                43.146724700927734
              ],
              [
                11.900826454162598,
                43.146724700927734
              ],
              [
                11.981149673461914,
                43.146724700927734
              ],
              [
                12.0580472946167,
                42.75628662109375
              ],
              [
                11.736565589904785,
                42.62621307373047
              ],
              [
                11.574831008911133,
                42.36617660522461
              ],
              [
                11.494861602783203,
                42.36617660522461
              ],
              [
                11.414892196655273,
                42.36617660522461
              ],
              [
                11.415224075317383,
                42.43117141723633
              ],
              [
                11.335225105285645,
                42.43117141723633
              ],
              [
                11.255227088928223,
                42.43117141723633
              ],
              [
                11.255500793457031,
                42.496177673339844
              ],
              [
                11.175962448120117,
                42.62621307373047
              ],
              [
                11.015789985656738,
                42.62621307373047
              ]
            ]
          ],
          [
            [
              [
                12.745964050292969,
                46.61152267456055
              ],
              [
                12.663962364196777,
                46.61152267456055
              ],
              [
                12.58195972442627,
                46.61152267456055
              ],
              [
                12.58055305480957,
                46.480194091796875
              ],
              [
                12.416047096252441,
                46.414546966552734
              ],
              [
                12.410961151123047,
                45.889827728271484
              ],
              [
                12.49193000793457,
                45.82429504394531
              ],
              [
                12.165504455566406,
                45.82429504394531
              ],
              [
                12.000378608703613,
                45.56227111816406
              ],
              [
                11.998926162719727,
                45.36587905883789
              ],
              [
                12.161685943603516,
                45.36587905883789
              ],
              [
                12.161133766174316,
                45.300437927246094
              ],
              [
                12.160021781921387,
                45.169586181640625
              ],
              [
                12.40256118774414,
                45.03877639770508
              ],
              [
                12.399906158447266,
                44.77729415893555
              ],
              [
                12.156624794006348,
                44.77729415893555
              ],
              [
                12.156049728393555,
                44.71194839477539
              ],
              [
                11.993412017822266,
                44.64661407470703
              ],
              [
                11.751571655273438,
                44.842647552490234
              ],
              [
                11.346199035644531,
                44.908016204833984
              ],
              [
                11.182066917419434,
                44.32010269165039
              ],
              [
                10.858479499816895,
                44.25482940673828
              ],
              [
                10.696523666381836,
                43.79821014404297
              ],
              [
                10.212483406066895,
                43.92862319946289
              ],
              [
                10.212339401245117,
                43.99384307861328
              ],
              [
                10.131620407104492,
                43.99384307861328
              ],
              [
                10.13144302368164,
                44.05907440185547
              ],
              [
                10.05069351196289,
                44.05907440185547
              ],
              [
                10.050901412963867,
                43.99384307861328
              ],
              [
                9.970182418823242,
                43.99384307861328
              ],
              [
                9.969943046569824,
                44.05907440185547
              ],
              [
                9.969700813293457,
                44.12431716918945
              ],
              [
                9.64546012878418,
                44.32010269165039
              ],
              [
                9.644309997558594,
                44.5159797668457
              ],
              [
                9.481462478637695,
                44.64661407470703
              ],
              [
                9.156752586364746,
                44.71194839477539
              ],
              [
                8.994627952575684,
                44.71194839477539
              ],
              [
                8.914925575256348,
                44.58129119873047
              ],
              [
                8.590126037597656,
                44.64661407470703
              ],
              [
                8.349712371826172,
                44.45067596435547
              ],
              [
                8.35147476196289,
                44.32010269165039
              ],
              [
                8.352349281311035,
                44.25482940673828
              ],
              [
                8.271506309509277,
                44.25482940673828
              ],
              [
                8.272406578063965,
                44.18956756591797
              ],
              [
                8.191595077514648,
                44.18956756591797
              ],
              [
                8.192523002624512,
                44.12431716918945
              ],
              [
                7.465495109558105,
                44.12431716918945
              ],
              [
                7.465495109558105,
                44.12431716918945
              ],
              [
                6.895741939544678,
                44.32010269165039
              ],
              [
                6.968075275421143,
                44.71194839477539
              ],
              [
                6.966631412506104,
                44.77729415893555
              ],
              [
                7.289682388305664,
                44.842647552490234
              ],
              [
                7.198901176452637,
                45.300437927246094
              ],
              [
                7.277501106262207,
                45.431331634521484
              ],
              [
                7.437684535980225,
                45.56227111816406
              ],
              [
                7.926544666290283,
                45.56227111816406
              ],
              [
                8.002460479736328,
                45.889827728271484
              ],
              [
                7.347962379455566,
                45.95537567138672
              ],
              [
                6.92860746383667,
                46.414546966552734
              ],
              [
                6.355292797088623,
                46.414546966552734
              ],
              [
                6.52780294418335,
                46.08650588989258
              ],
              [
                6.777877330780029,
                45.889827728271484
              ],
              [
                6.291648864746094,
                45.75876998901367
              ],
              [
                6.28804349899292,
                45.889827728271484
              ],
              [
                6.043127059936523,
                45.889827728271484
              ],
              [
                6.037380695343018,
                46.08650588989258
              ],
              [
                5.87390661239624,
                46.08650588989258
              ],
              [
                5.714531421661377,
                45.95537567138672
              ],
              [
                5.722652435302734,
                45.693260192871094
              ],
              [
                5.889627456665039,
                45.56227111816406
              ],
              [
                5.812080860137939,
                45.431331634521484
              ],
              [
                5.649256229400635,
                45.431331634521484
              ],
              [
                5.478028297424316,
                45.693260192871094
              ],
              [
                5.154103755950928,
                45.62776184082031
              ],
              [
                5.07259464263916,
                45.62776184082031
              ],
              [
                5.065754413604736,
                45.82429504394531
              ],
              [
                5.147360801696777,
                45.82429504394531
              ],
              [
                5.295057773590088,
                46.283294677734375
              ],
              [
                5.376893997192383,
                46.283294677734375
              ],
              [
                5.867908954620361,
                46.283294677734375
              ],
              [
                6.344273090362549,
                46.808616638183594
              ],
              [
                6.665778160095215,
                47.07159423828125
              ],
              [
                6.830254077911377,
                47.07159423828125
              ],
              [
                6.826910972595215,
                47.20316696166992
              ],
              [
                6.989914417266846,
                47.26897048950195
              ],
              [
                6.983439445495605,
                47.53233337402344
              ],
              [
                7.39728307723999,
                47.46647262573242
              ],
              [
                7.559404373168945,
                47.598209381103516
              ],
              [
                7.552440643310547,
                47.92780685424805
              ],
              [
                7.466878890991211,
                48.059749603271484
              ],
              [
                7.218601703643799,
                48.059749603271484
              ],
              [
                7.138998985290527,
                47.92780685424805
              ],
              [
                6.890934467315674,
                47.92780685424805
              ],
              [
                6.144739151000977,
                47.993770599365234
              ],
              [
                5.818123817443848,
                47.86185836791992
              ],
              [
                5.646180152893066,
                48.059749603271484
              ],
              [
                5.480661869049072,
                48.059749603271484
              ],
              [
                5.47376823425293,
                48.257774353027344
              ],
              [
                5.217910766601562,
                48.455936431884766
              ],
              [
                4.883440971374512,
                48.52202224731445
              ],
              [
                4.865273475646973,
                48.98506164550781
              ],
              [
                5.026719093322754,
                49.11750411987305
              ],
              [
                4.85741138458252,
                49.18375015258789
              ],
              [
                4.674346446990967,
                49.58156967163086
              ],
              [
                4.576823711395264,
                49.91355895996094
              ],
              [
                4.493024826049805,
                49.91355895996094
              ],
              [
                4.490188121795654,
                49.98000717163086
              ],
              [
                4.406350135803223,
                49.98000717163086
              ],
              [
                4.394795417785645,
                50.2459831237793
              ],
              [
                4.638418674468994,
                50.445655822753906
              ],
              [
                5.048582077026367,
                50.71213912963867
              ],
              [
                5.217134952545166,
                50.71213912963867
              ],
              [
                5.283889770507812,
                51.17921447753906
              ],
              [
                5.784458637237549,
                51.37968063354492
              ],
              [
                5.779896259307861,
                51.51342010498047
              ],
              [
                5.605600833892822,
                51.64724349975586
              ],
              [
                5.263612270355225,
                51.71418380737305
              ],
              [
                5.173510074615479,
                51.84812545776367
              ],
              [
                5.258498668670654,
                51.84812545776367
              ],
              [
                5.250792980194092,
                52.0491943359375
              ],
              [
                4.995438575744629,
                52.0491943359375
              ],
              [
                5.069864749908447,
                52.31757736206055
              ],
              [
                4.896504402160645,
                52.38472366333008
              ],
              [
                4.890939235687256,
                52.51908493041992
              ],
              [
                5.06179141998291,
                52.51908493041992
              ],
              [
                5.056382656097412,
                52.653533935546875
              ],
              [
                5.053669929504395,
                52.720787048339844
              ],
              [
                5.390830039978027,
                52.85536575317383
              ],
              [
                5.385728359222412,
                52.99003219604492
              ],
              [
                5.20894193649292,
                53.124786376953125
              ],
              [
                5.542333602905273,
                53.39456558227539
              ],
              [
                6.226210117340088,
                53.52959060668945
              ],
              [
                6.916844367980957,
                53.462066650390625
              ],
              [
                6.913325786590576,
                53.597137451171875
              ],
              [
                7.082295417785645,
                53.732303619384766
              ],
              [
                7.944795608520508,
                53.732303619384766
              ],
              [
                8.032201766967773,
                53.664710998535156
              ],
              [
                7.94840145111084,
                53.52959060668945
              ],
              [
                8.120620727539062,
                53.52959060668945
              ],
              [
                8.204607963562012,
                53.664710998535156
              ],
              [
                8.37701416015625,
                53.664710998535156
              ],
              [
                8.459527015686035,
                53.93522644042969
              ],
              [
                8.892172813415527,
                53.86756134033203
              ],
              [
                8.80289077758789,
                54.138362884521484
              ],
              [
                8.802155494689941,
                54.20612335205078
              ],
              [
                8.887362480163574,
                54.341712951660156
              ],
              [
                9.148486137390137,
                54.20612335205078
              ],
              [
                9.927618026733398,
                54.27390670776367
              ],
              [
                10.187621116638184,
                54.47740173339844
              ],
              [
                10.274396896362305,
                54.47740173339844
              ],
              [
                11.054854393005371,
                54.4095458984375
              ],
              [
                11.053302764892578,
                54.20612335205078
              ],
              [
                10.879310607910156,
                54.07062530517578
              ],
              [
                11.397537231445312,
                54.00291442871094
              ],
              [
                11.398930549621582,
                54.138362884521484
              ],
              [
                12.093385696411133,
                54.27390670776367
              ],
              [
                12.4437894821167,
                54.47740173339844
              ],
              [
                13.05121898651123,
                54.47740173339844
              ],
              [
                13.14309310913086,
                54.681121826171875
              ],
              [
                13.405717849731445,
                54.74907684326172
              ],
              [
                13.662626266479492,
                54.613189697265625
              ],
              [
                13.739368438720703,
                54.27390670776367
              ],
              [
                13.304450988769531,
                54.20612335205078
              ],
              [
                14.165812492370605,
                54.07062530517578
              ],
              [
                14.159177780151367,
                53.86756134033203
              ],
              [
                13.98438835144043,
                53.799922943115234
              ],
              [
                14.499796867370605,
                53.732303619384766
              ],
              [
                14.50934886932373,
                54.00291442871094
              ],
              [
                15.036103248596191,
                54.20612335205078
              ],
              [
                15.991765975952148,
                54.27390670776367
              ],
              [
                16.619972229003906,
                54.681121826171875
              ],
              [
                17.410511016845703,
                54.817054748535156
              ],
              [
                17.49753189086914,
                54.817054748535156
              ],
              [
                17.559396743774414,
                54.4095458984375
              ],
              [
                17.385942459106445,
                54.4095458984375
              ],
              [
                17.377857208251953,
                54.27390670776367
              ],
              [
                17.110219955444336,
                54.138362884521484
              ],
              [
                17.091083526611328,
                53.799922943115234
              ],
              [
                17.17738151550293,
                53.799922943115234
              ],
              [
                17.079761505126953,
                53.597137451171875
              ],
              [
                16.99360466003418,
                53.597137451171875
              ],
              [
                16.989904403686523,
                53.52959060668945
              ],
              [
                16.90379524230957,
                53.52959060668945
              ],
              [
                16.65959930419922,
                53.799922943115234
              ],
              [
                16.314411163330078,
                53.799922943115234
              ],
              [
                16.411012649536133,
                54.00291442871094
              ],
              [
                15.982036590576172,
                54.07062530517578
              ],
              [
                16.04908561706543,
                53.664710998535156
              ],
              [
                15.793546676635742,
                53.732303619384766
              ],
              [
                15.704273223876953,
                53.664710998535156
              ],
              [
                15.78133487701416,
                53.462066650390625
              ],
              [
                15.439932823181152,
                53.52959060668945
              ],
              [
                15.25675106048584,
                53.25962829589844
              ],
              [
                14.82464599609375,
                53.192195892333984
              ],
              [
                14.6481351852417,
                53.057395935058594
              ],
              [
                14.476561546325684,
                53.057395935058594
              ],
              [
                14.22566032409668,
                53.25962829589844
              ],
              [
                14.316027641296387,
                53.39456558227539
              ],
              [
                13.89604663848877,
                53.732303619384766
              ],
              [
                13.54919719696045,
                53.664710998535156
              ],
              [
                13.196187019348145,
                53.32708740234375
              ],
              [
                12.16561222076416,
                53.39456558227539
              ],
              [
                11.910387992858887,
                53.597137451171875
              ],
              [
                11.738075256347656,
                53.597137451171875
              ],
              [
                11.563496589660645,
                53.39456558227539
              ],
              [
                11.306057929992676,
                53.462066650390625
              ],
              [
                11.132898330688477,
                53.32708740234375
              ],
              [
                11.217759132385254,
                53.192195892333984
              ],
              [
                11.38951587677002,
                53.192195892333984
              ],
              [
                11.388239860534668,
                53.057395935058594
              ],
              [
                11.216666221618652,
                53.057395935058594
              ],
              [
                11.0437593460083,
                52.85536575317383
              ],
              [
                11.127049446105957,
                52.51908493041992
              ],
              [
                11.896748542785645,
                52.586299896240234
              ],
              [
                12.32740306854248,
                52.78806686401367
              ],
              [
                12.325196266174316,
                52.653533935546875
              ],
              [
                12.578080177307129,
                52.4518928527832
              ],
              [
                12.4050874710083,
                52.31757736206055
              ],
              [
                12.486956596374512,
                52.11625671386719
              ],
              [
                12.914117813110352,
                52.18334197998047
              ],
              [
                13.422128677368164,
                52.0491943359375
              ],
              [
                13.507246971130371,
                52.0491943359375
              ],
              [
                13.505606651306152,
                51.98215103149414
              ],
              [
                13.590681076049805,
                51.98215103149414
              ],
              [
                13.589005470275879,
                51.91512680053711
              ],
              [
                13.503973960876465,
                51.91512680053711
              ],
              [
                13.502351760864258,
                51.84812545776367
              ],
              [
                13.247386932373047,
                51.84812545776367
              ],
              [
                13.244426727294922,
                51.71418380737305
              ],
              [
                13.5823974609375,
                51.64724349975586
              ],
              [
                13.156684875488281,
                51.580322265625
              ],
              [
                13.069147109985352,
                51.44654083251953
              ],
              [
                12.899682998657227,
                51.44654083251953
              ],
              [
                12.89716625213623,
                51.31283950805664
              ],
              [
                12.476021766662598,
                51.44654083251953
              ],
              [
                12.562965393066406,
                51.580322265625
              ],
              [
                11.969246864318848,
                51.580322265625
              ],
              [
                12.051520347595215,
                51.37968063354492
              ],
              [
                11.373010635375977,
                51.24601745605469
              ],
              [
                11.545162200927734,
                51.580322265625
              ],
              [
                11.37657642364502,
                51.71418380737305
              ],
              [
                10.952065467834473,
                51.71418380737305
              ],
              [
                10.866110801696777,
                51.44654083251953
              ],
              [
                11.205464363098145,
                51.51342010498047
              ],
              [
                11.119558334350586,
                51.31283950805664
              ],
              [
                10.273077964782715,
                51.31283950805664
              ],
              [
                9.935389518737793,
                51.04566955566406
              ],
              [
                10.020463943481445,
                50.84549331665039
              ],
              [
                10.357894897460938,
                50.84549331665039
              ],
              [
                10.35803508758545,
                50.64549255371094
              ],
              [
                10.526506423950195,
                50.64549255371094
              ],
              [
                10.779851913452148,
                50.912200927734375
              ],
              [
                10.357752799987793,
                51.17921447753906
              ],
              [
                10.865373611450195,
                51.24601745605469
              ],
              [
                10.695862770080566,
                51.112430572509766
              ],
              [
                11.033954620361328,
                51.112430572509766
              ],
              [
                11.202224731445312,
                50.97892379760742
              ],
              [
                11.285423278808594,
                50.77880859375
              ],
              [
                11.032193183898926,
                50.71213912963867
              ],
              [
                10.863081932067871,
                50.51224899291992
              ],
              [
                10.358152389526367,
                50.51224899291992
              ],
              [
                10.35853099822998,
                50.17946243286133
              ],
              [
                10.69422435760498,
                50.04647445678711
              ],
              [
                11.113865852355957,
                50.11296081542969
              ],
              [
                11.114400863647461,
                50.2459831237793
              ],
              [
                11.282390594482422,
                50.2459831237793
              ],
              [
                11.199701309204102,
                50.51224899291992
              ],
              [
                11.2842378616333,
                50.578861236572266
              ],
              [
                11.536320686340332,
                50.51224899291992
              ],
              [
                11.706402778625488,
                50.71213912963867
              ],
              [
                11.95923137664795,
                50.71213912963867
              ],
              [
                12.045051574707031,
                50.84549331665039
              ],
              [
                12.212909698486328,
                50.77880859375
              ],
              [
                12.21121883392334,
                50.64549255371094
              ],
              [
                11.957799911499023,
                50.578861236572266
              ],
              [
                11.955025672912598,
                50.312522888183594
              ],
              [
                12.12234115600586,
                50.2459831237793
              ],
              [
                12.12159538269043,
                50.17946243286133
              ],
              [
                11.869729042053223,
                50.17946243286133
              ],
              [
                11.699701309204102,
                49.91355895996094
              ],
              [
                11.19636058807373,
                49.78071212768555
              ],
              [
                11.278903007507324,
                49.51522445678711
              ],
              [
                11.028035163879395,
                49.44889450073242
              ],
              [
                11.027566909790039,
                49.2500114440918
              ],
              [
                11.277556419372559,
                49.18375015258789
              ],
              [
                10.860533714294434,
                49.051273345947266
              ],
              [
                11.027008056640625,
                48.98506164550781
              ],
              [
                10.943561553955078,
                48.852684020996094
              ],
              [
                10.61073112487793,
                48.91886520385742
              ],
              [
                10.360239028930664,
                49.2500114440918
              ],
              [
                10.027185440063477,
                49.11750411987305
              ],
              [
                10.02780818939209,
                48.98506164550781
              ],
              [
                10.278019905090332,
                48.852684020996094
              ],
              [
                10.2784423828125,
                48.72037124633789
              ],
              [
                10.444967269897461,
                48.5881233215332
              ],
              [
                10.528592109680176,
                48.257774353027344
              ],
              [
                10.197128295898438,
                48.257774353027344
              ],
              [
                10.115167617797852,
                48.059749603271484
              ],
              [
                10.363642692565918,
                47.993770599365234
              ],
              [
                10.52871322631836,
                48.191749572753906
              ],
              [
                10.44686222076416,
                47.79592514038086
              ],
              [
                10.694778442382812,
                47.730003356933594
              ],
              [
                10.61239242553711,
                47.598209381103516
              ],
              [
                10.694906234741211,
                47.598209381103516
              ],
              [
                10.694971084594727,
                47.53233337402344
              ],
              [
                10.777449607849121,
                47.53233337402344
              ],
              [
                10.859928131103516,
                47.53233337402344
              ],
              [
                10.94240665435791,
                47.53233337402344
              ],
              [
                11.27249813079834,
                47.598209381103516
              ],
              [
                11.272144317626953,
                47.46647262573242
              ],
              [
                11.437032699584961,
                47.46647262573242
              ],
              [
                11.436545372009277,
                47.33478927612305
              ],
              [
                11.600985527038574,
                47.26897048950195
              ],
              [
                11.848007202148438,
                47.26897048950195
              ],
              [
                12.014627456665039,
                47.53233337402344
              ],
              [
                12.262062072753906,
                47.53233337402344
              ],
              [
                12.342669486999512,
                47.33478927612305
              ],
              [
                12.508110046386719,
                47.4006233215332
              ],
              [
                12.593445777893066,
                47.664100646972656
              ],
              [
                12.75854206085205,
                47.664100646972656
              ],
              [
                12.839411735534668,
                47.53233337402344
              ],
              [
                13.087788581848145,
                47.598209381103516
              ],
              [
                12.924517631530762,
                47.730003356933594
              ],
              [
                12.927179336547852,
                47.92780685424805
              ],
              [
                12.762627601623535,
                47.993770599365234
              ],
              [
                12.765129089355469,
                48.191749572753906
              ],
              [
                12.928975105285645,
                48.059749603271484
              ],
              [
                13.177251815795898,
                48.059749603271484
              ],
              [
                13.175244331359863,
                47.92780685424805
              ],
              [
                13.418926239013672,
                47.664100646972656
              ],
              [
                13.41247844696045,
                47.26897048950195
              ],
              [
                13.659500122070312,
                47.26897048950195
              ],
              [
                13.738253593444824,
                47.07159423828125
              ],
              [
                13.08034896850586,
                47.07159423828125
              ],
              [
                12.9981107711792,
                47.07159423828125
              ],
              [
                12.915872573852539,
                47.07159423828125
              ],
              [
                12.833634376525879,
                47.07159423828125
              ],
              [
                12.909968376159668,
                46.61152267456055
              ],
              [
                12.82796573638916,
                46.61152267456055
              ],
              [
                12.745964050292969,
                46.61152267456055
              ]
            ],
            [
              [
                10.279766082763672,
                48.323814392089844
              ],
              [
                10.196602821350098,
                48.38986587524414
              ],
              [
                10.196342468261719,
                48.455936431884766
              ],
              [
                10.11336898803711,
                48.455936431884766
              ],
              [
                10.113962173461914,
                48.323814392089844
              ],
              [
                10.279766082763672,
                48.323814392089844
              ]
            ],
            [
              [
                9.782355308532715,
                48.323814392089844
              ],
              [
                10.03139591217041,
                48.257774353027344
              ],
              [
                10.03072738647461,
                48.38986587524414
              ],
              [
                9.947789192199707,
                48.38986587524414
              ],
              [
                9.449578285217285,
                48.455936431884766
              ],
              [
                9.451920509338379,
                48.191749572753906
              ],
              [
                9.782355308532715,
                48.323814392089844
              ]
            ],
            [
              [
                9.367846488952637,
                48.323814392089844
              ],
              [
                9.36722469329834,
                48.38986587524414
              ],
              [
                9.201349258422852,
                48.38986587524414
              ],
              [
                9.202736854553223,
                48.257774353027344
              ],
              [
                9.367846488952637,
                48.323814392089844
              ]
            ]
          ],
          [
            [
              [
                3.638839721679688,
                50.2459831237793
              ],
              [
                3.635580539703369,
                50.312522888183594
              ],
              [
                3.632314682006836,
                50.37908172607422
              ],
              [
                3.968613386154175,
                50.37908172607422
              ],
              [
                4.142810344696045,
                50.2459831237793
              ],
              [
                4.151839256286621,
                50.04647445678711
              ],
              [
                4.067962169647217,
                50.04647445678711
              ],
              [
                4.071000099182129,
                49.98000717163086
              ],
              [
                3.987162351608276,
                49.98000717163086
              ],
              [
                3.984085559844971,
                50.04647445678711
              ],
              [
                3.900208711624146,
                50.04647445678711
              ],
              [
                3.816332101821899,
                50.04647445678711
              ],
              [
                3.813170909881592,
                50.11296081542969
              ],
              [
                3.729254722595215,
                50.11296081542969
              ],
              [
                3.726047992706299,
                50.17946243286133
              ],
              [
                3.64209246635437,
                50.17946243286133
              ],
              [
                3.638839721679688,
                50.2459831237793
              ]
            ]
          ],
          [
            [
              [
                12.050686836242676,
                51.31283950805664
              ],
              [
                12.219072341918945,
                51.24601745605469
              ],
              [
                12.216384887695312,
                51.04566955566406
              ],
              [
                11.96294116973877,
                51.04566955566406
              ],
              [
                11.963705062866211,
                51.112430572509766
              ],
              [
                11.879911422729492,
                51.17921447753906
              ],
              [
                12.050686836242676,
                51.31283950805664
              ]
            ]
          ],
          [
            [
              [
                14.198896408081055,
                45.496795654296875
              ],
              [
                14.278955459594727,
                45.431331634521484
              ],
              [
                14.189410209655762,
                45.03877639770508
              ],
              [
                13.865758895874023,
                45.10417556762695
              ],
              [
                13.866988182067871,
                45.169586181640625
              ],
              [
                13.786900520324707,
                45.23500442504883
              ],
              [
                14.117451667785645,
                45.496795654296875
              ],
              [
                14.198896408081055,
                45.496795654296875
              ]
            ]
          ],
          [
            [
              [
                13.70906925201416,
                45.431331634521484
              ],
              [
                13.714865684509277,
                45.75876998901367
              ],
              [
                13.633292198181152,
                45.75876998901367
              ],
              [
                13.5560941696167,
                46.02093505859375
              ],
              [
                13.886591911315918,
                46.21768569946289
              ],
              [
                13.968395233154297,
                46.21768569946289
              ],
              [
                13.967133522033691,
                46.1520881652832
              ],
              [
                14.048903465270996,
                46.1520881652832
              ],
              [
                14.047611236572266,
                46.08650588989258
              ],
              [
                14.046319961547852,
                46.02093505859375
              ],
              [
                14.128024101257324,
                46.02093505859375
              ],
              [
                14.126700401306152,
                45.95537567138672
              ],
              [
                14.03600788116455,
                45.496795654296875
              ],
              [
                13.95456314086914,
                45.496795654296875
              ],
              [
                13.70906925201416,
                45.431331634521484
              ]
            ]
          ],
          [
            [
              [
                14.014547348022461,
                48.52202224731445
              ],
              [
                13.931536674499512,
                48.52202224731445
              ],
              [
                13.930166244506836,
                48.455936431884766
              ],
              [
                13.847192764282227,
                48.455936431884766
              ],
              [
                13.76682186126709,
                48.5881233215332
              ],
              [
                13.26854419708252,
                48.5881233215332
              ],
              [
                13.189766883850098,
                48.852684020996094
              ],
              [
                13.356151580810547,
                48.852684020996094
              ],
              [
                13.358475685119629,
                48.98506164550781
              ],
              [
                13.441741943359375,
                48.98506164550781
              ],
              [
                13.525009155273438,
                48.98506164550781
              ],
              [
                13.52376937866211,
                48.91886520385742
              ],
              [
                13.606999397277832,
                48.91886520385742
              ],
              [
                14.100465774536133,
                48.654239654541016
              ],
              [
                14.099007606506348,
                48.5881233215332
              ],
              [
                14.015960693359375,
                48.5881233215332
              ],
              [
                14.014547348022461,
                48.52202224731445
              ]
            ]
          ],
          [
            [
              [
                12.552227973937988,
                50.912200927734375
              ],
              [
                12.806585311889648,
                50.97892379760742
              ],
              [
                12.803128242492676,
                50.77880859375
              ],
              [
                12.718811988830566,
                50.77880859375
              ],
              [
                12.717718124389648,
                50.71213912963867
              ],
              [
                12.800868034362793,
                50.64549255371094
              ],
              [
                12.632396697998047,
                50.64549255371094
              ],
              [
                12.552227973937988,
                50.912200927734375
              ]
            ]
          ],
          [
            [
              [
                14.08967113494873,
                51.580322265625
              ],
              [
                14.259305000305176,
                51.580322265625
              ],
              [
                14.257346153259277,
                51.51342010498047
              ],
              [
                14.25539779663086,
                51.44654083251953
              ],
              [
                14.253460884094238,
                51.37968063354492
              ],
              [
                14.251534461975098,
                51.31283950805664
              ],
              [
                14.336182594299316,
                51.31283950805664
              ],
              [
                14.334224700927734,
                51.24601745605469
              ],
              [
                14.161297798156738,
                51.112430572509766
              ],
              [
                13.994020462036133,
                51.17921447753906
              ],
              [
                14.078585624694824,
                51.17921447753906
              ],
              [
                14.08223819732666,
                51.31283950805664
              ],
              [
                13.914700508117676,
                51.37968063354492
              ],
              [
                14.08967113494873,
                51.580322265625
              ]
            ]
          ]
        ]
      }
    }
  ]
}
