{
  "type": "FeatureCollection",
  "features": [
    {
      "type": "Feature",
      "properties": {
        "Name": "Northern Wei",
        "FromYear": 439,
        "ToYear": 440,
        "Area": 671031.198590087,
        "Type": "POLITY",
        "Wikipedia": "Northern Wei",
        "Wikidata": "Q875305",
        "SeshatID": "cn_northern_wei_dyn",
        "Components": "",
        "MemberOf": "",
        "displayYear": 439,
        "sourceYear": 439,
        "mappedTerritoryId": "northern_wei"
      },
      "geometry": {
        "type": "Polygon",
        "coordinates": [
          [
            [
              120.72650909423828,
              40.4848747253418
            ],
            [
              121.1097640991211,
              40.873565673828125
            ],
            [
              121.74433898925781,
              40.873565673828125
            ],
            [
              121.82366180419922,
              40.873565673828125
            ],
            [
              121.93632507324219,
              41.19768524169922
            ],
            [
              122.4899673461914,
              41.45711898803711
            ],
            [
              122.6083755493164,
              41.781593322753906
            ],
            [
              121.21884155273438,
              41.32738494873047
            ],
            [
              119.3900146484375,
              41.32738494873047
            ],
            [
              119.4281005859375,
              41.39224624633789
            ],
            [
              118.75018310546875,
              41.45711898803711
            ],
            [
              117.48167419433594,
              41.32738494873047
            ],
            [
              116.70414733886719,
              40.93837356567383
            ],
            [
              116.35044860839844,
              40.873565673828125
            ],
            [
              115.07637023925781,
              39.8376350402832
            ],
            [
              114.83967590332031,
              39.8376350402832
            ],
            [
              114.82882690429688,
              39.9670295715332
            ],
            [
              114.67092895507812,
              39.9670295715332
            ],
            [
              113.7263412475586,
              39.51427459716797
            ],
            [
              113.33248138427734,
              39.51427459716797
            ],
            [
              113.24083709716797,
              39.64360046386719
            ],
            [
              112.57745361328125,
              39.57893371582031
            ],
            [
              111.73821258544922,
              38.67427444458008
            ],
            [
              110.67475891113281,
              38.416015625
            ],
            [
              110.39788055419922,
              38.157840728759766
            ],
            [
              109.07779693603516,
              37.835243225097656
            ],
            [
              107.90563201904297,
              37.835243225097656
            ],
            [
              107.2454605102539,
              37.5772590637207
            ],
            [
              106.40936279296875,
              37.44829177856445
            ],
            [
              106.01932525634766,
              37.44829177856445
            ],
            [
              105.99661254882812,
              37.5772590637207
            ],
            [
              105.71209716796875,
              37.641746520996094
            ],
            [
              105.73988342285156,
              37.706241607666016
            ],
            [
              105.3493881225586,
              37.706241607666016
            ],
            [
              105.37715148925781,
              37.7707405090332
            ],
            [
              104.462890625,
              37.641746520996094
            ],
            [
              104.36157989501953,
              37.7707405090332
            ],
            [
              103.76398468017578,
              37.835243225097656
            ],
            [
              103.6626205444336,
              37.96426773071289
            ],
            [
              103.8799057006836,
              38.28691864013672
            ],
            [
              103.75135040283203,
              38.351463317871094
            ],
            [
              103.83612060546875,
              38.54513168334961
            ],
            [
              104.10753631591797,
              38.80344009399414
            ],
            [
              103.60787963867188,
              38.738853454589844
            ],
            [
              103.6653060913086,
              38.8680305480957
            ],
            [
              104.66761779785156,
              39.51427459716797
            ],
            [
              104.58282470703125,
              39.8376350402832
            ],
            [
              102.26497650146484,
              39.77294921875
            ],
            [
              102.00984191894531,
              39.38497543334961
            ],
            [
              101.28739166259766,
              38.997230529785156
            ],
            [
              100.6964340209961,
              38.351463317871094
            ],
            [
              100.8745346069336,
              38.028785705566406
            ],
            [
              101.23871612548828,
              37.96426773071289
            ],
            [
              101.26336669921875,
              37.835243225097656
            ],
            [
              101.54920959472656,
              37.7707405090332
            ],
            [
              101.70372009277344,
              37.5772590637207
            ],
            [
              102.09606170654297,
              37.7707405090332
            ],
            [
              102.09397888183594,
              37.5772590637207
            ],
            [
              102.24852752685547,
              37.38381576538086
            ],
            [
              102.53401184082031,
              37.3193473815918
            ],
            [
              102.55928802490234,
              37.1904182434082
            ],
            [
              102.79303741455078,
              37.1904182434082
            ],
            [
              103.10328674316406,
              36.80373764038086
            ],
            [
              103.25885772705078,
              36.80373764038086
            ],
            [
              103.38858032226562,
              36.5460319519043
            ],
            [
              103.64786529541016,
              36.417205810546875
            ],
            [
              103.59667205810547,
              36.28839111328125
            ],
            [
              103.72779083251953,
              36.03080368041992
            ],
            [
              103.65229797363281,
              35.837650299072266
            ],
            [
              103.7297592163086,
              35.837650299072266
            ],
            [
              103.63004302978516,
              35.58015823364258
            ],
            [
              103.73529052734375,
              35.45143127441406
            ],
            [
              103.38555145263672,
              34.10039138793945
            ],
            [
              103.4928207397461,
              33.971771240234375
            ],
            [
              103.20997619628906,
              33.393062591552734
            ],
            [
              104.69842529296875,
              33.26447677612305
            ],
            [
              105.16666412353516,
              33.07160949707031
            ],
            [
              105.7029800415039,
              33.07160949707031
            ],
            [
              105.94832611083984,
              33.32876968383789
            ],
            [
              106.56185913085938,
              33.32876968383789
            ],
            [
              106.74531555175781,
              33.20018768310547
            ],
            [
              107.4821548461914,
              33.32876968383789
            ],
            [
              107.66516876220703,
              33.20018768310547
            ],
            [
              107.64852142333984,
              32.94303894042969
            ],
            [
              107.87826538085938,
              32.94303894042969
            ],
            [
              108.1015625,
              33.13589859008789
            ],
            [
              108.23787689208984,
              32.878753662109375
            ],
            [
              109.15662384033203,
              32.878753662109375
            ],
            [
              109.31609344482422,
              32.685909271240234
            ],
            [
              109.46910095214844,
              32.685909271240234
            ],
            [
              109.49907684326172,
              32.557350158691406
            ],
            [
              109.88143157958984,
              32.557350158691406
            ],
            [
              109.91146850585938,
              32.428794860839844
            ],
            [
              110.17093658447266,
              32.30024337768555
            ],
            [
              111.24053955078125,
              32.30024337768555
            ],
            [
              111.77423858642578,
              33.52165222167969
            ],
            [
              111.67042541503906,
              33.65024948120117
            ],
            [
              111.72042083740234,
              33.77885055541992
            ],
            [
              111.33467864990234,
              33.971771240234375
            ],
            [
              111.30827331542969,
              34.10039138793945
            ],
            [
              111.00059509277344,
              34.10039138793945
            ],
            [
              110.9742431640625,
              34.22901916503906
            ],
            [
              110.82032775878906,
              34.22901916503906
            ],
            [
              110.8196029663086,
              34.42197799682617
            ],
            [
              110.69108581542969,
              34.48630142211914
            ],
            [
              110.71676635742188,
              34.743614196777344
            ],
            [
              110.5883560180664,
              34.80794906616211
            ],
            [
              110.6662368774414,
              35.00096893310547
            ],
            [
              111.3628158569336,
              35.194007873535156
            ],
            [
              112.0915756225586,
              35.644527435302734
            ],
            [
              112.8155288696289,
              35.708900451660156
            ],
            [
              113.60167694091797,
              36.09519577026367
            ],
            [
              114.01301574707031,
              36.67487716674805
            ],
            [
              113.93527221679688,
              36.67487716674805
            ],
            [
              114.00279235839844,
              36.9970588684082
            ],
            [
              113.92493438720703,
              36.9970588684082
            ],
            [
              114.01313781738281,
              37.1904182434082
            ],
            [
              113.93522644042969,
              37.1904182434082
            ],
            [
              114.4364242553711,
              38.09331130981445
            ],
            [
              115.76783752441406,
              38.416015625
            ],
            [
              116.5513916015625,
              38.416015625
            ],
            [
              117.57643127441406,
              38.738853454589844
            ],
            [
              117.60940551757812,
              38.80344009399414
            ],
            [
              117.88837432861328,
              39.19107437133789
            ],
            [
              118.04566192626953,
              39.19107437133789
            ],
            [
              118.0568618774414,
              39.06184005737305
            ],
            [
              118.98941802978516,
              39.19107437133789
            ],
            [
              119.21530151367188,
              39.320335388183594
            ],
            [
              119.38044738769531,
              39.77294921875
            ],
            [
              120.50029754638672,
              40.225894927978516
            ],
            [
              120.64734649658203,
              40.4848747253418
            ],
            [
              120.72650909423828,
              40.4848747253418
            ]
          ]
        ]
      }
    }
  ]
}
