{
  "type": "FeatureCollection",
  "features": [
    {
      "type": "Feature",
      "properties": {
        "Name": "Ngô Dynasty",
        "FromYear": 1241,
        "ToYear": 1278,
        "Area": 140362.65725227553,
        "Type": "POLITY",
        "Wikipedia": "Ngô dynasty",
        "Wikidata": "Q703919",
        "SeshatID": "",
        "Components": "",
        "MemberOf": "",
        "displayYear": 1276,
        "sourceYear": 1276,
        "mappedTerritoryId": "cliopatria_ng_dynasty"
      },
      "geometry": {
        "type": "Polygon",
        "coordinates": [
          [
            [
              108.09842681884766,
              21.500539779663086
            ],
            [
              107.97187042236328,
              21.629112243652344
            ],
            [
              107.58939361572266,
              21.5648250579834
            ],
            [
              107.4627456665039,
              21.693397521972656
            ],
            [
              107.23982238769531,
              21.693397521972656
            ],
            [
              106.71125030517578,
              22.079116821289062
            ],
            [
              106.60701751708984,
              22.33626365661621
            ],
            [
              106.77223205566406,
              22.85055923461914
            ],
            [
              106.70928955078125,
              22.914846420288086
            ],
            [
              106.32543182373047,
              22.85055923461914
            ],
            [
              106.19947814941406,
              22.97913360595703
            ],
            [
              105.75257110595703,
              22.97913360595703
            ],
            [
              105.50077819824219,
              23.236284255981445
            ],
            [
              105.21431732177734,
              23.30057144165039
            ],
            [
              104.95609283447266,
              23.107707977294922
            ],
            [
              104.83610534667969,
              22.85055923461914
            ],
            [
              104.51583099365234,
              22.72198486328125
            ],
            [
              104.15472412109375,
              22.786272048950195
            ],
            [
              104.0359878540039,
              22.529123306274414
            ],
            [
              103.88714599609375,
              22.529123306274414
            ],
            [
              103.77134704589844,
              22.72198486328125
            ],
            [
              103.52598571777344,
              22.59341049194336
            ],
            [
              103.60041046142578,
              22.59341049194336
            ],
            [
              103.49324798583984,
              22.400548934936523
            ],
            [
              103.76914978027344,
              22.271976470947266
            ],
            [
              103.57740783691406,
              22.014829635620117
            ],
            [
              103.59866333007812,
              21.693397521972656
            ],
            [
              103.0694808959961,
              21.179107666015625
            ],
            [
              103.05915069580078,
              21.114822387695312
            ],
            [
              103.03853607177734,
              20.986249923706055
            ],
            [
              103.59093475341797,
              20.72910499572754
            ],
            [
              103.81349182128906,
              20.72910499572754
            ],
            [
              103.99296569824219,
              20.921964645385742
            ],
            [
              104.364013671875,
              20.921964645385742
            ],
            [
              104.61909484863281,
              20.664819717407227
            ],
            [
              104.50334167480469,
              20.40767478942871
            ],
            [
              104.65162658691406,
              20.40767478942871
            ],
            [
              104.98062133789062,
              20.150527954101562
            ],
            [
              104.85443115234375,
              19.8290958404541
            ],
            [
              104.27381134033203,
              19.443374633789062
            ],
            [
              104.25312805175781,
              19.314802169799805
            ],
            [
              104.39079284667969,
              19.25051498413086
            ],
            [
              104.35978698730469,
              19.057653427124023
            ],
            [
              104.50773620605469,
              19.057653427124023
            ],
            [
              104.6246566772461,
              18.864791870117188
            ],
            [
              105.12155151367188,
              18.736217498779297
            ],
            [
              105.24868774414062,
              18.607641220092773
            ],
            [
              105.20738220214844,
              18.350492477416992
            ],
            [
              106.60742950439453,
              16.9361629486084
            ],
            [
              106.95267486572266,
              17.257600784301758
            ],
            [
              106.96282958984375,
              17.321889877319336
            ],
            [
              106.75170135498047,
              17.38617706298828
            ],
            [
              106.7720947265625,
              17.514753341674805
            ],
            [
              106.57118225097656,
              17.643327713012695
            ],
            [
              106.56956481933594,
              18.093341827392578
            ],
            [
              106.29487609863281,
              18.2219181060791
            ],
            [
              106.17830657958984,
              18.414779663085938
            ],
            [
              106.030517578125,
              18.414779663085938
            ],
            [
              106.05134582519531,
              18.543354034423828
            ],
            [
              105.73389434814453,
              18.864791870117188
            ],
            [
              105.91281127929688,
              19.507661819458008
            ],
            [
              105.84930419921875,
              19.571949005126953
            ],
            [
              106.0606460571289,
              19.95766830444336
            ],
            [
              106.53694915771484,
              20.150527954101562
            ],
            [
              106.68537902832031,
              20.60053253173828
            ],
            [
              106.8337173461914,
              20.60053253173828
            ],
            [
              106.87641143798828,
              20.857677459716797
            ],
            [
              107.41735076904297,
              20.986249923706055
            ],
            [
              107.79033660888672,
              21.43625259399414
            ],
            [
              108.08744049072266,
              21.43625259399414
            ],
            [
              108.09842681884766,
              21.500539779663086
            ]
          ],
          [
            [
              106.10354614257812,
              21.5648250579834
            ],
            [
              106.1778335571289,
              21.5648250579834
            ],
            [
              106.16704559326172,
              21.500539779663086
            ],
            [
              106.09276580810547,
              21.500539779663086
            ],
            [
              106.10354614257812,
              21.5648250579834
            ]
          ]
        ]
      }
    }
  ]
}
