{
  "type": "FeatureCollection",
  "features": [
    {
      "type": "Feature",
      "properties": {
        "Name": "Salian Franks",
        "FromYear": 500,
        "ToYear": 509,
        "Area": 277829.53080733574,
        "Type": "POLITY",
        "Wikipedia": "Salian Franks",
        "Wikidata": "Q939852",
        "SeshatID": "fr_merovingian_emp_1",
        "Components": "",
        "MemberOf": "(Merovingian Empire)",
        "displayYear": 500,
        "sourceYear": 500,
        "mappedTerritoryId": "cliopatria_salian_franks"
      },
      "geometry": {
        "type": "Polygon",
        "coordinates": [
          [
            [
              5.891344547271729,
              50.71213912963867
            ],
            [
              5.973455429077148,
              50.77880859375
            ],
            [
              5.960404872894287,
              51.17921447753906
            ],
            [
              6.203768730163574,
              51.51342010498047
            ],
            [
              5.940618991851807,
              51.78114318847656
            ],
            [
              4.414589405059814,
              51.71418380737305
            ],
            [
              4.329687118530273,
              51.71418380737305
            ],
            [
              4.159882545471191,
              51.71418380737305
            ],
            [
              4.260037899017334,
              51.37968063354492
            ],
            [
              4.093774318695068,
              51.31283950805664
            ],
            [
              3.416590452194214,
              51.31283950805664
            ],
            [
              3.409677743911743,
              51.44654083251953
            ],
            [
              3.155481338500977,
              51.44654083251953
            ],
            [
              2.577829360961914,
              51.17921447753906
            ],
            [
              1.656218767166138,
              51.04566955566406
            ],
            [
              1.424705147743225,
              50.71213912963867
            ],
            [
              1.454967975616455,
              50.2459831237793
            ],
            [
              1.052847385406494,
              49.98000717163086
            ],
            [
              0.224112883210182,
              49.84712600708008
            ],
            [
              -0.012448177672923,
              49.64793395996094
            ],
            [
              0.007001183927059,
              49.38258361816406
            ],
            [
              -1.250783205032349,
              49.44889450073242
            ],
            [
              -1.361783027648926,
              49.78071212768555
            ],
            [
              -2.031550645828247,
              49.78071212768555
            ],
            [
              -1.913302421569824,
              49.38258361816406
            ],
            [
              -1.651668906211853,
              49.2500114440918
            ],
            [
              -1.635041356086731,
              49.051273345947266
            ],
            [
              -1.718345284461975,
              49.051273345947266
            ],
            [
              -1.607621908187866,
              48.72037124633789
            ],
            [
              -1.602181315422058,
              48.654239654541016
            ],
            [
              -1.508333325386047,
              48.52202224731445
            ],
            [
              -1.668919563293457,
              48.455936431884766
            ],
            [
              -1.652703642845154,
              48.257774353027344
            ],
            [
              -1.647326707839966,
              48.191749572753906
            ],
            [
              -1.796727180480957,
              47.993770599365234
            ],
            [
              -2.447182655334473,
              47.86185836791992
            ],
            [
              -2.837259292602539,
              47.598209381103516
            ],
            [
              -2.831500053405762,
              47.53233337402344
            ],
            [
              -2.578423976898193,
              47.46647262573242
            ],
            [
              -2.561590671539307,
              47.26897048950195
            ],
            [
              -2.314568996429443,
              47.26897048950195
            ],
            [
              -2.232228517532349,
              47.26897048950195
            ],
            [
              -1.408822774887085,
              47.26897048950195
            ],
            [
              -1.176878452301025,
              47.46647262573242
            ],
            [
              -0.269995987415314,
              47.46647262573242
            ],
            [
              -0.260690033435822,
              47.33478927612305
            ],
            [
              -0.095940217375755,
              47.33478927612305
            ],
            [
              -0.004512888379395,
              47.20316696166992
            ],
            [
              1.312388062477112,
              47.20316696166992
            ],
            [
              2.02357006072998,
              47.730003356933594
            ],
            [
              2.945314645767212,
              47.46647262573242
            ],
            [
              3.922977447509766,
              47.730003356933594
            ],
            [
              4.666224002838135,
              47.730003356933594
            ],
            [
              4.759079456329346,
              47.46647262573242
            ],
            [
              5.176053524017334,
              47.33478927612305
            ],
            [
              5.180784702301025,
              47.20316696166992
            ],
            [
              5.514444828033447,
              47.07159423828125
            ],
            [
              5.594502449035645,
              47.13737487792969
            ],
            [
              5.576864242553711,
              47.664100646972656
            ],
            [
              5.822384834289551,
              47.730003356933594
            ],
            [
              5.818123817443848,
              47.86185836791992
            ],
            [
              6.310186386108398,
              47.993770599365234
            ],
            [
              6.975266933441162,
              47.86185836791992
            ],
            [
              7.06591796875,
              47.53233337402344
            ],
            [
              7.314839363098145,
              47.46647262573242
            ],
            [
              7.483957767486572,
              47.26897048950195
            ],
            [
              8.061505317687988,
              47.20316696166992
            ],
            [
              8.394814491271973,
              46.94007873535156
            ],
            [
              8.723495483398438,
              46.94007873535156
            ],
            [
              8.887835502624512,
              46.94007873535156
            ],
            [
              8.88620662689209,
              47.07159423828125
            ],
            [
              9.130768775939941,
              47.26897048950195
            ],
            [
              9.295450210571289,
              47.26897048950195
            ],
            [
              9.376555442810059,
              47.4006233215332
            ],
            [
              9.951909065246582,
              47.664100646972656
            ],
            [
              9.868124008178711,
              47.86185836791992
            ],
            [
              9.950777053833008,
              47.86185836791992
            ],
            [
              10.11336898803711,
              48.455936431884766
            ],
            [
              11.026633262634277,
              48.786521911621094
            ],
            [
              11.026754379272461,
              48.852684020996094
            ],
            [
              11.110798835754395,
              49.18375015258789
            ],
            [
              10.944150924682617,
              49.2500114440918
            ],
            [
              10.860734939575195,
              49.2500114440918
            ],
            [
              10.527070999145508,
              49.2500114440918
            ],
            [
              9.775094032287598,
              49.44889450073242
            ],
            [
              9.690682411193848,
              49.58156967163086
            ],
            [
              9.439866065979004,
              49.58156967163086
            ],
            [
              9.520442008972168,
              49.98000717163086
            ],
            [
              9.266509056091309,
              50.2459831237793
            ],
            [
              8.759209632873535,
              50.51224899291992
            ],
            [
              8.42556381225586,
              50.312522888183594
            ],
            [
              8.265043258666992,
              49.84712600708008
            ],
            [
              7.090780258178711,
              49.91355895996094
            ],
            [
              6.426200866699219,
              49.71431350708008
            ],
            [
              6.342518329620361,
              49.71431350708008
            ],
            [
              6.348425388336182,
              49.51522445678711
            ],
            [
              6.18333101272583,
              49.44889450073242
            ],
            [
              5.761219024658203,
              49.58156967163086
            ],
            [
              5.441061019897461,
              49.18375015258789
            ],
            [
              5.450491905212402,
              48.91886520385742
            ],
            [
              4.782006740570068,
              48.98506164550781
            ],
            [
              4.432048320770264,
              49.38258361816406
            ],
            [
              4.322512626647949,
              49.98000717163086
            ],
            [
              4.238675117492676,
              49.98000717163086
            ],
            [
              4.310800075531006,
              50.2459831237793
            ],
            [
              4.478790283203125,
              50.2459831237793
            ],
            [
              4.641211032867432,
              50.37908172607422
            ],
            [
              4.635622024536133,
              50.51224899291992
            ],
            [
              4.969600677490234,
              50.578861236572266
            ],
            [
              5.048582077026367,
              50.71213912963867
            ],
            [
              5.807068347930908,
              50.71213912963867
            ],
            [
              5.891344547271729,
              50.71213912963867
            ]
          ]
        ]
      }
    }
  ]
}
