{"type": "FeatureCollection", "features": [{"type": "Feature", "properties": {"name": "Pala Empire", "displayYear": 907, "fromYear": 900, "toYear": 946, "wikipedia": "Pala Empire", "seshatId": "in_pala_emp", "areaKm2": 328351.2710327507, "source": "Seshat Cliopatria"}, "geometry": {"type": "MultiPolygon", "coordinates": [[[[91.0677490234375, 22.400548934936523], [91.21656036376953, 22.400548934936523], [91.2628402709961, 22.20768928527832], [91.0304183959961, 22.143402099609375], [91.0583724975586, 22.33626365661621], [91.0677490234375, 22.400548934936523]]], [[[87.23835754394531, 26.772293090820312], [87.5139389038086, 26.643707275390625], [88.5526123046875, 26.57941436767578], [88.72834014892578, 26.32224464416504], [89.11579132080078, 26.386537551879883], [89.2047348022461, 26.06507110595703], [89.3426284790039, 26.000778198242188], [89.89898378049843, 26.129364013671875], [89.34609929239302, 25.581315631669973], [89.66210869952108, 25.44882599660427], [90.46830592715494, 25.273446273029823], [92.4782508955373, 25.133559542305218], [92.33797454833984, 24.329193115234375], [92.14620071973599, 24.0742912275604], [92.08105332240538, 24.1037007291356], [91.67883891359871, 24.11406830934415], [91.3962321518843, 23.90161319539076], [91.32962382744952, 23.59349184657011], [91.66213948764285, 23.39860858828119], [91.59561243287135, 23.17563849227671], [91.37104638852381, 23.08381572142033], [91.4446661785479, 22.786272048950195], [91.4225082397461, 22.786272048950195], [91.24492645263672, 22.59341049194336], [90.93775177001953, 22.529123306274414], [90.77967071533203, 21.950544357299805], [90.6309814453125, 21.950544357299805], [90.64935302734375, 22.079116821289062], [90.42626953125, 22.079116821289062], [90.3154067993164, 21.821969985961914], [90.15770721435547, 21.7576847076416], [89.89663696289062, 22.014829635620117], [89.86945343017578, 21.821969985961914], [89.71179962158203, 21.7576847076416], [89.11725616455078, 21.7576847076416], [89.09945678710938, 21.629112243652344], [88.72795104980469, 21.629112243652344], [88.71597290039062, 22.079116821289062], [88.64161682128906, 22.079116821289062], [88.51387023925781, 21.693397521972656], [88.19908142089844, 21.5648250579834], [88.20438385009766, 22.143402099609375], [87.99917602539062, 22.271976470947266], [87.88645935058594, 22.529123306274414], [85.92020416259766, 23.36486053466797], [85.86429595947266, 23.493436813354492], [84.8861083984375, 23.943456649780273], [83.32047271728516, 24.457773208618164], [83.29146575927734, 25.229267120361328], [83.39775085449219, 25.422143936157227], [83.98680114746094, 25.807899475097656], [84.03135681152344, 26.06507110595703], [84.192626953125, 26.129364013671875], [84.16345977783203, 26.386537551879883], [84.23849487304688, 26.386537551879883], [84.30914306640625, 26.772293090820312], [84.80799102783203, 27.41520881652832], [85.03369903564453, 27.41520881652832], [85.4345703125, 27.158044815063477], [87.16324615478516, 26.772293090820312], [87.23835754394531, 26.772293090820312]]]]}}]}