{"type": "FeatureCollection", "features": [{"type": "Feature", "properties": {"name": "Kingdom of France", "displayYear": 1650, "fromYear": 1648, "toYear": 1652, "wikipedia": "Kingdom of France", "seshatId": "fr_bourbon_k_1", "areaKm2": 486898.71517917246, "source": "Seshat Cliopatria"}, "geometry": {"type": "MultiPolygon", "coordinates": [[[[2.159061908721924, 51.112430572509766], [1.656218767166138, 51.04566955566406], [1.424705147743225, 50.71213912963867], [1.454967975616455, 50.2459831237793], [1.052847385406494, 49.98000717163086], [0.224112883210182, 49.84712600708008], [-0.012448177672923, 49.64793395996094], [0.007001183927059, 49.38258361816406], [-1.250783205032349, 49.44889450073242], [-1.361783027648926, 49.78071212768555], [-2.031550645828247, 49.78071212768555], [-1.913302421569824, 49.38258361816406], [-1.651668906211853, 49.2500114440918], [-1.635041356086731, 49.051273345947266], [-1.718345284461975, 49.051273345947266], [-1.602181315422058, 48.654239654541016], [-2.521934509277344, 48.72037124633789], [-2.759404182434082, 48.5881233215332], [-3.122164011001587, 48.91886520385742], [-3.455082654953003, 48.91886520385742], [-3.85184383392334, 48.72037124633789], [-4.599917888641357, 48.72037124633789], [-4.911745548248291, 48.52202224731445], [-4.891265392303467, 48.323814392089844], [-4.642560005187988, 48.323814392089844], [-4.546383857727051, 48.191749572753906], [-4.705362796783447, 48.1257438659668], [-4.692053318023682, 47.993770599365234], [-4.424368858337402, 47.79592514038086], [-3.934937715530396, 47.86185836791992], [-3.757235288619995, 47.730003356933594], [-3.344320774078369, 47.730003356933594], [-3.155531167984009, 47.46647262573242], [-2.837259292602539, 47.598209381103516], [-2.825755596160889, 47.46647262573242], [-2.578423976898193, 47.46647262573242], [-2.561590671539307, 47.26897048950195], [-2.232228517532349, 47.26897048950195], [-2.139080047607422, 47.13737487792969], [-2.194406032562256, 46.808616638183594], [-2.024919986724854, 46.74290466308594], [-2.014399528503418, 46.61152267456055], [-1.666043281555176, 46.348915100097656], [-1.251809358596802, 46.283294677734375], [-1.222735166549683, 45.889827728271484], [-1.141096234321594, 45.889827728271484], [-1.213142395019531, 45.75876998901367], [-1.045281529426575, 45.693260192871094], [-1.031213998794556, 45.496795654296875], [-1.189373373985291, 45.431331634521484], [-1.170574903488159, 45.169586181640625], [-1.251859068870544, 45.169586181640625], [-1.205376982688904, 44.5159797668457], [-1.286344885826111, 44.5159797668457], [-1.267958283424377, 44.25482940673828], [-1.348801136016846, 44.25482940673828], [-1.321390628814697, 43.86341094970703], [-1.402047991752625, 43.86341094970703], [-1.459883332252502, 43.53750228881836], [-1.692170143127441, 43.407203674316406], [-1.687574744224548, 43.342071533203125], [-1.441840410232544, 43.276947021484375], [-1.428432941436768, 43.08163070678711], [-1.026964664459229, 43.08163070678711], [-0.528801321983337, 42.82133865356445], [-0.208102732896805, 42.82133865356445], [0.040142297744751, 42.691246032714844], [1.074691534042358, 42.82133865356445], [1.485537886619568, 42.62621307373047], [1.565624117851257, 42.62621307373047], [1.645710229873657, 42.62621307373047], [1.725796341896057, 42.62621307373047], [1.72901451587677, 42.56119155883789], [1.80907130241394, 42.56119155883789], [2.455409526824951, 42.43117141723633], [2.618277549743652, 42.36617660522461], [2.62399697303772, 42.236209869384766], [2.544085741043091, 42.236209869384766], [2.484349250793457, 41.781593322753906], [1.935497045516968, 41.586883544921875], [1.791565299034119, 41.26253128051758], [1.871051788330078, 41.26253128051758], [2.106574535369873, 41.32738494873047], [2.333626985549927, 41.586883544921875], [2.572504997253418, 41.586883544921875], [3.116764783859253, 41.911441802978516], [3.178062200546265, 42.36617660522461], [3.009923458099365, 42.56119155883789], [2.984907388687134, 43.146724700927734], [3.617136240005493, 43.407203674316406], [3.692415952682495, 43.53750228881836], [4.173032760620117, 43.6026611328125], [4.177847862243652, 43.472347259521484], [5.063065528869629, 43.472347259521484], [5.386905193328857, 43.407203674316406], [5.390771865844727, 43.276947021484375], [5.631923198699951, 43.276947021484375], [5.796233177185059, 43.146724700927734], [6.517646789550781, 43.211830139160156], [6.593565464019775, 43.407203674316406], [6.832098007202148, 43.53750228881836], [6.91260290145874, 43.53750228881836], [6.829278945922852, 43.6678352355957], [6.668147563934326, 43.6678352355957], [6.74289083480835, 43.92862319946289], [6.416947841644287, 44.05907440185547], [6.413734436035156, 44.18956756591797], [6.814867973327637, 44.32010269165039], [6.565949440002441, 44.58129119873047], [6.640680313110352, 44.842647552490234], [6.228048801422119, 45.10417556762695], [5.901144027709961, 45.169586181640625], [5.812080860137939, 45.431331634521484], [5.48224401473999, 45.56227111816406], [5.634932518005371, 45.889827728271484], [6.033519744873047, 46.21768569946289], [6.031580448150635, 46.283294677734375], [5.949744701385498, 46.283294677734375], [5.947766780853271, 46.348915100097656], [5.376893997192383, 46.283294677734375], [5.432206630706787, 47.07159423828125], [5.594502449035645, 47.13737487792969], [5.576864242553711, 47.664100646972656], [5.822384834289551, 47.730003356933594], [5.818123817443848, 47.86185836791992], [5.646180152893066, 48.059749603271484], [5.480661869049072, 48.059749603271484], [5.381501197814941, 48.52202224731445], [5.628278255462646, 48.5881233215332], [5.71575403213501, 48.455936431884766], [5.881701946258545, 48.455936431884766], [5.787806034088135, 48.786521911621094], [5.868803024291992, 48.852684020996094], [5.785610198974609, 48.852684020996094], [5.702417373657227, 48.852684020996094], [5.619224548339844, 48.852684020996094], [5.621494293212891, 48.786521911621094], [5.538338184356689, 48.786521911621094], [5.455182075500488, 48.786521911621094], [5.379139423370361, 48.5881233215332], [5.296092987060547, 48.5881233215332], [5.286453723907471, 48.852684020996094], [5.127524375915527, 48.654239654541016], [4.878275871276855, 48.654239654541016], [4.865273475646973, 48.98506164550781], [5.029265403747559, 49.051273345947266], [5.016488552093506, 49.38258361816406], [5.175980091094971, 49.58156967163086], [5.084731101989746, 49.78071212768555], [4.830895900726318, 49.84712600708008], [4.822853088378906, 50.04647445678711], [4.738976001739502, 50.04647445678711], [4.736247062683105, 50.11296081542969], [4.652331352233887, 50.11296081542969], [4.490188121795654, 49.98000717163086], [3.396948337554932, 50.04647445678711], [3.211941242218018, 50.37908172607422], [2.359550476074219, 50.578861236572266], [2.243584632873535, 51.112430572509766], [2.159061908721924, 51.112430572509766]], [[4.725685596466064, 43.92862319946289], [4.730143547058105, 43.79821014404297], [4.97415018081665, 43.73301696777344], [5.048438549041748, 43.92862319946289], [5.288479328155518, 43.99384307861328], [5.110112190246582, 44.5159797668457], [4.95257568359375, 44.38538360595703], [4.628954887390137, 44.38538360595703], [4.797497272491455, 44.18956756591797], [4.799726963043213, 44.12431716918945], [4.801949977874756, 44.05907440185547], [4.804165363311768, 43.99384307861328], [4.723446369171143, 43.99384307861328], [4.725685596466064, 43.92862319946289]], [[4.313027858734131, 46.283294677734375], [4.405217170715332, 46.02093505859375], [4.081100463867188, 45.95537567138672], [3.985684394836426, 46.283294677734375], [4.231192111968994, 46.283294677734375], [4.313027858734131, 46.283294677734375]]], [[[6.709661960601807, 48.52202224731445], [6.543642044067383, 48.52202224731445], [6.466282844543457, 48.323814392089844], [6.718523979187012, 48.191749572753906], [6.794414520263672, 48.455936431884766], [6.711440563201904, 48.455936431884766], [6.709661960601807, 48.52202224731445]]], [[[7.703090667724609, 48.654239654541016], [7.364774227142334, 48.91886520385742], [7.281544208526611, 48.91886520385742], [6.785677909851074, 48.786521911621094], [6.702522277832031, 48.786521911621094], [6.613873958587646, 48.98506164550781], [7.031855583190918, 48.91886520385742], [7.03020715713501, 48.98506164550781], [6.775116920471191, 49.18375015258789], [6.024710655212402, 49.18375015258789], [5.94133186340332, 49.18375015258789], [5.864473819732666, 48.98506164550781], [6.03309965133667, 48.91886520385742], [6.451152324676514, 48.852684020996094], [6.371833801269531, 48.72037124633789], [6.872262954711914, 48.654239654541016], [6.875682353973389, 48.52202224731445], [7.041702270507812, 48.52202224731445], [7.135842800140381, 48.059749603271484], [7.053083419799805, 48.059749603271484], [7.056310653686523, 47.92780685424805], [6.890934467315674, 47.92780685424805], [6.892613887786865, 47.86185836791992], [6.894289970397949, 47.79592514038086], [6.895963191986084, 47.730003356933594], [6.897632598876953, 47.664100646972656], [6.980180740356445, 47.664100646972656], [6.981812000274658, 47.598209381103516], [6.983439445495605, 47.53233337402344], [7.39728307723999, 47.46647262573242], [7.559404373168945, 47.598209381103516], [7.558016777038574, 47.664100646972656], [7.556626796722412, 47.730003356933594], [7.555233955383301, 47.79592514038086], [7.55383825302124, 47.86185836791992], [7.552440643310547, 47.92780685424805], [7.626908302307129, 48.323814392089844], [7.709810256958008, 48.323814392089844], [7.708469390869141, 48.38986587524414], [7.707126617431641, 48.455936431884766], [7.705782890319824, 48.52202224731445], [7.788793087005615, 48.52202224731445], [7.787483692169189, 48.5881233215332], [7.704437732696533, 48.5881233215332], [7.703090667724609, 48.654239654541016]], [[7.12311315536499, 48.5881233215332], [7.124712467193604, 48.52202224731445], [7.126309871673584, 48.455936431884766], [7.209283828735352, 48.455936431884766], [7.207722663879395, 48.52202224731445], [7.206159114837646, 48.5881233215332], [7.12311315536499, 48.5881233215332]]], [[[5.954118251800537, 48.786521911621094], [5.866640090942383, 48.91886520385742], [6.03309965133667, 48.91886520385742], [6.037274360656738, 48.786521911621094], [5.954118251800537, 48.786521911621094]]], [[[5.85140323638916, 49.38258361816406], [5.767911911010742, 49.38258361816406], [5.684420585632324, 49.38258361816406], [5.68668270111084, 49.316287994384766], [5.60322904586792, 49.316287994384766], [5.519775390625, 49.316287994384766], [5.43632173538208, 49.316287994384766], [5.35286808013916, 49.316287994384766], [5.36487340927124, 48.98506164550781], [5.697940349578857, 48.98506164550781], [5.607818126678467, 49.18375015258789], [5.85359001159668, 49.316287994384766], [5.85140323638916, 49.38258361816406]]]]}}]}