{
  "type": "FeatureCollection",
  "features": [
    {
      "type": "Feature",
      "properties": {
        "Name": "Papua New Guinea",
        "FromYear": 1946,
        "ToYear": 1975,
        "Area": 477475.8225645613,
        "Type": "POLITY",
        "Wikipedia": "Papua New Guinea",
        "Wikidata": "Q691",
        "SeshatID": "",
        "Components": "",
        "MemberOf": "",
        "displayYear": 1958,
        "sourceYear": 1958,
        "mappedTerritoryId": "cliopatria_papua_new_guinea"
      },
      "geometry": {
        "type": "MultiPolygon",
        "coordinates": [
          [
            [
              [
                144.34544372558594,
                -3.76445460319519
              ],
              [
                144.5773162841797,
                -4.021605014801025
              ],
              [
                144.87562561035156,
                -4.150180339813232
              ],
              [
                144.95913696289062,
                -4.343043327331543
              ],
              [
                145.32704162597656,
                -4.407330989837646
              ],
              [
                145.71795654296875,
                -4.857344150543213
              ],
              [
                145.68211364746094,
                -5.435933113098145
              ],
              [
                146.34681701660156,
                -5.564508438110352
              ],
              [
                146.79759216308594,
                -5.757371425628662
              ],
              [
                146.95716857910156,
                -5.950234413146973
              ],
              [
                147.39462280273438,
                -5.950234413146973
              ],
              [
                147.70530700683594,
                -6.207384586334229
              ],
              [
                147.81834411621094,
                -6.721685886383057
              ],
              [
                146.8752899169922,
                -6.78597354888916
              ],
              [
                146.98562622070312,
                -7.235986709594727
              ],
              [
                147.78463745117188,
                -8.007437705993652
              ],
              [
                148.0827178955078,
                -8.071725845336914
              ],
              [
                148.1265411376953,
                -8.52173900604248
              ],
              [
                148.3585662841797,
                -8.650314331054688
              ],
              [
                148.4715576171875,
                -9.036039352416992
              ],
              [
                149.12222290039062,
                -8.971752166748047
              ],
              [
                149.20208740234375,
                -9.036039352416992
              ],
              [
                149.17800903320312,
                -9.486052513122559
              ],
              [
                149.92327880859375,
                -9.61462688446045
              ],
              [
                149.9453887939453,
                -9.807489395141602
              ],
              [
                149.72608947753906,
                -9.807489395141602
              ],
              [
                149.7485809326172,
                -10.000351905822754
              ],
              [
                150.4296112060547,
                -10.193214416503906
              ],
              [
                150.55825805664062,
                -10.643227577209473
              ],
              [
                149.90802001953125,
                -10.707514762878418
              ],
              [
                149.64862060546875,
                -10.386076927185059
              ],
              [
                147.5703125,
                -10.128927230834961
              ],
              [
                147.3285675048828,
                -9.936064720153809
              ],
              [
                147.29937744140625,
                -9.678915023803711
              ],
              [
                146.83950805664062,
                -9.486052513122559
              ],
              [
                146.73182678222656,
                -9.1646146774292
              ],
              [
                146.50587463378906,
                -9.100326538085938
              ],
              [
                146.13609313964844,
                -8.328875541687012
              ],
              [
                145.7406768798828,
                -8.007437705993652
              ],
              [
                144.8529510498047,
                -7.878862857818604
              ],
              [
                144.70115661621094,
                -7.8145751953125
              ],
              [
                144.68968200683594,
                -7.685999870300293
              ],
              [
                144.39208984375,
                -7.621712207794189
              ],
              [
                144.1902313232422,
                -7.8145751953125
              ],
              [
                143.82528686523438,
                -7.8145751953125
              ],
              [
                143.77561950683594,
                -8.071725845336914
              ],
              [
                143.48361206054688,
                -8.071725845336914
              ],
              [
                143.5015106201172,
                -8.264588356018066
              ],
              [
                142.92344665527344,
                -8.328875541687012
              ],
              [
                142.9356231689453,
                -8.457450866699219
              ],
              [
                143.37374877929688,
                -8.457450866699219
              ],
              [
                143.53221130371094,
                -8.586026191711426
              ],
              [
                143.55116271972656,
                -8.778888702392578
              ],
              [
                143.24635314941406,
                -8.650314331054688
              ],
              [
                143.34487915039062,
                -8.907464027404785
              ],
              [
                143.2848358154297,
                -9.036039352416992
              ],
              [
                142.99917602539062,
                -9.100326538085938
              ],
              [
                142.6604766845703,
                -9.357477188110352
              ],
              [
                142.13565063476562,
                -9.228901863098145
              ],
              [
                140.89356994628906,
                -9.228901863098145
              ],
              [
                140.8870391845703,
                -9.1646146774292
              ],
              [
                140.885009765625,
                -8.393163681030273
              ],
              [
                140.95802307128906,
                -8.393163681030273
              ],
              [
                140.8835906982422,
                -7.557425022125244
              ],
              [
                140.95655822753906,
                -7.557425022125244
              ],
              [
                140.90911865234375,
                -6.978836059570312
              ],
              [
                140.75314331054688,
                -6.850261211395264
              ],
              [
                140.7286376953125,
                -6.528822898864746
              ],
              [
                140.9285125732422,
                -6.271672248840332
              ],
              [
                140.88827514648438,
                -5.693083763122559
              ],
              [
                140.96116638183594,
                -5.693083763122559
              ],
              [
                140.8899688720703,
                -4.535906314849854
              ],
              [
                140.96282958984375,
                -4.535906314849854
              ],
              [
                140.8920135498047,
                -3.121578216552734
              ],
              [
                140.96484375,
                -3.121578216552734
              ],
              [
                140.87051391601562,
                -2.607277393341064
              ],
              [
                140.86798095703125,
                -2.542989730834961
              ],
              [
                141.6792755126953,
                -2.800140142440796
              ],
              [
                142.42706298828125,
                -3.250153541564941
              ],
              [
                143.01263427734375,
                -3.314441204071045
              ],
              [
                143.08546447753906,
                -3.314441204071045
              ],
              [
                143.52847290039062,
                -3.443016529083252
              ],
              [
                143.90841674804688,
                -3.76445460319519
              ],
              [
                144.34544372558594,
                -3.76445460319519
              ]
            ]
          ],
          [
            [
              [
                147.95050048828125,
                -5.564508438110352
              ],
              [
                147.9732208251953,
                -5.885946750640869
              ],
              [
                147.8320770263672,
                -5.950234413146973
              ],
              [
                147.7498779296875,
                -5.821659088134766
              ],
              [
                147.74530029296875,
                -5.757371425628662
              ],
              [
                147.594970703125,
                -5.693083763122559
              ],
              [
                147.5816192626953,
                -5.500220775604248
              ],
              [
                147.95050048828125,
                -5.564508438110352
              ]
            ]
          ],
          [
            [
              [
                146.8397674560547,
                -5.307357788085938
              ],
              [
                146.90423583984375,
                -5.17878246307373
              ],
              [
                146.97711181640625,
                -5.17878246307373
              ],
              [
                147.1270751953125,
                -5.243070125579834
              ],
              [
                147.0757598876953,
                -5.564508438110352
              ],
              [
                146.8397674560547,
                -5.307357788085938
              ]
            ]
          ],
          [
            [
              [
                150.10675048828125,
                -5.114494800567627
              ],
              [
                149.89663696289062,
                -5.243070125579834
              ],
              [
                149.82374572753906,
                -5.243070125579834
              ],
              [
                149.8152313232422,
                -5.114494800567627
              ],
              [
                150.09837341308594,
                -4.98591947555542
              ],
              [
                150.10675048828125,
                -5.114494800567627
              ]
            ]
          ],
          [
            [
              [
                145.99777221679688,
                -4.664481639862061
              ],
              [
                145.85977172851562,
                -4.793056964874268
              ],
              [
                145.7869110107422,
                -4.793056964874268
              ],
              [
                145.7025146484375,
                -4.600193977355957
              ],
              [
                145.91732788085938,
                -4.535906314849854
              ],
              [
                145.99777221679688,
                -4.664481639862061
              ]
            ]
          ],
          [
            [
              [
                146.39134216308594,
                -2.285839319229126
              ],
              [
                146.45220947265625,
                -1.964401364326477
              ],
              [
                146.9617919921875,
                -1.964401364326477
              ],
              [
                147.0345916748047,
                -1.964401364326477
              ],
              [
                147.2553253173828,
                -2.028688907623291
              ],
              [
                147.11691284179688,
                -2.221551656723022
              ],
              [
                146.39134216308594,
                -2.285839319229126
              ]
            ]
          ],
          [
            [
              [
                149.63563537597656,
                -1.385813117027283
              ],
              [
                149.7146759033203,
                -1.578675746917725
              ],
              [
                149.6418914794922,
                -1.578675746917725
              ],
              [
                149.569091796875,
                -1.578675746917725
              ],
              [
                149.42140197753906,
                -1.514388203620911
              ],
              [
                149.41525268554688,
                -1.321525454521179
              ],
              [
                149.63563537597656,
                -1.385813117027283
              ]
            ]
          ],
          [
            [
              [
                150.58840942382812,
                -9.678915023803711
              ],
              [
                150.369140625,
                -9.678915023803711
              ],
              [
                150.34725952148438,
                -9.486052513122559
              ],
              [
                150.13525390625,
                -9.550339698791504
              ],
              [
                149.9746856689453,
                -9.421764373779297
              ],
              [
                149.9534454345703,
                -9.228901863098145
              ],
              [
                150.16563415527344,
                -9.1646146774292
              ],
              [
                150.2598419189453,
                -9.357477188110352
              ],
              [
                150.7054443359375,
                -9.421764373779297
              ],
              [
                150.78573608398438,
                -9.486052513122559
              ],
              [
                150.7569580078125,
                -9.871777534484863
              ],
              [
                151.20314025878906,
                -9.936064720153809
              ],
              [
                151.22616577148438,
                -10.128927230834961
              ],
              [
                150.8683319091797,
                -10.193214416503906
              ],
              [
                150.77976989746094,
                -10.064640045166016
              ],
              [
                150.77210998535156,
                -10.000351905822754
              ],
              [
                150.61074829101562,
                -9.871777534484863
              ],
              [
                150.58840942382812,
                -9.678915023803711
              ]
            ]
          ],
          [
            [
              [
                152.85472106933594,
                -9.036039352416992
              ],
              [
                152.81008911132812,
                -9.29318904876709
              ],
              [
                152.66395568847656,
                -9.29318904876709
              ],
              [
                152.57659912109375,
                -9.1646146774292
              ],
              [
                152.5035400390625,
                -9.1646146774292
              ],
              [
                152.41639709472656,
                -9.036039352416992
              ],
              [
                152.47555541992188,
                -8.907464027404785
              ],
              [
                152.85472106933594,
                -9.036039352416992
              ]
            ]
          ],
          [
            [
              [
                151.03451538085938,
                -8.393163681030273
              ],
              [
                151.05410766601562,
                -8.586026191711426
              ],
              [
                150.9810791015625,
                -8.586026191711426
              ],
              [
                150.83502197265625,
                -8.586026191711426
              ],
              [
                150.8884735107422,
                -8.393163681030273
              ],
              [
                151.03451538085938,
                -8.393163681030273
              ]
            ]
          ],
          [
            [
              [
                151.11776733398438,
                -6.014522075653076
              ],
              [
                150.68515014648438,
                -6.078809261322021
              ],
              [
                150.34031677246094,
                -6.335959911346436
              ],
              [
                149.46524047851562,
                -6.335959911346436
              ],
              [
                149.30462646484375,
                -6.143096923828125
              ],
              [
                148.94491577148438,
                -6.207384586334229
              ],
              [
                148.70697021484375,
                -5.950234413146973
              ],
              [
                148.2602081298828,
                -5.821659088134766
              ],
              [
                148.1647491455078,
                -5.500220775604248
              ],
              [
                148.3790283203125,
                -5.435933113098145
              ],
              [
                149.4812774658203,
                -5.564508438110352
              ],
              [
                149.76837158203125,
                -5.500220775604248
              ],
              [
                149.7551727294922,
                -5.307357788085938
              ],
              [
                149.9738311767578,
                -5.307357788085938
              ],
              [
                150.0599365234375,
                -5.500220775604248
              ],
              [
                150.64308166503906,
                -5.500220775604248
              ],
              [
                150.9213409423828,
                -5.307357788085938
              ],
              [
                151.04574584960938,
                -4.98591947555542
              ],
              [
                151.54757690429688,
                -4.857344150543213
              ],
              [
                151.36656188964844,
                -4.278755664825439
              ],
              [
                151.6505584716797,
                -4.150180339813232
              ],
              [
                151.80368041992188,
                -4.278755664825439
              ],
              [
                152.0913543701172,
                -4.214468002319336
              ],
              [
                152.3174285888672,
                -4.343043327331543
              ],
              [
                152.28042602539062,
                -4.921631813049316
              ],
              [
                151.92445373535156,
                -5.050207138061523
              ],
              [
                152.0280303955078,
                -5.500220775604248
              ],
              [
                151.95513916015625,
                -5.500220775604248
              ],
              [
                151.37652587890625,
                -5.564508438110352
              ],
              [
                151.39036560058594,
                -5.757371425628662
              ],
              [
                151.11776733398438,
                -6.014522075653076
              ]
            ]
          ],
          [
            [
              [
                153.0576171875,
                -4.535906314849854
              ],
              [
                152.85923767089844,
                -4.857344150543213
              ],
              [
                152.7135009765625,
                -4.857344150543213
              ],
              [
                152.5555419921875,
                -4.664481639862061
              ],
              [
                152.52474975585938,
                -4.150180339813232
              ],
              [
                152.28138732910156,
                -3.700166940689087
              ],
              [
                151.38458251953125,
                -3.250153541564941
              ],
              [
                151.00247192382812,
                -2.864427804946899
              ],
              [
                150.70834350585938,
                -2.800140142440796
              ],
              [
                150.6999969482422,
                -2.607277393341064
              ],
              [
                150.99398803710938,
                -2.671565055847168
              ],
              [
                151.14810180664062,
                -2.864427804946899
              ],
              [
                151.36656188964844,
                -2.864427804946899
              ],
              [
                151.59689331054688,
                -3.121578216552734
              ],
              [
                152.19200134277344,
                -3.378728866577148
              ],
              [
                152.4304962158203,
                -3.76445460319519
              ],
              [
                152.4339599609375,
                -3.828742265701294
              ],
              [
                152.72531127929688,
                -3.828742265701294
              ],
              [
                153.03468322753906,
                -4.150180339813232
              ],
              [
                153.0576171875,
                -4.535906314849854
              ]
            ]
          ],
          [
            [
              [
                152.54052734375,
                -3.05729079246521
              ],
              [
                152.61949157714844,
                -3.185865879058838
              ],
              [
                152.6226043701172,
                -3.250153541564941
              ],
              [
                152.40101623535156,
                -3.185865879058838
              ],
              [
                152.39488220214844,
                -3.05729079246521
              ],
              [
                152.54052734375,
                -3.05729079246521
              ]
            ]
          ],
          [
            [
              [
                149.8885040283203,
                -2.350126981735229
              ],
              [
                150.32794189453125,
                -2.414414644241333
              ],
              [
                150.4114990234375,
                -2.671565055847168
              ],
              [
                150.33868408203125,
                -2.671565055847168
              ],
              [
                150.34146118164062,
                -2.735852479934692
              ],
              [
                150.12301635742188,
                -2.735852479934692
              ],
              [
                149.8235626220703,
                -2.542989730834961
              ],
              [
                149.8885040283203,
                -2.350126981735229
              ]
            ]
          ]
        ]
      }
    }
  ]
}
