{"type": "FeatureCollection", "features": [{"type": "Feature", "properties": {"name": "Late Pallava Empire", "displayYear": 800, "fromYear": 800, "toYear": 805, "wikipedia": "Late Pallava Empire", "seshatId": "in_pallava_emp_2", "areaKm2": 104642.00465930694, "source": "Seshat Cliopatria"}, "geometry": {"type": "Polygon", "coordinates": [[[79.79666439124316, 11.85120843574267], [80.1716401493246, 12.44566516664823], [80.36964340196812, 13.27652278695976], [80.25982809077243, 13.72507408978608], [80.15425782146089, 14.28148780599798], [80.20446218093646, 14.59772743867755], [80.07724532790733, 15.09941374678881], [80.10942041173651, 15.200387001037598], [80.21469969582778, 15.53077905148616], [79.6065543975283, 15.57766946347153], [79.0625763869851, 15.40150905867558], [78.8743374550275, 15.12547100831965], [79.23544197879093, 14.60328630226691], [78.95544576566107, 14.32246301321029], [77.44098323786332, 14.46218480994551], [76.9618066421868, 12.821741104125977], [76.96091450142971, 12.81937190361922], [77.83544230718712, 11.80784677537184], [79.79666439124316, 11.85120843574267]]]}}]}