{
  "type": "FeatureCollection",
  "features": [
    {
      "type": "Feature",
      "properties": {
        "Name": "United States of America",
        "FromYear": 1800,
        "ToYear": 1802,
        "Area": 1184777.4449392979,
        "Type": "POLITY",
        "Wikipedia": "United States",
        "Wikidata": "Q30",
        "SeshatID": "us_antebellum",
        "Components": "",
        "MemberOf": "",
        "displayYear": 1800,
        "sourceYear": 1800,
        "mappedTerritoryId": "cliopatria_united_states_of_america"
      },
      "geometry": {
        "type": "MultiPolygon",
        "coordinates": [
          [
            [
              [
                -75.64539337158203,
                35.32271194458008
              ],
              [
                -75.43637084960938,
                35.38706970214844
              ],
              [
                -75.39068603515625,
                35.258358001708984
              ],
              [
                -75.46796417236328,
                35.258358001708984
              ],
              [
                -75.44519805908203,
                35.194007873535156
              ],
              [
                -75.59971618652344,
                35.194007873535156
              ],
              [
                -75.64539337158203,
                35.32271194458008
              ]
            ]
          ],
          [
            [
              [
                -90.2623519897461,
                38.157840728759766
              ],
              [
                -90.3583755493164,
                38.028785705566406
              ],
              [
                -90.3282699584961,
                37.96426773071289
              ],
              [
                -90.51480102539062,
                38.028785705566406
              ],
              [
                -90.83804321289062,
                38.54513168334961
              ],
              [
                -90.570556640625,
                38.80344009399414
              ],
              [
                -90.49205780029297,
                38.80344009399414
              ],
              [
                -90.18002319335938,
                38.48057174682617
              ],
              [
                -90.35372924804688,
                38.351463317871094
              ],
              [
                -90.2623519897461,
                38.157840728759766
              ]
            ]
          ],
          [
            [
              [
                -67.51801300048828,
                44.5159797668457
              ],
              [
                -67.9228515625,
                44.5159797668457
              ],
              [
                -67.94304656982422,
                44.38538360595703
              ],
              [
                -68.21621704101562,
                44.45067596435547
              ],
              [
                -68.20589447021484,
                44.25482940673828
              ],
              [
                -68.69095611572266,
                44.25482940673828
              ],
              [
                -68.86370849609375,
                44.45067596435547
              ],
              [
                -68.88324737548828,
                44.32010269165039
              ],
              [
                -69.04499053955078,
                44.32010269165039
              ],
              [
                -68.98371887207031,
                44.18956756591797
              ],
              [
                -69.13445281982422,
                43.99384307861328
              ],
              [
                -69.3766098022461,
                43.99384307861328
              ],
              [
                -69.39627838134766,
                43.86341094970703
              ],
              [
                -69.71891021728516,
                43.86341094970703
              ],
              [
                -69.6883544921875,
                43.79821014404297
              ],
              [
                -70.172119140625,
                43.79821014404297
              ],
              [
                -70.27198791503906,
                43.6678352355957
              ],
              [
                -70.21087646484375,
                43.53750228881836
              ],
              [
                -70.36097717285156,
                43.342071533203125
              ],
              [
                -70.52180480957031,
                43.342071533203125
              ],
              [
                -70.82196807861328,
                42.95146560668945
              ],
              [
                -70.64234161376953,
                42.56119155883789
              ],
              [
                -70.98307037353516,
                42.43117141723633
              ],
              [
                -70.923828125,
                42.30118942260742
              ],
              [
                -70.62525939941406,
                42.17123794555664
              ],
              [
                -70.37123107910156,
                41.781593322753906
              ],
              [
                -70.1321029663086,
                41.781593322753906
              ],
              [
                -70.1098861694336,
                41.911441802978516
              ],
              [
                -69.95034790039062,
                41.911441802978516
              ],
              [
                -69.91557312011719,
                41.65177917480469
              ],
              [
                -70.44452667236328,
                41.586883544921875
              ],
              [
                -70.41597747802734,
                41.521995544433594
              ],
              [
                -70.5751724243164,
                41.521995544433594
              ],
              [
                -70.48988342285156,
                41.32738494873047
              ],
              [
                -70.72843170166016,
                41.32738494873047
              ],
              [
                -70.71211242675781,
                41.65177917480469
              ],
              [
                -70.89356994628906,
                41.521995544433594
              ],
              [
                -71.21195983886719,
                41.521995544433594
              ],
              [
                -71.26969146728516,
                41.65177917480469
              ],
              [
                -71.42900085449219,
                41.65177917480469
              ],
              [
                -71.37115478515625,
                41.521995544433594
              ],
              [
                -71.52356719970703,
                41.32738494873047
              ],
              [
                -72.84622192382812,
                41.26253128051758
              ],
              [
                -72.81721496582031,
                41.19768524169922
              ],
              [
                -73.47411346435547,
                41.06801223754883
              ],
              [
                -73.1781997680664,
                40.93837356567383
              ],
              [
                -73.2070083618164,
                41.00318908691406
              ],
              [
                -71.9939956665039,
                41.132843017578125
              ],
              [
                -71.93698120117188,
                41.00318908691406
              ],
              [
                -72.24861907958984,
                40.80876541137695
              ],
              [
                -73.46009063720703,
                40.6791877746582
              ],
              [
                -73.64078521728516,
                40.54964065551758
              ],
              [
                -74.14453887939453,
                40.614410400390625
              ],
              [
                -74.08737182617188,
                40.4848747253418
              ],
              [
                -73.9290542602539,
                40.4848747253418
              ],
              [
                -73.86712646484375,
                40.16116714477539
              ],
              [
                -74.17426300048828,
                39.77294921875
              ],
              [
                -74.11936950683594,
                39.64360046386719
              ],
              [
                -74.53467559814453,
                39.320335388183594
              ],
              [
                -74.48075866699219,
                39.19107437133789
              ],
              [
                -74.63629150390625,
                38.997230529785156
              ],
              [
                -74.92386627197266,
                38.93262481689453
              ],
              [
                -75.03128814697266,
                39.19107437133789
              ],
              [
                -75.40033721923828,
                39.320335388183594
              ],
              [
                -74.94844055175781,
                38.416015625
              ],
              [
                -75.39386749267578,
                37.96426773071289
              ],
              [
                -75.3427963256836,
                37.835243225097656
              ],
              [
                -75.79052734375,
                37.38381576538086
              ],
              [
                -75.74057006835938,
                37.254878997802734
              ],
              [
                -75.84671783447266,
                37.12596130371094
              ],
              [
                -76.00250244140625,
                37.12596130371094
              ],
              [
                -76.07736206054688,
                37.3193473815918
              ],
              [
                -75.99939727783203,
                37.3193473815918
              ],
              [
                -76.07490539550781,
                37.51277160644531
              ],
              [
                -75.89141845703125,
                37.641746520996094
              ],
              [
                -75.9423599243164,
                37.7707405090332
              ],
              [
                -75.81166076660156,
                37.835243225097656
              ],
              [
                -75.91468811035156,
                38.09331130981445
              ],
              [
                -75.83645629882812,
                38.09331130981445
              ],
              [
                -76.25408935546875,
                38.351463317871094
              ],
              [
                -76.3335189819336,
                38.54513168334961
              ],
              [
                -76.23002624511719,
                38.67427444458008
              ],
              [
                -76.38919067382812,
                38.8680305480957
              ],
              [
                -76.23213958740234,
                38.8680305480957
              ],
              [
                -76.31353759765625,
                39.06184005737305
              ],
              [
                -76.23494720458984,
                39.06184005737305
              ],
              [
                -76.42338562011719,
                39.320335388183594
              ],
              [
                -76.3648910522461,
                38.997230529785156
              ],
              [
                -76.52203369140625,
                38.997230529785156
              ],
              [
                -76.44068908691406,
                38.80344009399414
              ],
              [
                -76.5191879272461,
                38.80344009399414
              ],
              [
                -76.25370788574219,
                38.157840728759766
              ],
              [
                -76.38411712646484,
                38.09331130981445
              ],
              [
                -76.17671966552734,
                37.7707405090332
              ],
              [
                -76.35987091064453,
                37.641746520996094
              ],
              [
                -76.18045043945312,
                37.38381576538086
              ],
              [
                -76.33642578125,
                37.38381576538086
              ],
              [
                -76.28614807128906,
                37.254878997802734
              ],
              [
                -76.36408996582031,
                37.254878997802734
              ],
              [
                -76.1865463256836,
                36.9970588684082
              ],
              [
                -75.92835998535156,
                36.932613372802734
              ],
              [
                -75.80631256103516,
                36.61045455932617
              ],
              [
                -75.9375228881836,
                36.5460319519043
              ],
              [
                -75.81749725341797,
                36.2239875793457
              ],
              [
                -75.9726791381836,
                36.2239875793457
              ],
              [
                -76.00263977050781,
                36.09519577026367
              ],
              [
                -76.31282806396484,
                36.09519577026367
              ],
              [
                -76.05645751953125,
                36.03080368041992
              ],
              [
                -76.00920867919922,
                35.902034759521484
              ],
              [
                -75.72277069091797,
                35.9664192199707
              ],
              [
                -75.68334197998047,
                35.644527435302734
              ],
              [
                -75.89229583740234,
                35.58015823364258
              ],
              [
                -75.90028381347656,
                35.38706970214844
              ],
              [
                -76.0318832397461,
                35.32271194458008
              ],
              [
                -76.51883697509766,
                35.38706970214844
              ],
              [
                -76.44954681396484,
                35.194007873535156
              ],
              [
                -76.55811309814453,
                35.065311431884766
              ],
              [
                -76.30364990234375,
                35.00096893310547
              ],
              [
                -76.25820922851562,
                34.87228775024414
              ],
              [
                -76.36725616455078,
                34.743614196777344
              ],
              [
                -77.19277954101562,
                34.679283142089844
              ],
              [
                -77.22452545166016,
                34.55062484741211
              ],
              [
                -77.56452178955078,
                34.42197799682617
              ],
              [
                -77.92404174804688,
                33.90746307373047
              ],
              [
                -78.59347534179688,
                33.84315490722656
              ],
              [
                -78.85625457763672,
                33.71455001831055
              ],
              [
                -79.0308837890625,
                33.32876968383789
              ],
              [
                -79.20623016357422,
                33.393062591552734
              ],
              [
                -79.14054107666016,
                33.20018768310547
              ],
              [
                -79.30528259277344,
                33.00732421875
              ],
              [
                -79.53507995605469,
                33.00732421875
              ],
              [
                -79.6784439086914,
                32.75019073486328
              ],
              [
                -79.83149719238281,
                32.75019073486328
              ],
              [
                -79.86512756347656,
                32.62162780761719
              ],
              [
                -80.12832641601562,
                32.493072509765625
              ],
              [
                -80.43414306640625,
                32.493072509765625
              ],
              [
                -80.37033081054688,
                32.30024337768555
              ],
              [
                -80.6759262084961,
                32.30024337768555
              ],
              [
                -80.63360595703125,
                32.171695709228516
              ],
              [
                -80.91046142578125,
                31.8503360748291
              ],
              [
                -81.06301879882812,
                31.8503360748291
              ],
              [
                -81.14739227294922,
                31.40045166015625
              ],
              [
                -81.42681884765625,
                31.079113006591797
              ],
              [
                -81.34451293945312,
                30.564971923828125
              ],
              [
                -81.42045593261719,
                30.564971923828125
              ],
              [
                -81.97172546386719,
                30.629240036010742
              ],
              [
                -81.91297912597656,
                30.436433792114258
              ],
              [
                -82.1212387084961,
                30.372163772583008
              ],
              [
                -82.33177947998047,
                30.564971923828125
              ],
              [
                -82.35152435302734,
                30.629240036010742
              ],
              [
                -84.27720642089844,
                32.107421875
              ],
              [
                -84.89697265625,
                33.00732421875
              ],
              [
                -85.03617858886719,
                33.393062591552734
              ],
              [
                -84.95947265625,
                33.393062591552734
              ],
              [
                -85.05367279052734,
                33.65024948120117
              ],
              [
                -84.78866577148438,
                33.971771240234375
              ],
              [
                -84.63490295410156,
                33.971771240234375
              ],
              [
                -84.5531234741211,
                34.164703369140625
              ],
              [
                -84.29356384277344,
                34.2933349609375
              ],
              [
                -84.3137435913086,
                34.55062484741211
              ],
              [
                -84.05098724365234,
                34.87228775024414
              ],
              [
                -84.17768859863281,
                35.00096893310547
              ],
              [
                -84.02330017089844,
                35.00096893310547
              ],
              [
                -83.70945739746094,
                35.38706970214844
              ],
              [
                -83.50257873535156,
                35.45143127441406
              ],
              [
                -83.70771026611328,
                35.58015823364258
              ],
              [
                -84.0172348022461,
                35.58015823364258
              ],
              [
                -84.06814575195312,
                35.708900451660156
              ],
              [
                -84.35225677490234,
                35.644527435302734
              ],
              [
                -84.71341705322266,
                35.9664192199707
              ],
              [
                -84.40386962890625,
                36.15959167480469
              ],
              [
                -84.53385925292969,
                36.28839111328125
              ],
              [
                -83.8363265991211,
                36.48161697387695
              ],
              [
                -83.96683502197266,
                36.61045455932617
              ],
              [
                -83.55342102050781,
                36.73930740356445
              ],
              [
                -83.60665130615234,
                36.8681755065918
              ],
              [
                -83.91787719726562,
                36.8681755065918
              ],
              [
                -83.9422378540039,
                36.73930740356445
              ],
              [
                -84.09776306152344,
                36.73930740356445
              ],
              [
                -84.36087036132812,
                36.9970588684082
              ],
              [
                -84.75012969970703,
                36.9970588684082
              ],
              [
                -84.98011779785156,
                36.80373764038086
              ],
              [
                -84.97718811035156,
                36.61045455932617
              ],
              [
                -84.87274932861328,
                36.5460319519043
              ],
              [
                -85.28548431396484,
                36.417205810546875
              ],
              [
                -85.28350830078125,
                36.2239875793457
              ],
              [
                -85.5674057006836,
                36.15959167480469
              ],
              [
                -85.59223175048828,
                36.03080368041992
              ],
              [
                -85.97848510742188,
                35.837650299072266
              ],
              [
                -86.21087646484375,
                35.837650299072266
              ],
              [
                -86.3900375366211,
                35.51579284667969
              ],
              [
                -86.93154907226562,
                35.51579284667969
              ],
              [
                -87.8884048461914,
                35.77327346801758
              ],
              [
                -88.04615020751953,
                35.9664192199707
              ],
              [
                -88.4102783203125,
                36.09519577026367
              ],
              [
                -88.70228576660156,
                36.417205810546875
              ],
              [
                -89.11829376220703,
                36.48161697387695
              ],
              [
                -89.0963134765625,
                36.61045455932617
              ],
              [
                -89.49163055419922,
                36.80373764038086
              ],
              [
                -89.87666320800781,
                37.3193473815918
              ],
              [
                -89.59381866455078,
                37.38381576538086
              ],
              [
                -89.53590393066406,
                37.254878997802734
              ],
              [
                -89.3800277709961,
                37.254878997802734
              ],
              [
                -89.40888977050781,
                37.3193473815918
              ],
              [
                -89.04792785644531,
                37.38381576538086
              ],
              [
                -89.13502502441406,
                37.5772590637207
              ],
              [
                -89.03736877441406,
                37.706241607666016
              ],
              [
                -88.88117218017578,
                37.706241607666016
              ],
              [
                -88.86176300048828,
                37.835243225097656
              ],
              [
                -88.25638580322266,
                37.706241607666016
              ],
              [
                -88.26591491699219,
                37.89975357055664
              ],
              [
                -87.66055297851562,
                37.7707405090332
              ],
              [
                -87.64057159423828,
                37.89975357055664
              ],
              [
                -87.35702514648438,
                37.96426773071289
              ],
              [
                -87.38624572753906,
                38.028785705566406
              ],
              [
                -86.85890197753906,
                37.89975357055664
              ],
              [
                -86.71142578125,
                38.09331130981445
              ],
              [
                -86.47671508789062,
                38.09331130981445
              ],
              [
                -86.456787109375,
                38.22237777709961
              ],
              [
                -86.27106475830078,
                38.157840728759766
              ],
              [
                -86.18416595458984,
                37.96426773071289
              ],
              [
                -86.02778625488281,
                37.96426773071289
              ],
              [
                -85.8797607421875,
                38.157840728759766
              ],
              [
                -85.99650573730469,
                38.416015625
              ],
              [
                -85.84982299804688,
                38.60969924926758
              ],
              [
                -85.50665283203125,
                38.54513168334961
              ],
              [
                -85.565673828125,
                38.67427444458008
              ],
              [
                -85.38960266113281,
                38.80344009399414
              ],
              [
                -85.38235473632812,
                39.1264533996582
              ],
              [
                -85.25531768798828,
                39.19107437133789
              ],
              [
                -85.31605529785156,
                39.320335388183594
              ],
              [
                -85.18914031982422,
                39.38497543334961
              ],
              [
                -85.25041198730469,
                39.51427459716797
              ],
              [
                -85.12361907958984,
                39.57893371582031
              ],
              [
                -85.18543243408203,
                39.70827102661133
              ],
              [
                -85.05876159667969,
                39.77294921875
              ],
              [
                -85.12113952636719,
                39.90232849121094
              ],
              [
                -84.99459075927734,
                39.9670295715332
              ],
              [
                -85.05752563476562,
                40.0964469909668
              ],
              [
                -84.93110656738281,
                40.16116714477539
              ],
              [
                -84.9946060180664,
                40.29063034057617
              ],
              [
                -84.78919982910156,
                40.355369567871094
              ],
              [
                -84.8211441040039,
                40.42012023925781
              ],
              [
                -84.3779067993164,
                40.16116714477539
              ],
              [
                -84.14082336425781,
                40.16116714477539
              ],
              [
                -84.07828521728516,
                40.031734466552734
              ],
              [
                -84.39419555664062,
                40.031734466552734
              ],
              [
                -84.16041564941406,
                39.70827102661133
              ],
              [
                -84.28742980957031,
                39.64360046386719
              ],
              [
                -84.22637939453125,
                39.51427459716797
              ],
              [
                -84.32320404052734,
                39.38497543334961
              ],
              [
                -84.48065185546875,
                39.38497543334961
              ],
              [
                -84.05511474609375,
                38.80344009399414
              ],
              [
                -83.575439453125,
                38.60969924926758
              ],
              [
                -83.13369750976562,
                38.67427444458008
              ],
              [
                -83.38726806640625,
                39.06184005737305
              ],
              [
                -83.21051025390625,
                39.19107437133789
              ],
              [
                -83.37855529785156,
                39.38497543334961
              ],
              [
                -83.23249053955078,
                39.57893371582031
              ],
              [
                -83.40242767333984,
                39.77294921875
              ],
              [
                -83.32355499267578,
                39.77294921875
              ],
              [
                -83.44647979736328,
                40.031734466552734
              ],
              [
                -83.36750030517578,
                40.031734466552734
              ],
              [
                -83.6188735961914,
                40.225894927978516
              ],
              [
                -83.4129867553711,
                40.29063034057617
              ],
              [
                -83.44437408447266,
                40.355369567871094
              ],
              [
                -82.92192840576172,
                40.42012023925781
              ],
              [
                -83.00257110595703,
                41.06801223754883
              ],
              [
                -81.41448974609375,
                41.06801223754883
              ],
              [
                -81.51024627685547,
                41.26253128051758
              ],
              [
                -81.38333129882812,
                41.32738494873047
              ],
              [
                -81.55968475341797,
                41.521995544433594
              ],
              [
                -81.01993560791016,
                41.71668243408203
              ],
              [
                -81.0524673461914,
                41.781593322753906
              ],
              [
                -80.81333923339844,
                41.781593322753906
              ],
              [
                -80.7189712524414,
                41.911441802978516
              ],
              [
                -80.47966766357422,
                41.911441802978516
              ],
              [
                -80.624755859375,
                42.041324615478516
              ],
              [
                -80.06597900390625,
                42.041324615478516
              ],
              [
                -80.09857177734375,
                42.10627746582031
              ],
              [
                -79.9388656616211,
                42.10627746582031
              ],
              [
                -80.00420379638672,
                42.236209869384766
              ],
              [
                -79.73184204101562,
                42.17123794555664
              ],
              [
                -79.6373062133789,
                42.30118942260742
              ],
              [
                -79.47742462158203,
                42.30118942260742
              ],
              [
                -79.51011657714844,
                42.36617660522461
              ],
              [
                -79.35017395019531,
                42.36617660522461
              ],
              [
                -79.38289642333984,
                42.43117141723633
              ],
              [
                -79.22289276123047,
                42.43117141723633
              ],
              [
                -79.2556381225586,
                42.496177673339844
              ],
              [
                -79.09558868408203,
                42.496177673339844
              ],
              [
                -79.12835693359375,
                42.56119155883789
              ],
              [
                -78.96824645996094,
                42.56119155883789
              ],
              [
                -78.95381164550781,
                42.691246032714844
              ],
              [
                -78.79358673095703,
                42.691246032714844
              ],
              [
                -78.87854766845703,
                43.016544342041016
              ],
              [
                -79.09246826171875,
                43.276947021484375
              ],
              [
                -78.11400604248047,
                43.407203674316406
              ],
              [
                -77.80633544921875,
                43.276947021484375
              ],
              [
                -76.76134490966797,
                43.276947021484375
              ],
              [
                -76.666015625,
                43.407203674316406
              ],
              [
                -76.505126953125,
                43.407203674316406
              ],
              [
                -76.53789520263672,
                43.472347259521484
              ],
              [
                -76.29647064208984,
                43.472347259521484
              ],
              [
                -76.32923126220703,
                43.53750228881836
              ],
              [
                -76.1204605102539,
                43.6026611328125
              ],
              [
                -76.18616485595703,
                43.73301696777344
              ],
              [
                -76.01018524169922,
                43.86341094970703
              ],
              [
                -76.25679016113281,
                44.18956756591797
              ],
              [
                -76.09516143798828,
                44.18956756591797
              ],
              [
                -76.12850189208984,
                44.25482940673828
              ],
              [
                -76.16191101074219,
                44.32010269165039
              ],
              [
                -76.00016021728516,
                44.32010269165039
              ],
              [
                -75.81021881103516,
                44.58129119873047
              ],
              [
                -75.64822387695312,
                44.58129119873047
              ],
              [
                -75.58670806884766,
                44.77729415893555
              ],
              [
                -75.08592224121094,
                44.908016204833984
              ],
              [
                -75.11945343017578,
                44.973392486572266
              ],
              [
                -71.62834167480469,
                44.973392486572266
              ],
              [
                -71.53034210205078,
                45.10417556762695
              ],
              [
                -71.36784362792969,
                45.10417556762695
              ],
              [
                -71.38333892822266,
                45.300437927246094
              ],
              [
                -70.7646713256836,
                45.36587905883789
              ],
              [
                -70.22328186035156,
                46.08650588989258
              ],
              [
                -70.14154815673828,
                46.08650588989258
              ],
              [
                -69.91332244873047,
                45.95537567138672
              ],
              [
                -69.8145980834961,
                46.08650588989258
              ],
              [
                -69.651123046875,
                46.08650588989258
              ],
              [
                -69.68347930908203,
                46.1520881652832
              ],
              [
                -69.43817138671875,
                46.1520881652832
              ],
              [
                -69.47049713134766,
                46.21768569946289
              ],
              [
                -68.16165161132812,
                46.21768569946289
              ],
              [
                -68.15784454345703,
                46.54585266113281
              ],
              [
                -67.96186065673828,
                46.480194091796875
              ],
              [
                -67.87992858886719,
                46.480194091796875
              ],
              [
                -67.78434753417969,
                46.283294677734375
              ],
              [
                -67.8661880493164,
                46.283294677734375
              ],
              [
                -67.80277252197266,
                46.1520881652832
              ],
              [
                -67.9030532836914,
                46.02093505859375
              ],
              [
                -67.74612426757812,
                45.693260192871094
              ],
              [
                -67.55192565917969,
                45.62776184082031
              ],
              [
                -67.36653900146484,
                45.23500442504883
              ],
              [
                -67.06147003173828,
                45.10417556762695
              ],
              [
                -67.03099822998047,
                45.03877639770508
              ],
              [
                -67.0416259765625,
                44.71194839477539
              ],
              [
                -67.12268829345703,
                44.71194839477539
              ],
              [
                -67.49761962890625,
                44.64661407470703
              ],
              [
                -67.51801300048828,
                44.5159797668457
              ]
            ]
          ],
          [
            [
              [
                -88.42044067382812,
                38.738853454589844
              ],
              [
                -88.10309600830078,
                39.06184005737305
              ],
              [
                -88.16523742675781,
                39.19107437133789
              ],
              [
                -88.07041931152344,
                39.320335388183594
              ],
              [
                -87.28645324707031,
                38.997230529785156
              ],
              [
                -87.00788879394531,
                38.738853454589844
              ],
              [
                -87.39620208740234,
                38.22237777709961
              ],
              [
                -87.76879119873047,
                38.351463317871094
              ],
              [
                -87.84712982177734,
                38.351463317871094
              ],
              [
                -88.20262145996094,
                38.60969924926758
              ],
              [
                -88.3594741821289,
                38.60969924926758
              ],
              [
                -88.42044067382812,
                38.738853454589844
              ]
            ]
          ],
          [
            [
              [
                -90.00020599365234,
                40.93837356567383
              ],
              [
                -89.79666900634766,
                41.00318908691406
              ],
              [
                -89.71729278564453,
                41.00318908691406
              ],
              [
                -89.50074005126953,
                40.74397277832031
              ],
              [
                -89.78368377685547,
                40.6791877746582
              ],
              [
                -90.00020599365234,
                40.93837356567383
              ]
            ]
          ],
          [
            [
              [
                -83.41862487792969,
                42.041324615478516
              ],
              [
                -83.5570068359375,
                41.84651184082031
              ],
              [
                -83.41040802001953,
                41.71668243408203
              ],
              [
                -83.72913360595703,
                41.71668243408203
              ],
              [
                -83.7501449584961,
                41.911441802978516
              ],
              [
                -83.67037200927734,
                41.911441802978516
              ],
              [
                -83.65809631347656,
                42.041324615478516
              ],
              [
                -83.41862487792969,
                42.041324615478516
              ]
            ]
          ],
          [
            [
              [
                -87.94265747070312,
                41.84651184082031
              ],
              [
                -88.08392333984375,
                42.10627746582031
              ],
              [
                -87.84436798095703,
                42.10627746582031
              ],
              [
                -87.8089828491211,
                42.041324615478516
              ],
              [
                -87.70343780517578,
                41.84651184082031
              ],
              [
                -87.94265747070312,
                41.84651184082031
              ]
            ]
          ],
          [
            [
              [
                -83.32569885253906,
                42.62621307373047
              ],
              [
                -82.97108459472656,
                42.56119155883789
              ],
              [
                -82.91485595703125,
                42.30118942260742
              ],
              [
                -83.20065307617188,
                42.236209869384766
              ],
              [
                -83.23461151123047,
                42.30118942260742
              ],
              [
                -83.41707611083984,
                42.496177673339844
              ],
              [
                -83.32569885253906,
                42.62621307373047
              ]
            ]
          ],
          [
            [
              [
                -83.7479019165039,
                46.1520881652832
              ],
              [
                -83.66613006591797,
                46.1520881652832
              ],
              [
                -83.47079467773438,
                45.95537567138672
              ],
              [
                -83.71581268310547,
                45.95537567138672
              ],
              [
                -83.7479019165039,
                46.1520881652832
              ]
            ]
          ],
          [
            [
              [
                -84.27680969238281,
                46.21768569946289
              ],
              [
                -84.35861206054688,
                46.21768569946289
              ],
              [
                -84.80620574951172,
                46.283294677734375
              ],
              [
                -85.00440216064453,
                46.480194091796875
              ],
              [
                -84.18505096435547,
                46.480194091796875
              ],
              [
                -84.10311889648438,
                46.480194091796875
              ],
              [
                -84.06460571289062,
                46.414546966552734
              ],
              [
                -84.31031036376953,
                46.414546966552734
              ],
              [
                -84.27680969238281,
                46.21768569946289
              ]
            ]
          ]
        ]
      }
    }
  ]
}
