{
  "type": "FeatureCollection",
  "features": [
    {
      "type": "Feature",
      "properties": {
        "Name": "Golden Horde",
        "FromYear": 1659,
        "ToYear": 1669,
        "Area": 2456348.814841309,
        "Type": "POLITY",
        "Wikipedia": "Golden Horde",
        "Wikidata": "Q79965",
        "SeshatID": "",
        "Components": "",
        "MemberOf": "",
        "displayYear": 1662,
        "sourceYear": 1662,
        "mappedTerritoryId": "cliopatria_golden_horde"
      },
      "geometry": {
        "type": "MultiPolygon",
        "coordinates": [
          [
            [
              [
                118.39692687988281,
                54.47740173339844
              ],
              [
                119.14289855957031,
                54.341712951660156
              ],
              [
                119.08226776123047,
                54.27390670776367
              ],
              [
                119.25553131103516,
                54.27390670776367
              ],
              [
                119.19497680664062,
                54.20612335205078
              ],
              [
                119.65380859375,
                54.138362884521484
              ],
              [
                119.59332275390625,
                54.07062530517578
              ],
              [
                119.9652099609375,
                54.00291442871094
              ],
              [
                119.90484619140625,
                53.93522644042969
              ],
              [
                120.41481018066406,
                53.732303619384766
              ],
              [
                120.35478210449219,
                53.664710998535156
              ],
              [
                120.61338806152344,
                53.664710998535156
              ],
              [
                120.55339813232422,
                53.597137451171875
              ],
              [
                120.7257080078125,
                53.597137451171875
              ],
              [
                120.66580963134766,
                53.52959060668945
              ],
              [
                121.1486587524414,
                53.39456558227539
              ],
              [
                121.08898162841797,
                53.32708740234375
              ],
              [
                120.42314910888672,
                53.057395935058594
              ],
              [
                119.90364074707031,
                52.653533935546875
              ],
              [
                120.53005981445312,
                52.586299896240234
              ],
              [
                120.5005874633789,
                52.4518928527832
              ],
              [
                120.6705551147461,
                52.250450134277344
              ],
              [
                120.55712127685547,
                52.11625671386719
              ],
              [
                120.6709213256836,
                52.0491943359375
              ],
              [
                120.19185638427734,
                51.78114318847656
              ],
              [
                119.64573669433594,
                51.112430572509766
              ],
              [
                119.73025512695312,
                51.112430572509766
              ],
              [
                119.15091705322266,
                50.37908172607422
              ],
              [
                119.23499298095703,
                50.37908172607422
              ],
              [
                119.28163146972656,
                50.11296081542969
              ],
              [
                118.5428695678711,
                49.91355895996094
              ],
              [
                117.82736206054688,
                49.51522445678711
              ],
              [
                116.68476867675781,
                49.78071212768555
              ],
              [
                115.42262268066406,
                47.993770599365234
              ],
              [
                115.58807373046875,
                47.993770599365234
              ],
              [
                115.5813980102539,
                47.86185836791992
              ],
              [
                115.86736297607422,
                47.79592514038086
              ],
              [
                115.8228530883789,
                47.730003356933594
              ],
              [
                116.15996551513672,
                47.86185836791992
              ],
              [
                116.98649597167969,
                47.86185836791992
              ],
              [
                116.94139862060547,
                47.79592514038086
              ],
              [
                117.3093490600586,
                47.730003356933594
              ],
              [
                117.73888397216797,
                47.993770599365234
              ],
              [
                118.4833984375,
                47.993770599365234
              ],
              [
                118.43743133544922,
                47.92780685424805
              ],
              [
                118.68549346923828,
                47.92780685424805
              ],
              [
                118.63955688476562,
                47.86185836791992
              ],
              [
                119.04358673095703,
                47.730003356933594
              ],
              [
                119.03474426269531,
                47.598209381103516
              ],
              [
                119.31913757324219,
                47.53233337402344
              ],
              [
                119.27360534667969,
                47.46647262573242
              ],
              [
                119.47542572021484,
                47.4006233215332
              ],
              [
                119.46711730957031,
                47.26897048950195
              ],
              [
                119.75116729736328,
                47.20316696166992
              ],
              [
                119.74314880371094,
                47.07159423828125
              ],
              [
                119.93706512451172,
                46.87434005737305
              ],
              [
                119.67659759521484,
                46.61152267456055
              ],
              [
                118.6165771484375,
                46.74290466308594
              ],
              [
                117.41912841796875,
                46.54585266113281
              ],
              [
                117.12576293945312,
                46.348915100097656
              ],
              [
                116.71641540527344,
                46.348915100097656
              ],
              [
                116.46734619140625,
                46.21768569946289
              ],
              [
                116.12967681884766,
                45.693260192871094
              ],
              [
                115.8831558227539,
                45.56227111816406
              ],
              [
                115.18893432617188,
                45.36587905883789
              ],
              [
                114.7416763305664,
                45.431331634521484
              ],
              [
                114.13126373291016,
                44.973392486572266
              ],
              [
                113.44374084472656,
                44.64661407470703
              ],
              [
                112.07112121582031,
                44.38538360595703
              ],
              [
                111.75686645507812,
                43.99384307861328
              ],
              [
                111.96373748779297,
                43.79821014404297
              ],
              [
                111.88680267333984,
                43.6678352355957
              ],
              [
                110.81661987304688,
                43.211830139160156
              ],
              [
                110.2791748046875,
                42.691246032714844
              ],
              [
                109.33319091796875,
                42.43117141723633
              ],
              [
                107.81322479248047,
                42.43117141723633
              ],
              [
                106.8631362915039,
                42.30118942260742
              ],
              [
                104.81227111816406,
                41.586883544921875
              ],
              [
                104.84561157226562,
                41.65177917480469
              ],
              [
                104.5270004272461,
                41.65177917480469
              ],
              [
                104.46781158447266,
                41.84651184082031
              ],
              [
                103.7169418334961,
                41.781593322753906
              ],
              [
                103.75015258789062,
                41.84651184082031
              ],
              [
                103.22509002685547,
                41.911441802978516
              ],
              [
                103.25830078125,
                41.97637939453125
              ],
              [
                102.2868881225586,
                42.10627746582031
              ],
              [
                102.31999969482422,
                42.17123794555664
              ],
              [
                101.826904296875,
                42.30118942260742
              ],
              [
                101.81334686279297,
                42.43117141723633
              ],
              [
                101.52655792236328,
                42.496177673339844
              ],
              [
                101.55985260009766,
                42.56119155883789
              ],
              [
                98.91797637939453,
                42.56119155883789
              ],
              [
                98.95038604736328,
                42.62621307373047
              ],
              [
                97.09197235107422,
                42.75628662109375
              ],
              [
                96.99661254882812,
                42.56119155883789
              ],
              [
                97.12504577636719,
                42.496177673339844
              ],
              [
                97.06192779541016,
                42.36617660522461
              ],
              [
                97.35337829589844,
                41.97637939453125
              ],
              [
                97.2115478515625,
                41.84651184082031
              ],
              [
                96.58631134033203,
                42.041324615478516
              ],
              [
                96.64835357666016,
                42.17123794555664
              ],
              [
                96.51968383789062,
                42.236209869384766
              ],
              [
                96.51627349853516,
                42.56119155883789
              ],
              [
                96.14736938476562,
                42.62621307373047
              ],
              [
                95.92129516601562,
                42.82133865356445
              ],
              [
                94.63412475585938,
                43.146724700927734
              ],
              [
                94.53627014160156,
                43.276947021484375
              ],
              [
                92.91001892089844,
                43.407203674316406
              ],
              [
                92.94102478027344,
                43.472347259521484
              ],
              [
                91.49248504638672,
                43.472347259521484
              ],
              [
                90.7079086303711,
                43.342071533203125
              ],
              [
                90.17816162109375,
                42.88639831542969
              ],
              [
                90.2796401977539,
                42.75628662109375
              ],
              [
                90.19178771972656,
                42.56119155883789
              ],
              [
                90.27184295654297,
                42.56119155883789
              ],
              [
                90.18457794189453,
                42.36617660522461
              ],
              [
                90.2645492553711,
                42.36617660522461
              ],
              [
                90.22297668457031,
                41.911441802978516
              ],
              [
                86.74934387207031,
                42.56119155883789
              ],
              [
                87.548828125,
                44.18956756591797
              ],
              [
                88.27336883544922,
                44.71194839477539
              ],
              [
                89.92989349365234,
                45.300437927246094
              ],
              [
                90.68876647949219,
                45.693260192871094
              ],
              [
                90.994384765625,
                46.1520881652832
              ],
              [
                90.91261291503906,
                46.1520881652832
              ],
              [
                91.00957489013672,
                46.348915100097656
              ],
              [
                90.9277114868164,
                46.348915100097656
              ],
              [
                91.02523040771484,
                46.54585266113281
              ],
              [
                90.17317962646484,
                47.79592514038086
              ],
              [
                89.71098327636719,
                47.86185836791992
              ],
              [
                89.61286163330078,
                47.993770599365234
              ],
              [
                89.0337905883789,
                47.993770599365234
              ],
              [
                88.93529510498047,
                48.1257438659668
              ],
              [
                88.76969909667969,
                48.1257438659668
              ],
              [
                88.80326080322266,
                48.191749572753906
              ],
              [
                88.6375961303711,
                48.191749572753906
              ],
              [
                88.62197875976562,
                48.323814392089844
              ],
              [
                88.32398986816406,
                48.38986587524414
              ],
              [
                88.30854797363281,
                48.52202224731445
              ],
              [
                88.05951690673828,
                48.52202224731445
              ],
              [
                87.8968734741211,
                48.852684020996094
              ],
              [
                87.73048400878906,
                48.852684020996094
              ],
              [
                87.78443908691406,
                49.11750411987305
              ],
              [
                87.33345031738281,
                49.051273345947266
              ],
              [
                87.1864013671875,
                49.2500114440918
              ],
              [
                86.75463104248047,
                49.38258361816406
              ],
              [
                86.60783386230469,
                49.58156967163086
              ],
              [
                86.52423095703125,
                49.58156967163086
              ],
              [
                86.62894439697266,
                49.78071212768555
              ],
              [
                86.79638671875,
                49.78071212768555
              ],
              [
                87.95820617675781,
                50.97892379760742
              ],
              [
                88.36457824707031,
                51.24601745605469
              ],
              [
                88.39606475830078,
                51.44654083251953
              ],
              [
                88.5655288696289,
                51.44654083251953
              ],
              [
                89.97322845458984,
                52.653533935546875
              ],
              [
                90.6980209350586,
                53.124786376953125
              ],
              [
                91.43072509765625,
                53.462066650390625
              ],
              [
                91.51874542236328,
                53.597137451171875
              ],
              [
                94.57317352294922,
                54.4095458984375
              ],
              [
                94.65990447998047,
                54.4095458984375
              ],
              [
                95.33757019042969,
                54.138362884521484
              ],
              [
                95.36959838867188,
                53.93522644042969
              ],
              [
                95.6682357788086,
                53.86756134033203
              ],
              [
                95.66105651855469,
                53.732303619384766
              ],
              [
                95.95931243896484,
                53.664710998535156
              ],
              [
                95.91271209716797,
                53.597137451171875
              ],
              [
                96.60196685791016,
                53.597137451171875
              ],
              [
                96.55513000488281,
                53.52959060668945
              ],
              [
                96.85269165039062,
                53.462066650390625
              ],
              [
                96.80596160888672,
                53.39456558227539
              ],
              [
                97.06401062011719,
                53.39456558227539
              ],
              [
                97.01728057861328,
                53.32708740234375
              ],
              [
                97.43952178955078,
                53.192195892333984
              ],
              [
                97.39295196533203,
                53.124786376953125
              ],
              [
                97.86124420166016,
                53.057395935058594
              ],
              [
                97.81468963623047,
                52.99003219604492
              ],
              [
                98.75784301757812,
                52.99003219604492
              ],
              [
                98.71092987060547,
                52.92268753051758
              ],
              [
                99.00677490234375,
                52.85536575317383
              ],
              [
                99.63434600830078,
                53.25962829589844
              ],
              [
                100.16060638427734,
                53.39456558227539
              ],
              [
                100.22541809082031,
                53.124786376953125
              ],
              [
                100.64414978027344,
                52.99003219604492
              ],
              [
                100.59623718261719,
                52.92268753051758
              ],
              [
                101.48014068603516,
                52.720787048339844
              ],
              [
                101.43230438232422,
                52.653533935546875
              ],
              [
                101.60333251953125,
                52.653533935546875
              ],
              [
                101.6312255859375,
                52.4518928527832
              ],
              [
                101.80198669433594,
                52.4518928527832
              ],
              [
                101.79244995117188,
                52.31757736206055
              ],
              [
                102.30420684814453,
                52.31757736206055
              ],
              [
                102.2567138671875,
                52.250450134277344
              ],
              [
                102.51245880126953,
                52.250450134277344
              ],
              [
                102.46499633789062,
                52.18334197998047
              ],
              [
                102.88124084472656,
                52.0491943359375
              ],
              [
                102.83397674560547,
                51.98215103149414
              ],
              [
                103.08920288085938,
                51.98215103149414
              ],
              [
                103.0419692993164,
                51.91512680053711
              ],
              [
                103.2120361328125,
                51.91512680053711
              ],
              [
                103.16487884521484,
                51.84812545776367
              ],
              [
                103.71249389648438,
                51.78114318847656
              ],
              [
                103.66535186767578,
                51.71418380737305
              ],
              [
                103.5715560913086,
                51.580322265625
              ],
              [
                104.11831665039062,
                51.51342010498047
              ],
              [
                104.07151794433594,
                51.44654083251953
              ],
              [
                104.8341064453125,
                51.44654083251953
              ],
              [
                105.73986053466797,
                51.64724349975586
              ],
              [
                106.00601196289062,
                51.78114318847656
              ],
              [
                106.39828491210938,
                52.31757736206055
              ],
              [
                106.82475280761719,
                52.31757736206055
              ],
              [
                107.33287048339844,
                52.653533935546875
              ],
              [
                107.89716339111328,
                52.720787048339844
              ],
              [
                108.43193817138672,
                53.192195892333984
              ],
              [
                108.82823944091797,
                53.25962829589844
              ],
              [
                109.6395263671875,
                54.27390670776367
              ],
              [
                109.55289459228516,
                54.27390670776367
              ],
              [
                109.66371154785156,
                54.4095458984375
              ],
              [
                109.54580688476562,
                54.47740173339844
              ],
              [
                109.60151672363281,
                54.545284271240234
              ],
              [
                109.51469421386719,
                54.545284271240234
              ],
              [
                109.73892974853516,
                54.817054748535156
              ],
              [
                109.65190887451172,
                54.817054748535156
              ],
              [
                109.76487731933594,
                54.95309066772461
              ],
              [
                109.6777572631836,
                54.95309066772461
              ],
              [
                109.90284729003906,
                55.430015563964844
              ],
              [
                109.81537628173828,
                55.430015563964844
              ],
              [
                110.01741027832031,
                55.77145767211914
              ],
              [
                109.9296875,
                55.77145767211914
              ],
              [
                109.98802185058594,
                55.83982467651367
              ],
              [
                110.77798461914062,
                55.83982467651367
              ],
              [
                110.71919250488281,
                55.77145767211914
              ],
              [
                111.12782287597656,
                55.63479995727539
              ],
              [
                111.15660095214844,
                55.36180877685547
              ],
              [
                111.33143615722656,
                55.36180877685547
              ],
              [
                111.27322387695312,
                55.29362487792969
              ],
              [
                111.36058807373047,
                55.29362487792969
              ],
              [
                111.30248260498047,
                55.225467681884766
              ],
              [
                111.38980102539062,
                55.225467681884766
              ],
              [
                111.44970703125,
                54.88506317138672
              ],
              [
                111.62384796142578,
                54.88506317138672
              ],
              [
                111.56635284423828,
                54.817054748535156
              ],
              [
                111.65337371826172,
                54.817054748535156
              ],
              [
                111.71520233154297,
                54.47740173339844
              ],
              [
                111.88875579833984,
                54.47740173339844
              ],
              [
                111.95222473144531,
                54.138362884521484
              ],
              [
                112.03875732421875,
                54.138362884521484
              ],
              [
                112.01280212402344,
                54.00291442871094
              ],
              [
                112.22105407714844,
                53.732303619384766
              ],
              [
                112.1100845336914,
                53.597137451171875
              ],
              [
                112.2270736694336,
                53.52959060668945
              ],
              [
                112.1169204711914,
                53.39456558227539
              ],
              [
                112.20293426513672,
                53.39456558227539
              ],
              [
                112.0933609008789,
                53.25962829589844
              ],
              [
                112.17928314208984,
                53.25962829589844
              ],
              [
                112.07029724121094,
                53.124786376953125
              ],
              [
                112.1561279296875,
                53.124786376953125
              ],
              [
                111.96240997314453,
                52.4518928527832
              ],
              [
                112.080322265625,
                52.38472366333008
              ],
              [
                111.97512817382812,
                52.250450134277344
              ],
              [
                112.06037902832031,
                52.250450134277344
              ],
              [
                112.07398986816406,
                52.0491943359375
              ],
              [
                112.41446685791016,
                52.0491943359375
              ],
              [
                112.36234283447266,
                51.98215103149414
              ],
              [
                115.51010131835938,
                51.98215103149414
              ],
              [
                116.1461181640625,
                52.4518928527832
              ],
              [
                117.07749938964844,
                53.462066650390625
              ],
              [
                118.3101577758789,
                54.47740173339844
              ],
              [
                118.39692687988281,
                54.47740173339844
              ]
            ]
          ],
          [
            [
              [
                109.01948547363281,
                53.93522644042969
              ],
              [
                109.10588073730469,
                53.93522644042969
              ],
              [
                108.8687973022461,
                53.52959060668945
              ],
              [
                108.52436065673828,
                53.52959060668945
              ],
              [
                108.59855651855469,
                53.732303619384766
              ],
              [
                108.93309783935547,
                53.93522644042969
              ],
              [
                109.01948547363281,
                53.93522644042969
              ]
            ]
          ]
        ]
      }
    }
  ]
}
