{
  "type": "FeatureCollection",
  "features": [
    {
      "type": "Feature",
      "properties": {
        "Name": "Kingdom of Poland",
        "FromYear": 1126,
        "ToYear": 1138,
        "Area": 256346.99330552918,
        "Type": "POLITY",
        "Wikipedia": "Kingdom of Poland",
        "Wikidata": "Q577867",
        "SeshatID": "pl_piast_dyn_1",
        "Components": "",
        "MemberOf": "(Kingdom of Poland)",
        "displayYear": 1127,
        "sourceYear": 1127,
        "mappedTerritoryId": "cliopatria_kingdom_of_poland"
      },
      "geometry": {
        "type": "Polygon",
        "coordinates": [
          [
            [
              19.334808349609375,
              53.799922943115234
            ],
            [
              19.421106338500977,
              53.799922943115234
            ],
            [
              19.56304168701172,
              53.39456558227539
            ],
            [
              19.901874542236328,
              53.32708740234375
            ],
            [
              19.972116470336914,
              53.124786376953125
            ],
            [
              20.487110137939453,
              53.124786376953125
            ],
            [
              20.58405303955078,
              53.25962829589844
            ],
            [
              21.019489288330078,
              53.32708740234375
            ],
            [
              21.381492614746094,
              53.52959060668945
            ],
            [
              21.719682693481445,
              53.462066650390625
            ],
            [
              21.8183536529541,
              53.597137451171875
            ],
            [
              21.9842586517334,
              53.52959060668945
            ],
            [
              22.16950225830078,
              53.664710998535156
            ],
            [
              22.50091552734375,
              53.52959060668945
            ],
            [
              22.30253791809082,
              53.25962829589844
            ],
            [
              22.56031036376953,
              53.25962829589844
            ],
            [
              22.6462345123291,
              53.25962829589844
            ],
            [
              22.428829193115234,
              52.78806686401367
            ],
            [
              22.343225479125977,
              52.78806686401367
            ],
            [
              22.422412872314453,
              52.720787048339844
            ],
            [
              22.292898178100586,
              52.250450134277344
            ],
            [
              22.10417366027832,
              52.0491943359375
            ],
            [
              22.347232818603516,
              51.91512680053711
            ],
            [
              22.687358856201172,
              51.91512680053711
            ],
            [
              22.6685791015625,
              51.71418380737305
            ],
            [
              22.995450973510742,
              51.580322265625
            ],
            [
              22.87944221496582,
              51.24601745605469
            ],
            [
              23.042409896850586,
              51.17921447753906
            ],
            [
              23.023828506469727,
              50.97892379760742
            ],
            [
              23.10826873779297,
              50.97892379760742
            ],
            [
              23.08979606628418,
              50.77880859375
            ],
            [
              22.91514015197754,
              50.71213912963867
            ],
            [
              22.891307830810547,
              50.445655822753906
            ],
            [
              22.975421905517578,
              50.445655822753906
            ],
            [
              22.946025848388672,
              50.11296081542969
            ],
            [
              22.258319854736328,
              49.91355895996094
            ],
            [
              22.158485412597656,
              49.71431350708008
            ],
            [
              21.385677337646484,
              49.44889450073242
            ],
            [
              20.95870590209961,
              49.316287994384766
            ],
            [
              20.21193504333496,
              49.38258361816406
            ],
            [
              20.11991310119629,
              49.2500114440918
            ],
            [
              19.611412048339844,
              49.11750411987305
            ],
            [
              19.28963279724121,
              49.316287994384766
            ],
            [
              19.039270401000977,
              49.316287994384766
            ],
            [
              19.04685401916504,
              49.44889450073242
            ],
            [
              18.71640396118164,
              49.51522445678711
            ],
            [
              18.316205978393555,
              49.84712600708008
            ],
            [
              18.323387145996094,
              49.98000717163086
            ],
            [
              17.65599250793457,
              50.04647445678711
            ],
            [
              17.57870101928711,
              50.17946243286133
            ],
            [
              17.162044525146484,
              50.2459831237793
            ],
            [
              17.08426284790039,
              50.37908172607422
            ],
            [
              15.92021369934082,
              50.71213912963867
            ],
            [
              15.930866241455078,
              50.97892379760742
            ],
            [
              15.680119514465332,
              51.04566955566406
            ],
            [
              15.693191528320312,
              51.37968063354492
            ],
            [
              15.528964042663574,
              51.51342010498047
            ],
            [
              15.534167289733887,
              51.64724349975586
            ],
            [
              15.19472885131836,
              51.64724349975586
            ],
            [
              14.933256149291992,
              51.44654083251953
            ],
            [
              14.76379108428955,
              51.44654083251953
            ],
            [
              14.600712776184082,
              51.64724349975586
            ],
            [
              14.602863311767578,
              51.71418380737305
            ],
            [
              14.703431129455566,
              52.18334197998047
            ],
            [
              14.454297065734863,
              52.38472366333008
            ],
            [
              14.456478118896484,
              52.4518928527832
            ],
            [
              14.548598289489746,
              52.653533935546875
            ],
            [
              14.041525840759277,
              52.85536575317383
            ],
            [
              14.047627449035645,
              53.057395935058594
            ],
            [
              14.309375762939453,
              53.192195892333984
            ],
            [
              14.232200622558594,
              53.462066650390625
            ],
            [
              14.060074806213379,
              53.462066650390625
            ],
            [
              14.057977676391602,
              53.39456558227539
            ],
            [
              13.971961975097656,
              53.39456558227539
            ],
            [
              13.974011421203613,
              53.462066650390625
            ],
            [
              13.801885604858398,
              53.462066650390625
            ],
            [
              13.89198112487793,
              53.597137451171875
            ],
            [
              13.378546714782715,
              53.732303619384766
            ],
            [
              13.295734405517578,
              53.86756134033203
            ],
            [
              12.776228904724121,
              53.799922943115234
            ],
            [
              12.782022476196289,
              54.07062530517578
            ],
            [
              13.044703483581543,
              54.20612335205078
            ],
            [
              13.047948837280273,
              54.341712951660156
            ],
            [
              13.307985305786133,
              54.341712951660156
            ],
            [
              13.389228820800781,
              54.138362884521484
            ],
            [
              13.737363815307617,
              54.20612335205078
            ],
            [
              13.819864273071289,
              54.07062530517578
            ],
            [
              14.165812492370605,
              54.07062530517578
            ],
            [
              14.159177780151367,
              53.86756134033203
            ],
            [
              13.98438835144043,
              53.799922943115234
            ],
            [
              14.499796867370605,
              53.732303619384766
            ],
            [
              14.50934886932373,
              54.00291442871094
            ],
            [
              15.036103248596191,
              54.20612335205078
            ],
            [
              15.991765975952148,
              54.27390670776367
            ],
            [
              16.619972229003906,
              54.681121826171875
            ],
            [
              17.501720428466797,
              54.88506317138672
            ],
            [
              18.459484100341797,
              54.88506317138672
            ],
            [
              18.44533348083496,
              54.681121826171875
            ],
            [
              18.686851501464844,
              54.4095458984375
            ],
            [
              19.462186813354492,
              54.341712951660156
            ],
            [
              19.355026245117188,
              54.07062530517578
            ],
            [
              19.268539428710938,
              54.07062530517578
            ],
            [
              19.3398380279541,
              53.86756134033203
            ],
            [
              19.334808349609375,
              53.799922943115234
            ]
          ]
        ]
      }
    }
  ]
}
