{
  "type": "FeatureCollection",
  "features": [
    {
      "type": "Feature",
      "properties": {
        "Name": "Habsburg Monarchy",
        "FromYear": 1718,
        "ToYear": 1720,
        "Area": 729883.0107097159,
        "Type": "POLITY",
        "Wikipedia": "Habsburg monarchy",
        "Wikidata": "Q66504140",
        "SeshatID": "at_habsburg_2",
        "Components": "",
        "MemberOf": "(Habsburg Monarchy)",
        "displayYear": 1720,
        "sourceYear": 1720,
        "mappedTerritoryId": "cliopatria_habsburg_monarchy"
      },
      "geometry": {
        "type": "MultiPolygon",
        "coordinates": [
          [
            [
              [
                7.709810256958008,
                48.323814392089844
              ],
              [
                7.792711734771729,
                48.323814392089844
              ],
              [
                7.796617031097412,
                48.1257438659668
              ],
              [
                7.959747314453125,
                48.257774353027344
              ],
              [
                8.208345413208008,
                48.257774353027344
              ],
              [
                8.210589408874512,
                48.1257438659668
              ],
              [
                8.127795219421387,
                48.1257438659668
              ],
              [
                8.218400955200195,
                47.664100646972656
              ],
              [
                8.054483413696289,
                47.598209381103516
              ],
              [
                8.138138771057129,
                47.53233337402344
              ],
              [
                8.059174537658691,
                47.33478927612305
              ],
              [
                7.72967529296875,
                47.33478927612305
              ],
              [
                7.560789108276367,
                47.53233337402344
              ],
              [
                7.888208866119385,
                47.664100646972656
              ],
              [
                7.636491298675537,
                47.86185836791992
              ],
              [
                7.635128974914551,
                47.92780685424805
              ],
              [
                7.552440643310547,
                47.92780685424805
              ],
              [
                7.626908302307129,
                48.323814392089844
              ],
              [
                7.709810256958008,
                48.323814392089844
              ]
            ]
          ],
          [
            [
              [
                9.122788429260254,
                47.993770599365234
              ],
              [
                9.288235664367676,
                47.993770599365234
              ],
              [
                9.290210723876953,
                47.79592514038086
              ],
              [
                9.043119430541992,
                47.730003356933594
              ],
              [
                8.96053695678711,
                47.730003356933594
              ],
              [
                8.87795352935791,
                47.730003356933594
              ],
              [
                8.957342147827148,
                47.993770599365234
              ],
              [
                9.041593551635742,
                47.86185836791992
              ],
              [
                9.124246597290039,
                47.86185836791992
              ],
              [
                9.122788429260254,
                47.993770599365234
              ]
            ]
          ],
          [
            [
              [
                8.710076332092285,
                47.92780685424805
              ],
              [
                8.793634414672852,
                47.86185836791992
              ],
              [
                8.628328323364258,
                47.86185836791992
              ],
              [
                8.626447677612305,
                47.993770599365234
              ],
              [
                8.709171295166016,
                47.993770599365234
              ],
              [
                8.710076332092285,
                47.92780685424805
              ]
            ]
          ],
          [
            [
              [
                8.378276824951172,
                47.993770599365234
              ],
              [
                8.295553207397461,
                47.993770599365234
              ],
              [
                8.21282958984375,
                47.993770599365234
              ],
              [
                8.211709976196289,
                48.059749603271484
              ],
              [
                8.210589408874512,
                48.1257438659668
              ],
              [
                8.293384552001953,
                48.1257438659668
              ],
              [
                8.376178741455078,
                48.1257438659668
              ],
              [
                8.377227783203125,
                48.059749603271484
              ],
              [
                8.45998764038086,
                48.059749603271484
              ],
              [
                8.461000442504883,
                47.993770599365234
              ],
              [
                8.378276824951172,
                47.993770599365234
              ]
            ]
          ],
          [
            [
              [
                8.7875337600708,
                48.323814392089844
              ],
              [
                8.706449508666992,
                48.191749572753906
              ],
              [
                8.539809226989746,
                48.257774353027344
              ],
              [
                8.538827896118164,
                48.323814392089844
              ],
              [
                8.7875337600708,
                48.323814392089844
              ]
            ]
          ],
          [
            [
              [
                8.872109413146973,
                48.191749572753906
              ],
              [
                8.871273040771484,
                48.257774353027344
              ],
              [
                8.87043571472168,
                48.323814392089844
              ],
              [
                8.953337669372559,
                48.323814392089844
              ],
              [
                8.95413875579834,
                48.257774353027344
              ],
              [
                9.037004470825195,
                48.257774353027344
              ],
              [
                9.03777027130127,
                48.191749572753906
              ],
              [
                8.954939842224121,
                48.191749572753906
              ],
              [
                8.872109413146973,
                48.191749572753906
              ]
            ]
          ],
          [
            [
              [
                8.206095695495605,
                48.38986587524414
              ],
              [
                8.454909324645996,
                48.38986587524414
              ],
              [
                8.290122985839844,
                48.323814392089844
              ],
              [
                8.291211128234863,
                48.257774353027344
              ],
              [
                8.206095695495605,
                48.38986587524414
              ]
            ]
          ],
          [
            [
              [
                9.202042579650879,
                48.323814392089844
              ],
              [
                9.36660385131836,
                48.455936431884766
              ],
              [
                9.368468284606934,
                48.257774353027344
              ],
              [
                9.202736854553223,
                48.257774353027344
              ],
              [
                9.202042579650879,
                48.323814392089844
              ]
            ]
          ],
          [
            [
              [
                8.370917320251465,
                48.455936431884766
              ],
              [
                8.285761833190918,
                48.5881233215332
              ],
              [
                8.451854705810547,
                48.5881233215332
              ],
              [
                8.452873229980469,
                48.52202224731445
              ],
              [
                8.370917320251465,
                48.455936431884766
              ]
            ]
          ],
          [
            [
              [
                7.871802806854248,
                48.52202224731445
              ],
              [
                7.788793087005615,
                48.52202224731445
              ],
              [
                7.787483692169189,
                48.5881233215332
              ],
              [
                7.870530128479004,
                48.5881233215332
              ],
              [
                7.953576564788818,
                48.5881233215332
              ],
              [
                7.954813003540039,
                48.52202224731445
              ],
              [
                7.871802806854248,
                48.52202224731445
              ]
            ]
          ],
          [
            [
              [
                8.53490161895752,
                48.5881233215332
              ],
              [
                8.6170015335083,
                48.654239654541016
              ],
              [
                8.701903343200684,
                48.52202224731445
              ],
              [
                8.61889362335205,
                48.52202224731445
              ],
              [
                8.53490161895752,
                48.5881233215332
              ]
            ]
          ],
          [
            [
              [
                5.928430557250977,
                49.58156967163086
              ],
              [
                5.596318244934082,
                49.51522445678711
              ],
              [
                4.830895900726318,
                49.84712600708008
              ],
              [
                4.822853088378906,
                50.04647445678711
              ],
              [
                5.479565620422363,
                50.445655822753906
              ],
              [
                5.902330875396729,
                50.37908172607422
              ],
              [
                5.722792148590088,
                50.71213912963867
              ],
              [
                5.807068347930908,
                50.71213912963867
              ],
              [
                5.891344547271729,
                50.71213912963867
              ],
              [
                5.889138698577881,
                50.77880859375
              ],
              [
                5.973455429077148,
                50.77880859375
              ],
              [
                6.068368434906006,
                50.445655822753906
              ],
              [
                6.402873992919922,
                50.51224899291992
              ],
              [
                6.07469654083252,
                50.2459831237793
              ],
              [
                6.582399845123291,
                50.11296081542969
              ],
              [
                6.586127281188965,
                49.98000717163086
              ],
              [
                6.340545177459717,
                49.78071212768555
              ],
              [
                6.346458435058594,
                49.58156967163086
              ],
              [
                6.348425388336182,
                49.51522445678711
              ],
              [
                6.264857769012451,
                49.51522445678711
              ],
              [
                6.266860485076904,
                49.44889450073242
              ],
              [
                6.18333101272583,
                49.44889450073242
              ],
              [
                6.099801540374756,
                49.44889450073242
              ],
              [
                6.01627254486084,
                49.44889450073242
              ],
              [
                5.928430557250977,
                49.58156967163086
              ]
            ]
          ],
          [
            [
              [
                3.548239946365356,
                50.37908172607422
              ],
              [
                3.106679201126099,
                50.77880859375
              ],
              [
                2.600777626037598,
                50.77880859375
              ],
              [
                2.493265151977539,
                51.17921447753906
              ],
              [
                2.577829360961914,
                51.17921447753906
              ],
              [
                2.73940634727478,
                51.31283950805664
              ],
              [
                3.324945688247681,
                51.44654083251953
              ],
              [
                3.409677743911743,
                51.44654083251953
              ],
              [
                3.504641532897949,
                51.24601745605469
              ],
              [
                4.01227855682373,
                51.24601745605469
              ],
              [
                4.341732025146484,
                51.44654083251953
              ],
              [
                5.019589424133301,
                51.44654083251953
              ],
              [
                5.365976333618164,
                51.24601745605469
              ],
              [
                5.291423320770264,
                50.97892379760742
              ],
              [
                5.206983089447021,
                50.97892379760742
              ],
              [
                5.217134952545166,
                50.71213912963867
              ],
              [
                5.048582077026367,
                50.71213912963867
              ],
              [
                5.058992385864258,
                50.445655822753906
              ],
              [
                4.809360027313232,
                50.37908172607422
              ],
              [
                4.646780490875244,
                50.2459831237793
              ],
              [
                4.652331352233887,
                50.11296081542969
              ],
              [
                4.490188121795654,
                49.98000717163086
              ],
              [
                4.154837608337402,
                49.98000717163086
              ],
              [
                4.142810344696045,
                50.2459831237793
              ],
              [
                3.968613386154175,
                50.37908172607422
              ],
              [
                3.548239946365356,
                50.37908172607422
              ]
            ]
          ],
          [
            [
              [
                5.871382236480713,
                51.31283950805664
              ],
              [
                6.042825222015381,
                51.24601745605469
              ],
              [
                5.704400539398193,
                51.24601745605469
              ],
              [
                5.786734580993652,
                51.31283950805664
              ],
              [
                5.871382236480713,
                51.31283950805664
              ]
            ]
          ],
          [
            [
              [
                15.469130516052246,
                38.22237777709961
              ],
              [
                15.388126373291016,
                38.09331130981445
              ],
              [
                15.30988883972168,
                38.09331130981445
              ],
              [
                15.152132987976074,
                38.028785705566406
              ],
              [
                15.076440811157227,
                38.157840728759766
              ],
              [
                15.469130516052246,
                38.22237777709961
              ]
            ]
          ],
          [
            [
              [
                15.943941116333008,
                41.39224624633789
              ],
              [
                17.20269203186035,
                41.00318908691406
              ],
              [
                17.510658264160156,
                40.74397277832031
              ],
              [
                17.981229782104492,
                40.614410400390625
              ],
              [
                18.43811798095703,
                40.16116714477539
              ],
              [
                18.34894371032715,
                39.90232849121094
              ],
              [
                18.11216926574707,
                39.90232849121094
              ],
              [
                17.813072204589844,
                40.355369567871094
              ],
              [
                17.41753578186035,
                40.355369567871094
              ],
              [
                17.345230102539062,
                40.54964065551758
              ],
              [
                17.02848243713379,
                40.54964065551758
              ],
              [
                16.867990493774414,
                40.4848747253418
              ],
              [
                16.945016860961914,
                40.42012023925781
              ],
              [
                16.861696243286133,
                40.29063034057617
              ],
              [
                16.624452590942383,
                40.29063034057617
              ],
              [
                16.697484970092773,
                40.0964469909668
              ],
              [
                16.45665168762207,
                39.9670295715332
              ],
              [
                16.44725799560547,
                39.64360046386719
              ],
              [
                16.916194915771484,
                39.51427459716797
              ],
              [
                17.069679260253906,
                39.38497543334961
              ],
              [
                17.138301849365234,
                39.06184005737305
              ],
              [
                16.502395629882812,
                38.80344009399414
              ],
              [
                16.491945266723633,
                38.416015625
              ],
              [
                15.932764053344727,
                37.96426773071289
              ],
              [
                15.698192596435547,
                37.96426773071289
              ],
              [
                15.6271390914917,
                38.28691864013672
              ],
              [
                15.941911697387695,
                38.351463317871094
              ],
              [
                15.949724197387695,
                38.67427444458008
              ],
              [
                16.265209197998047,
                38.738853454589844
              ],
              [
                16.270299911499023,
                38.93262481689453
              ],
              [
                16.116540908813477,
                39.06184005737305
              ],
              [
                15.898874282836914,
                39.77294921875
              ],
              [
                15.665508270263672,
                39.90232849121094
              ],
              [
                15.747773170471191,
                40.031734466552734
              ],
              [
                15.431868553161621,
                40.031734466552734
              ],
              [
                15.199469566345215,
                40.225894927978516
              ],
              [
                15.041359901428223,
                40.225894927978516
              ],
              [
                14.893351554870605,
                40.6791877746582
              ],
              [
                14.417906761169434,
                40.6791877746582
              ],
              [
                14.421854972839355,
                40.873565673828125
              ],
              [
                14.104567527770996,
                40.873565673828125
              ],
              [
                13.950616836547852,
                41.132843017578125
              ],
              [
                13.791753768920898,
                41.132843017578125
              ],
              [
                13.792884826660156,
                41.19768524169922
              ],
              [
                14.03740406036377,
                41.521995544433594
              ],
              [
                13.96146297454834,
                41.71668243408203
              ],
              [
                13.804443359375,
                41.84651184082031
              ],
              [
                13.40574836730957,
                41.84651184082031
              ],
              [
                13.328027725219727,
                41.97637939453125
              ],
              [
                13.00974178314209,
                42.041324615478516
              ],
              [
                12.856051445007324,
                42.496177673339844
              ],
              [
                13.098980903625488,
                42.691246032714844
              ],
              [
                13.339327812194824,
                42.691246032714844
              ],
              [
                13.583069801330566,
                42.88639831542969
              ],
              [
                13.90514087677002,
                42.95146560668945
              ],
              [
                13.98537540435791,
                42.95146560668945
              ],
              [
                13.901384353637695,
                42.75628662109375
              ],
              [
                14.370945930480957,
                42.236209869384766
              ],
              [
                14.530768394470215,
                42.236209869384766
              ],
              [
                14.607714653015137,
                42.10627746582031
              ],
              [
                14.768959999084473,
                42.17123794555664
              ],
              [
                14.765887260437012,
                42.041324615478516
              ],
              [
                14.9239501953125,
                41.97637939453125
              ],
              [
                15.165011405944824,
                42.041324615478516
              ],
              [
                15.241438865661621,
                41.911441802978516
              ],
              [
                15.640276908874512,
                41.911441802978516
              ],
              [
                15.720044136047363,
                41.911441802978516
              ],
              [
                16.11888313293457,
                41.911441802978516
              ],
              [
                16.114879608154297,
                41.781593322753906
              ],
              [
                15.87384033203125,
                41.71668243408203
              ],
              [
                15.943941116333008,
                41.39224624633789
              ]
            ]
          ],
          [
            [
              [
                11.1757173538208,
                42.56119155883789
              ],
              [
                11.336134910583496,
                42.62621307373047
              ],
              [
                11.335225105285645,
                42.43117141723633
              ],
              [
                11.1754732131958,
                42.496177673339844
              ],
              [
                11.1757173538208,
                42.56119155883789
              ]
            ]
          ],
          [
            [
              [
                10.134284973144531,
                42.88639831542969
              ],
              [
                10.214488983154297,
                42.88639831542969
              ],
              [
                10.45510196685791,
                42.88639831542969
              ],
              [
                10.455166816711426,
                42.691246032714844
              ],
              [
                10.21481990814209,
                42.691246032714844
              ],
              [
                10.134284973144531,
                42.88639831542969
              ]
            ]
          ],
          [
            [
              [
                10.615581512451172,
                43.016544342041016
              ],
              [
                10.615615844726562,
                43.08163070678711
              ],
              [
                10.856496810913086,
                43.08163070678711
              ],
              [
                10.936327934265137,
                42.88639831542969
              ],
              [
                10.856123924255371,
                42.88639831542969
              ],
              [
                10.85624885559082,
                42.95146560668945
              ],
              [
                10.776015281677246,
                42.95146560668945
              ],
              [
                10.695780754089355,
                42.95146560668945
              ],
              [
                10.695845603942871,
                43.016544342041016
              ],
              [
                10.615581512451172,
                43.016544342041016
              ]
            ]
          ],
          [
            [
              [
                10.453055381774902,
                45.169586181640625
              ],
              [
                10.452703475952148,
                45.36587905883789
              ],
              [
                10.61540412902832,
                45.431331634521484
              ],
              [
                11.184255599975586,
                45.03877639770508
              ],
              [
                11.02169418334961,
                44.973392486572266
              ],
              [
                10.128390312194824,
                45.03877639770508
              ],
              [
                9.965350151062012,
                45.169586181640625
              ],
              [
                9.31507682800293,
                45.169586181640625
              ],
              [
                9.23611831665039,
                44.908016204833984
              ],
              [
                9.317276000976562,
                44.908016204833984
              ],
              [
                9.401886940002441,
                44.45067596435547
              ],
              [
                8.832504272460938,
                44.71194839477539
              ],
              [
                8.746868133544922,
                45.10417556762695
              ],
              [
                8.909372329711914,
                45.10417556762695
              ],
              [
                8.90648078918457,
                45.36587905883789
              ],
              [
                8.742118835449219,
                45.496795654296875
              ],
              [
                8.252450942993164,
                45.56227111816406
              ],
              [
                8.165738105773926,
                45.889827728271484
              ],
              [
                7.919662952423096,
                45.95537567138672
              ],
              [
                8.320942878723145,
                46.414546966552734
              ],
              [
                8.485703468322754,
                46.348915100097656
              ],
              [
                8.488550186157227,
                46.1520881652832
              ],
              [
                8.652090072631836,
                46.1520881652832
              ],
              [
                8.90048885345459,
                45.889827728271484
              ],
              [
                9.223830223083496,
                46.21768569946289
              ],
              [
                9.387435913085938,
                46.21768569946289
              ],
              [
                9.470881462097168,
                46.02093505859375
              ],
              [
                9.308683395385742,
                45.889827728271484
              ],
              [
                9.310473442077637,
                45.693260192871094
              ],
              [
                9.474601745605469,
                45.56227111816406
              ],
              [
                9.55607795715332,
                45.56227111816406
              ],
              [
                9.71903133392334,
                45.56227111816406
              ],
              [
                9.883387565612793,
                45.300437927246094
              ],
              [
                10.290486335754395,
                45.169586181640625
              ],
              [
                10.453055381774902,
                45.169586181640625
              ]
            ]
          ],
          [
            [
              [
                18.70132827758789,
                50.71213912963867
              ],
              [
                19.030193328857422,
                50.578861236572266
              ],
              [
                19.022031784057617,
                50.445655822753906
              ],
              [
                19.18613052368164,
                50.37908172607422
              ],
              [
                19.077926635742188,
                49.98000717163086
              ],
              [
                19.23756217956543,
                49.84712600708008
              ],
              [
                18.887298583984375,
                49.58156967163086
              ],
              [
                18.87979507446289,
                49.44889450073242
              ],
              [
                19.472537994384766,
                49.58156967163086
              ],
              [
                19.865541458129883,
                49.18375015258789
              ],
              [
                20.21193504333496,
                49.38258361816406
              ],
              [
                20.545900344848633,
                49.38258361816406
              ],
              [
                20.453577041625977,
                49.2500114440918
              ],
              [
                20.703824996948242,
                49.2500114440918
              ],
              [
                20.71288299560547,
                49.38258361816406
              ],
              [
                21.79827117919922,
                49.38258361816406
              ],
              [
                22.5230712890625,
                49.051273345947266
              ],
              [
                22.77837371826172,
                49.11750411987305
              ],
              [
                22.928722381591797,
                48.91886520385742
              ],
              [
                23.666343688964844,
                48.786521911621094
              ],
              [
                24.052976608276367,
                48.455936431884766
              ],
              [
                24.378963470458984,
                48.38986587524414
              ],
              [
                24.367206573486328,
                48.257774353027344
              ],
              [
                24.686708450317383,
                48.1257438659668
              ],
              [
                24.586227416992188,
                47.92780685424805
              ],
              [
                24.90500259399414,
                47.79592514038086
              ],
              [
                24.881271362304688,
                47.53233337402344
              ],
              [
                25.03432846069336,
                47.4006233215332
              ],
              [
                25.016605377197266,
                47.20316696166992
              ],
              [
                25.668907165527344,
                47.13737487792969
              ],
              [
                25.72661018371582,
                46.87434005737305
              ],
              [
                25.966814041137695,
                46.808616638183594
              ],
              [
                25.942142486572266,
                46.54585266113281
              ],
              [
                26.477930068969727,
                46.1520881652832
              ],
              [
                26.44038200378418,
                45.75876998901367
              ],
              [
                26.10191535949707,
                45.62776184082031
              ],
              [
                25.93889808654785,
                45.62776184082031
              ],
              [
                25.84545135498047,
                45.496795654296875
              ],
              [
                25.438228607177734,
                45.496795654296875
              ],
              [
                25.34526824951172,
                45.36587905883789
              ],
              [
                25.042299270629883,
                45.62776184082031
              ],
              [
                24.30335807800293,
                45.56227111816406
              ],
              [
                24.27667236328125,
                45.23500442504883
              ],
              [
                24.195356369018555,
                45.23500442504883
              ],
              [
                24.234304428100586,
                44.71194839477539
              ],
              [
                24.14800453186035,
                44.64661407470703
              ],
              [
                24.229034423828125,
                44.64661407470703
              ],
              [
                24.288928985595703,
                44.38538360595703
              ],
              [
                24.445411682128906,
                44.32010269165039
              ],
              [
                24.434776306152344,
                44.18956756591797
              ],
              [
                24.666423797607422,
                44.05907440185547
              ],
              [
                24.7255802154541,
                43.79821014404297
              ],
              [
                24.15087890625,
                43.6678352355957
              ],
              [
                23.601760864257812,
                43.86341094970703
              ],
              [
                22.951791763305664,
                43.79821014404297
              ],
              [
                22.894636154174805,
                44.12431716918945
              ],
              [
                22.65691566467285,
                44.18956756591797
              ],
              [
                22.566926956176758,
                44.05907440185547
              ],
              [
                22.1676082611084,
                44.12431716918945
              ],
              [
                22.07364845275879,
                43.92862319946289
              ],
              [
                21.91227149963379,
                43.92862319946289
              ],
              [
                21.814477920532227,
                43.6678352355957
              ],
              [
                21.488079071044922,
                43.6026611328125
              ],
              [
                21.31077766418457,
                43.342071533203125
              ],
              [
                20.82829475402832,
                43.342071533203125
              ],
              [
                20.276378631591797,
                43.53750228881836
              ],
              [
                20.05644416809082,
                43.92862319946289
              ],
              [
                19.73369026184082,
                43.92862319946289
              ],
              [
                19.663402557373047,
                44.12431716918945
              ],
              [
                18.884204864501953,
                44.71194839477539
              ],
              [
                16.86968421936035,
                45.03877639770508
              ],
              [
                16.70958709716797,
                45.10417556762695
              ],
              [
                16.714279174804688,
                45.23500442504883
              ],
              [
                16.4703311920166,
                45.23500442504883
              ],
              [
                16.219921112060547,
                45.03877639770508
              ],
              [
                15.982434272766113,
                45.23500442504883
              ],
              [
                15.819802284240723,
                45.23500442504883
              ],
              [
                15.803844451904297,
                44.71194839477539
              ],
              [
                16.04285430908203,
                44.58129119873047
              ],
              [
                16.270606994628906,
                44.12431716918945
              ],
              [
                15.864686012268066,
                44.05907440185547
              ],
              [
                15.146636962890625,
                44.38538360595703
              ],
              [
                15.148378372192383,
                44.45067596435547
              ],
              [
                14.908865928649902,
                44.58129119873047
              ],
              [
                14.91874885559082,
                44.973392486572266
              ],
              [
                14.75637149810791,
                44.973392486572266
              ],
              [
                14.759533882141113,
                45.10417556762695
              ],
              [
                14.59854507446289,
                45.169586181640625
              ],
              [
                14.603090286254883,
                45.36587905883789
              ],
              [
                14.196189880371094,
                45.36587905883789
              ],
              [
                14.189410209655762,
                45.03877639770508
              ],
              [
                14.108189582824707,
                45.03877639770508
              ],
              [
                14.026969909667969,
                45.03877639770508
              ],
              [
                13.786900520324707,
                45.23500442504883
              ],
              [
                14.117451667785645,
                45.496795654296875
              ],
              [
                13.710229873657227,
                45.496795654296875
              ],
              [
                13.711389541625977,
                45.56227111816406
              ],
              [
                13.714865684509277,
                45.75876998901367
              ],
              [
                13.389599800109863,
                45.82429504394531
              ],
              [
                13.307992935180664,
                45.82429504394531
              ],
              [
                13.31197738647461,
                46.08650588989258
              ],
              [
                13.47651481628418,
                46.1520881652832
              ],
              [
                13.397838592529297,
                46.348915100097656
              ],
              [
                13.562676429748535,
                46.414546966552734
              ],
              [
                13.564879417419434,
                46.54585266113281
              ],
              [
                12.09045124053955,
                46.677207946777344
              ],
              [
                11.843135833740234,
                46.480194091796875
              ],
              [
                11.841521263122559,
                46.21768569946289
              ],
              [
                11.677236557006836,
                46.08650588989258
              ],
              [
                11.350288391113281,
                46.08650588989258
              ],
              [
                11.022930145263672,
                45.75876998901367
              ],
              [
                10.778217315673828,
                45.693260192871094
              ],
              [
                10.45177173614502,
                45.82429504394531
              ],
              [
                10.532551765441895,
                46.283294677734375
              ],
              [
                10.44906997680664,
                46.94007873535156
              ],
              [
                10.284491539001465,
                47.005828857421875
              ],
              [
                10.202829360961914,
                46.87434005737305
              ],
              [
                9.9564208984375,
                46.87434005737305
              ],
              [
                9.625838279724121,
                47.13737487792969
              ],
              [
                9.625325202941895,
                47.20316696166992
              ],
              [
                9.54301929473877,
                47.20316696166992
              ],
              [
                9.542471885681152,
                47.26897048950195
              ],
              [
                9.541923522949219,
                47.33478927612305
              ],
              [
                9.541373252868652,
                47.4006233215332
              ],
              [
                9.623783111572266,
                47.4006233215332
              ],
              [
                9.62326717376709,
                47.46647262573242
              ],
              [
                9.622751235961914,
                47.53233337402344
              ],
              [
                9.952665328979492,
                47.53233337402344
              ],
              [
                10.118547439575195,
                47.33478927612305
              ],
              [
                10.36567211151123,
                47.33478927612305
              ],
              [
                10.447366714477539,
                47.598209381103516
              ],
              [
                10.61239242553711,
                47.598209381103516
              ],
              [
                11.189559936523438,
                47.4006233215332
              ],
              [
                11.602551460266113,
                47.598209381103516
              ],
              [
                12.510897636413574,
                47.664100646972656
              ],
              [
                12.508110046386719,
                47.4006233215332
              ],
              [
                12.177369117736816,
                47.26897048950195
              ],
              [
                12.175729751586914,
                47.07159423828125
              ],
              [
                12.752180099487305,
                47.13737487792969
              ],
              [
                12.834451675415039,
                47.13737487792969
              ],
              [
                13.079431533813477,
                47.005828857421875
              ],
              [
                13.738253593444824,
                47.07159423828125
              ],
              [
                13.659500122070312,
                47.26897048950195
              ],
              [
                13.41247844696045,
                47.26897048950195
              ],
              [
                13.418926239013672,
                47.664100646972656
              ],
              [
                13.175244331359863,
                47.92780685424805
              ],
              [
                13.177251815795898,
                48.059749603271484
              ],
              [
                13.847192764282227,
                48.455936431884766
              ],
              [
                14.100465774536133,
                48.654239654541016
              ],
              [
                13.606999397277832,
                48.91886520385742
              ],
              [
                13.52376937866211,
                48.91886520385742
              ],
              [
                13.525009155273438,
                48.98506164550781
              ],
              [
                13.441741943359375,
                48.98506164550781
              ],
              [
                13.358475685119629,
                48.98506164550781
              ],
              [
                13.112967491149902,
                49.2500114440918
              ],
              [
                12.532414436340332,
                49.51522445678711
              ],
              [
                12.534139633178711,
                49.64793395996094
              ],
              [
                12.36764907836914,
                49.71431350708008
              ],
              [
                12.370920181274414,
                49.98000717163086
              ],
              [
                12.12159538269043,
                50.17946243286133
              ],
              [
                12.12234115600586,
                50.2459831237793
              ],
              [
                12.290331840515137,
                50.2459831237793
              ],
              [
                12.376081466674805,
                50.37908172607422
              ],
              [
                12.796454429626465,
                50.37908172607422
              ],
              [
                13.391927719116211,
                50.71213912963867
              ],
              [
                14.153997421264648,
                50.84549331665039
              ],
              [
                14.328418731689453,
                51.04566955566406
              ],
              [
                14.497381210327148,
                51.04566955566406
              ],
              [
                14.577799797058105,
                50.912200927734375
              ],
              [
                14.999794006347656,
                50.912200927734375
              ],
              [
                15.173232078552246,
                51.04566955566406
              ],
              [
                15.272184371948242,
                51.44654083251953
              ],
              [
                14.853023529052734,
                51.580322265625
              ],
              [
                14.857569694519043,
                51.71418380737305
              ],
              [
                15.027374267578125,
                51.71418380737305
              ],
              [
                14.954254150390625,
                52.0491943359375
              ],
              [
                15.131959915161133,
                52.250450134277344
              ],
              [
                15.470279693603516,
                52.18334197998047
              ],
              [
                15.646231651306152,
                52.31757736206055
              ],
              [
                15.813953399658203,
                52.250450134277344
              ],
              [
                15.80826187133789,
                52.11625671386719
              ],
              [
                16.136985778808594,
                51.84812545776367
              ],
              [
                16.131103515625,
                51.71418380737305
              ],
              [
                16.55561637878418,
                51.71418380737305
              ],
              [
                16.803813934326172,
                51.580322265625
              ],
              [
                16.980127334594727,
                51.71418380737305
              ],
              [
                17.31973648071289,
                51.71418380737305
              ],
              [
                17.39048957824707,
                51.44654083251953
              ],
              [
                17.63386344909668,
                51.24601745605469
              ],
              [
                17.718469619750977,
                51.24601745605469
              ],
              [
                17.972288131713867,
                51.24601745605469
              ],
              [
                18.049345016479492,
                51.112430572509766
              ],
              [
                18.709320068359375,
                50.84549331665039
              ],
              [
                18.70132827758789,
                50.71213912963867
              ]
            ],
            [
              [
                20.286745071411133,
                49.2500114440918
              ],
              [
                20.278141021728516,
                49.11750411987305
              ],
              [
                20.44919204711914,
                49.18375015258789
              ],
              [
                20.370161056518555,
                49.2500114440918
              ],
              [
                20.286745071411133,
                49.2500114440918
              ]
            ]
          ],
          [
            [
              [
                9.45427131652832,
                47.92780685424805
              ],
              [
                9.536406517028809,
                47.993770599365234
              ],
              [
                9.537511825561523,
                47.86185836791992
              ],
              [
                9.371582984924316,
                47.92780685424805
              ],
              [
                9.45427131652832,
                47.92780685424805
              ]
            ]
          ],
          [
            [
              [
                10.52871322631836,
                48.191749572753906
              ],
              [
                10.363642692565918,
                47.993770599365234
              ],
              [
                10.115167617797852,
                48.059749603271484
              ],
              [
                10.197128295898438,
                48.257774353027344
              ],
              [
                10.528592109680176,
                48.257774353027344
              ],
              [
                10.52871322631836,
                48.191749572753906
              ]
            ]
          ],
          [
            [
              [
                9.449578285217285,
                48.455936431884766
              ],
              [
                9.532551765441895,
                48.455936431884766
              ],
              [
                9.615525245666504,
                48.455936431884766
              ],
              [
                9.947421073913574,
                48.455936431884766
              ],
              [
                10.03139591217041,
                48.257774353027344
              ],
              [
                9.782355308532715,
                48.323814392089844
              ],
              [
                9.451920509338379,
                48.191749572753906
              ],
              [
                9.449578285217285,
                48.455936431884766
              ]
            ]
          ],
          [
            [
              [
                10.113962173461914,
                48.323814392089844
              ],
              [
                10.113664627075195,
                48.38986587524414
              ],
              [
                10.11336898803711,
                48.455936431884766
              ],
              [
                10.196342468261719,
                48.455936431884766
              ],
              [
                10.196602821350098,
                48.38986587524414
              ],
              [
                10.279540061950684,
                48.38986587524414
              ],
              [
                10.279766082763672,
                48.323814392089844
              ],
              [
                10.196864128112793,
                48.323814392089844
              ],
              [
                10.113962173461914,
                48.323814392089844
              ]
            ]
          ]
        ]
      }
    }
  ]
}
