{"type": "FeatureCollection", "features": [{"type": "Feature", "properties": {"name": "Sultanate of Muscat and Oman", "displayYear": 1920, "fromYear": 1920, "toYear": 1921, "wikipedia": "Muscat and Oman", "seshatId": "", "areaKm2": 134147.01784221028, "source": "Seshat Cliopatria"}, "geometry": {"type": "MultiPolygon", "coordinates": [[[[54.12050247192383, 16.9361629486084], [53.89468002319336, 16.87187385559082], [53.90872573852539, 17.06473731994629], [54.070377349853516, 17.257600784301758], [54.29164123535156, 17.257600784301758], [54.493831634521484, 17.000450134277344], [54.19422149658203, 16.9361629486084], [54.12050247192383, 16.9361629486084]]], [[[58.852474212646484, 20.664819717407227], [59.00082778930664, 20.664819717407227], [58.97935485839844, 20.40767478942871], [58.81501007080078, 20.214815139770508], [58.666770935058594, 20.214815139770508], [58.688114166259766, 20.471960067749023], [58.84712219238281, 20.60053253173828], [58.852474212646484, 20.664819717407227]]], [[[57.423980712890625, 23.943456649780273], [57.06272888183594, 24.07203483581543], [56.78811264038086, 24.329193115234375], [56.4764289855957, 24.97209930419922], [56.401641845703125, 24.97209930419922], [56.23326873779297, 24.779226303100586], [56.08375549316406, 24.779226303100586], [56.09621047973633, 24.907808303833008], [55.95291519165039, 24.97209930419922], [55.823150634765625, 24.393482208251953], [55.89784622192383, 24.393482208251953], [55.88009262084961, 24.200613021850586], [56.0177001953125, 24.07203483581543], [55.558345794677734, 23.943456649780273], [55.61030197143555, 23.68630027770996], [55.35348129272461, 23.30057144165039], [55.3001594543457, 22.657697677612305], [55.2949333190918, 22.59341049194336], [55.694705963134766, 22.014829635620117], [56.453956604003906, 22.20768928527832], [57.341129302978516, 22.143402099609375], [57.85076141357422, 21.114822387695312], [57.760780334472656, 20.921964645385742], [57.97814178466797, 20.857677459716797], [58.03127670288086, 20.60053253173828], [58.24849319458008, 20.53624725341797], [58.30677032470703, 20.343387603759766], [58.5291748046875, 20.343387603759766], [58.799705505371094, 20.921964645385742], [59.436954498291016, 21.43625259399414], [59.864044189453125, 22.079116821289062], [59.903873443603516, 22.529123306274414], [59.543212890625, 22.657697677612305], [59.2684440612793, 22.914846420288086], [59.27424621582031, 22.97913360595703], [59.045021057128906, 22.914846420288086], [58.90760040283203, 23.043420791625977], [58.54088592529297, 23.107707977294922], [58.277679443359375, 23.493436813354492], [58.2835693359375, 23.557723999023438], [58.37001419067383, 23.68630027770996], [58.30139923095703, 23.75058937072754], [57.71055221557617, 23.814878463745117], [57.49860763549805, 23.943456649780273], [57.423980712890625, 23.943456649780273]]], [[[51.20280075073242, 24.522062301635742], [50.84537887573242, 24.714935302734375], [50.792572021484375, 24.97209930419922], [50.79813766479492, 25.03639030456543], [50.768985748291016, 25.55072784423828], [50.92463302612305, 25.615020751953125], [50.95453643798828, 25.936485290527344], [51.12286376953125, 26.129364013671875], [51.42281723022461, 26.129364013671875], [51.697906494140625, 25.8721923828125], [51.574989318847656, 25.357851028442383], [51.71883010864258, 25.29355812072754], [51.69002151489258, 24.97209930419922], [51.52363204956055, 24.779226303100586], [51.50166320800781, 24.522062301635742], [51.20820617675781, 24.586353302001953], [51.20280075073242, 24.522062301635742]]], [[[56.52200698852539, 26.129364013671875], [56.47541046142578, 26.386537551879883], [56.16815948486328, 26.32224464416504], [56.072078704833984, 26.129364013671875], [56.06513595581055, 26.06507110595703], [56.28312683105469, 26.000778198242188], [56.249000549316406, 25.67931365966797], [56.392086029052734, 25.615020751953125], [56.39881896972656, 25.67931365966797], [56.51499557495117, 26.06507110595703], [56.52200698852539, 26.129364013671875]]], [[[47.506404876708984, 29.022375106811523], [47.58198165893555, 29.022375106811523], [47.574981689453125, 28.958093643188477], [47.499420166015625, 28.958093643188477], [47.506404876708984, 29.022375106811523]]], [[[47.51342010498047, 29.08665657043457], [47.863216400146484, 28.829526901245117], [48.3164176940918, 28.829526901245117], [48.21538543701172, 29.279497146606445], [48.078643798828125, 29.40805435180664], [47.85165023803711, 29.40805435180664], [47.941917419433594, 29.536611557006836], [48.01761245727539, 29.536611557006836], [47.7442512512207, 29.79371452331543], [47.736846923828125, 29.729440689086914], [47.48051834106445, 29.472333908081055], [47.444862365722656, 29.150936126708984], [47.520469665527344, 29.150936126708984], [47.51342010498047, 29.08665657043457]]]]}}]}