{
  "type": "FeatureCollection",
  "features": [
    {
      "type": "Feature",
      "properties": {
        "Name": "Italian Africa",
        "FromYear": 1900,
        "ToYear": 1911,
        "Area": 587265.8115111644,
        "Type": "POLITY",
        "Wikipedia": "Italian Empire",
        "Wikidata": "Q926295",
        "SeshatID": "",
        "Components": "",
        "MemberOf": "",
        "displayYear": 1900,
        "sourceYear": 1900,
        "mappedTerritoryId": "cliopatria_italian_africa"
      },
      "geometry": {
        "type": "MultiPolygon",
        "coordinates": [
          [
            [
              [
                50.94806671142578,
                10.314528465270996
              ],
              [
                50.831058502197266,
                9.285927772521973
              ],
              [
                50.371917724609375,
                8.771627426147461
              ],
              [
                50.203346252441406,
                8.193038940429688
              ],
              [
                49.82863235473633,
                7.935888767242432
              ],
              [
                49.81439971923828,
                7.550163269042969
              ],
              [
                49.203407287597656,
                6.778711795806885
              ],
              [
                48.87750244140625,
                5.750109672546387
              ],
              [
                48.72964096069336,
                5.685822010040283
              ],
              [
                48.648597717285156,
                5.428671360015869
              ],
              [
                48.12063980102539,
                4.850082874298096
              ],
              [
                47.88682174682617,
                4.335781574249268
              ],
              [
                47.063690185546875,
                3.564330101013184
              ],
              [
                47.060157775878906,
                3.435754776000977
              ],
              [
                46.689056396484375,
                3.178604364395142
              ],
              [
                46.68561553955078,
                3.050029039382935
              ],
              [
                45.86627197265625,
                2.342865228652954
              ],
              [
                45.72066116333008,
                2.342865228652954
              ],
              [
                45.49577713012695,
                2.085714817047119
              ],
              [
                44.38966751098633,
                1.507126569747925
              ],
              [
                43.27535629272461,
                0.542813181877136
              ],
              [
                43.27243423461914,
                0.414238125085831
              ],
              [
                42.902767181396484,
                0.15708801150322
              ],
              [
                42.91486740112305,
                0.028512962162495
              ],
              [
                42.12020492553711,
                -0.742937445640564
              ],
              [
                42.12131118774414,
                -0.871512532234192
              ],
              [
                41.8313102722168,
                -1.00008761882782
              ],
              [
                41.833641052246094,
                -1.257237911224365
              ],
              [
                41.54615783691406,
                -1.642963409423828
              ],
              [
                41.473365783691406,
                -1.642963409423828
              ],
              [
                40.88401794433594,
                -0.871512532234192
              ],
              [
                40.928016662597656,
                2.857166290283203
              ],
              [
                41.30010986328125,
                3.178604364395142
              ],
              [
                41.75687789916992,
                3.950055837631226
              ],
              [
                42.12790298461914,
                4.207206249237061
              ],
              [
                42.7852897644043,
                4.271493911743164
              ],
              [
                43.45695877075195,
                4.850082874298096
              ],
              [
                44.768619537353516,
                4.850082874298096
              ],
              [
                45.063812255859375,
                4.978658199310303
              ],
              [
                45.36857604980469,
                5.428671360015869
              ],
              [
                45.59110641479492,
                5.557246685028076
              ],
              [
                45.595001220703125,
                5.685822010040283
              ],
              [
                46.1942024230957,
                6.200123310089111
              ],
              [
                46.198280334472656,
                6.328698635101318
              ],
              [
                47.324310302734375,
                7.293012619018555
              ],
              [
                47.328739166259766,
                7.421587944030762
              ],
              [
                47.85315704345703,
                7.807313442230225
              ],
              [
                47.85776901245117,
                7.935888767242432
              ],
              [
                48.2345085144043,
                8.25732707977295
              ],
              [
                48.24168014526367,
                8.450189590454102
              ],
              [
                48.69451904296875,
                8.835914611816406
              ],
              [
                49.06222915649414,
                8.900202751159668
              ],
              [
                49.44538116455078,
                9.350214958190918
              ],
              [
                49.437564849853516,
                10.893115997314453
              ],
              [
                49.23823547363281,
                11.343128204345703
              ],
              [
                49.311431884765625,
                11.343128204345703
              ],
              [
                49.686336517333984,
                11.535990715026855
              ],
              [
                50.275062561035156,
                11.6002779006958
              ],
              [
                50.58653259277344,
                11.986002922058105
              ],
              [
                51.242557525634766,
                11.92171573638916
              ],
              [
                51.30320358276367,
                11.664566040039062
              ],
              [
                51.135318756103516,
                11.214552879333496
              ],
              [
                51.176048278808594,
                10.507390975952148
              ],
              [
                51.02119445800781,
                10.314528465270996
              ],
              [
                50.94806671142578,
                10.314528465270996
              ]
            ]
          ],
          [
            [
              [
                39.53190612792969,
                15.586114883422852
              ],
              [
                39.743446350097656,
                15.393251419067383
              ],
              [
                39.73439025878906,
                15.200387001037598
              ],
              [
                39.807918548583984,
                15.200387001037598
              ],
              [
                39.82310485839844,
                15.52182674407959
              ],
              [
                39.97023010253906,
                15.52182674407959
              ],
              [
                40.310516357421875,
                14.943235397338867
              ],
              [
                40.68106460571289,
                15.007523536682129
              ],
              [
                40.81596755981445,
                14.750371932983398
              ],
              [
                41.32428741455078,
                14.621796607971191
              ],
              [
                41.5267333984375,
                14.236069679260254
              ],
              [
                41.6706428527832,
                14.171781539916992
              ],
              [
                41.664764404296875,
                14.043206214904785
              ],
              [
                42.378360748291016,
                13.593193054199219
              ],
              [
                42.43741226196289,
                13.271754264831543
              ],
              [
                42.5841064453125,
                13.271754264831543
              ],
              [
                42.86052703857422,
                12.886029243469238
              ],
              [
                43.15378952026367,
                12.886029243469238
              ],
              [
                43.221492767333984,
                12.757453918457031
              ],
              [
                43.21870422363281,
                12.69316577911377
              ],
              [
                42.99604415893555,
                12.628878593444824
              ],
              [
                42.76530075073242,
                12.37172794342041
              ],
              [
                42.4015998840332,
                12.436016082763672
              ],
              [
                42.18980407714844,
                12.628878593444824
              ],
              [
                42.195220947265625,
                12.757453918457031
              ],
              [
                41.274925231933594,
                13.528904914855957
              ],
              [
                41.280540466308594,
                13.657480239868164
              ],
              [
                40.28696823120117,
                14.428933143615723
              ],
              [
                39.187992095947266,
                14.493220329284668
              ],
              [
                39.04669952392578,
                14.621796607971191
              ],
              [
                38.744476318359375,
                14.428933143615723
              ],
              [
                38.52411651611328,
                14.428933143615723
              ],
              [
                37.952884674072266,
                14.81466007232666
              ],
              [
                37.63210678100586,
                14.171781539916992
              ],
              [
                37.414432525634766,
                14.236069679260254
              ],
              [
                37.34888458251953,
                14.428933143615723
              ],
              [
                37.04985809326172,
                14.300357818603516
              ],
              [
                36.60921859741211,
                14.300357818603516
              ],
              [
                36.49644470214844,
                15.136098861694336
              ],
              [
                36.651676177978516,
                15.328963279724121
              ],
              [
                36.90909957885742,
                16.16470718383789
              ],
              [
                37.06218719482422,
                16.293283462524414
              ],
              [
                37.0120735168457,
                16.807586669921875
              ],
              [
                37.168453216552734,
                17.000450134277344
              ],
              [
                37.38962936401367,
                17.000450134277344
              ],
              [
                37.54316329956055,
                17.129026412963867
              ],
              [
                37.70293045043945,
                17.38617706298828
              ],
              [
                38.530277252197266,
                17.707616806030273
              ],
              [
                38.690711975097656,
                17.964767456054688
              ],
              [
                38.76455307006836,
                17.964767456054688
              ],
              [
                39.40629959106445,
                16.036130905151367
              ],
              [
                39.403194427490234,
                15.971842765808105
              ],
              [
                39.53190612792969,
                15.586114883422852
              ]
            ]
          ],
          [
            [
              [
                39.98891830444336,
                15.907554626464844
              ],
              [
                40.13612365722656,
                15.907554626464844
              ],
              [
                40.338035583496094,
                15.52182674407959
              ],
              [
                39.97331619262695,
                15.586114883422852
              ],
              [
                39.979522705078125,
                15.714691162109375
              ],
              [
                39.982643127441406,
                15.77897834777832
              ],
              [
                39.98891830444336,
                15.907554626464844
              ]
            ]
          ]
        ]
      }
    }
  ]
}
