{
  "type": "FeatureCollection",
  "features": [
    {
      "type": "Feature",
      "properties": {
        "Name": "West Franks",
        "FromYear": 875,
        "ToYear": 875,
        "Area": 674375.5601931517,
        "Type": "POLITY",
        "Wikipedia": "West Francia",
        "Wikidata": "Q46370",
        "SeshatID": "fr_carolingian_emp_2",
        "Components": "",
        "MemberOf": "(Carolingian Empire)",
        "displayYear": 875,
        "sourceYear": 875,
        "mappedTerritoryId": "cliopatria_west_franks"
      },
      "geometry": {
        "type": "MultiPolygon",
        "coordinates": [
          [
            [
              [
                9.491888999938965,
                43.016544342041016
              ],
              [
                9.49340534210205,
                42.75628662109375
              ],
              [
                9.5735502243042,
                42.75628662109375
              ],
              [
                9.577608108520508,
                41.97637939453125
              ],
              [
                9.497812271118164,
                41.97637939453125
              ],
              [
                9.49889087677002,
                41.781593322753906
              ],
              [
                9.262411117553711,
                41.39224624633789
              ],
              [
                9.1038236618042,
                41.32738494873047
              ],
              [
                8.783942222595215,
                41.521995544433594
              ],
              [
                8.782108306884766,
                41.71668243408203
              ],
              [
                8.622743606567383,
                41.71668243408203
              ],
              [
                8.700496673583984,
                41.911441802978516
              ],
              [
                8.538846015930176,
                42.10627746582031
              ],
              [
                8.534564018249512,
                42.496177673339844
              ],
              [
                8.772740364074707,
                42.691246032714844
              ],
              [
                9.17282485961914,
                42.75628662109375
              ],
              [
                9.251097679138184,
                43.016544342041016
              ],
              [
                9.331360816955566,
                43.016544342041016
              ],
              [
                9.491888999938965,
                43.016544342041016
              ]
            ]
          ],
          [
            [
              [
                10.455166816711426,
                42.691246032714844
              ],
              [
                10.21481990814209,
                42.691246032714844
              ],
              [
                10.134284973144531,
                42.88639831542969
              ],
              [
                10.214488983154297,
                42.88639831542969
              ],
              [
                10.45510196685791,
                42.88639831542969
              ],
              [
                10.455166816711426,
                42.691246032714844
              ]
            ]
          ],
          [
            [
              [
                12.736748695373535,
                45.82429504394531
              ],
              [
                12.164421081542969,
                45.693260192871094
              ],
              [
                12.000378608703613,
                45.56227111816406
              ],
              [
                11.998926162719727,
                45.36587905883789
              ],
              [
                12.161685943603516,
                45.36587905883789
              ],
              [
                12.161133766174316,
                45.300437927246094
              ],
              [
                12.160021781921387,
                45.169586181640625
              ],
              [
                12.40256118774414,
                45.03877639770508
              ],
              [
                12.399906158447266,
                44.77729415893555
              ],
              [
                12.157197952270508,
                44.842647552490234
              ],
              [
                12.153728485107422,
                44.45067596435547
              ],
              [
                12.312999725341797,
                44.18956756591797
              ],
              [
                12.873446464538574,
                43.79821014404297
              ],
              [
                13.035634994506836,
                43.86341094970703
              ],
              [
                13.033763885498047,
                43.73301696777344
              ],
              [
                13.513986587524414,
                43.53750228881836
              ],
              [
                13.512868881225586,
                43.472347259521484
              ],
              [
                13.270421028137207,
                43.407203674316406
              ],
              [
                13.191967964172363,
                43.53750228881836
              ],
              [
                12.548683166503906,
                43.6026611328125
              ],
              [
                12.5471773147583,
                43.472347259521484
              ],
              [
                12.224648475646973,
                43.407203674316406
              ],
              [
                11.82194709777832,
                43.342071533203125
              ],
              [
                11.820984840393066,
                43.211830139160156
              ],
              [
                11.981149673461914,
                43.146724700927734
              ],
              [
                12.0580472946167,
                42.75628662109375
              ],
              [
                11.736565589904785,
                42.62621307373047
              ],
              [
                11.574831008911133,
                42.36617660522461
              ],
              [
                11.494861602783203,
                42.36617660522461
              ],
              [
                11.255227088928223,
                42.43117141723633
              ],
              [
                11.175962448120117,
                42.62621307373047
              ],
              [
                11.015789985656738,
                42.62621307373047
              ],
              [
                11.01634693145752,
                42.82133865356445
              ],
              [
                10.535322189331055,
                43.08163070678711
              ],
              [
                10.374164581298828,
                43.6678352355957
              ],
              [
                10.13144302368164,
                44.05907440185547
              ],
              [
                9.889463424682617,
                43.99384307861328
              ],
              [
                9.969700813293457,
                44.12431716918945
              ],
              [
                9.7273588180542,
                44.12431716918945
              ],
              [
                9.159077644348145,
                44.45067596435547
              ],
              [
                8.592522621154785,
                44.45067596435547
              ],
              [
                8.191595077514648,
                44.18956756591797
              ],
              [
                8.033902168273926,
                43.92862319946289
              ],
              [
                7.150246143341064,
                43.73301696777344
              ],
              [
                6.993107318878174,
                43.53750228881836
              ],
              [
                6.67255163192749,
                43.472347259521484
              ],
              [
                6.517646789550781,
                43.211830139160156
              ],
              [
                6.278174877166748,
                43.146724700927734
              ],
              [
                5.796233177185059,
                43.146724700927734
              ],
              [
                5.631923198699951,
                43.276947021484375
              ],
              [
                5.390771865844727,
                43.276947021484375
              ],
              [
                5.386905193328857,
                43.407203674316406
              ],
              [
                5.063065528869629,
                43.472347259521484
              ],
              [
                4.177847862243652,
                43.472347259521484
              ],
              [
                4.173032760620117,
                43.6026611328125
              ],
              [
                3.850892543792725,
                43.6026611328125
              ],
              [
                3.617136240005493,
                43.407203674316406
              ],
              [
                3.140029191970825,
                43.276947021484375
              ],
              [
                2.984907388687134,
                43.146724700927734
              ],
              [
                3.009923458099365,
                42.56119155883789
              ],
              [
                3.178062200546265,
                42.36617660522461
              ],
              [
                3.116764783859253,
                41.911441802978516
              ],
              [
                2.572504997253418,
                41.586883544921875
              ],
              [
                2.333626985549927,
                41.586883544921875
              ],
              [
                2.106574535369873,
                41.32738494873047
              ],
              [
                1.871051788330078,
                41.26253128051758
              ],
              [
                1.791565299034119,
                41.26253128051758
              ],
              [
                1.365143060684204,
                41.84651184082031
              ],
              [
                1.680948257446289,
                41.911441802978516
              ],
              [
                1.984707236289978,
                42.236209869384766
              ],
              [
                2.461260795593262,
                42.30118942260742
              ],
              [
                2.455409526824951,
                42.43117141723633
              ],
              [
                1.485537886619568,
                42.62621307373047
              ],
              [
                1.074691534042358,
                42.82133865356445
              ],
              [
                0.673818349838257,
                42.82133865356445
              ],
              [
                0.600951313972473,
                42.691246032714844
              ],
              [
                -0.124003164470196,
                42.75628662109375
              ],
              [
                -0.773497939109802,
                42.88639831542969
              ],
              [
                -0.862140953540802,
                43.016544342041016
              ],
              [
                -1.687574744224548,
                43.342071533203125
              ],
              [
                -1.692170143127441,
                43.407203674316406
              ],
              [
                -1.459883332252502,
                43.53750228881836
              ],
              [
                -1.402047991752625,
                43.86341094970703
              ],
              [
                -1.321390628814697,
                43.86341094970703
              ],
              [
                -1.348801136016846,
                44.25482940673828
              ],
              [
                -1.267958283424377,
                44.25482940673828
              ],
              [
                -1.286344885826111,
                44.5159797668457
              ],
              [
                -1.205376982688904,
                44.5159797668457
              ],
              [
                -1.251859068870544,
                45.169586181640625
              ],
              [
                -1.170574903488159,
                45.169586181640625
              ],
              [
                -1.189373373985291,
                45.431331634521484
              ],
              [
                -1.031213998794556,
                45.496795654296875
              ],
              [
                -1.045281529426575,
                45.693260192871094
              ],
              [
                -1.213142395019531,
                45.75876998901367
              ],
              [
                -1.141096234321594,
                45.889827728271484
              ],
              [
                -1.222735166549683,
                45.889827728271484
              ],
              [
                -1.251809358596802,
                46.283294677734375
              ],
              [
                -1.666043281555176,
                46.348915100097656
              ],
              [
                -2.194406032562256,
                46.808616638183594
              ],
              [
                -2.210532188415527,
                47.005828857421875
              ],
              [
                -2.128328084945679,
                47.005828857421875
              ],
              [
                -1.306286931037903,
                47.005828857421875
              ],
              [
                -1.254248976707458,
                47.4006233215332
              ],
              [
                -0.93449479341507,
                47.53233337402344
              ],
              [
                -0.357145428657532,
                47.53233337402344
              ],
              [
                -0.371335089206696,
                47.730003356933594
              ],
              [
                -0.215549796819687,
                47.86185836791992
              ],
              [
                -0.224978670477867,
                47.993770599365234
              ],
              [
                -0.731223523616791,
                48.1257438659668
              ],
              [
                -1.082935571670532,
                48.38986587524414
              ],
              [
                -1.041422247886658,
                48.91886520385742
              ],
              [
                -1.213194966316223,
                48.98506164550781
              ],
              [
                -1.245370745658875,
                49.38258361816406
              ],
              [
                -1.167253732681274,
                49.44889450073242
              ],
              [
                -1.08372437953949,
                49.44889450073242
              ],
              [
                0.007001183927059,
                49.38258361816406
              ],
              [
                -0.012448177672923,
                49.64793395996094
              ],
              [
                0.224112883210182,
                49.84712600708008
              ],
              [
                1.052847385406494,
                49.98000717163086
              ],
              [
                1.454967975616455,
                50.2459831237793
              ],
              [
                1.424705147743225,
                50.71213912963867
              ],
              [
                1.656218767166138,
                51.04566955566406
              ],
              [
                2.577829360961914,
                51.17921447753906
              ],
              [
                3.155481338500977,
                51.44654083251953
              ],
              [
                3.74860668182373,
                51.44654083251953
              ],
              [
                3.40621018409729,
                51.51342010498047
              ],
              [
                3.399252653121948,
                51.64724349975586
              ],
              [
                3.738690614700317,
                51.64724349975586
              ],
              [
                3.647099733352661,
                51.78114318847656
              ],
              [
                3.81699013710022,
                51.78114318847656
              ],
              [
                3.810401916503906,
                51.91512680053711
              ],
              [
                3.895433187484741,
                51.91512680053711
              ],
              [
                3.980464458465576,
                51.91512680053711
              ],
              [
                4.150527000427246,
                51.91512680053711
              ],
              [
                4.244784832000732,
                51.71418380737305
              ],
              [
                4.499491691589355,
                51.71418380737305
              ],
              [
                4.493966381399328,
                51.83991300569443
              ],
              [
                4.493605136871338,
                51.84812545776367
              ],
              [
                4.490652561187744,
                51.91512680053711
              ],
              [
                4.487694263458252,
                51.98215103149414
              ],
              [
                4.572768688201904,
                51.98215103149414
              ],
              [
                4.56984806060791,
                52.0491943359375
              ],
              [
                5.506146907806396,
                52.0491943359375
              ],
              [
                5.938404083251953,
                51.84812545776367
              ],
              [
                5.942830562591553,
                51.71418380737305
              ],
              [
                6.203768730163574,
                51.51342010498047
              ],
              [
                5.960404872894287,
                51.17921447753906
              ],
              [
                5.969116687774658,
                50.912200927734375
              ],
              [
                5.971287727355957,
                50.84549331665039
              ],
              [
                6.320712566375732,
                50.445655822753906
              ],
              [
                6.324694156646729,
                50.312522888183594
              ],
              [
                6.078903675079346,
                50.11296081542969
              ],
              [
                6.162819862365723,
                50.11296081542969
              ],
              [
                6.168996334075928,
                49.91355895996094
              ],
              [
                6.338570117950439,
                49.84712600708008
              ],
              [
                6.268860816955566,
                49.38258361816406
              ],
              [
                6.437765598297119,
                49.316287994384766
              ],
              [
                6.443518161773682,
                49.11750411987305
              ],
              [
                6.280807018280029,
                48.98506164550781
              ],
              [
                6.205595016479492,
                48.72037124633789
              ],
              [
                6.039356231689453,
                48.72037124633789
              ],
              [
                5.798727989196777,
                48.455936431884766
              ],
              [
                5.471461296081543,
                48.323814392089844
              ],
              [
                5.480661869049072,
                48.059749603271484
              ],
              [
                6.062015533447266,
                47.993770599365234
              ],
              [
                6.23138952255249,
                47.86185836791992
              ],
              [
                6.160624980926514,
                47.46647262573242
              ],
              [
                6.329301834106445,
                47.33478927612305
              ],
              [
                6.334951877593994,
                47.13737487792969
              ],
              [
                6.17621898651123,
                46.94007873535156
              ],
              [
                5.847537994384766,
                46.94007873535156
              ],
              [
                5.76115894317627,
                47.07159423828125
              ],
              [
                5.434449672698975,
                47.005828857421875
              ],
              [
                5.376893997192383,
                46.283294677734375
              ],
              [
                5.947766780853271,
                46.348915100097656
              ],
              [
                6.115322589874268,
                46.21768569946289
              ],
              [
                6.273390769958496,
                46.414546966552734
              ],
              [
                6.682901382446289,
                46.414546966552734
              ],
              [
                6.849938869476318,
                46.283294677734375
              ],
              [
                6.939604759216309,
                45.95537567138672
              ],
              [
                7.430988311767578,
                45.889827728271484
              ],
              [
                8.000204086303711,
                46.02093505859375
              ],
              [
                8.078590393066406,
                46.21768569946289
              ],
              [
                8.40284538269043,
                46.414546966552734
              ],
              [
                8.488550186157227,
                46.1520881652832
              ],
              [
                8.652090072631836,
                46.1520881652832
              ],
              [
                8.98212718963623,
                45.889827728271484
              ],
              [
                9.303140640258789,
                46.480194091796875
              ],
              [
                10.041536331176758,
                46.283294677734375
              ],
              [
                10.122788429260254,
                46.414546966552734
              ],
              [
                10.040886878967285,
                46.414546966552734
              ],
              [
                10.039896965026855,
                46.61152267456055
              ],
              [
                10.859914779663086,
                46.54585266113281
              ],
              [
                11.598238945007324,
                46.677207946777344
              ],
              [
                12.582664489746094,
                46.677207946777344
              ],
              [
                13.073067665100098,
                46.54585266113281
              ],
              [
                13.646848678588867,
                46.54585266113281
              ],
              [
                13.72764778137207,
                46.480194091796875
              ],
              [
                13.643445014953613,
                46.348915100097656
              ],
              [
                13.963357925415039,
                45.95537567138672
              ],
              [
                13.959587097167969,
                45.75876998901367
              ],
              [
                14.281725883483887,
                45.56227111816406
              ],
              [
                14.278955459594727,
                45.431331634521484
              ],
              [
                14.277569770812988,
                45.36587905883789
              ],
              [
                14.196189880371094,
                45.36587905883789
              ],
              [
                14.189410209655762,
                45.03877639770508
              ],
              [
                14.026969909667969,
                45.03877639770508
              ],
              [
                13.945749282836914,
                45.03877639770508
              ],
              [
                13.628785133361816,
                45.496795654296875
              ],
              [
                13.710229873657227,
                45.496795654296875
              ],
              [
                13.714865684509277,
                45.75876998901367
              ],
              [
                13.144780158996582,
                45.82429504394531
              ],
              [
                13.061376571655273,
                45.693260192871094
              ],
              [
                12.982433319091797,
                45.889827728271484
              ],
              [
                12.900794982910156,
                45.889827728271484
              ],
              [
                12.9815673828125,
                45.82429504394531
              ],
              [
                12.736748695373535,
                45.82429504394531
              ]
            ],
            [
              [
                12.8191556930542,
                45.889827728271484
              ],
              [
                12.737516403198242,
                45.889827728271484
              ],
              [
                12.736748695373535,
                45.82429504394531
              ],
              [
                12.8191556930542,
                45.889827728271484
              ]
            ]
          ],
          [
            [
              [
                -15.579030990600586,
                64.34822845458984
              ],
              [
                -15.48388957977295,
                64.34822845458984
              ],
              [
                -15.464756965637207,
                64.27558898925781
              ],
              [
                -15.559826850891113,
                64.27558898925781
              ],
              [
                -15.579030990600586,
                64.34822845458984
              ]
            ]
          ],
          [
            [
              [
                -15.407862663269043,
                64.4209213256836
              ],
              [
                -15.31264877319336,
                64.4209213256836
              ],
              [
                -15.29360580444336,
                64.34822845458984
              ],
              [
                -15.388747215270996,
                64.34822845458984
              ],
              [
                -15.407862663269043,
                64.4209213256836
              ]
            ]
          ],
          [
            [
              [
                -23.009078979492188,
                66.0324478149414
              ],
              [
                -23.449363708496094,
                66.18017578125
              ],
              [
                -23.47593116760254,
                66.25411987304688
              ],
              [
                -23.061359405517578,
                66.18017578125
              ],
              [
                -23.009078979492188,
                66.0324478149414
              ]
            ]
          ]
        ]
      }
    }
  ]
}
