{
  "type": "FeatureCollection",
  "features": [
    {
      "type": "Feature",
      "properties": {
        "Name": "Odrysian Kingdom",
        "FromYear": -404,
        "ToYear": -367,
        "Area": 105748.41397087215,
        "Type": "POLITY",
        "Wikipedia": "Odrysian kingdom",
        "Wikidata": "Q870517",
        "SeshatID": "",
        "Components": "",
        "MemberOf": "",
        "displayYear": -403,
        "sourceYear": -403,
        "mappedTerritoryId": "cliopatria_odrysian_kingdom"
      },
      "geometry": {
        "type": "MultiPolygon",
        "coordinates": [
          [
            [
              [
                28.212072372436523,
                41.586883544921875
              ],
              [
                28.1324462890625,
                41.586883544921875
              ],
              [
                28.1386775970459,
                41.65177917480469
              ],
              [
                28.21833038330078,
                41.65177917480469
              ],
              [
                28.212072372436523,
                41.586883544921875
              ]
            ]
          ],
          [
            [
              [
                27.92448616027832,
                41.911441802978516
              ],
              [
                28.004253387451172,
                41.911441802978516
              ],
              [
                28.052820205688477,
                41.586883544921875
              ],
              [
                28.1324462890625,
                41.586883544921875
              ],
              [
                27.807842254638672,
                41.521995544433594
              ],
              [
                27.630630493164062,
                41.32738494873047
              ],
              [
                27.08563232421875,
                41.45711898803711
              ],
              [
                26.983047485351562,
                41.19768524169922
              ],
              [
                26.49523162841797,
                41.06801223754883
              ],
              [
                25.160585403442383,
                41.26253128051758
              ],
              [
                24.03838539123535,
                41.132843017578125
              ],
              [
                23.80469512939453,
                41.19768524169922
              ],
              [
                23.813949584960938,
                41.32738494873047
              ],
              [
                23.584556579589844,
                41.45711898803711
              ],
              [
                23.589153289794922,
                41.521995544433594
              ],
              [
                23.288843154907227,
                41.781593322753906
              ],
              [
                23.152042388916016,
                42.10627746582031
              ],
              [
                23.316370010375977,
                42.17123794555664
              ],
              [
                23.245708465576172,
                42.30118942260742
              ],
              [
                23.57497215270996,
                42.43117141723633
              ],
              [
                23.584522247314453,
                42.56119155883789
              ],
              [
                23.433889389038086,
                42.691246032714844
              ],
              [
                23.693689346313477,
                42.95146560668945
              ],
              [
                23.70839500427246,
                43.146724700927734
              ],
              [
                23.954378128051758,
                43.211830139160156
              ],
              [
                23.89405632019043,
                43.472347259521484
              ],
              [
                24.14060401916504,
                43.53750228881836
              ],
              [
                24.075435638427734,
                43.73301696777344
              ],
              [
                24.80620765686035,
                43.79821014404297
              ],
              [
                25.52049446105957,
                43.6678352355957
              ],
              [
                26.36821174621582,
                44.12431716918945
              ],
              [
                27.748062133789062,
                44.18956756591797
              ],
              [
                27.929664611816406,
                44.38538360595703
              ],
              [
                27.8487606048584,
                44.38538360595703
              ],
              [
                27.86873435974121,
                44.58129119873047
              ],
              [
                27.706735610961914,
                44.58129119873047
              ],
              [
                27.726606369018555,
                44.77729415893555
              ],
              [
                28.558441162109375,
                44.973392486572266
              ],
              [
                28.639629364013672,
                44.973392486572266
              ],
              [
                28.463375091552734,
                44.842647552490234
              ],
              [
                28.3001708984375,
                44.05907440185547
              ],
              [
                28.018028259277344,
                43.6678352355957
              ],
              [
                27.991680145263672,
                43.407203674316406
              ],
              [
                27.65704917907715,
                43.276947021484375
              ],
              [
                27.4521484375,
                42.82133865356445
              ],
              [
                27.193193435668945,
                42.62621307373047
              ],
              [
                27.174896240234375,
                42.43117141723633
              ],
              [
                27.328767776489258,
                42.36617660522461
              ],
              [
                27.316564559936523,
                42.236209869384766
              ],
              [
                27.611539840698242,
                41.97637939453125
              ],
              [
                27.93072509765625,
                41.97637939453125
              ],
              [
                27.92448616027832,
                41.911441802978516
              ]
            ]
          ]
        ]
      }
    }
  ]
}
