{"type":"FeatureCollection","features":[{"type":"Feature","properties":{"id":"eastern_wu_229","territoryId":"eastern_wu","name":"Eastern Wu 229 CE"},"geometry":{"type":"MultiPolygon","coordinates":[[[[103.882694,19.288307],[106.500081,16.976194],[107.023139,17.133916],[105.639634,18.843145],[106.025474,19.944458],[106.783994,20.765211],[108.077579,21.534414],[108.06293064570738,21.53891881514846],[108.48587332287559,21.673690850596927],[108.56311292782141,22.008743439327247],[108.70334370867795,21.66902424481411],[109.04922824017706,21.498831992843208],[109.58796506801838,21.510954592577676],[109.97957722821963,21.376799050916063],[109.63988276659654,21.157447730857186],[109.90195184715827,20.278115797236595],[109.22974049625424,19.849183821829683],[108.63412661808508,19.317161126062146],[108.64236457959794,18.473199406438155],[109.43109181296353,18.182601310075327],[110.14180877766518,18.55875286904535],[110.43372961515979,18.726751325207346],[110.6313961142381,19.424476370483646],[111.02929394816312,19.626589473484486],[110.64228795092231,20.12542694719285],[110.48836233778138,20.514832607893467],[110.17597076754402,21.00343808264168],[110.49715235802915,20.96413065865778],[110.68214683440414,21.364421127665295],[111.51247574116269,21.478437053512295],[111.9318924706181,21.56741820123868],[111.95415594725483,21.79753310313447],[111.93094720859384,21.834122459240902],[111.95277763350589,21.809525107412057],[112.29770464511495,21.7179983097285],[112.58349626908006,21.78208705911385],[112.91857329591414,21.827821725016406],[113.0861076158497,22.12940549238273],[113.21422343568616,21.882705003483352],[113.54929596202743,22.092882703525618],[113.5887130809067,22.357449532287376],[113.59857009590712,22.54871401529728],[113.71683167206965,22.71244545961079],[113.94347932189737,22.28453409984317],[114.21942952496653,22.25716328647846],[114.2884063159508,22.403027191713306],[114.52493901014373,22.484992385654678],[114.86987618279375,22.5760124254746],[115.48088915996738,22.703352223328338],[115.80610645321286,22.757889827474656],[116.10175769679836,22.83965597559235],[116.51567160072,22.966749016200325],[116.71277063286703,23.33826424613717],[117.13653946216056,23.410633968440862],[117.11681000159149,23.63654056177552],[116.95902716389867,23.862076208590167],[117.00880811143733,24.031227750220296],[116.97653967091156,23.8505605175487],[117.13561402769659,23.6217665180136],[118.03829455814645,24.189853986412487],[117.89165477535789,24.39385328017812],[118.36241963858981,24.386764483587072],[118.6320388268644,24.538499784005054],[118.77757676023043,24.755812966738574],[119.00108503424161,24.949197701106982],[119.21939079416364,25.15637426402489],[119.37532547421551,25.26924141135781],[119.25057972812294,25.452429051758642],[119.59883084735867,25.349123997616203],[119.78594986867955,25.400794691619055],[119.88990856331009,25.583757180564746],[119.61960700893377,25.710498775242655],[119.71318186483211,25.939534603601473],[119.65599447879254,26.247703044170095],[119.9574801214402,26.326842185321652],[119.80151419315212,26.475902086821236],[120.10299556105673,26.643219466420362],[120.07696307866343,26.88456258240275],[120.41103841587882,27.185302989785416],[120.41371269001093,27.18152069217531],[120.5163683440918,27.251562499827372],[120.56022856960931,27.451455882811402],[120.64788787174024,27.371579265085202],[120.67018884710103,27.469933329614918],[120.68459924516691,27.657774136826717],[120.73463296848104,27.72867800414815],[121.0001087586225,27.908749885079857],[121.1288617790537,27.87007470944164],[120.99452455739356,28.02931413756201],[121.18794603325671,28.387572304989575],[121.15508587086208,28.066967061286746],[121.31431157687052,28.117361962916746],[121.46758945036294,28.317408479160278],[121.59633680752455,28.26565727872361],[121.5469054970971,28.681500045925205],[121.69260222017289,28.745451569310703],[121.61836212444382,29.135258673947902],[121.98339421265945,29.05109576860788],[121.9435597353177,29.308929585156747],[122.0440199929858,29.549772661842397],[122.22854820597257,29.71629320840873],[122.4342532841145,29.920559880245193],[122.16233633049762,30.315653415220126],[121.74910414090118,29.99670906219974],[121.31472491292038,30.388451578114214],[120.83763424170371,30.209531127385674],[120.62982838695424,30.36435357787682],[120.84011415453597,30.301860575981607],[120.93613807139644,30.483422407140083],[121.15542132683396,30.603012740732893],[121.65951086601177,30.83521202767878],[122.02194928794893,30.92492562143417],[121.68742751529476,31.300555059124704],[121.11729075937126,31.702071426195076],[120.87198527134342,31.789264588176565],[120.5078640428697,31.993613753950115],[120.08210513421824,31.91344215235003],[119.96978091568593,31.937943797212526],[119.89753005604587,32.06942682442818],[119.8949390323657,32.20485033134865],[119.80090639786044,32.27976226720115],[119.53916965097949,32.41019340859819],[119.43890712536239,32.53313104485585],[119.32401338928014,32.78012045992445],[119.28132187402537,32.76934586473125],[119.2266509053241,32.692082391965954],[119.23202953456155,32.61901151796364],[119.19841429010393,32.561498203989515],[119.07100642674112,32.46046642912313],[118.97417400584288,32.52208117960002],[118.88011408033975,32.573660472167745],[118.68081805941762,32.60747175289697],[118.59775542343021,32.56663501896362],[118.59327235097675,32.49213263181629],[118.67587059026829,32.467595660158594],[118.69443160658136,32.35234218637609],[118.66154543017336,32.25477527824796],[118.623691205091,32.20671840285276],[118.52009040648585,32.209549870394184],[118.4948983208505,32.14178882865562],[118.38081089764086,32.08070452590003],[118.37929913231075,32.05917387920201],[118.37576222409882,32.10210942656239],[118.2976219664032,32.12265325031257],[117.24181916063935,31.84887314727513],[116.50625821871864,31.74757635171524],[115.94223475099835,31.7386586439829],[115.6446837048747,31.754638833742263],[115.33976296705174,31.434178391542346],[115.35808401613781,31.41144361746181],[115.2392113495635,31.40723355791495],[115.23494979790127,31.5326856747229],[115.15242844133184,31.586033604680523],[114.82819849771914,31.47081109735042],[114.79127656756407,31.516158604641376],[114.5704265083848,31.553317290742655],[114.57224589853047,31.74060511178422],[114.3186356383685,31.741296894616596],[114.17421098712572,31.857948838643964],[114.02789920837921,31.77674001400726],[114.03820376574913,31.46955977137938],[113.71308633234241,31.165758809915346],[113.58453808111636,30.993529240080477],[113.29536520159769,31.11191647736048],[113.13256512771954,31.025400178704786],[113.10118004952818,30.60344071814383],[113.11806722013449,31.02450037672267],[112.84913278135815,31.16714882191036],[112.56633107951706,31.175863453285928],[112.50126592435629,31.261118318599017],[112.29728134861273,31.27696216779519],[111.57763768029241,31.090084393524506],[110.77032430512088,31.27908666730842],[110.22521859422642,31.159408359030706],[110.09403209962187,31.124859573556577],[110.15834868788585,30.961408710807262],[110.00021264666623,30.842711448199765],[109.89985495785464,30.90333227202771],[109.34932071593101,30.489764761144414],[109.30065615752852,30.619453041798224],[109.11969756016777,30.510086230271412],[109.07607377327554,30.632101298802596],[108.77447516526371,30.498662655368975],[108.67162555722172,30.58860194792956],[108.40029376008607,30.46214514152338],[108.52175703975064,30.289232055571333],[108.50427852733617,29.88416744968994],[108.5726589590506,29.799797680126996],[108.52504690337025,29.85699648090099],[108.20895718069198,29.075641721410676],[107.86661106118385,28.9859280105493],[107.7704681192102,29.178882667187324],[107.4122398057753,29.164728259592408],[107.4484401305051,28.88817019577688],[107.25009275912129,28.71410390502652],[107.1514516606598,28.906079131209893],[106.7782522401684,28.611338147540238],[106.88563758716828,27.677584705955866],[106.64379617477806,26.623836784967835],[106.7424447108462,25.407639591207],[106.86139867202928,25.181771684634867],[106.94887864632442,25.25058093948791],[106.86804281154753,25.154162993986503],[107.0549820630178,24.74524766056372],[107.08397720133559,24.411411939998445],[107.1325199911772,24.367980679961246],[107.04657098545368,24.439188953455556],[106.00464696427349,24.25607053500366],[105.90216206332371,24.149251367619982],[106.1942556780229,23.841919870679945],[106.09163132834317,23.44133007250973],[105.52463796835053,23.18684809041926],[105.79480753084803,23.01235832251687],[105.468636,23.194539],[105.276481,22.902411],[105.474824,22.644226],[105.148141,22.676526],[104.868127,22.202038],[105.101472,21.736778],[104.844792,21.389556],[104.4503,20.428737],[103.882694,19.288307]],[[106.25111210282523,22.91598092349956],[106.47813365220289,22.90413811603343],[106.282194,22.870179],[106.25111210282523,22.91598092349956]],[[106.556611,22.425404],[106.611406,22.588322],[106.69565055674413,22.596509196554262],[106.58234088235946,22.409724086131675],[106.5951236390835,22.369589973842398],[106.556611,22.425404]],[[106.6357786760906,22.89591440479979],[106.72935750272228,22.89103277118508],[106.72920767489828,22.861018172598737],[106.6357786760906,22.89591440479979]],[[106.696069,21.960549],[106.696069,22.052651105524017],[106.71074763740347,22.00656448316839],[107.08587876919592,21.96344435270032],[107.05602210404913,21.802430307239874],[107.30022069115175,21.73010736573329],[107.216714,21.714592],[107.016824,21.82252],[107.067959,21.908804],[106.965689,21.969172],[106.696069,21.960549]],[[106.9571043971905,25.467867919263185],[107.2202128711188,25.599941496007133],[107.31769329080737,25.483150501914054],[107.32060931468573,25.38016040345603],[107.31668269212241,25.38128198210279],[107.31416748814752,25.47806900505921],[107.22009851838828,25.56112683433581],[106.96551301092245,25.439989950707066],[106.9571043971905,25.467867919263185]],[[107.31287696151131,21.726359028317557],[107.64333498309185,21.62848910839411],[107.374767,21.619549],[107.31287696151131,21.726359028317557]],[[107.32229758515744,25.379678175261066],[107.42606160808612,25.386557055953887],[107.4363678047387,25.34709579168579],[107.32229758515744,25.379678175261066]],[[108.1546985744525,25.36668504805146],[108.17038413303311,25.445342526386526],[108.32459034407196,25.544913830784978],[108.55827922378447,25.345188615922776],[108.55684492140148,25.342079836853657],[108.34398876568116,25.51175111586052],[108.17567511807482,25.41569741578064],[108.1546985744525,25.36668504805146]],[[108.64062925167285,25.52367820506276],[108.65021747569449,25.56753751923496],[108.76211000582504,25.632700860608907],[108.79696884161528,25.617875130623133],[108.78250664722776,25.62281532937712],[108.64843329774078,25.540593086721117],[108.64062925167285,25.52367820506276]],[[108.6947586463903,23.457511057397866],[108.72007091058973,23.223671073976668],[108.69953004704115,23.227283017676612],[108.6947586463903,23.457511057397866]],[[108.87507100536436,25.697814411098975],[109.07719659663593,25.817647158137234],[109.2010601652616,25.748232329816716],[109.06815896652284,25.79868081356014],[108.92485686707626,25.70076605884163],[108.87507100536436,25.697814411098975]],[[108.93732948729127,29.36170029922361],[109.0624619058101,29.384596740673743],[109.09516189135275,29.289499011875254],[109.04562613178803,29.362406198763523],[108.94864523988667,29.348106106133983],[108.93732948729127,29.36170029922361]],[[109.05050216946489,25.62861685618387],[109.06586047788903,25.693047104521913],[109.0788116471436,25.69442998484999],[109.05050216946489,25.62861685618387]],[[109.20882225384645,29.122212644149513],[109.21347440687285,29.118331810251483],[109.2124436068687,29.116882703437966],[109.20882225384645,29.122212644149513]],[[109.25353392746291,25.732850731671647],[109.48852010057732,26.03378338028928],[109.6611111796667,26.034447151536924],[109.66135721591694,26.030606753237272],[109.48011706831767,26.011784325027946],[109.25353392746291,25.732850731671647]],[[109.28026025351373,29.212219882646163],[109.42926123876055,29.477593508852507],[109.7922568882405,29.00110122434114],[109.93773524398637,28.734162424103943],[109.44520574875276,29.4441015668217],[109.28026025351373,29.212219882646163]],[[109.57262588389672,23.073756219744226],[109.57688998587581,23.073175203918307],[109.57674391456038,23.073032097563257],[109.57262588389672,23.073756219744226]],[[109.80623342396848,26.023400993272233],[109.88932238153872,26.11735467657315],[109.81642297722323,26.027367595432352],[109.83514281334118,25.871280359036277],[109.82242694160286,25.875737312739712],[109.80623342396848,26.023400993272233]],[[110.07324254625428,26.169464995585358],[110.0839378059253,26.16866279263799],[110.07496137930563,26.11808436660799],[110.07324254625428,26.169464995585358]],[[110.07750021921503,26.042191486077865],[110.27091106724157,25.954008517894977],[110.38670897080851,26.073172554108723],[110.26478129733579,25.936165332078417],[110.07756864258675,26.040146124038245],[110.07750021921503,26.042191486077865]],[[110.14060960539246,28.593993350509127],[110.38533461224625,28.486153068390763],[110.40383013215427,28.439998529309122],[110.39150156105848,28.437532874322343],[110.14060960539246,28.593993350509127]],[[110.49202006881418,23.555407901233036],[110.49241074928568,23.555569664520434],[110.52420905846023,23.550779081671],[110.49202006881418,23.555407901233036]],[[110.56740125064783,28.472711967133588],[110.97812067734554,28.569924351255253],[111.5015512169553,28.82242649102163],[111.51098511030966,29.008317646719092],[111.58600566651037,29.031003266610607],[111.51679390350307,28.997340479508892],[111.50621093625182,28.822708335235532],[110.98275122961282,28.546466836428387],[110.98065181048656,28.55536009364708],[110.56740125064783,28.472711967133588]],[[110.63367783504133,26.327073555622412],[110.63430005752713,26.327712794483958],[110.76732621278704,26.28436301289813],[110.72484353967303,26.271445955994295],[110.63367783504133,26.327073555622412]],[[110.8367104441833,26.305459615335756],[110.95045632456782,26.375727379125877],[111.27850025608376,26.248193546260694],[111.49338287361212,26.26536340428848],[111.2779368142854,26.402780338458868],[111.1647089665085,26.730573659385897],[111.1688061467477,26.737626250734852],[111.28516610909924,26.4024515592279],[111.48679231970857,26.271007768543768],[111.5604546018867,26.30494088948891],[111.54119765375037,26.246891788151842],[111.25730075554162,26.242538919030267],[111.25954066908719,26.224860945951757],[110.9579209117241,26.342314229035864],[110.8367104441833,26.305459615335756]],[[110.99334831858404,28.501576972936366],[111.07919395139697,28.348860610107423],[111.0729459091018,28.164397113227857],[110.99334831858404,28.501576972936366]],[[111.01923704799788,24.921796196438102],[111.1032486590783,25.02022506779481],[111.29130882269203,25.174122006236374],[111.42158188157856,25.114914332335374],[111.43806397647431,24.988572499468326],[111.41534409927334,25.102353312190104],[111.29411355064497,25.169848449728036],[111.02180454289112,24.91306932796236],[111.01923704799788,24.921796196438102]],[[111.17731749364303,26.752277071049683],[111.40973655097599,27.15234651817718],[111.29471282346975,26.871678683030353],[111.17731749364303,26.752277071049683]],[[111.19513525250407,25.348775807115853],[111.28370769593721,25.470979995571653],[111.29700873789562,25.681791205411756],[111.3012941233124,25.686508845395185],[111.28303477527055,25.429005658153585],[111.19513525250407,25.348775807115853]],[[111.22008033031902,27.721403900537776],[111.36154319946576,27.66875897033906],[111.22166103320501,27.71676482587253],[111.22008033031902,27.721403900537776]],[[111.2556910785164,25.88516953281848],[111.25601610298695,25.893765186712486],[111.25905503992868,25.88500021696484],[111.2556910785164,25.88516953281848]],[[111.26481998611696,26.126594217033766],[111.26646831425495,26.170186190751522],[111.27077551119993,26.13619268605217],[111.26481998611696,26.126594217033766]],[[111.30770282074441,25.693563969802103],[111.46736784626827,25.869333949654393],[111.47358170108305,25.869465975410463],[111.30770282074441,25.693563969802103]],[[111.34138617817362,23.42766704218613],[111.36089048995723,23.424728614831153],[111.57237486665804,23.697597754090598],[111.40089499145904,23.43778190681529],[111.52001012816375,22.924204948709434],[111.34138617817362,23.42766704218613]],[[111.46347874688375,27.23985685059678],[111.53163380559874,27.28352033819232],[111.53106512469049,27.2622483963238],[111.46347874688375,27.23985685059678]],[[111.58966070616074,22.727890704106912],[111.8209063647263,22.50439092747399],[111.5967119198715,22.708016444151482],[111.58966070616074,22.727890704106912]],[[111.60062036014126,29.035422633799172],[111.61340644767819,29.039289045039666],[111.67679782433987,28.972409409822383],[111.60062036014126,29.035422633799172]],[[111.61858414121406,24.733139150551562],[111.65219724258372,24.762640319271583],[111.78200542640252,24.79366906886348],[111.96342063450065,24.7394293089049],[111.96749713584195,24.72527341091051],[111.72298696036955,24.772841847009218],[111.61858414121406,24.733139150551562]],[[111.65271835711482,26.4777058190822],[111.73631788040711,26.574187693052224],[111.7403411556301,26.572437282205794],[111.65271835711482,26.4777058190822]],[[111.69920743133399,28.953872410729442],[111.99439999974356,28.981679340073427],[112.24678147268003,28.851488464241164],[111.98495893909745,28.975508113697984],[111.70934760867056,28.945484559120104],[111.69920743133399,28.953872410729442]],[[111.77374685253648,23.877006857216017],[111.87623586947751,23.936438637315817],[111.87827742801007,24.106103682163052],[111.88378887194972,23.92513117496911],[111.77374685253648,23.877006857216017]],[[111.81210185049662,22.021486158429042],[111.96500675386221,22.30871326296505],[111.82832280790856,21.99591327418909],[111.81210185049662,22.021486158429042]],[[111.87570841751086,26.513542896334982],[112.00201315419977,26.458591353424854],[111.9932885050523,26.456669229434084],[111.87919351762275,26.511649149098787],[111.87570841751086,26.513542896334982]],[[111.88004092658394,24.25266037395356],[111.88027573962086,24.272174663552903],[112.06338618812259,24.384557475756836],[111.97728959506446,24.691268502715474],[112.07101655884651,24.365795939962027],[111.88004092658394,24.25266037395356]],[[112.04794034752324,26.46870955515693],[112.1882650033556,26.51244283375501],[112.11070975245462,26.482538257843487],[112.04794034752324,26.46870955515693]],[[112.31380142561316,28.86552191405073],[112.33271524148847,28.88577366529455],[112.4215523933986,28.821352196508414],[112.3336543786238,28.87583810084746],[112.31380142561316,28.86552191405073]],[[112.36779974682305,26.568396243421503],[112.57726081379104,26.633676426314707],[112.59075676070519,26.790051714132748],[112.59820810928795,26.613595330516773],[112.36779974682305,26.568396243421503]],[[112.46145743012572,28.796616006284662],[112.59084898684807,28.843270465325247],[112.84626367304008,28.833427942517716],[112.94182441849898,29.069502105474967],[112.97337550706976,29.224240232945334],[112.82786657158613,29.213523294870143],[112.91862285103065,29.363845385683703],[112.79940188591172,29.454591806773024],[112.80577233736773,29.530766568064493],[113.04412109263939,29.34842475159236],[113.13027705351163,29.425697673344402],[113.56214024486673,29.866980333219686],[113.53752584221544,29.898216205111737],[113.55839983777736,29.879790632255094],[113.57768342617248,29.828798836545346],[113.58185178206942,29.68190722125125],[113.56505917435749,29.688937583635024],[113.57542671296972,29.831089963429847],[113.09336567187859,29.38315167854759],[113.09585726627154,29.210056979625932],[112.96744809335797,29.122466729889922],[112.8481791179687,28.826634365867207],[112.59576639094041,28.83646522232388],[112.47566649715412,28.78780814106905],[112.46145743012572,28.796616006284662]],[[112.81223324593826,24.893690552361793],[112.83145933222403,24.868541307615757],[113.01706520484552,24.931034937694623],[113.01706479992168,24.894322969981587],[112.82981366048824,24.867505425735672],[112.81223324593826,24.893690552361793]],[[112.99052120533591,25.350732504146634],[113.25248922044477,25.49672106259868],[113.08601273738162,25.393885109645623],[112.99052120533591,25.350732504146634]],[[113.00027791360705,25.169481807232433],[113.01706765618115,25.153282546577643],[113.01706524962536,24.935094852484866],[113.00027791360705,25.169481807232433]],[[113.03804539027408,30.212440139921128],[113.03891317068415,30.21663899680505],[113.07127182736218,29.956981875598984],[113.34346954627826,30.04199091827958],[113.06268256524851,29.940441849844035],[113.03804539027408,30.212440139921128]],[[113.05417706887962,30.29049515127617],[113.09124321058454,30.469844007797],[113.0861542841468,30.401425486058372],[113.05417706887962,30.29049515127617]],[[113.261210271903,26.897689270742713],[113.46437305932187,26.81881211309681],[113.84128739059004,27.019103504967926],[113.84595731357223,27.01149736099485],[113.45139244328357,26.809900411748018],[113.261210271903,26.897689270742713]],[[113.35891571590854,25.43590427618271],[113.50720199326565,25.33971238167794],[113.62674955329624,25.364650572061773],[113.48021849979358,25.331554718898985],[113.35891571590854,25.43590427618271]],[[113.5981769520476,27.43683291259434],[113.60957073784789,27.37889397902532],[113.67835971276189,27.37752288344598],[113.60591753857187,27.375651695470097],[113.5981769520476,27.43683291259434]],[[113.62541600291183,29.2637325306476],[113.71444729283392,29.401092579198593],[113.63089820335271,29.25493978178492],[113.62541600291183,29.2637325306476]],[[113.63363194515443,29.531367924731043],[113.64091064333515,29.53846999223979],[113.74070839820303,29.447031248748473],[113.73816481208306,29.442581742126627],[113.63363194515443,29.531367924731043]],[[113.6337220349663,29.250410716772336],[113.737340890869,29.096958864278946],[113.90178571726226,29.066423399675287],[113.73173003820227,29.093218405349177],[113.6337220349663,29.250410716772336]],[[113.67893660860943,29.57557318923435],[113.72307570104927,29.618641167394628],[113.72447067823185,29.618029374134437],[113.67893660860943,29.57557318923435]],[[113.74504200959854,27.940449809609774],[113.83192545944915,27.975645394610044],[113.74738763492326,27.939557937117883],[113.75144661169234,27.913326715325788],[113.74504200959854,27.940449809609774]],[[113.7795111809956,27.115151137095296],[113.78065447834582,27.117859450578994],[113.78588917919369,27.10933342382078],[113.7795111809956,27.115151137095296]],[[113.841388263446,26.823122253925884],[113.89224497427074,26.919779275234333],[113.88826960087594,26.94258116038724],[113.90736148675097,26.911485222994486],[113.841388263446,26.823122253925884]],[[113.922913325011,25.645606003874875],[113.94301111665987,25.744513356383322],[114.0164834530001,25.87175893070467],[113.93704959060689,25.512796639671752],[113.922913325011,25.645606003874875]],[[113.94474625588003,26.177569024811945],[113.94670425971881,26.179583422273673],[113.94635295644457,26.17853725352859],[113.96305044176876,26.180080677281943],[113.94474625588003,26.177569024811945]],[[113.97401073330974,26.603214701624342],[114.08027355108487,26.577348055210706],[114.07685043724797,26.567154143085308],[113.97401073330974,26.603214701624342]],[[113.99185433763114,26.02503688308383],[114.04876424021461,26.071848567062915],[114.1942611968409,26.12952245434945],[114.00282542231145,26.031406511445837],[114.01287307039209,25.931127639722774],[113.99185433763114,26.02503688308383]],[[114.00206639796056,28.17235629916],[114.00547924624621,28.174315864561397],[114.01070705967192,28.148189185561836],[114.00206639796056,28.17235629916]],[[114.01232595026144,28.978445046869524],[114.12457368010337,28.86051696602027],[114.1314403457072,28.81872913310235],[114.1155750573842,28.861725238386555],[114.01232595026144,28.978445046869524]],[[114.0148893742663,25.333203479785958],[114.0428960351033,25.300059684409376],[114.5314766025337,25.3802508201239],[114.4460269032055,25.349371026058975],[114.04196205037687,25.287012688790554],[114.0148893742663,25.333203479785958]],[[114.08107396438157,28.56587379259527],[114.08879578215581,28.589075335989925],[114.12092752087837,28.538758515092066],[114.08107396438157,28.56587379259527]],[[114.17992300086729,24.64377562968106],[114.30804631596135,24.751213028474666],[114.4854467703264,24.992611489993962],[114.58386648125503,25.061951030559175],[114.21158438294974,24.625592667468737],[114.17992300086729,24.64377562968106]],[[114.19302561665067,26.20133831822024],[114.20671132396018,26.20260334977037],[114.22171146764805,26.143591450647676],[114.20729655180673,26.136203421617452],[114.19302561665067,26.20133831822024]],[[114.23391822369868,28.361820285697675],[114.2554720308429,28.32806801778878],[114.24839215838374,28.323973256603512],[114.23391822369868,28.361820285697675]],[[114.26537571506951,29.239737340205],[114.26830005778315,29.28354774601736],[114.27042481741978,29.240742532176995],[114.26537571506951,29.239737340205]],[[114.27375854770612,29.365322928362758],[114.27382224743582,29.36627723204097],[114.57396942200717,29.35790814557214],[114.61446530534367,29.36431547555619],[114.57919571844877,29.357697990472474],[114.27375854770612,29.365322928362758]],[[114.36188501868622,24.539275817087155],[115.3912146591083,24.759185596773605],[115.39745309661991,24.75644820393666],[114.99790472481948,24.652726576470002],[114.79093482717161,24.59897866525958],[114.36716526957645,24.53624339727179],[114.36188501868622,24.539275817087155]],[[114.69714236272287,25.26777494084988],[114.73563931015855,25.23984661963914],[114.73478804419499,25.238848835904427],[114.69714236272287,25.26777494084988]],[[115.47612103258932,24.72192913661906],[115.82799899769421,24.56752697752644],[115.66798476987111,24.607941894487695],[115.47612103258932,24.72192913661906]],[[115.55721913841747,31.17083168453625],[115.65149149841334,31.18954165551502],[115.5659945960727,31.15605660505696],[115.55721913841747,31.17083168453625]],[[115.75901639929054,30.693388151618663],[115.80275382241379,30.75253240136758],[115.76375300785942,30.686145022378607],[115.75901639929054,30.693388151618663]],[[115.87202198331656,30.84620077768088],[115.87776167072622,30.85396231188652],[116.04946968439722,30.976482417807393],[116.05998038874412,30.969989030564506],[115.87202198331656,30.84620077768088]],[[115.88523490018879,24.91775483969385],[115.8914293369101,24.93062081673947],[115.93472860698981,24.924660849490483],[115.88523490018879,24.91775483969385]],[[115.88980766398309,25.247526224950253],[115.9598334433498,25.309369458870307],[116.02116500001034,25.546784390586232],[115.97588179647005,25.307407117757194],[115.88980766398309,25.247526224950253]],[[115.89534473759602,30.320893217636467],[115.91339234751156,30.3791031725047],[115.90133587977601,30.31667422193746],[115.89534473759602,30.320893217636467]],[[115.99264805220922,29.68639802766986],[116.17226086046583,29.67492555876716],[116.0059174520498,29.68235065148555],[115.99264805220922,29.68639802766986]],[[116.04248056910855,24.909829233066937],[116.39140819188476,24.86180077438427],[116.30857623191406,24.83173075115596],[116.04248056910855,24.909829233066937]],[[116.06429408281122,30.13026937605417],[116.1418262710668,29.86799254077571],[116.08906054110628,29.986432851947654],[116.06429408281122,30.13026937605417]],[[116.11209148562476,25.771255439369035],[116.15728310478328,25.827372548713715],[116.16184035977477,25.820538260651816],[116.11209148562476,25.771255439369035]],[[116.24779373744903,29.701372164356933],[116.28970045736793,29.734537185458635],[116.28747315777728,29.73625831767474],[116.49674631000649,29.857389629463206],[116.24779373744903,29.701372164356933]],[[116.36006093596073,25.98539332750436],[116.39453730223492,26.02255301404672],[116.36967896847227,25.98781478595032],[116.36006093596073,25.98539332750436]],[[116.41159412813872,24.85902226290493],[116.4135828318827,24.858748525976793],[116.51870576729607,24.668001116366796],[116.7355563324947,24.674337520861915],[116.52542754613671,24.643767065456046],[116.41159412813872,24.85902226290493]],[[116.44000150538845,26.160100974345774],[116.46812891100774,26.125393458460266],[116.46678413608788,26.123514205476127],[116.44000150538845,26.160100974345774]],[[116.50544304089344,26.339049126837743],[116.56218373384831,26.393326514357526],[116.5463820361678,26.667243125500303],[116.57751755315473,26.40006442879512],[116.50544304089344,26.339049126837743]],[[116.65083516640686,29.690144164865828],[116.65737297463593,29.697202008587258],[116.77241110835695,29.593187890038806],[117.10067338857971,29.71993933564563],[116.78097493038143,29.573313566489162],[116.65083516640686,29.690144164865828]],[[116.80338477430443,24.59076296496931],[117.02314390710819,24.111492197147285],[117.02226045194041,24.10654583476496],[116.88998002981015,24.347840097737247],[116.80338477430443,24.59076296496931]],[[116.96919138633757,27.68907682479555],[117.50983495440084,27.940544275196075],[117.5175948695542,27.93731281639214],[116.98225509177507,27.676393952503886],[117.00836919528697,27.620518125144276],[116.96919138633757,27.68907682479555]],[[117.08483674483625,29.829431519854253],[117.17048817765618,29.92771386348292],[117.17184925299458,29.925582494824212],[117.08559740564522,29.826179105472686],[117.08483674483625,29.829431519854253]],[[117.08817746499369,29.815147352513577],[117.12815586474937,29.732543835615417],[117.10949776960378,29.723986529561657],[117.08817746499369,29.815147352513577]],[[117.25823368445772,29.82586573679377],[117.38839846673838,29.841628626217066],[117.26059404589421,29.82283711095907],[117.25823368445772,29.82586573679377]],[[117.50983245557501,29.616927616602467],[118.03572483258023,29.562403922727597],[118.0379092398181,29.559958879760902],[117.51062734312876,29.615151176780728],[117.50983245557501,29.616927616602467]],[[117.52548513462824,27.93402707601547],[117.77610543343172,27.829661351003267],[117.79251954712936,27.917363004904672],[117.81132327548461,27.92191029649424],[117.76985402951124,27.81193176424057],[117.52548513462824,27.93402707601547]],[[117.99825261982117,27.967115280276467],[118.06241945136043,27.9826326972416],[118.23388842903276,28.14781527641192],[118.08708110702338,27.985946111466134],[117.99825261982117,27.967115280276467]],[[118.03623509353338,29.211433398571288],[118.05648020425316,29.235923734660062],[118.0639456721066,29.091081427100338],[118.03623509353338,29.211433398571288]],[[118.07295877888626,29.051935901244814],[118.31774972527086,28.831921701635906],[118.40713666096548,28.675475409611465],[118.07616889417613,29.037993799575446],[118.07295877888626,29.051935901244814]],[[118.16516577626997,29.417518544450832],[118.17633515018667,29.405016480429154],[118.7565896285742,31.25743876921436],[118.7363448676698,31.287270950573678],[118.77622254904253,31.245700232469048],[119.32813748263442,31.303954402295275],[119.32699933815655,31.303107894513843],[118.76400891131749,31.24371834795602],[118.32672614226163,29.71267358550182],[118.18239066997805,29.39704624689412],[118.16516577626997,29.417518544450832]],[[118.44475135607641,29.486241462041576],[118.50795242526863,29.509246166069573],[118.90056922193807,29.51023291792404],[118.48206554156855,29.497203840581676],[118.44475135607641,29.486241462041576]],[[118.46690142675929,28.332713249888666],[118.47371150502204,28.254179039629307],[118.4996393496132,28.25728952377031],[118.4698275965157,28.252655571318105],[118.46690142675929,28.332713249888666]],[[118.49003740088861,31.84780725746287],[118.50394796455612,31.838705118236433],[118.52121559750469,31.82278324002278],[118.49003740088861,31.84780725746287]],[[118.61925714210636,31.74409384845288],[118.66686443418564,31.717406875079377],[118.66451914083083,31.707765992181976],[118.61925714210636,31.74409384845288]],[[118.64747676581521,31.63959192398994],[118.64937591833755,31.645466985667074],[118.66768876538399,31.641406952080832],[118.64747676581521,31.63959192398994]],[[118.70831786528106,31.32857085143037],[118.7249815804236,31.346505275430296],[118.71315395882124,31.32144450302633],[118.70831786528106,31.32857085143037]],[[118.7179751884519,28.22056319477928],[118.8037255430906,28.08859626651649],[118.87827261806109,27.77754668390989],[118.88410362460948,27.554803234634083],[118.87467810476011,27.763544794583552],[118.79810605548016,28.092150362439355],[118.7179751884519,28.22056319477928]],[[118.76145595109773,31.69202267568451],[118.76519502939084,31.701080814443117],[118.84500742662362,31.617572608842167],[118.85405098715324,31.535306617956678],[118.83514252192629,31.415411481226073],[118.80893953422681,31.409731942067697],[118.82836625824547,31.419935367860944],[118.83299010369137,31.6132884821549],[118.76145595109773,31.69202267568451]],[[118.88536263704715,27.526920611241938],[119.01560205470336,27.498225398839747],[118.88561699170805,27.52128756504989],[118.88536263704715,27.526920611241938]],[[119.4488336963085,31.393723571368795],[119.9697842682624,31.799181486881267],[119.97062857210801,31.872691056401777],[120.00251948992891,31.880442634767213],[119.97050572485523,31.78172302144266],[119.4488336963085,31.393723571368795]],[[119.59701316587397,27.7239022316185],[119.59809719824813,27.724881672936007],[119.75651900927879,27.345813413842283],[119.74978635375498,27.346531142599176],[119.59701316587397,27.7239022316185]]],[[[120.09824479121534,23.035726843288174],[120.27775352390887,22.575351540660506],[120.61403943725816,22.322198252896484],[120.72504191766927,21.86862494945126],[120.87085839282861,21.92028174121981],[120.9290149281785,22.508913330704786],[121.16631758588915,22.75810140351321],[121.33710091741,23.05934553163401],[121.47555662511513,23.464270664163394],[121.64991784447153,23.961018779789768],[121.87202074862961,24.497169323359245],[121.78535231427952,24.860708553742896],[121.98121405632713,24.97179303676974],[121.61904770923559,25.27636451031924],[121.34335559868083,25.175927766498447],[120.9652151511358,25.01372552485803],[120.90615826067454,24.693669386093077],[120.59788146085714,24.385005019426927],[120.10975362442014,23.63966098592236],[120.09824479121534,23.035726843288174]]]]}}]}