{
  "type": "FeatureCollection",
  "features": [
    {
      "type": "Feature",
      "properties": {
        "name": "Jin Empire",
        "abbrevname": "Jin Empire"
      },
      "geometry": {
        "type": "Polygon",
        "coordinates": [
          [
            [
              103.5532021728215,
              33.192105461393595
            ],
            [
              105.42657598028029,
              33.64302824858757
            ],
            [
              107.13561875199713,
              33.7895781544256
            ],
            [
              107.80937599853928,
              33.7895781544256
            ],
            [
              108.5488656593783,
              33.56411676082861
            ],
            [
              109.51841877025612,
              33.192105461393595
            ],
            [
              109.89638015246271,
              33.11319397363465
            ],
            [
              111.98338430638609,
              33.86848964218456
            ],
            [
              115.03994157118734,
              33.64302824858757
            ],
            [
              115.7794312320263,
              34.24050094161957
            ],
            [
              117.11051262153654,
              34.30813935969867
            ],
            [
              117.42274158944633,
              34.6125122410546
            ],
            [
              117.11051262153654,
              36.765668549905826
            ],
            [
              119.08248505044054,
              37.971887005649705
            ],
            [
              119.16465056831152,
              37.09258757062146
            ],
            [
              119.80554160770532,
              37.137679849340856
            ],
            [
              120.85726023645412,
              37.75769868173258
            ],
            [
              121.64604920801571,
              37.351868173258
            ],
            [
              122.59916921531931,
              37.31804896421845
            ],
            [
              122.45127128315153,
              36.75439548022598
            ],
            [
              121.81038024375772,
              36.85585310734463
            ],
            [
              120.74222851143475,
              36.404930320150655
            ],
            [
              120.70936230428634,
              36.07801129943502
            ],
            [
              120.11777057561511,
              36.15692278719396
            ],
            [
              119.23038298260832,
              34.71396986817325
            ],
            [
              120.18350298991191,
              34.15031638418078
            ],
            [
              120.85726023645412,
              32.56081355932203
            ],
            [
              121.81038024375772,
              31.839337099811672
            ],
            [
              121.46528506869953,
              31.467325800376642
            ],
            [
              121.77751403660932,
              30.72330320150658
            ],
            [
              120.15063678276351,
              30.137103578154424
            ],
            [
              121.36668644725432,
              30.20474199623351
            ],
            [
              121.97471127949973,
              29.855276836158183
            ],
            [
              121.56388369014473,
              29.426900188323913
            ],
            [
              121.85967955448035,
              29.33671563088511
            ],
            [
              121.46528506869953,
              28.19813559322033
            ],
            [
              121.21878851508654,
              28.299593220338977
            ],
            [
              120.56146437211851,
              27.194832391713746
            ],
            [
              119.80554160770532,
              26.710090395480222
            ],
            [
              119.62477746838914,
              25.672967984934076
            ],
            [
              118.55662573606611,
              24.4892956685499
            ],
            [
              118.06363262884014,
              24.52311487758945
            ],
            [
              118.04719952526591,
              24.06091902071563
            ],
            [
              116.65038572145892,
              23.271804143126175
            ],
            [
              116.2888574428265,
              22.899792843691145
            ],
            [
              114.7605788104259,
              22.48268926553672
            ],
            [
              114.74414570685173,
              22.696877589453848
            ],
            [
              114.05395535673529,
              22.48268926553672
            ],
            [
              113.7417263888255,
              22.719423728813553
            ],
            [
              113.65956087095452,
              22.78706214689265
            ],
            [
              113.57739535308349,
              22.17831638418079
            ],
            [
              113.06796914228329,
              22.07685875706214
            ],
            [
              112.95293741726391,
              21.77248587570621
            ],
            [
              110.43867257041131,
              21.29901694915253
            ],
            [
              110.2743415346693,
              20.93827871939736
            ],
            [
              110.6194367097275,
              20.543721280602625
            ],
            [
              110.47153877755972,
              20.329532956685497
            ],
            [
              110.12644360250152,
              20.2618945386064
            ],
            [
              109.91281325603688,
              20.588813559322034
            ],
            [
              109.97854567033369,
              21.501932203389828
            ],
            [
              109.32122152736571,
              21.411747645951024
            ],
            [
              108.76249600584293,
              21.84012429378531
            ],
            [
              108.59816497010092,
              21.547024482109222
            ],
            [
              108.0723056557265,
              21.479386064030123
            ],
            [
              107.6286118592231,
              21.197559322033896
            ],
            [
              107.6614780663715,
              20.9946440677966
            ],
            [
              107.00415392340352,
              20.9270056497175
            ],
            [
              106.05103391609993,
              19.72078719397362
            ],
            [
              105.73880494819008,
              18.86403389830508
            ],
            [
              106.56046012690013,
              18.02982674199623
            ],
            [
              106.59332633404853,
              17.68036158192089
            ],
            [
              105.6895056374675,
              17.793092278719385
            ],
            [
              104.58848769799607,
              18.345472693032008
            ],
            [
              103.76683251928608,
              19.619329566854987
            ],
            [
              103.43817044780212,
              20.13789077212806
            ],
            [
              102.58364906194367,
              24.02709981167608
            ],
            [
              102.22212078331131,
              24.692210922787183
            ],
            [
              101.82772629753049,
              24.79366854990583
            ],
            [
              100.61167663303968,
              25.098041431261763
            ],
            [
              99.9543524900717,
              27.487932203389818
            ],
            [
              101.25256767243349,
              29.61854237288135
            ],
            [
              103.02734285844707,
              31.704060263653474
            ],
            [
              103.5532021728215,
              33.192105461393595
            ]
          ]
        ]
      }
    }
  ]
}