{
  "type": "FeatureCollection",
  "features": [
    {
      "type": "Feature",
      "properties": {
        "name": "Manchu Empire",
        "abbrevname": "Manchu China"
      },
      "geometry": {
        "type": "Polygon",
        "coordinates": [
          [
            [
              137.43826174282196,
              53.472357815442564
            ],
            [
              138.44068106084814,
              53.58508851224104
            ],
            [
              138.62144520016437,
              54.103649717514116
            ],
            [
              139.57456520746797,
              54.09237664783427
            ],
            [
              141.33290728990738,
              53.06652730696797
            ],
            [
              141.03711142557177,
              52.84106591337098
            ],
            [
              141.464372118501,
              52.11958945386064
            ],
            [
              140.60985073264254,
              50.84573258003766
            ],
            [
              140.28118866115858,
              48.52348022598869
            ],
            [
              136.23864518190533,
              44.42008286252354
            ],
            [
              134.34883827087236,
              43.010949152542366
            ],
            [
              133.14922170995573,
              42.684030131826745
            ],
            [
              133.03418998493635,
              42.87567231638417
            ],
            [
              132.39329894554254,
              43.21386440677966
            ],
            [
              131.88387273474234,
              43.0447683615819
            ],
            [
              132.06463687405852,
              43.30404896421845
            ],
            [
              130.63495686310313,
              42.289472693031996
            ],
            [
              130.43775962021272,
              42.67275706214687
            ],
            [
              130.05979823800612,
              42.9771299435028
            ],
            [
              129.23814305929614,
              42.19928813559321
            ],
            [
              128.95878029853475,
              42.07528436911488
            ],
            [
              128.71228374492176,
              42.07528436911488
            ],
            [
              128.51508650203135,
              42.09783050847457
            ],
            [
              128.36718856986352,
              42.15419585687383
            ],
            [
              128.18642443054733,
              42.12037664783426
            ],
            [
              128.30145615556677,
              41.46653860640299
            ],
            [
              128.07139270552796,
              41.39890018832392
            ],
            [
              126.67457890172096,
              41.66945386064029
            ],
            [
              126.08298717304973,
              40.95925047080979
            ],
            [
              124.70260647281691,
              40.294139359698676
            ],
            [
              124.50540922992656,
              40.102497175141224
            ],
            [
              124.34107819418455,
              39.85448964218455
            ],
            [
              124.30821198703615,
              39.899581920903955
            ],
            [
              121.26808782580912,
              38.77227495291902
            ],
            [
              121.85967955448035,
              39.34720150659132
            ],
            [
              121.4488519651253,
              39.572662900188305
            ],
            [
              122.28694024740952,
              40.50832768361582
            ],
            [
              121.21878851508654,
              40.869065913371
            ],
            [
              120.47929885424753,
              40.17013559322032
            ],
            [
              119.59191126124074,
              39.86576271186439
            ],
            [
              119.4111471219245,
              39.65157438794725
            ],
            [
              119.18108367188574,
              39.245743879472684
            ],
            [
              118.47446021819513,
              39.0202824858757
            ],
            [
              118.11293193956271,
              39.27956308851222
            ],
            [
              117.7842698680787,
              38.93009792843691
            ],
            [
              117.63637193591092,
              38.61445197740113
            ],
            [
              118.04719952526591,
              38.18607532956685
            ],
            [
              119.08248505044054,
              37.971887005649705
            ],
            [
              119.16465056831152,
              37.09258757062146
            ],
            [
              119.80554160770532,
              37.137679849340856
            ],
            [
              120.85726023645412,
              37.75769868173258
            ],
            [
              121.64604920801571,
              37.351868173258
            ],
            [
              122.59916921531931,
              37.31804896421845
            ],
            [
              122.45127128315153,
              36.75439548022598
            ],
            [
              121.81038024375772,
              36.85585310734463
            ],
            [
              120.74222851143475,
              36.404930320150655
            ],
            [
              120.70936230428634,
              36.07801129943502
            ],
            [
              120.11777057561511,
              36.15692278719396
            ],
            [
              119.23038298260832,
              34.71396986817325
            ],
            [
              120.18350298991191,
              34.15031638418078
            ],
            [
              120.85726023645412,
              32.56081355932203
            ],
            [
              121.81038024375772,
              31.839337099811672
            ],
            [
              121.46528506869953,
              31.467325800376642
            ],
            [
              121.77751403660932,
              30.72330320150658
            ],
            [
              120.15063678276351,
              30.137103578154424
            ],
            [
              121.36668644725432,
              30.20474199623351
            ],
            [
              121.97471127949973,
              29.855276836158183
            ],
            [
              121.56388369014473,
              29.426900188323913
            ],
            [
              121.85967955448035,
              29.33671563088511
            ],
            [
              121.46528506869953,
              28.19813559322033
            ],
            [
              121.21878851508654,
              28.299593220338977
            ],
            [
              120.56146437211851,
              27.194832391713746
            ],
            [
              119.80554160770532,
              26.710090395480222
            ],
            [
              119.62477746838914,
              25.672967984934076
            ],
            [
              118.55662573606611,
              24.4892956685499
            ],
            [
              118.06363262884014,
              24.52311487758945
            ],
            [
              118.04719952526591,
              24.06091902071563
            ],
            [
              116.65038572145892,
              23.271804143126175
            ],
            [
              116.2888574428265,
              22.899792843691145
            ],
            [
              111.72045464919893,
              24.57948022598869
            ],
            [
              108.2366366914685,
              28.062858757062145
            ],
            [
              106.33039667686131,
              28.8519736346516
            ],
            [
              103.9640297621765,
              28.37850470809792
            ],
            [
              101.5812297439175,
              26.9580979284369
            ],
            [
              98.77116903272929,
              25.977340866290007
            ],
            [
              98.8369014470261,
              27.499205273069677
            ],
            [
              100.89103939380107,
              28.705423728813557
            ],
            [
              102.61651526909208,
              33.73321280602636
            ],
            [
              101.8934587118273,
              36.32601883239171
            ],
            [
              100.5952435294655,
              37.75769868173258
            ],
            [
              99.4449262792715,
              38.77227495291902
            ],
            [
              99.59282421143928,
              39.7755781544256
            ],
            [
              100.74314146163329,
              40.35050470809793
            ],
            [
              102.32071940475652,
              39.7755781544256
            ],
            [
              103.76683251928608,
              39.922128060263645
            ],
            [
              107.92440772355872,
              43.27022975517889
            ],
            [
              120.59433057926691,
              46.437962335216554
            ],
            [
              127.79202994476651,
              56.628817325800355
            ],
            [
              128.36718856986352,
              56.74154802259886
            ],
            [
              129.40247409503814,
              56.888097928436906
            ],
            [
              130.60209065595473,
              56.0651638418079
            ],
            [
              131.11151686675493,
              55.25350282485874
            ],
            [
              130.74998858812256,
              53.92328060263654
            ],
            [
              131.34158031679374,
              53.92328060263654
            ],
            [
              132.22896790980053,
              52.44650847457626
            ],
            [
              133.62578171360752,
              52.67196986817325
            ],
            [
              134.44743689231757,
              53.48363088512241
            ],
            [
              134.89113068882097,
              52.965069679849336
            ],
            [
              136.37011001049893,
              53.032708097928435
            ],
            [
              137.43826174282196,
              53.472357815442564
            ]
          ]
        ]
      }
    }
  ]
}