{
  "type": "FeatureCollection",
  "features": [
    {
      "type": "Feature",
      "properties": {
        "id": "shu_han_263_main_v3",
        "territoryId": "shu_han",
        "name": "Shu Han 263 CE Main Boundary v3"
      },
      "geometry": {
        "type": "Polygon",
        "coordinates": [
          [
            [98.08, 25.22],
            [98.54, 25.28],
            [99.10, 25.38],
            [99.70, 25.56],
            [100.34, 25.84],
            [100.96, 26.20],
            [101.56, 26.62],
            [102.14, 27.12],
            [102.68, 27.66],
            [103.16, 28.24],
            [103.60, 28.86],
            [103.96, 29.50],
            [104.24, 30.14],
            [104.42, 30.74],
            [104.50, 31.24],
            [104.46, 31.58],
            [104.28, 31.80],
            [103.96, 31.92],
            [103.52, 31.92],
            [102.98, 31.84],
            [102.38, 31.66],
            [101.74, 31.40],
            [101.10, 31.04],
            [100.48, 30.60],
            [99.90, 30.08],
            [99.40, 29.48],
            [98.98, 28.82],
            [98.64, 28.10],
            [98.34, 27.34],
            [98.14, 26.58],
            [98.08, 25.88],
            [98.08, 25.22]
          ]
        ]
      }
    }
  ]
}
