{
  "type": "Feature",
  "properties": {
    "name": "Tibet",
    "abbrevname": "Tibet"
  },
  "geometry": {
    "type": "Polygon",
    "coordinates": [
      [
        [
          100.89103939380107,
          28.705423728813557
        ],
        [
          98.8369014470261,
          27.499205273069677
        ],
        [
          96.63486556808328,
          26.721363465160067
        ],
        [
          94.69575934632769,
          26.518448210922784
        ],
        [
          94.3506641712695,
          27.690847457627115
        ],
        [
          92.03359656730726,
          27.29629001883238
        ],
        [
          86.61067238782124,
          27.34138229755179
        ],
        [
          84.63869995891724,
          27.893762711864397
        ],
        [
          83.94850960880086,
          28.220681732580033
        ],
        [
          80.25106130460586,
          30.001826741996226
        ],
        [
          80.00456475099287,
          30.72330320150658
        ],
        [
          80.00456475099287,
          31.174225988700556
        ],
        [
          80.28392751175426,
          31.895702448210912
        ],
        [
          80.00456475099287,
          33.0793747645951
        ],
        [
          80.10316337243808,
          34.07140489642184
        ],
        [
          80.05386406171544,
          35.24380414312617
        ],
        [
          80.03743095814127,
          35.51435781544255
        ],
        [
          88.28684895238968,
          38.16352919020716
        ],
        [
          87.87602136303468,
          38.67081732580036
        ],
        [
          88.50047929885426,
          38.97519020715629
        ],
        [
          92.77308622814627,
          38.77227495291902
        ],
        [
          96.43766832519287,
          38.77227495291902
        ],
        [
          97.67015109325791,
          38.56935969868172
        ],
        [
          100.00365180079427,
          37.85915630885121
        ],
        [
          102.25498699045971,
          37.75769868173258
        ],
        [
          101.8934587118273,
          36.32601883239171
        ],
        [
          102.28785319760811,
          34.883065913370984
        ],
        [
          103.40530424065372,
          34.12777024482108
        ],
        [
          103.35600492993109,
          33.30483615819209
        ],
        [
          102.13995526544028,
          32.36917137476459
        ],
        [
          100.89103939380107,
          31.410960451977388
        ],
        [
          100.69384215091071,
          30.103284369114874
        ],
        [
          100.89103939380107,
          28.705423728813557
        ]
      ]
    ]
  }
}