{"type":"FeatureCollection","features":[{"type":"Feature","properties":{"name":"Holy Roman Empire","abbrevname":"GermanStates"},"geometry":{"type":"Polygon","coordinates":[[[10.377504907107323,51.61230131826741],[10.722600082165542,51.69121280602636],[10.755466289313944,51.58975517890772],[11.182726982243139,51.60102824858757],[11.264892500114144,51.57848210922785],[12.03724836810153,52.09704331450092],[12.316611128862945,52.221047080979275],[12.382343543159749,52.08577024482108],[12.776738028940542,52.108316384180796],[13.351896654037546,52.06322410546139],[13.598393207650531,52.266139359698684],[14.009220797005554,52.08577024482108],[14.25571735061854,52.34505084745763],[14.337882868489544,52.288685499058374],[14.535080111379955,52.34505084745763],[14.732277354270337,51.9054011299435],[15.406034600812546,52.00685875706213],[15.077372529328528,51.61230131826741],[15.45533391153515,51.6348474576271],[15.47176701510935,51.037374764595086],[15.208837357922135,51.07119397363465],[14.96234080430915,50.8795517890772],[14.814442872141342,50.91337099811676],[14.798009768567141,51.037374764595086],[14.666544939973534,51.09374011299434],[14.469347697083151,51.059920903954804],[14.58437942210253,50.95846327683614],[14.107819418450731,50.85700564971751],[14.058520107728128,50.78936723163841],[13.729858036244138,50.77809416195856],[13.680558725521536,50.67663653483993],[13.43406217190855,50.67663653483993],[13.401195964760149,50.575178907721266],[13.220431825443939,50.575178907721266],[13.187565618295537,50.49626741996232],[12.990368375405126,50.49626741996232],[12.793171132514743,50.40608286252353],[12.661706303921136,50.41735593220338],[12.283744921714543,50.28207909604518],[12.283744921714543,50.1693483992467],[12.333044232437146,50.1693483992467],[12.41520975030815,50.02279849340866],[12.694572511069538,49.91006779661015],[12.645273200346935,49.71842561205273],[12.74387182179214,49.58314877589453],[12.842470443237346,49.504237288135585],[13.07253389327613,49.38023352165723],[13.154699411147135,49.414052730696795],[13.680558725521536,49.019495291902075],[13.94348838270875,48.951856873822976],[14.157118729173334,48.670030131826735],[13.877755968411947,48.35438418079096],[13.450495275482751,48.08383050847456],[14.058520107728128,47.20453107344633],[13.23686492901814,47.22707721280602],[12.973935271830925,47.30598870056497],[12.678139407495337,47.23835028248587],[12.678139407495337,47.08052730696798],[12.595973889624332,47.069254237288135],[12.612406993198533,46.979069679849346],[12.530241475327529,46.979069679849346],[12.382343543159749,47.114346516007515],[12.513808371753328,47.159438794726924],[12.480942164604926,47.26089642184556],[12.21801250741774,47.26089642184556],[12.283744921714543,47.463811676082855],[12.941069064682551,47.576542372881335],[11.03482905007533,47.56526930320149],[10.311772492810547,47.31726177024481],[9.703747660565142,47.576542372881335],[9.572282831971535,47.63290772128059],[9.407951796229526,47.68927306967984],[8.865659378280924,47.73436534839925],[8.832793171132522,47.79073069679848],[8.79992696398412,47.903461393596984],[8.882092481855125,47.98237288135593],[8.816360067558321,48.252926553672296],[8.487697996074331,48.365657250470804],[8.487697996074331,48.298018832391705],[8.717761446113144,48.16274199623351],[8.717761446113144,48.12892278719397],[8.602729721093738,47.926007532956675],[8.224768338887117,48.47838794726928],[9.835212489158721,49.31259510357813],[9.802346282010319,49.66206026365347],[9.276486967635918,49.29004896421844],[8.931391792577728,49.57187570621468],[8.79992696398412,49.40277966101695],[8.717761446113144,49.53805649717512],[8.520564203222733,49.57187570621468],[8.356233167480724,48.996949152542356],[7.156616606564114,49.22241054613934],[6.9758524672479325,49.18859133709981],[6.630757292189713,49.459145009416176],[6.318528324279924,50.13552919020714],[6.203496599260518,50.75554802259887],[6.137764184963714,50.992282485875705],[6.384260738576728,51.16137853107344],[6.285662117131523,51.21774387947269],[6.384260738576728,51.34174764595102],[6.433560049299331,51.409386064030116],[6.7786552243575215,51.62357438794726],[6.827954535080124,51.431932203389835],[6.9758524672479325,51.431932203389835],[6.92655315652533,51.522116760828624],[6.9758524672479325,51.65739359698682],[6.581457981467139,51.8377627118644],[7.2716483315835205,52.23232015065912],[7.2716483315835205,52.288685499058374],[7.2716483315835205,52.37887005649716],[6.910120052951129,52.49160075329567],[7.370246953028726,53.17925800376648],[7.238782124435119,53.52872316384179],[8.044004199570935,53.65272693032014],[8.076870406719337,53.65272693032014],[8.109736613867739,53.46108474576269],[8.060437303145136,53.41599246704331],[8.159035924590341,53.3032617702448],[7.978271785274131,53.16798493408663],[8.339800063906523,53.04398116760828],[8.405532478203327,52.705789077212785],[8.306933856758121,52.705789077212785],[8.306933856758121,52.41268926553673],[8.405532478203327,52.130862523540486],[8.389099374629126,52.07449717514123],[8.29050075318392,52.07449717514123],[8.257634546035518,51.92794726930319],[8.750627653261517,51.86030885122409],[8.79992696398412,51.871581920903935],[8.78349386040992,52.06322410546139],[8.98069110330033,52.07449717514123],[8.914958689003527,52.243593220338965],[9.079289724745536,52.46905461393595],[9.440818003377927,51.939220338983034],[9.81877938558452,52.33377777777778],[10.755466289313944,52.18722787193974],[10.788332496462345,52.108316384180796],[10.85406491075912,51.781397363465146],[10.68973387501714,51.8377627118644],[10.410371114255724,51.67993973634651],[10.361071803533122,51.65739359698682],[9.555849728397334,51.61230131826741],[9.802346282010319,51.25156308851223],[10.361071803533122,51.48829755178906],[10.377504907107323,51.61230131826741]],[[7.173049710138315,51.60102824858757],[7.205915917286717,51.454478342749525],[7.2716483315835205,51.454478342749525],[7.501711781622333,50.85700564971751],[7.978271785274131,50.85700564971751],[8.109736613867739,50.98100941619586],[7.863240060254725,51.27410922787192],[7.928972474551529,51.522116760828624],[8.257634546035518,51.454478342749525],[8.109736613867739,51.7024858757062],[7.173049710138315,51.60102824858757]],[[11.330624914410947,51.53338983050847],[11.741452503765942,51.31920150659133],[11.642853882320736,51.6348474576271],[11.330624914410947,51.53338983050847]],[[10.459670424978327,51.44320527306968],[10.624001460720336,51.25156308851223],[10.706166978591341,51.499570621468905],[10.673300771442939,51.51084369114878],[10.459670424978327,51.44320527306968]]]}}]}