{"type":"FeatureCollection","features":[{"type":"Feature","properties":{"name":"Macedon and Hellenic League","abbrevname":"Macedon","controllin":"Greece"},"geometry":{"type":"Polygon","coordinates":[[[25.01940019171957,40.94797740112995],[24.723604327383953,40.89161205273069],[23.83621673437716,40.733789077212805],[24.49354087734517,40.19268173258004],[23.83621673437716,40.361777777777775],[24.00054777011917,40.00103954802259],[23.49112155931897,40.30541242937852],[23.80335052722876,39.95594726930318],[22.899529830647765,40.59851224105461],[22.702332587757354,40.51960075329566],[22.899529830647765,39.85448964218455],[23.441822248596367,39.223197740112994],[23.047427762815545,39.38102071563088],[23.080293969963947,39.04282862523539],[22.702332587757354,38.896278719397344],[24.16487880586115,38.16352919020716],[24.115579495138547,37.701333333333324],[23.704751905783553,38.08461770244821],[23.096727073538148,37.915521657250466],[23.62258638791255,37.48714500941618],[22.850230519925162,37.599875706214675],[23.178892591409152,36.63039171374764],[22.883096727073564,36.765668549905826],[22.587300862737948,36.54020715630884],[22.192906376957154,37.03622222222221],[21.979276030492542,36.84458003766477],[21.42055050896974,37.84788323917137],[22.11074085908615,38.28753295668548],[22.948829141370368,37.971887005649705],[23.32679052357696,38.174802259887],[22.538001552015345,38.44535593220337],[21.371251198247165,38.366444444444426],[20.976856712466343,38.86245951035781],[21.371251198247165,39.0202824858757],[20.41813119094354,39.42611299435026],[21.09188843748575,41.86109604519774],[22.570867759163747,41.962553672316375],[24.970100880996966,41.849822975517895],[25.01940019171957,40.94797740112995]]]}}]}