{"type":"FeatureCollection","features":[{"type":"Feature","properties":{"name":"Umayyad Caliphate","abbrevname":"Umayyad Cal."},"geometry":{"type":"Polygon","coordinates":[[[-8.4383986853517,42.43602259887004],[-5.348975213402099,42.266926553672306],[-3.968594513169279,42.266926553672306],[-1.733692427078097,42.65021092278718],[-0.28757931254847335,42.92076459510358],[0.6819737983293237,42.59384557438793],[2.275984845026727,41.308715630885104],[1.8158579449491299,41.22980414312616],[1.6515269092071208,41.195984934086624],[1.5200620806135134,41.173438794726934],[0.041082758935516495,39.899581920903955],[-0.1889806911032963,39.44865913370998],[0.36974483041950634,38.7497288135593],[-0.4683434518646834,38.19734839924669],[-0.5998082804582907,37.633694915254225],[-1.4214634591682795,37.453325800376646],[-1.733692427078097,36.96858380414312],[-2.4238827771944784,36.833306967984925],[-4.2479572739306946,36.743122410546135],[-5.464006938421505,36.02164595103578],[-6.006299356370107,36.303472693032006],[-6.433560049299302,37.03622222222221],[-6.811521431505895,37.18277212806025],[-7.025151777970507,37.239137476459504],[-7.288081435157693,37.22786440677966],[-8.78349386040989,37.00240301318267],[-8.635595928242111,37.543510357815435],[-8.652029031816312,37.92679472693031],[-8.586296617519508,38.45662900188324],[-9.079289724745507,38.63699811676082],[-8.832793171132494,38.94137099811675],[-9.342219381932694,38.79482109227871],[-8.487697996074303,41.00434274952917],[-8.60272972109371,41.90618832391712],[-8.4383986853517,42.43602259887004]]]}}]}