{"type": "FeatureCollection", "features": [{"type": "Feature", "properties": {"name": "Xiongnu", "displayYear": 100, "fromYear": 91, "toYear": 105, "wikipedia": "Xiongnu", "seshatId": "mn_hunnu_late", "areaKm2": 1441437.8604457753, "source": "Seshat Cliopatria"}, "geometry": {"type": "MultiPolygon", "coordinates": [[[[103.22013854980469, 39.449623107910156], [103.29888916015625, 39.449623107910156], [103.37763214111328, 39.449623107910156], [103.34809875488281, 39.38497543334961], [103.26937866210938, 39.38497543334961], [103.19065856933594, 39.38497543334961], [103.22013854980469, 39.449623107910156]]], [[[101.11186218261719, 51.580322265625], [101.87521362304688, 51.580322265625], [101.82940673828125, 51.51342010498047], [102.1226806640625, 51.44654083251953], [102.07701873779297, 51.37968063354492], [102.2008056640625, 51.31283950805664], [102.110107421875, 51.17921447753906], [102.35260772705078, 50.912200927734375], [102.26341247558594, 50.77880859375], [102.34773254394531, 50.77880859375], [102.38340759277344, 50.578861236572266], [102.76018524169922, 50.51224899291992], [102.71615600585938, 50.445655822753906], [102.88438415527344, 50.445655822753906], [102.8404312133789, 50.37908172607422], [103.17672729492188, 50.37908172607422], [103.13278198242188, 50.312522888183594], [103.30084991455078, 50.312522888183594], [103.25698852539062, 50.2459831237793], [104.1809310913086, 50.2459831237793], [105.0323715209961, 50.51224899291992], [106.41719818115234, 50.445655822753906], [106.37156677246094, 50.37908172607422], [106.79193878173828, 50.37908172607422], [106.74627685546875, 50.312522888183594], [107.2816390991211, 50.11296081542969], [107.23634338378906, 50.04647445678711], [107.82347869873047, 50.04647445678711], [107.816650390625, 49.91355895996094], [107.98424530029297, 49.91355895996094], [108.05548858642578, 49.64793395996094], [108.34529113769531, 49.58156967163086], [108.33975219726562, 49.44889450073242], [108.59033966064453, 49.44889450073242], [108.5458984375, 49.38258361816406], [108.62938690185547, 49.38258361816406], [108.44903564453125, 48.98506164550781], [108.61557006835938, 48.98506164550781], [108.61186981201172, 48.852684020996094], [108.8148422241211, 48.654239654541016], [108.72901916503906, 48.52202224731445], [108.85226440429688, 48.455936431884766], [108.76712036132812, 48.323814392089844], [108.85002136230469, 48.323814392089844], [108.76533508300781, 48.191749572753906], [108.8481674194336, 48.191749572753906], [108.51483917236328, 47.92780685424805], [108.59752655029297, 47.92780685424805], [108.51436614990234, 47.79592514038086], [108.59698486328125, 47.79592514038086], [108.43169403076172, 47.664100646972656], [108.3910140991211, 47.46647262573242], [108.55590057373047, 47.46647262573242], [108.5981674194336, 47.26897048950195], [108.76284790039062, 47.26897048950195], [108.97115325927734, 46.94007873535156], [108.8905258178711, 46.808616638183594], [109.3025131225586, 46.677207946777344], [109.38810729980469, 46.414546966552734], [109.55191040039062, 46.414546966552734], [109.84574890136719, 45.95537567138672], [109.76667022705078, 45.82429504394531], [110.18556213378906, 45.300437927246094], [110.10739135742188, 45.169586181640625], [110.52664184570312, 44.64661407470703], [110.44923400878906, 44.5159797668457], [110.6994857788086, 44.25482940673828], [110.62262725830078, 44.12431716918945], [110.70341491699219, 44.12431716918945], [110.62680053710938, 43.99384307861328], [110.71180725097656, 43.86341094970703], [109.9658203125, 42.56119155883789], [109.33319091796875, 42.43117141723633], [107.81322479248047, 42.43117141723633], [106.8631362915039, 42.30118942260742], [105.73197937011719, 41.97637939453125], [104.97151947021484, 41.586883544921875], [104.89189910888672, 41.586883544921875], [104.44734191894531, 41.65177917480469], [104.46781158447266, 41.84651184082031], [103.6372299194336, 41.781593322753906], [103.67041778564453, 41.84651184082031], [103.14532470703125, 41.911441802978516], [103.17849731445312, 41.97637939453125], [102.20703887939453, 42.10627746582031], [102.24011993408203, 42.17123794555664], [101.87373352050781, 42.236209869384766], [101.8600845336914, 42.36617660522461], [101.70014190673828, 42.36617660522461], [101.68661499023438, 42.496177673339844], [101.446533203125, 42.496177673339844], [101.47979736328125, 42.56119155883789], [98.83792114257812, 42.56119155883789], [98.87030029296875, 42.62621307373047], [98.0694351196289, 42.62621307373047], [98.10160827636719, 42.691246032714844], [97.62091064453125, 42.691246032714844], [97.65298461914062, 42.75628662109375], [96.49929809570312, 42.691246032714844], [96.25704956054688, 43.016544342041016], [95.91930389404297, 43.146724700927734], [95.72555541992188, 43.407203674316406], [95.72540283203125, 43.73301696777344], [95.2742691040039, 44.12431716918945], [95.3393325805664, 44.25482940673828], [94.72496032714844, 44.32010269165039], [94.62802124023438, 44.45067596435547], [94.46614837646484, 44.45067596435547], [94.49857330322266, 44.5159797668457], [94.33663940429688, 44.5159797668457], [94.36906433105469, 44.58129119873047], [93.99639129638672, 44.64661407470703], [93.98011779785156, 44.77729415893555], [93.68807983398438, 44.842647552490234], [93.72047424316406, 44.908016204833984], [93.47700500488281, 44.908016204833984], [93.50935363769531, 44.973392486572266], [91.6736831665039, 45.03877639770508], [91.70540618896484, 45.10417556762695], [90.9243392944336, 45.169586181640625], [90.82472229003906, 45.300437927246094], [90.66202545166016, 45.300437927246094], [90.67522430419922, 45.496795654296875], [90.54390716552734, 45.56227111816406], [90.96217346191406, 46.08650588989258], [90.8630599975586, 46.21768569946289], [90.95931243896484, 46.74290466308594], [90.2221450805664, 47.730003356933594], [89.92533111572266, 47.79592514038086], [89.95894622802734, 47.86185836791992], [89.62833404541016, 47.86185836791992], [89.53013610839844, 47.993770599365234], [88.90177154541016, 48.059749603271484], [88.09082794189453, 47.92780685424805], [85.93482208251953, 47.4006233215332], [85.5321044921875, 47.07159423828125], [84.78268432617188, 46.87434005737305], [83.41323852539062, 46.02093505859375], [82.77511596679688, 45.496795654296875], [82.5239028930664, 45.10417556762695], [82.22693634033203, 45.169586181640625], [82.2550277709961, 45.23500442504883], [81.82051849365234, 45.169586181640625], [81.79508209228516, 45.300437927246094], [81.46968841552734, 45.300437927246094], [80.33009338378906, 45.10417556762695], [79.84263610839844, 44.908016204833984], [79.89672088623047, 45.03877639770508], [79.59868621826172, 45.300437927246094], [79.65299987792969, 45.431331634521484], [78.94731903076172, 46.283294677734375], [79.0855941772461, 46.61152267456055], [79.24960327148438, 46.61152267456055], [79.30770874023438, 46.94007873535156], [79.77236938476562, 46.87434005737305], [82.121337890625, 47.53233337402344], [85.32438659667969, 48.191749572753906], [85.78553009033203, 48.455936431884766], [86.3993148803711, 48.52202224731445], [86.54865264892578, 48.654239654541016], [86.84762573242188, 48.5881233215332], [86.91446685791016, 48.72037124633789], [87.66667175292969, 49.051273345947266], [87.65225982666016, 49.18375015258789], [87.81902313232422, 49.18375015258789], [88.24449920654297, 49.51522445678711], [88.74590301513672, 49.51522445678711], [89.60647583007812, 49.71431350708008], [89.5119400024414, 49.84712600708008], [89.5853271484375, 49.98000717163086], [89.83683776855469, 49.98000717163086], [90.1162338256836, 50.17946243286133], [90.77967071533203, 50.312522888183594], [91.06266021728516, 50.51224899291992], [91.31512451171875, 50.51224899291992], [91.89242553710938, 50.77880859375], [92.77128601074219, 50.97892379760742], [93.27173614501953, 51.24601745605469], [94.70812225341797, 51.64724349975586], [98.58541107177734, 52.11625671386719], [98.93199157714844, 52.250450134277344], [98.88636779785156, 52.18334197998047], [99.2667007446289, 52.11625671386719], [99.22116088867188, 52.0491943359375], [99.39139556884766, 52.0491943359375], [99.34591674804688, 51.98215103149414], [99.68621826171875, 51.98215103149414], [99.64071655273438, 51.91512680053711], [100.10530090332031, 51.84812545776367], [100.05985260009766, 51.78114318847656], [100.73941040039062, 51.78114318847656], [100.69377136230469, 51.71418380737305], [100.94847869873047, 51.71418380737305], [100.90287017822266, 51.64724349975586], [101.07258605957031, 51.64724349975586], [101.02704620361328, 51.580322265625], [101.11186218261719, 51.580322265625]]]]}}]}