{
  "type": "FeatureCollection",
  "features": [
    {
      "type": "Feature",
      "properties": {
        "id": "cao_wei_229_main_v3",
        "territoryId": "cao_wei",
        "name": "Cao Wei 229 CE Main Boundary v3"
      },
      "geometry": {
        "type": "Polygon",
        "coordinates": [
          [
            [103.82, 33.62],
            [104.34, 33.58],
            [104.98, 33.55],
            [105.70, 33.54],
            [106.50, 33.54],
            [107.36, 33.55],
            [108.26, 33.56],
            [109.19, 33.58],
            [110.15, 33.59],
            [111.15, 33.60],
            [112.19, 33.62],
            [113.27, 33.66],
            [114.42, 33.73],
            [115.59, 33.83],
            [116.80, 33.98],
            [118.00, 34.18],
            [119.12, 34.45],
            [120.04, 34.82],
            [120.82, 35.28],
            [121.38, 35.84],
            [121.72, 36.50],
            [121.82, 37.25],
            [121.68, 38.01],
            [121.28, 38.72],
            [120.50, 39.30],
            [119.44, 39.73],
            [118.22, 40.02],
            [116.88, 40.20],
            [115.44, 40.26],
            [113.96, 40.18],
            [112.45, 40.00],
            [110.96, 39.71],
            [109.49, 39.28],
            [108.12, 38.66],
            [106.87, 37.90],
            [105.84, 37.00],
            [105.02, 35.98],
            [104.42, 34.90],
            [104.02, 33.95],
            [103.82, 33.62]
          ]
        ]
      }
    }
  ]
}
