{
  "type": "FeatureCollection",
  "features": [
    {
      "type": "Feature",
      "properties": {
        "Name": "Kingdom of England",
        "FromYear": 947,
        "ToYear": 959,
        "Area": 123845.85832647317,
        "Type": "POLITY",
        "Wikipedia": "Kingdom of England",
        "Wikidata": "Q179876",
        "SeshatID": "gb_anglo_saxon_2",
        "Components": "",
        "MemberOf": "(Kingdom of England)",
        "displayYear": 951,
        "sourceYear": 951,
        "mappedTerritoryId": "cliopatria_kingdom_of_england"
      },
      "geometry": {
        "type": "MultiPolygon",
        "coordinates": [
          [
            [
              [
                -0.840734958648682,
                53.597137451171875
              ],
              [
                -0.846712350845337,
                53.664710998535156
              ],
              [
                -0.760509312152863,
                53.664710998535156
              ],
              [
                -0.766455352306366,
                53.732303619384766
              ],
              [
                -0.248955309391022,
                53.732303619384766
              ],
              [
                -0.248955309391022,
                53.732303619384766
              ],
              [
                0.015318141318858,
                53.664710998535156
              ],
              [
                0.117866292595863,
                53.462066650390625
              ],
              [
                0.29531991481781,
                53.39456558227539
              ],
              [
                0.316494405269623,
                53.124786376953125
              ],
              [
                0.06977716833353,
                52.99003219604492
              ],
              [
                0.166152358055115,
                52.85536575317383
              ],
              [
                0.337453275918961,
                52.85536575317383
              ],
              [
                0.493327647447586,
                53.057395935058594
              ],
              [
                1.093834638595581,
                53.057395935058594
              ],
              [
                1.531973838806152,
                52.92268753051758
              ],
              [
                1.716817617416382,
                52.720787048339844
              ],
              [
                1.739019155502319,
                52.38472366333008
              ],
              [
                1.653681755065918,
                52.38472366333008
              ],
              [
                1.586262822151184,
                52.11625671386719
              ],
              [
                1.425007224082947,
                51.98215103149414
              ],
              [
                1.169783234596252,
                51.98215103149414
              ],
              [
                1.183690190315247,
                51.78114318847656
              ],
              [
                0.843909561634064,
                51.78114318847656
              ],
              [
                0.862975299358368,
                51.51342010498047
              ],
              [
                0.523877322673798,
                51.51342010498047
              ],
              [
                1.380577206611633,
                51.37968063354492
              ],
              [
                1.313834071159363,
                51.112430572509766
              ],
              [
                0.492853790521622,
                50.77880859375
              ],
              [
                -1.367843627929688,
                50.84549331665039
              ],
              [
                -1.109168291091919,
                50.77880859375
              ],
              [
                -1.176646590232849,
                50.578861236572266
              ],
              [
                -1.513427257537842,
                50.578861236572266
              ],
              [
                -1.524962306022644,
                50.71213912963867
              ],
              [
                -2.607964515686035,
                50.578861236572266
              ],
              [
                -2.789105415344238,
                50.71213912963867
              ],
              [
                -3.12621021270752,
                50.71213912963867
              ],
              [
                -3.456606388092041,
                50.64549255371094
              ],
              [
                -3.584736108779907,
                50.2459831237793
              ],
              [
                -4.088706493377686,
                50.2459831237793
              ],
              [
                -4.186630249023438,
                50.37908172607422
              ],
              [
                -4.354779243469238,
                50.37908172607422
              ],
              [
                -4.928657054901123,
                50.2459831237793
              ],
              [
                -5.151133060455322,
                49.98000717163086
              ],
              [
                -5.745615005493164,
                50.04647445678711
              ],
              [
                -5.768607616424561,
                50.2459831237793
              ],
              [
                -5.279601097106934,
                50.37908172607422
              ],
              [
                -5.133819580078125,
                50.578861236572266
              ],
              [
                -4.881234169006348,
                50.578861236572266
              ],
              [
                -4.819114208221436,
                50.77880859375
              ],
              [
                -4.657799243927002,
                50.84549331665039
              ],
              [
                -4.67988109588623,
                51.04566955566406
              ],
              [
                -4.426436901092529,
                51.04566955566406
              ],
              [
                -4.201729774475098,
                51.31283950805664
              ],
              [
                -3.094635725021362,
                51.24601745605469
              ],
              [
                -3.107994079589844,
                51.37968063354492
              ],
              [
                -2.945236444473267,
                51.44654083251953
              ],
              [
                -2.951877117156982,
                51.51342010498047
              ],
              [
                -2.625775098800659,
                51.64724349975586
              ],
              [
                -2.822042465209961,
                51.91512680053711
              ],
              [
                -2.82872486114502,
                51.98215103149414
              ],
              [
                -2.913799524307251,
                51.98215103149414
              ],
              [
                -2.920543432235718,
                52.0491943359375
              ],
              [
                -2.927305936813354,
                52.11625671386719
              ],
              [
                -2.869202375411987,
                52.38472366333008
              ],
              [
                -3.03987717628479,
                52.38472366333008
              ],
              [
                -3.139120101928711,
                52.51908493041992
              ],
              [
                -3.074559926986694,
                52.720787048339844
              ],
              [
                -3.160120248794556,
                52.720787048339844
              ],
              [
                -3.489411115646362,
                53.39456558227539
              ],
              [
                -3.403394460678101,
                53.39456558227539
              ],
              [
                -3.152528285980225,
                53.462066650390625
              ],
              [
                -3.095205545425415,
                53.732303619384766
              ],
              [
                -3.196035623550415,
                53.86756134033203
              ],
              [
                -2.958591222763062,
                54.07062530517578
              ],
              [
                -2.96582555770874,
                54.138362884521484
              ],
              [
                -2.807090759277344,
                54.27390670776367
              ],
              [
                -2.54719877243042,
                54.27390670776367
              ],
              [
                -2.460568189620972,
                54.27390670776367
              ],
              [
                -1.993870735168457,
                53.93522644042969
              ],
              [
                -1.868087768554688,
                53.52959060668945
              ],
              [
                -1.590713858604431,
                53.32708740234375
              ],
              [
                -0.988921403884888,
                53.32708740234375
              ],
              [
                -0.926891207695007,
                53.597137451171875
              ],
              [
                -0.840734958648682,
                53.597137451171875
              ]
            ]
          ],
          [
            [
              [
                -1.546722173690796,
                54.681121826171875
              ],
              [
                -1.894410014152527,
                54.681121826171875
              ],
              [
                -1.887656569480896,
                54.613189697265625
              ],
              [
                -2.495768070220947,
                54.613189697265625
              ],
              [
                -2.495768070220947,
                54.613189697265625
              ],
              [
                -2.502863883972168,
                54.681121826171875
              ],
              [
                -2.589786052703857,
                54.681121826171875
              ],
              [
                -2.676707983016968,
                54.681121826171875
              ],
              [
                -2.79279088973999,
                54.95309066772461
              ],
              [
                -3.06163477897644,
                55.021148681640625
              ],
              [
                -3.186784505844116,
                55.36180877685547
              ],
              [
                -3.361621379852295,
                55.36180877685547
              ],
              [
                -3.384954214096069,
                55.56651306152344
              ],
              [
                -3.783684492111206,
                55.97663879394531
              ],
              [
                -3.26426100730896,
                56.04508590698242
              ],
              [
                -3.176331996917725,
                56.04508590698242
              ],
              [
                -2.656256437301636,
                56.11355972290039
              ],
              [
                -2.01904296875,
                55.90821838378906
              ],
              [
                -1.734845399856567,
                55.70311737060547
              ],
              [
                -1.606520295143127,
                55.29362487792969
              ],
              [
                -1.519152045249939,
                55.29362487792969
              ],
              [
                -1.486006855964661,
                54.95309066772461
              ],
              [
                -1.298828959465027,
                54.817054748535156
              ],
              [
                -1.285956144332886,
                54.681121826171875
              ],
              [
                -1.459800124168396,
                54.681121826171875
              ],
              [
                -1.546722173690796,
                54.681121826171875
              ]
            ]
          ]
        ]
      }
    }
  ]
}
