{
  "type": "FeatureCollection",
  "features": [
    {
      "type": "Feature",
      "properties": {
        "Name": "Italian Africa",
        "FromYear": 1940,
        "ToYear": 1940,
        "Area": 3514583.089633959,
        "Type": "POLITY",
        "Wikipedia": "Italian Empire",
        "Wikidata": "Q926295",
        "SeshatID": "",
        "Components": "",
        "MemberOf": "",
        "displayYear": 1940,
        "sourceYear": 1940,
        "mappedTerritoryId": "cliopatria_italian_africa"
      },
      "geometry": {
        "type": "MultiPolygon",
        "coordinates": [
          [
            [
              [
                39.403194427490234,
                15.971842765808105
              ],
              [
                39.53190612792969,
                15.586114883422852
              ],
              [
                39.743446350097656,
                15.393251419067383
              ],
              [
                39.73439025878906,
                15.200387001037598
              ],
              [
                39.807918548583984,
                15.200387001037598
              ],
              [
                39.82310485839844,
                15.52182674407959
              ],
              [
                39.97023010253906,
                15.52182674407959
              ],
              [
                40.310516357421875,
                14.943235397338867
              ],
              [
                40.68106460571289,
                15.007523536682129
              ],
              [
                40.81596755981445,
                14.750371932983398
              ],
              [
                41.32428741455078,
                14.621796607971191
              ],
              [
                41.5267333984375,
                14.236069679260254
              ],
              [
                41.6706428527832,
                14.171781539916992
              ],
              [
                41.664764404296875,
                14.043206214904785
              ],
              [
                42.378360748291016,
                13.593193054199219
              ],
              [
                42.43741226196289,
                13.271754264831543
              ],
              [
                42.5841064453125,
                13.271754264831543
              ],
              [
                42.86052703857422,
                12.886029243469238
              ],
              [
                43.15378952026367,
                12.886029243469238
              ],
              [
                43.221492767333984,
                12.757453918457031
              ],
              [
                43.21870422363281,
                12.69316577911377
              ],
              [
                42.99604415893555,
                12.628878593444824
              ],
              [
                42.76530075073242,
                12.37172794342041
              ],
              [
                42.32832336425781,
                12.436016082763672
              ],
              [
                42.165985107421875,
                12.050291061401367
              ],
              [
                41.94109344482422,
                11.92171573638916
              ],
              [
                41.8602294921875,
                11.728853225708008
              ],
              [
                41.830623626708984,
                10.957403182983398
              ],
              [
                42.0477180480957,
                10.893115997314453
              ],
              [
                42.34526824951172,
                11.021690368652344
              ],
              [
                42.85749435424805,
                11.021690368652344
              ],
              [
                43.08203125,
                11.15026569366455
              ],
              [
                43.243717193603516,
                11.535990715026855
              ],
              [
                43.31692886352539,
                11.535990715026855
              ],
              [
                43.67005920410156,
                11.214552879333496
              ],
              [
                43.73307418823242,
                10.957403182983398
              ],
              [
                44.083831787109375,
                10.571678161621094
              ],
              [
                44.371421813964844,
                10.443102836608887
              ],
              [
                44.88338088989258,
                10.443102836608887
              ],
              [
                45.706058502197266,
                10.893115997314453
              ],
              [
                46.578712463378906,
                10.764540672302246
              ],
              [
                47.25631332397461,
                11.214552879333496
              ],
              [
                47.985382080078125,
                11.15026569366455
              ],
              [
                48.359859466552734,
                11.343128204345703
              ],
              [
                49.08892822265625,
                11.278841018676758
              ],
              [
                49.686336517333984,
                11.535990715026855
              ],
              [
                50.125606536865234,
                11.535990715026855
              ],
              [
                50.4276237487793,
                11.728853225708008
              ],
              [
                50.58653259277344,
                11.986002922058105
              ],
              [
                51.099246978759766,
                11.986002922058105
              ],
              [
                51.31262969970703,
                11.857428550720215
              ],
              [
                51.14442825317383,
                11.407415390014648
              ],
              [
                51.176048278808594,
                10.507390975952148
              ],
              [
                50.94806671142578,
                10.314528465270996
              ],
              [
                50.831058502197266,
                9.285927772521973
              ],
              [
                50.371917724609375,
                8.771627426147461
              ],
              [
                50.203346252441406,
                8.193038940429688
              ],
              [
                49.82863235473633,
                7.935888767242432
              ],
              [
                49.81439971923828,
                7.550163269042969
              ],
              [
                49.203407287597656,
                6.778711795806885
              ],
              [
                48.87750244140625,
                5.750109672546387
              ],
              [
                48.72964096069336,
                5.685822010040283
              ],
              [
                48.648597717285156,
                5.428671360015869
              ],
              [
                48.12063980102539,
                4.850082874298096
              ],
              [
                47.88682174682617,
                4.335781574249268
              ],
              [
                47.063690185546875,
                3.564330101013184
              ],
              [
                47.060157775878906,
                3.435754776000977
              ],
              [
                46.689056396484375,
                3.178604364395142
              ],
              [
                46.68561553955078,
                3.050029039382935
              ],
              [
                45.86627197265625,
                2.342865228652954
              ],
              [
                45.72066116333008,
                2.342865228652954
              ],
              [
                45.49577713012695,
                2.085714817047119
              ],
              [
                44.38966751098633,
                1.507126569747925
              ],
              [
                43.27535629272461,
                0.542813181877136
              ],
              [
                43.27243423461914,
                0.414238125085831
              ],
              [
                42.902767181396484,
                0.15708801150322
              ],
              [
                42.91486740112305,
                0.028512962162495
              ],
              [
                42.12020492553711,
                -0.742937445640564
              ],
              [
                42.12131118774414,
                -0.871512532234192
              ],
              [
                41.8313102722168,
                -1.00008761882782
              ],
              [
                41.833641052246094,
                -1.257237911224365
              ],
              [
                41.54615783691406,
                -1.642963409423828
              ],
              [
                41.473365783691406,
                -1.642963409423828
              ],
              [
                40.88401794433594,
                -0.871512532234192
              ],
              [
                40.928016662597656,
                2.857166290283203
              ],
              [
                41.30010986328125,
                3.178604364395142
              ],
              [
                41.75687789916992,
                3.950055837631226
              ],
              [
                41.24530792236328,
                3.885768175125122
              ],
              [
                40.95726776123047,
                4.01434326171875
              ],
              [
                40.74542236328125,
                4.271493911743164
              ],
              [
                40.5997200012207,
                4.271493911743164
              ],
              [
                40.08477783203125,
                4.078630924224854
              ],
              [
                39.5634880065918,
                3.628617763519287
              ],
              [
                39.48585510253906,
                3.435754776000977
              ],
              [
                39.26736831665039,
                3.435754776000977
              ],
              [
                37.961124420166016,
                3.628617763519287
              ],
              [
                37.60165786743164,
                3.821480512619019
              ],
              [
                37.10439682006836,
                4.335781574249268
              ],
              [
                36.01472091674805,
                4.464356899261475
              ],
              [
                35.73115539550781,
                4.785795211791992
              ],
              [
                35.8135986328125,
                5.171521186828613
              ],
              [
                35.0943717956543,
                5.557246685028076
              ],
              [
                34.75592803955078,
                6.585848808288574
              ],
              [
                34.11272430419922,
                7.100150108337402
              ],
              [
                34.04645538330078,
                7.357300281524658
              ],
              [
                33.68999099731445,
                7.678738594055176
              ],
              [
                33.325077056884766,
                7.678738594055176
              ],
              [
                33.03813552856445,
                7.871601104736328
              ],
              [
                33.04484558105469,
                8.128751754760742
              ],
              [
                33.27238464355469,
                8.450189590454102
              ],
              [
                33.85480880737305,
                8.385902404785156
              ],
              [
                34.077369689941406,
                8.514476776123047
              ],
              [
                34.16642379760742,
                9.09306526184082
              ],
              [
                34.09336853027344,
                9.09306526184082
              ],
              [
                34.032997131347656,
                9.543078422546387
              ],
              [
                34.1846923828125,
                9.735940933227539
              ],
              [
                34.192134857177734,
                9.993090629577637
              ],
              [
                34.342124938964844,
                10.121665954589844
              ],
              [
                34.357418060302734,
                10.635965347290039
              ],
              [
                34.50957489013672,
                10.828827857971191
              ],
              [
                34.65589904785156,
                10.828827857971191
              ],
              [
                34.725128173828125,
                10.7002534866333
              ],
              [
                34.94656753540039,
                10.764540672302246
              ],
              [
                35.20514678955078,
                11.986002922058105
              ],
              [
                35.35377502441406,
                12.050291061401367
              ],
              [
                35.588836669921875,
                12.500303268432617
              ],
              [
                35.81542205810547,
                12.69316577911377
              ],
              [
                36.18421173095703,
                12.757453918457031
              ],
              [
                36.26213073730469,
                12.886029243469238
              ],
              [
                36.28096389770508,
                13.40032958984375
              ],
              [
                36.51567459106445,
                13.786055564880371
              ],
              [
                36.533226013183594,
                14.236069679260254
              ],
              [
                36.606658935546875,
                14.236069679260254
              ],
              [
                36.49644470214844,
                15.136098861694336
              ],
              [
                36.651676177978516,
                15.328963279724121
              ],
              [
                36.90909957885742,
                16.16470718383789
              ],
              [
                37.06218719482422,
                16.293283462524414
              ],
              [
                37.0120735168457,
                16.807586669921875
              ],
              [
                37.168453216552734,
                17.000450134277344
              ],
              [
                37.38962936401367,
                17.000450134277344
              ],
              [
                37.54316329956055,
                17.129026412963867
              ],
              [
                37.70293045043945,
                17.38617706298828
              ],
              [
                38.530277252197266,
                17.707616806030273
              ],
              [
                38.690711975097656,
                17.964767456054688
              ],
              [
                38.76455307006836,
                17.964767456054688
              ],
              [
                39.40629959106445,
                16.036130905151367
              ],
              [
                39.403194427490234,
                15.971842765808105
              ]
            ]
          ],
          [
            [
              [
                39.98891830444336,
                15.907554626464844
              ],
              [
                40.13612365722656,
                15.907554626464844
              ],
              [
                40.338035583496094,
                15.52182674407959
              ],
              [
                39.97331619262695,
                15.586114883422852
              ],
              [
                39.979522705078125,
                15.714691162109375
              ],
              [
                39.982643127441406,
                15.77897834777832
              ],
              [
                39.98891830444336,
                15.907554626464844
              ]
            ]
          ],
          [
            [
              [
                13.301749229431152,
                32.94303894042969
              ],
              [
                13.453653335571289,
                32.81447219848633
              ],
              [
                13.760527610778809,
                32.878753662109375
              ],
              [
                13.759129524230957,
                32.75019073486328
              ],
              [
                14.065231323242188,
                32.75019073486328
              ],
              [
                14.444439888000488,
                32.493072509765625
              ],
              [
                14.674704551696777,
                32.557350158691406
              ],
              [
                14.749334335327148,
                32.428794860839844
              ],
              [
                15.206924438476562,
                32.36451721191406
              ],
              [
                15.424593925476074,
                31.65752601623535
              ],
              [
                15.575982093811035,
                31.593257904052734
              ],
              [
                15.64897632598877,
                31.40045166015625
              ],
              [
                16.178552627563477,
                31.20764923095703
              ],
              [
                16.8635196685791,
                31.20764923095703
              ],
              [
                17.846824645996094,
                30.950578689575195
              ],
              [
                18.222288131713867,
                30.757776260375977
              ],
              [
                18.592470169067383,
                30.372163772583008
              ],
              [
                18.896053314208984,
                30.372163772583008
              ],
              [
                18.968589782714844,
                30.243623733520508
              ],
              [
                19.655010223388672,
                30.372163772583008
              ],
              [
                20.122089385986328,
                30.757776260375977
              ],
              [
                20.214296340942383,
                31.271915435791016
              ],
              [
                19.996076583862305,
                31.593257904052734
              ],
              [
                20.089075088500977,
                32.107421875
              ],
              [
                20.016965866088867,
                32.23596954345703
              ],
              [
                20.246112823486328,
                32.23596954345703
              ],
              [
                20.33134651184082,
                32.493072509765625
              ],
              [
                20.481992721557617,
                32.428794860839844
              ],
              [
                20.562992095947266,
                32.557350158691406
              ],
              [
                20.71593475341797,
                32.557350158691406
              ],
              [
                20.644094467163086,
                32.685909271240234
              ],
              [
                20.87124252319336,
                32.62162780761719
              ],
              [
                21.108016967773438,
                32.81447219848633
              ],
              [
                21.41167449951172,
                32.75019073486328
              ],
              [
                21.569839477539062,
                32.878753662109375
              ],
              [
                22.108469009399414,
                32.94303894042969
              ],
              [
                23.089431762695312,
                32.62162780761719
              ],
              [
                23.077939987182617,
                32.36451721191406
              ],
              [
                23.29851722717285,
                32.171695709228516
              ],
              [
                23.680339813232422,
                32.171695709228516
              ],
              [
                24.129365921020508,
                31.978878021240234
              ],
              [
                24.892484664916992,
                31.978878021240234
              ],
              [
                25.11168098449707,
                31.78606605529785
              ],
              [
                25.102048873901367,
                31.593257904052734
              ],
              [
                24.864051818847656,
                31.40045166015625
              ],
              [
                24.982572555541992,
                30.69350814819336
              ],
              [
                24.7429256439209,
                30.436433792114258
              ],
              [
                24.72010040283203,
                29.922264099121094
              ],
              [
                24.93060874938965,
                29.536611557006836
              ],
              [
                24.935914993286133,
                27.800947189331055
              ],
              [
                25.011228561401367,
                27.800947189331055
              ],
              [
                24.99679183959961,
                27.41520881652832
              ],
              [
                25.072025299072266,
                27.41520881652832
              ],
              [
                25.062468596066616,
                23.043420791625977
              ],
              [
                25.06007957458496,
                21.950544357299805
              ],
              [
                25.08762550354004,
                20.08624267578125
              ],
              [
                24.936120986938477,
                19.95766830444336
              ],
              [
                24.121171951293945,
                19.95766830444336
              ],
              [
                24.037635803222656,
                19.571949005126953
              ],
              [
                23.449888229370117,
                19.764808654785156
              ],
              [
                23.378820419311523,
                19.893383026123047
              ],
              [
                22.937223434448242,
                20.021955490112305
              ],
              [
                22.865962982177734,
                20.150527954101562
              ],
              [
                21.690279006958008,
                20.664819717407227
              ],
              [
                21.25114631652832,
                20.986249923706055
              ],
              [
                20.808090209960938,
                21.114822387695312
              ],
              [
                20.73607635498047,
                21.24339485168457
              ],
              [
                19.776775360107422,
                21.629112243652344
              ],
              [
                19.704429626464844,
                21.7576847076416
              ],
              [
                18.964805603027344,
                22.014829635620117
              ],
              [
                18.892210006713867,
                22.143402099609375
              ],
              [
                18.2996768951416,
                22.33626365661621
              ],
              [
                18.226879119873047,
                22.46483612060547
              ],
              [
                17.781892776489258,
                22.59341049194336
              ],
              [
                17.708938598632812,
                22.72198486328125
              ],
              [
                16.151613235473633,
                23.429147720336914
              ],
              [
                15.85341739654541,
                23.429147720336914
              ],
              [
                15.03004264831543,
                22.914846420288086
              ],
              [
                14.209542274475098,
                22.657697677612305
              ],
              [
                13.467179298400879,
                23.236284255981445
              ],
              [
                12.12596607208252,
                23.429147720336914
              ],
              [
                11.753276824951172,
                24.07203483581543
              ],
              [
                11.37983512878418,
                24.393482208251953
              ],
              [
                11.006176948547363,
                24.522062301635742
              ],
              [
                10.483336448669434,
                24.457773208618164
              ],
              [
                10.258833885192871,
                24.586353302001953
              ],
              [
                10.108100891113281,
                24.97209930419922
              ],
              [
                10.106834411621094,
                25.357851028442383
              ],
              [
                9.429776191711426,
                26.06507110595703
              ],
              [
                9.428544998168945,
                26.32224464416504
              ],
              [
                9.952367782592773,
                26.70800018310547
              ],
              [
                9.873793601989746,
                27.6723690032959
              ],
              [
                10.023558616638184,
                27.92952537536621
              ],
              [
                9.872198104858398,
                28.12238883972168
              ],
              [
                9.94463062286377,
                29.022375106811523
              ],
              [
                9.869053840637207,
                29.022375106811523
              ],
              [
                9.86794662475586,
                29.34377670288086
              ],
              [
                9.562827110290527,
                29.922264099121094
              ],
              [
                9.410943984985352,
                29.986536026000977
              ],
              [
                9.410012245178223,
                30.179353713989258
              ],
              [
                9.940349578857422,
                30.372163772583008
              ],
              [
                10.318992614746094,
                30.822044372558594
              ],
              [
                10.165175437927246,
                31.593257904052734
              ],
              [
                10.469846725463867,
                31.7217960357666
              ],
              [
                11.003870010375977,
                32.23596954345703
              ],
              [
                11.538878440856934,
                32.36451721191406
              ],
              [
                11.615853309631348,
                32.557350158691406
              ],
              [
                11.539381980895996,
                32.557350158691406
              ],
              [
                11.540922164916992,
                33.13589859008789
              ],
              [
                11.617557525634766,
                33.13589859008789
              ],
              [
                12.228955268859863,
                32.81447219848633
              ],
              [
                12.612099647521973,
                32.878753662109375
              ],
              [
                12.534722328186035,
                32.75019073486328
              ],
              [
                12.840824127197266,
                32.75019073486328
              ],
              [
                12.841785430908203,
                32.878753662109375
              ],
              [
                13.071471214294434,
                32.878753662109375
              ],
              [
                13.072009086608887,
                32.94303894042969
              ],
              [
                13.301749229431152,
                32.94303894042969
              ]
            ],
            [
              [
                13.070935249328613,
                32.81447219848633
              ],
              [
                13.147479057312012,
                32.81447219848633
              ],
              [
                13.148033142089844,
                32.878753662109375
              ],
              [
                13.071471214294434,
                32.878753662109375
              ],
              [
                13.070935249328613,
                32.81447219848633
              ]
            ]
          ]
        ]
      }
    }
  ]
}
