{
  "type": "FeatureCollection",
  "features": [
    {
      "type": "Feature",
      "properties": {
        "Name": "Western Karakhanid Khanate",
        "FromYear": 1066,
        "ToYear": 1071,
        "Area": 382958.57519832416,
        "Type": "POLITY",
        "Wikipedia": "Kara-Khanid Khanate",
        "Wikidata": "Q494354",
        "SeshatID": "",
        "Components": "",
        "MemberOf": "",
        "displayYear": 1069,
        "sourceYear": 1069,
        "mappedTerritoryId": "cliopatria_western_karakhanid_khanate"
      },
      "geometry": {
        "type": "Polygon",
        "coordinates": [
          [
            [
              70.42377732941185,
              38.313015047002544
            ],
            [
              71.18379211425781,
              38.416015625
            ],
            [
              71.34558768338721,
              38.156993816506755
            ],
            [
              72.96180563863201,
              38.21533037408013
            ],
            [
              73.20811255405904,
              38.10261686056216
            ],
            [
              73.22408294677734,
              38.157840728759766
            ],
            [
              73.57133483886719,
              38.80344009399414
            ],
            [
              73.7104263305664,
              39.51427459716797
            ],
            [
              73.92901611328125,
              39.70827102661133
            ],
            [
              73.85016632080078,
              39.70827102661133
            ],
            [
              73.95331573486328,
              40.031734466552734
            ],
            [
              73.81617736816406,
              40.0964469909668
            ],
            [
              73.85803985595703,
              40.225894927978516
            ],
            [
              73.68400573730469,
              40.42012023925781
            ],
            [
              73.5257339477539,
              40.42012023925781
            ],
            [
              73.48890686035156,
              40.54964065551758
            ],
            [
              73.33053588867188,
              40.54964065551758
            ],
            [
              73.29378509521484,
              40.6791877746582
            ],
            [
              72.78146362304688,
              40.80876541137695
            ],
            [
              72.76615905761719,
              41.00318908691406
            ],
            [
              71.87642669677734,
              41.911441802978516
            ],
            [
              71.32565307617188,
              42.17123794555664
            ],
            [
              71.08600616455078,
              42.17123794555664
            ],
            [
              71.04993438720703,
              42.30118942260742
            ],
            [
              70.7520523071289,
              42.36617660522461
            ],
            [
              70.71595764160156,
              42.496177673339844
            ],
            [
              70.41775512695312,
              42.56119155883789
            ],
            [
              70.11322021484375,
              43.08163070678711
            ],
            [
              69.53694152832031,
              43.276947021484375
            ],
            [
              69.86369323730469,
              43.99384307861328
            ],
            [
              69.94441223144531,
              43.99384307861328
            ],
            [
              69.93184661865234,
              44.18956756591797
            ],
            [
              68.89506530761719,
              43.99384307861328
            ],
            [
              68.16859436035156,
              43.99384307861328
            ],
            [
              68.42528533935547,
              43.79821014404297
            ],
            [
              68.38138580322266,
              43.6678352355957
            ],
            [
              68.55730438232422,
              43.472347259521484
            ],
            [
              68.44863891601562,
              43.146724700927734
            ],
            [
              68.52896118164062,
              43.146724700927734
            ],
            [
              68.42139434814453,
              42.82133865356445
            ],
            [
              68.5015640258789,
              42.82133865356445
            ],
            [
              68.45404052734375,
              42.43117141723633
            ],
            [
              68.27301025390625,
              42.36617660522461
            ],
            [
              68.10958099365234,
              42.10627746582031
            ],
            [
              67.42833709716797,
              41.71668243408203
            ],
            [
              67.38805389404297,
              41.586883544921875
            ],
            [
              66.51473236083984,
              41.06801223754883
            ],
            [
              66.27928924560547,
              40.80876541137695
            ],
            [
              63.26470947265625,
              40.225894927978516
            ],
            [
              62.580726623535156,
              40.031734466552734
            ],
            [
              62.546688079833984,
              39.90232849121094
            ],
            [
              63.088340759277344,
              39.25570297241211
            ],
            [
              63.24568557739258,
              39.25570297241211
            ],
            [
              63.41547393798828,
              38.997230529785156
            ],
            [
              63.837432861328125,
              38.80344009399414
            ],
            [
              64.00749206542969,
              38.54513168334961
            ],
            [
              64.36690521240234,
              38.416015625
            ],
            [
              64.66151428222656,
              38.028785705566406
            ],
            [
              65.23883056640625,
              37.835243225097656
            ],
            [
              65.62744903564453,
              37.51277160644531
            ],
            [
              65.93956756591797,
              37.51277160644531
            ],
            [
              66.14161682128906,
              37.38381576538086
            ],
            [
              67.74652099609375,
              37.254878997802734
            ],
            [
              67.91515350341797,
              36.9970588684082
            ],
            [
              68.1487045288086,
              36.9970588684082
            ],
            [
              68.7763900756836,
              37.3193473815918
            ],
            [
              69.0102767944336,
              37.3193473815918
            ],
            [
              69.1160659790039,
              37.12596130371094
            ],
            [
              69.3497543334961,
              37.12596130371094
            ],
            [
              69.5460205078125,
              37.5772590637207
            ],
            [
              70.07515716552734,
              37.51277160644531
            ],
            [
              70.26583862304688,
              37.641746520996094
            ],
            [
              70.16192626953125,
              37.835243225097656
            ],
            [
              70.2146987915039,
              38.028785705566406
            ],
            [
              70.37330048586087,
              38.09331130981445
            ],
            [
              70.42377732941185,
              38.313015047002544
            ]
          ]
        ]
      }
    }
  ]
}
