{
  "type": "FeatureCollection",
  "features": [
    {
      "type": "Feature",
      "properties": {
        "Name": "Byzantine Empire",
        "FromYear": 1344,
        "ToYear": 1351,
        "Area": 164074.75314633345,
        "Type": "POLITY",
        "Wikipedia": "Byzantine Empire",
        "Wikidata": "Q112039853",
        "SeshatID": "",
        "Components": "",
        "MemberOf": "",
        "displayYear": 1351,
        "sourceYear": 1351,
        "mappedTerritoryId": "byzantine_empire"
      },
      "geometry": {
        "type": "MultiPolygon",
        "coordinates": [
          [
            [
              [
                22.87404441833496,
                36.15959167480469
              ],
              [
                22.887205123901367,
                36.417205810546875
              ],
              [
                22.964859008789062,
                36.417205810546875
              ],
              [
                23.116798400878906,
                36.3527946472168
              ],
              [
                23.10675048828125,
                36.15959167480469
              ],
              [
                22.87404441833496,
                36.15959167480469
              ]
            ]
          ],
          [
            [
              [
                22.83283233642578,
                36.8681755065918
              ],
              [
                22.59941291809082,
                36.8681755065918
              ],
              [
                22.51182746887207,
                36.67487716674805
              ],
              [
                22.35634422302246,
                36.67487716674805
              ],
              [
                22.21999168395996,
                37.06150817871094
              ],
              [
                22.142118453979492,
                37.06150817871094
              ],
              [
                22.064245223999023,
                37.06150817871094
              ],
              [
                21.67182159423828,
                36.9970588684082
              ],
              [
                21.612354278564453,
                37.38381576538086
              ],
              [
                21.696598052978516,
                37.51277160644531
              ],
              [
                21.243581771850586,
                37.835243225097656
              ],
              [
                21.415550231933594,
                38.157840728759766
              ],
              [
                21.728593826293945,
                38.157840728759766
              ],
              [
                21.741735458374023,
                38.416015625
              ],
              [
                21.19325065612793,
                38.416015625
              ],
              [
                20.973709106445312,
                38.738853454589844
              ],
              [
                20.74135398864746,
                38.80344009399414
              ],
              [
                20.91095733642578,
                39.06184005737305
              ],
              [
                20.29724884033203,
                39.38497543334961
              ],
              [
                20.15495491027832,
                39.70827102661133
              ],
              [
                19.918411254882812,
                39.70827102661133
              ],
              [
                20.009418487548828,
                39.9670295715332
              ],
              [
                19.62952995300293,
                40.29063034057617
              ],
              [
                19.55044937133789,
                40.29063034057617
              ],
              [
                19.64165687561035,
                40.54964065551758
              ],
              [
                19.48629379272461,
                40.614410400390625
              ],
              [
                19.489315032958984,
                40.6791877746582
              ],
              [
                19.33381462097168,
                40.74397277832031
              ],
              [
                19.498455047607422,
                40.873565673828125
              ],
              [
                19.422176361083984,
                40.93837356567383
              ],
              [
                19.529659271240234,
                41.521995544433594
              ],
              [
                19.456375122070312,
                41.65177917480469
              ],
              [
                19.536029815673828,
                41.65177917480469
              ],
              [
                19.781572341918945,
                41.781593322753906
              ],
              [
                20.010595321655273,
                41.586883544921875
              ],
              [
                20.636919021606445,
                41.39224624633789
              ],
              [
                20.955087661743164,
                41.39224624633789
              ],
              [
                21.042020797729492,
                41.521995544433594
              ],
              [
                21.432340621948242,
                41.39224624633789
              ],
              [
                22.386844635009766,
                41.39224624633789
              ],
              [
                22.56715965270996,
                41.71668243408203
              ],
              [
                22.41626739501953,
                41.84651184082031
              ],
              [
                22.433361053466797,
                42.10627746582031
              ],
              [
                22.513214111328125,
                42.10627746582031
              ],
              [
                24.574247360229492,
                41.911441802978516
              ],
              [
                25.19147300720215,
                41.65177917480469
              ],
              [
                26.2325496673584,
                41.71668243408203
              ],
              [
                26.574190139770508,
                41.97637939453125
              ],
              [
                27.064865112304688,
                42.10627746582031
              ],
              [
                27.384279251098633,
                42.10627746582031
              ],
              [
                27.451948165893555,
                41.97637939453125
              ],
              [
                27.93072509765625,
                41.97637939453125
              ],
              [
                27.92448616027832,
                41.911441802978516
              ],
              [
                28.004253387451172,
                41.911441802978516
              ],
              [
                28.052820205688477,
                41.586883544921875
              ],
              [
                28.21833038330078,
                41.65177917480469
              ],
              [
                28.352495193481445,
                41.39224624633789
              ],
              [
                28.975934982299805,
                41.26253128051758
              ],
              [
                29.036151885986328,
                41.06801223754883
              ],
              [
                27.527481079101562,
                41.06801223754883
              ],
              [
                27.017187118530273,
                40.6791877746582
              ],
              [
                26.921367645263672,
                40.4848747253418
              ],
              [
                26.62644386291504,
                40.74397277832031
              ],
              [
                26.140260696411133,
                40.614410400390625
              ],
              [
                26.082168579101562,
                40.873565673828125
              ],
              [
                25.849451065063477,
                40.93837356567383
              ],
              [
                24.34656524658203,
                41.00318908691406
              ],
              [
                24.010608673095703,
                40.74397277832031
              ],
              [
                23.698017120361328,
                40.80876541137695
              ],
              [
                23.684629440307617,
                40.614410400390625
              ],
              [
                23.83857536315918,
                40.54964065551758
              ],
              [
                23.73737335205078,
                40.225894927978516
              ],
              [
                23.11326789855957,
                40.355369567871094
              ],
              [
                23.11745834350586,
                40.42012023925781
              ],
              [
                23.196592330932617,
                40.42012023925781
              ],
              [
                23.209346771240234,
                40.614410400390625
              ],
              [
                23.1301326751709,
                40.614410400390625
              ],
              [
                23.142953872680664,
                40.80876541137695
              ],
              [
                22.5045223236084,
                40.74397277832031
              ],
              [
                22.413206100463867,
                40.54964065551758
              ],
              [
                22.567543029785156,
                40.4848747253418
              ],
              [
                22.563520431518555,
                40.42012023925781
              ],
              [
                22.543659210205078,
                40.0964469909668
              ],
              [
                22.701663970947266,
                40.0964469909668
              ],
              [
                22.610868453979492,
                39.90232849121094
              ],
              [
                23.135168075561523,
                39.449623107910156
              ],
              [
                22.816326141357422,
                39.38497543334961
              ],
              [
                22.797286987304688,
                39.06184005737305
              ],
              [
                22.95830535888672,
                39.1264533996582
              ],
              [
                23.02161979675293,
                38.8680305480957
              ],
              [
                22.943096160888672,
                38.8680305480957
              ],
              [
                22.161396026611328,
                38.93262481689453
              ],
              [
                21.990440368652344,
                38.67427444458008
              ],
              [
                22.055156707763672,
                38.416015625
              ],
              [
                22.13351058959961,
                38.416015625
              ],
              [
                22.28675079345703,
                38.351463317871094
              ],
              [
                22.279848098754883,
                38.22237777709961
              ],
              [
                22.439908981323242,
                38.28691864013672
              ],
              [
                22.432939529418945,
                38.157840728759766
              ],
              [
                22.589460372924805,
                38.157840728759766
              ],
              [
                22.657155990600586,
                37.96426773071289
              ],
              [
                23.051733016967773,
                38.028785705566406
              ],
              [
                23.037315368652344,
                37.7707405090332
              ],
              [
                23.108261108398438,
                37.641746520996094
              ],
              [
                23.342487335205078,
                37.641746520996094
              ],
              [
                23.402393341064453,
                37.3193473815918
              ],
              [
                23.168506622314453,
                37.3193473815918
              ],
              [
                23.101137161254883,
                37.51277160644531
              ],
              [
                22.870534896850586,
                37.5772590637207
              ],
              [
                22.792482376098633,
                37.5772590637207
              ],
              [
                22.71442985534668,
                37.5772590637207
              ],
              [
                22.710987091064453,
                37.51277160644531
              ],
              [
                22.707557678222656,
                37.44829177856445
              ],
              [
                22.700735092163086,
                37.3193473815918
              ],
              [
                22.995285034179688,
                36.9970588684082
              ],
              [
                23.056013107299805,
                36.67487716674805
              ],
              [
                22.83283233642578,
                36.8681755065918
              ]
            ]
          ],
          [
            [
              [
                24.201318740844727,
                37.641746520996094
              ],
              [
                24.28331756591797,
                37.706241607666016
              ],
              [
                24.36141586303711,
                37.706241607666016
              ],
              [
                24.43158721923828,
                37.5772590637207
              ],
              [
                24.27158546447754,
                37.51277160644531
              ],
              [
                24.201318740844727,
                37.641746520996094
              ]
            ]
          ],
          [
            [
              [
                20.621307373046875,
                37.89975357055664
              ],
              [
                20.69947624206543,
                37.89975357055664
              ],
              [
                20.933977127075195,
                37.89975357055664
              ],
              [
                20.922147750854492,
                37.641746520996094
              ],
              [
                20.612695693969727,
                37.706241607666016
              ],
              [
                20.621307373046875,
                37.89975357055664
              ]
            ]
          ],
          [
            [
              [
                24.681930541992188,
                37.835243225097656
              ],
              [
                24.694225311279297,
                38.028785705566406
              ],
              [
                24.772438049316406,
                38.028785705566406
              ],
              [
                25.068470001220703,
                37.7707405090332
              ],
              [
                24.830005645751953,
                37.706241607666016
              ],
              [
                24.681930541992188,
                37.835243225097656
              ]
            ]
          ],
          [
            [
              [
                20.328466415405273,
                38.351463317871094
              ],
              [
                20.488054275512695,
                38.416015625
              ],
              [
                20.566410064697266,
                38.416015625
              ],
              [
                20.795446395874023,
                38.28691864013672
              ],
              [
                20.7864933013916,
                38.09331130981445
              ],
              [
                20.319902420043945,
                38.157840728759766
              ],
              [
                20.328466415405273,
                38.351463317871094
              ]
            ]
          ],
          [
            [
              [
                24.364974975585938,
                38.997230529785156
              ],
              [
                24.443546295166016,
                38.997230529785156
              ],
              [
                24.674930572509766,
                38.93262481689453
              ],
              [
                24.662033081054688,
                38.738853454589844
              ],
              [
                24.35651969909668,
                38.8680305480957
              ],
              [
                24.364974975585938,
                38.997230529785156
              ]
            ]
          ],
          [
            [
              [
                20.073074340820312,
                39.64360046386719
              ],
              [
                20.151897430419922,
                39.64360046386719
              ],
              [
                20.148855209350586,
                39.57893371582031
              ],
              [
                20.070056915283203,
                39.57893371582031
              ],
              [
                20.073074340820312,
                39.64360046386719
              ]
            ]
          ],
          [
            [
              [
                25.066978454589844,
                40.031734466552734
              ],
              [
                25.145954132080078,
                40.031734466552734
              ],
              [
                25.46186065673828,
                40.031734466552734
              ],
              [
                25.447328567504883,
                39.8376350402832
              ],
              [
                24.973936080932617,
                39.8376350402832
              ],
              [
                25.066978454589844,
                40.031734466552734
              ]
            ]
          ],
          [
            [
              [
                24.551259994506836,
                40.54964065551758
              ],
              [
                24.490964889526367,
                40.80876541137695
              ],
              [
                24.57025909423828,
                40.80876541137695
              ],
              [
                24.808143615722656,
                40.80876541137695
              ],
              [
                24.793624877929688,
                40.614410400390625
              ],
              [
                24.551259994506836,
                40.54964065551758
              ]
            ]
          ],
          [
            [
              [
                25.339021682739258,
                37.12596130371094
              ],
              [
                25.416915893554688,
                37.12596130371094
              ],
              [
                25.57270622253418,
                37.12596130371094
              ],
              [
                25.56435775756836,
                36.9970588684082
              ],
              [
                25.330806732177734,
                36.9970588684082
              ],
              [
                25.339021682739258,
                37.12596130371094
              ]
            ]
          ],
          [
            [
              [
                26.55739402770996,
                37.835243225097656
              ],
              [
                26.635540008544922,
                37.835243225097656
              ],
              [
                27.026260375976562,
                37.835243225097656
              ],
              [
                27.012035369873047,
                37.641746520996094
              ],
              [
                26.62165641784668,
                37.641746520996094
              ],
              [
                26.55739402770996,
                37.835243225097656
              ]
            ]
          ],
          [
            [
              [
                25.876405715942383,
                38.157840728759766
              ],
              [
                25.89913558959961,
                38.48057174682617
              ],
              [
                25.820756912231445,
                38.48057174682617
              ],
              [
                25.912982940673828,
                38.67427444458008
              ],
              [
                25.99143409729004,
                38.67427444458008
              ],
              [
                26.217344284057617,
                38.54513168334961
              ],
              [
                26.111188888549805,
                38.157840728759766
              ],
              [
                25.876405715942383,
                38.157840728759766
              ]
            ]
          ],
          [
            [
              [
                26.09356689453125,
                38.997230529785156
              ],
              [
                26.103172302246094,
                39.1264533996582
              ],
              [
                25.793418884277344,
                39.19107437133789
              ],
              [
                26.043895721435547,
                39.38497543334961
              ],
              [
                26.122615814208984,
                39.38497543334961
              ],
              [
                26.511207580566406,
                39.320335388183594
              ],
              [
                26.643573760986328,
                38.997230529785156
              ],
              [
                26.24588966369629,
                38.93262481689453
              ],
              [
                26.09356689453125,
                38.997230529785156
              ]
            ]
          ],
          [
            [
              [
                25.718765258789062,
                40.29063034057617
              ],
              [
                25.7978458404541,
                40.29063034057617
              ],
              [
                26.03508949279785,
                40.29063034057617
              ],
              [
                26.024850845336914,
                40.16116714477539
              ],
              [
                25.703752517700195,
                40.0964469909668
              ],
              [
                25.718765258789062,
                40.29063034057617
              ]
            ]
          ],
          [
            [
              [
                26.673099517822266,
                40.355369567871094
              ],
              [
                26.25676918029785,
                40.0964469909668
              ],
              [
                26.26193618774414,
                40.16116714477539
              ],
              [
                26.26712417602539,
                40.225894927978516
              ],
              [
                26.2723331451416,
                40.29063034057617
              ],
              [
                26.35141372680664,
                40.29063034057617
              ],
              [
                26.356670379638672,
                40.355369567871094
              ],
              [
                26.604726791381836,
                40.4848747253418
              ],
              [
                26.678482055664062,
                40.42012023925781
              ],
              [
                26.673099517822266,
                40.355369567871094
              ]
            ]
          ],
          [
            [
              [
                41.25373458862305,
                41.00318908691406
              ],
              [
                41.17435836791992,
                41.00318908691406
              ],
              [
                41.18492889404297,
                41.06801223754883
              ],
              [
                41.26433181762695,
                41.06801223754883
              ],
              [
                41.25373458862305,
                41.00318908691406
              ]
            ]
          ],
          [
            [
              [
                41.34373474121094,
                41.06801223754883
              ],
              [
                41.26433181762695,
                41.06801223754883
              ],
              [
                41.274967193603516,
                41.132843017578125
              ],
              [
                41.35439682006836,
                41.132843017578125
              ],
              [
                41.34373474121094,
                41.06801223754883
              ]
            ]
          ],
          [
            [
              [
                29.59857177734375,
                41.132843017578125
              ],
              [
                29.678003311157227,
                41.132843017578125
              ],
              [
                29.757434844970703,
                41.132843017578125
              ],
              [
                29.76410675048828,
                41.19768524169922
              ],
              [
                29.843564987182617,
                41.19768524169922
              ],
              [
                29.830188751220703,
                41.06801223754883
              ],
              [
                29.585407257080078,
                41.00318908691406
              ],
              [
                29.201416015625,
                41.132843017578125
              ],
              [
                29.20789337158203,
                41.19768524169922
              ],
              [
                29.287353515625,
                41.19768524169922
              ],
              [
                29.366811752319336,
                41.19768524169922
              ],
              [
                29.446269989013672,
                41.19768524169922
              ],
              [
                29.52573013305664,
                41.19768524169922
              ],
              [
                29.605188369750977,
                41.19768524169922
              ],
              [
                29.59857177734375,
                41.132843017578125
              ]
            ]
          ],
          [
            [
              [
                31.425491333007812,
                41.132843017578125
              ],
              [
                31.259456634521484,
                41.06801223754883
              ],
              [
                31.526826858520508,
                41.32738494873047
              ],
              [
                31.50492286682129,
                41.132843017578125
              ],
              [
                31.425491333007812,
                41.132843017578125
              ]
            ]
          ],
          [
            [
              [
                31.526826858520508,
                41.32738494873047
              ],
              [
                31.534175872802734,
                41.39224624633789
              ],
              [
                31.613718032836914,
                41.39224624633789
              ],
              [
                31.606340408325195,
                41.32738494873047
              ],
              [
                31.526826858520508,
                41.32738494873047
              ]
            ]
          ]
        ]
      }
    }
  ]
}
