{"type": "FeatureCollection", "features": [{"type": "Feature", "properties": {"name": "Wusun", "displayYear": 25, "fromYear": 14, "toYear": 59, "wikipedia": "Wusun", "seshatId": "", "areaKm2": 185278.6742694198, "source": "Seshat Cliopatria"}, "geometry": {"type": "Polygon", "coordinates": [[[77.71977996826172, 46.283294677734375], [77.61009979248047, 46.414546966552734], [77.36439514160156, 46.414546966552734], [77.39138793945312, 46.480194091796875], [75.50687408447266, 46.480194091796875], [75.53316497802734, 46.54585266113281], [74.88140106201172, 46.348915100097656], [74.7525863647461, 46.02093505859375], [74.3186264038086, 45.95537567138672], [74.1169662475586, 45.431331634521484], [74.25473022460938, 45.36587905883789], [74.13007354736328, 45.03877639770508], [73.96763610839844, 45.03877639770508], [73.97464752197266, 44.842647552490234], [74.24962615966797, 44.71194839477539], [74.28126525878906, 44.58129119873047], [74.44326782226562, 44.58129119873047], [74.56269836425781, 44.25482940673828], [74.99827575683594, 44.12431716918945], [74.7947998046875, 43.79821014404297], [75.20498657226562, 43.6026611328125], [75.13961791992188, 43.211830139160156], [75.38846588134766, 43.016544342041016], [75.76555633544922, 42.95146560668945], [75.87763214111328, 42.82133865356445], [75.70149993896484, 42.56119155883789], [75.81388854980469, 42.43117141723633], [76.15782928466797, 42.496177673339844], [76.14231872558594, 42.236209869384766], [76.27835845947266, 42.17123794555664], [76.10411071777344, 41.911441802978516], [76.79833984375, 41.84651184082031], [76.56839752197266, 41.65177917480469], [76.8635482788086, 41.586883544921875], [76.81683349609375, 41.45711898803711], [77.87493133544922, 41.521995544433594], [78.92047119140625, 41.97637939453125], [80.08317565917969, 42.30118942260742], [80.13379669189453, 42.43117141723633], [80.21379852294922, 42.43117141723633], [80.28723907470703, 42.82133865356445], [80.47344207763672, 42.88639831542969], [80.47109985351562, 43.08163070678711], [80.63168334960938, 43.08163070678711], [80.79065704345703, 43.276947021484375], [80.68252563476562, 43.407203674316406], [80.73538970947266, 43.53750228881836], [80.35716247558594, 43.99384307861328], [80.38319396972656, 44.45067596435547], [80.30226135253906, 44.45067596435547], [80.41033935546875, 44.71194839477539], [79.97791290283203, 44.842647552490234], [80.00495147705078, 44.908016204833984], [79.51801300048828, 44.908016204833984], [79.54490661621094, 44.973392486572266], [78.56915283203125, 45.169586181640625], [78.35040283203125, 45.431331634521484], [77.99649810791016, 45.56227111816406], [78.02180480957031, 45.82429504394531], [77.83050537109375, 45.95537567138672], [77.8016128540039, 46.283294677734375], [77.71977996826172, 46.283294677734375]], [[77.31682586669922, 42.17123794555664], [76.99729919433594, 42.17123794555664], [76.50984191894531, 42.36617660522461], [76.52626037597656, 42.62621307373047], [78.65859985351562, 42.75628662109375], [78.58354949951172, 42.56119155883789], [78.0357666015625, 42.17123794555664], [77.29273223876953, 42.10627746582031], [77.31682586669922, 42.17123794555664]]]}}]}