{
  "type": "FeatureCollection",
  "features": [
    {
      "type": "Feature",
      "properties": {
        "Name": "Taifa of Badajoz",
        "FromYear": 1040,
        "ToYear": 1055,
        "Area": 100750.51847799281,
        "Type": "POLITY",
        "Wikipedia": "Taifa of Badajoz",
        "Wikidata": "Q276841",
        "SeshatID": "es_taifas",
        "Components": "",
        "MemberOf": "(Taifas of Iberia)",
        "displayYear": 1044,
        "sourceYear": 1044,
        "mappedTerritoryId": "cliopatria_taifa_of_badajoz"
      },
      "geometry": {
        "type": "Polygon",
        "coordinates": [
          [
            [
              -8.03831672668457,
              37.5772590637207
            ],
            [
              -8.11637020111084,
              37.5772590637207
            ],
            [
              -8.121922492980957,
              37.641746520996094
            ],
            [
              -8.12749195098877,
              37.706241607666016
            ],
            [
              -8.133078575134277,
              37.7707405090332
            ],
            [
              -8.853657722473145,
              37.96426773071289
            ],
            [
              -8.85952377319336,
              38.028785705566406
            ],
            [
              -8.822718620300293,
              38.48057174682617
            ],
            [
              -9.20852279663086,
              38.416015625
            ],
            [
              -9.23299789428711,
              38.67427444458008
            ],
            [
              -9.31144905090332,
              38.67427444458008
            ],
            [
              -9.305276870727539,
              38.60969924926758
            ],
            [
              -9.553065299987793,
              38.738853454589844
            ],
            [
              -9.571974754333496,
              38.93262481689453
            ],
            [
              -9.42748737335205,
              39.06184005737305
            ],
            [
              -9.387048721313477,
              39.449623107910156
            ],
            [
              -9.157164573669434,
              39.51427459716797
            ],
            [
              -9.103915214538574,
              39.77294921875
            ],
            [
              -9.025042533874512,
              39.77294921875
            ],
            [
              -8.925222396850586,
              40.355369567871094
            ],
            [
              -8.846114158630371,
              40.355369567871094
            ],
            [
              -8.872282981872559,
              40.614410400390625
            ],
            [
              -8.72695255279541,
              40.74397277832031
            ],
            [
              -8.73353099822998,
              40.80876541137695
            ],
            [
              -8.25776195526123,
              40.80876541137695
            ],
            [
              -7.873907566070557,
              40.93837356567383
            ],
            [
              -7.23301362991333,
              40.873565673828125
            ],
            [
              -7.220865726470947,
              40.74397277832031
            ],
            [
              -6.886032104492188,
              40.54964065551758
            ],
            [
              -6.789322853088379,
              40.355369567871094
            ],
            [
              -6.472893238067627,
              40.355369567871094
            ],
            [
              -6.405184268951416,
              40.4848747253418
            ],
            [
              -6.094161033630371,
              40.54964065551758
            ],
            [
              -5.913626670837402,
              40.29063034057617
            ],
            [
              -5.602712154388428,
              40.355369567871094
            ],
            [
              -5.333653450012207,
              39.9670295715332
            ],
            [
              -5.47575044631958,
              39.77294921875
            ],
            [
              -5.449734210968018,
              39.449623107910156
            ],
            [
              -5.21859073638916,
              39.51427459716797
            ],
            [
              -5.035975933074951,
              39.19107437133789
            ],
            [
              -4.637899398803711,
              39.1264533996582
            ],
            [
              -4.751762390136719,
              38.54513168334961
            ],
            [
              -5.060531139373779,
              38.48057174682617
            ],
            [
              -5.281014919281006,
              38.28691864013672
            ],
            [
              -5.442546844482422,
              38.351463317871094
            ],
            [
              -5.824149131774902,
              38.22237777709961
            ],
            [
              -7.154979228973389,
              38.22237777709961
            ],
            [
              -6.904176712036133,
              38.028785705566406
            ],
            [
              -7.034115314483643,
              37.706241607666016
            ],
            [
              -7.58622932434082,
              37.7707405090332
            ],
            [
              -7.731544971466064,
              37.641746520996094
            ],
            [
              -7.715279579162598,
              37.44829177856445
            ],
            [
              -7.793286800384521,
              37.44829177856445
            ],
            [
              -7.871294498443604,
              37.44829177856445
            ],
            [
              -7.949301719665527,
              37.44829177856445
            ],
            [
              -7.943845272064209,
              37.38381576538086
            ],
            [
              -8.021829605102539,
              37.38381576538086
            ],
            [
              -8.027308464050293,
              37.44829177856445
            ],
            [
              -8.032804489135742,
              37.51277160644531
            ],
            [
              -8.03831672668457,
              37.5772590637207
            ]
          ],
          [
            [
              -9.082215309143066,
              38.738853454589844
            ],
            [
              -9.080175296217293,
              38.71732266978909
            ],
            [
              -9.003740310668945,
              38.738853454589844
            ],
            [
              -9.009854316711426,
              38.80344009399414
            ],
            [
              -9.088353157043457,
              38.80344009399414
            ],
            [
              -9.082215309143066,
              38.738853454589844
            ]
          ]
        ]
      }
    }
  ]
}
