{
  "type": "FeatureCollection",
  "features": [
    {
      "type": "Feature",
      "properties": {
        "Name": "Ahmadnagar Sultanate",
        "FromYear": 1579,
        "ToYear": 1599,
        "Area": 152748.57818555963,
        "Type": "POLITY",
        "Wikipedia": "Ahmadnagar Sultanate",
        "Wikidata": "Q400998",
        "SeshatID": "in_ahmadnagar_sultanate",
        "Components": "",
        "MemberOf": "",
        "displayYear": 1581,
        "sourceYear": 1581,
        "mappedTerritoryId": "cliopatria_ahmadnagar_sultanate"
      },
      "geometry": {
        "type": "Polygon",
        "coordinates": [
          [
            [
              78.79071807861328,
              20.53624725341797
            ],
            [
              78.8800048828125,
              20.664819717407227
            ],
            [
              78.68013763427734,
              20.857677459716797
            ],
            [
              78.70286560058594,
              21.050535202026367
            ],
            [
              78.51814270019531,
              21.371967315673828
            ],
            [
              78.52577209472656,
              21.43625259399414
            ],
            [
              78.18487548828125,
              21.693397521972656
            ],
            [
              77.74663543701172,
              21.7576847076416
            ],
            [
              76.69121551513672,
              21.629112243652344
            ],
            [
              76.34231567382812,
              21.179107666015625
            ],
            [
              75.87503051757812,
              20.986249923706055
            ],
            [
              75.86776733398438,
              20.921964645385742
            ],
            [
              75.21673583984375,
              20.40767478942871
            ],
            [
              74.37996673583984,
              20.214815139770508
            ],
            [
              73.86113739013672,
              20.214815139770508
            ],
            [
              73.32144927978516,
              20.021955490112305
            ],
            [
              72.9696273803711,
              19.507661819458008
            ],
            [
              72.74063110351562,
              19.443374633789062
            ],
            [
              72.80081939697266,
              19.314802169799805
            ],
            [
              72.87482452392578,
              19.314802169799805
            ],
            [
              73.10379028320312,
              19.379087448120117
            ],
            [
              73.08295440673828,
              19.186227798461914
            ],
            [
              73.07601165771484,
              19.12194061279297
            ],
            [
              72.91421508789062,
              18.993366241455078
            ],
            [
              72.93983459472656,
              18.543354034423828
            ],
            [
              72.93295288085938,
              18.479066848754883
            ],
            [
              73.1546630859375,
              18.479066848754883
            ],
            [
              73.1684799194336,
              18.607641220092773
            ],
            [
              73.32324981689453,
              18.67193031311035
            ],
            [
              74.21739196777344,
              18.736217498779297
            ],
            [
              75.15000915527344,
              18.479066848754883
            ],
            [
              75.63158416748047,
              18.157629013061523
            ],
            [
              76.54688262939453,
              18.414779663085938
            ],
            [
              76.50204467773438,
              18.67193031311035
            ],
            [
              76.2426528930664,
              18.993366241455078
            ],
            [
              76.43439483642578,
              19.379087448120117
            ],
            [
              76.78976440429688,
              19.25051498413086
            ],
            [
              77.08575439453125,
              19.25051498413086
            ],
            [
              77.24854278564453,
              19.379087448120117
            ],
            [
              77.97372436523438,
              19.25051498413086
            ],
            [
              78.4327621459961,
              19.379087448120117
            ],
            [
              79.24691009521484,
              19.379087448120117
            ],
            [
              79.30567932128906,
              19.25051498413086
            ],
            [
              79.80831146240234,
              19.12194061279297
            ],
            [
              79.99952697753906,
              18.864791870117188
            ],
            [
              80.36156463623047,
              18.800504684448242
            ],
            [
              80.36927032470703,
              18.864791870117188
            ],
            [
              80.69203186035156,
              19.700523376464844
            ],
            [
              80.47761535644531,
              19.764808654785156
            ],
            [
              80.31402587890625,
              19.6362361907959
            ],
            [
              79.79570770263672,
              19.6362361907959
            ],
            [
              79.51481628417969,
              19.764808654785156
            ],
            [
              79.54537963867188,
              20.021955490112305
            ],
            [
              78.7378921508789,
              20.08624267578125
            ],
            [
              78.84976196289062,
              20.40767478942871
            ],
            [
              78.78316497802734,
              20.471960067749023
            ],
            [
              78.79071807861328,
              20.53624725341797
            ]
          ]
        ]
      }
    }
  ]
}
