{
  "type": "FeatureCollection",
  "features": [
    {
      "type": "Feature",
      "properties": {
        "Name": "Principality of Polotsky",
        "FromYear": 1085,
        "ToYear": 1110,
        "Area": 133004.84011106318,
        "Type": "POLITY",
        "Wikipedia": "Polotsk",
        "Wikidata": "Q200797",
        "SeshatID": "",
        "Components": "",
        "MemberOf": "",
        "displayYear": 1085,
        "sourceYear": 1085,
        "mappedTerritoryId": "cliopatria_principality_of_polotsky"
      },
      "geometry": {
        "type": "MultiPolygon",
        "coordinates": [
          [
            [
              [
                30.472759246826172,
                56.387733459472656
              ],
              [
                30.512462615966797,
                56.11355972290039
              ],
              [
                30.67628288269043,
                56.04508590698242
              ],
              [
                30.6521053314209,
                55.90821838378906
              ],
              [
                30.803510665893555,
                55.77145767211914
              ],
              [
                30.767396926879883,
                55.56651306152344
              ],
              [
                30.93046760559082,
                55.498252868652344
              ],
              [
                30.882522583007812,
                55.225467681884766
              ],
              [
                30.96984100341797,
                55.225467681884766
              ],
              [
                30.811620712280273,
                54.817054748535156
              ],
              [
                30.406360626220703,
                54.47740173339844
              ],
              [
                30.481754302978516,
                54.4095458984375
              ],
              [
                30.39191436767578,
                53.86756134033203
              ],
              [
                29.960405349731445,
                53.32708740234375
              ],
              [
                29.7674617767334,
                53.192195892333984
              ],
              [
                29.50982666015625,
                53.192195892333984
              ],
              [
                26.88346290588379,
                53.462066650390625
              ],
              [
                26.521591186523438,
                53.32708740234375
              ],
              [
                25.74785804748535,
                53.32708740234375
              ],
              [
                25.281047821044922,
                53.732303619384766
              ],
              [
                25.297597885131836,
                53.86756134033203
              ],
              [
                25.141374588012695,
                54.00291442871094
              ],
              [
                24.725271224975586,
                54.138362884521484
              ],
              [
                24.741464614868164,
                54.27390670776367
              ],
              [
                24.58430290222168,
                54.4095458984375
              ],
              [
                24.592388153076172,
                54.47740173339844
              ],
              [
                26.332679748535156,
                55.15733337402344
              ],
              [
                26.457515716552734,
                55.430015563964844
              ],
              [
                26.370046615600586,
                55.430015563964844
              ],
              [
                26.398353576660156,
                55.63479995727539
              ],
              [
                26.495513916015625,
                55.70311737060547
              ],
              [
                25.997344970703125,
                55.90821838378906
              ],
              [
                26.191911697387695,
                56.04508590698242
              ],
              [
                25.710533142089844,
                56.387733459472656
              ],
              [
                25.41864013671875,
                56.182064056396484
              ],
              [
                24.97847557067871,
                56.182064056396484
              ],
              [
                24.82863998413086,
                56.387733459472656
              ],
              [
                24.65226173400879,
                56.387733459472656
              ],
              [
                24.5987606048584,
                56.662349700927734
              ],
              [
                24.69594955444336,
                56.731075286865234
              ],
              [
                24.616254806518555,
                56.799827575683594
              ],
              [
                24.899688720703125,
                56.937416076660156
              ],
              [
                24.828983306884766,
                57.07511901855469
              ],
              [
                25.27259063720703,
                57.07511901855469
              ],
              [
                25.389339447021484,
                57.28189468383789
              ],
              [
                26.110240936279297,
                57.35087585449219
              ],
              [
                26.3670597076416,
                57.28189468383789
              ],
              [
                26.34715461730957,
                57.14401626586914
              ],
              [
                27.480037689208984,
                57.00625228881836
              ],
              [
                27.568706512451172,
                57.00625228881836
              ],
              [
                27.72464370727539,
                56.86860656738281
              ],
              [
                28.267009735107422,
                56.937416076660156
              ],
              [
                28.377832412719727,
                57.07511901855469
              ],
              [
                29.418987274169922,
                56.937416076660156
              ],
              [
                29.749645233154297,
                56.799827575683594
              ],
              [
                30.108091354370117,
                56.319149017333984
              ],
              [
                30.472759246826172,
                56.387733459472656
              ]
            ]
          ],
          [
            [
              [
                24.81107521057129,
                56.937416076660156
              ],
              [
                24.722461700439453,
                56.937416076660156
              ],
              [
                24.73134994506836,
                57.00625228881836
              ],
              [
                24.820016860961914,
                57.00625228881836
              ],
              [
                24.81107521057129,
                56.937416076660156
              ]
            ]
          ]
        ]
      }
    }
  ]
}
