{
  "type": "FeatureCollection",
  "features": [
    {
      "type": "Feature",
      "properties": {
        "Name": "Principality of Bulgaria",
        "FromYear": 1920,
        "ToYear": 1923,
        "Area": 101645.97226462219,
        "Type": "POLITY",
        "Wikipedia": "Principality of Bulgaria",
        "Wikidata": "Q815731",
        "SeshatID": "",
        "Components": "",
        "MemberOf": "",
        "displayYear": 1921,
        "sourceYear": 1921,
        "mappedTerritoryId": "cliopatria_principality_of_bulgaria"
      },
      "geometry": {
        "type": "MultiPolygon",
        "coordinates": [
          [
            [
              [
                27.80489730834961,
                43.146724700927734
              ],
              [
                27.84662628173828,
                42.75628662109375
              ],
              [
                27.513538360595703,
                42.62621307373047
              ],
              [
                27.494890213012695,
                42.43117141723633
              ],
              [
                27.936981201171875,
                42.041324615478516
              ],
              [
                27.93072509765625,
                41.97637939453125
              ],
              [
                27.451948165893555,
                41.97637939453125
              ],
              [
                27.384279251098633,
                42.10627746582031
              ],
              [
                27.064865112304688,
                42.10627746582031
              ],
              [
                26.574190139770508,
                41.97637939453125
              ],
              [
                26.397560119628906,
                41.781593322753906
              ],
              [
                26.073184967041016,
                41.71668243408203
              ],
              [
                26.12531852722168,
                41.39224624633789
              ],
              [
                25.716989517211914,
                41.26253128051758
              ],
              [
                24.69356346130371,
                41.39224624633789
              ],
              [
                24.54927635192871,
                41.586883544921875
              ],
              [
                24.151145935058594,
                41.586883544921875
              ],
              [
                23.17783546447754,
                41.32738494873047
              ],
              [
                22.94363784790039,
                41.39224624633789
              ],
              [
                22.899127960205078,
                41.911441802978516
              ],
              [
                22.67292022705078,
                42.10627746582031
              ],
              [
                22.513214111328125,
                42.10627746582031
              ],
              [
                22.366365432739258,
                42.30118942260742
              ],
              [
                22.539382934570312,
                42.496177673339844
              ],
              [
                22.481321334838867,
                42.82133865356445
              ],
              [
                22.900545120239258,
                43.08163070678711
              ],
              [
                22.909780502319336,
                43.211830139160156
              ],
              [
                22.373964309692383,
                43.6026611328125
              ],
              [
                22.400911331176758,
                43.99384307861328
              ],
              [
                22.65691566467285,
                44.18956756591797
              ],
              [
                22.894636154174805,
                44.12431716918945
              ],
              [
                22.951791763305664,
                43.79821014404297
              ],
              [
                23.601760864257812,
                43.86341094970703
              ],
              [
                24.15087890625,
                43.6678352355957
              ],
              [
                24.881397247314453,
                43.73301696777344
              ],
              [
                25.353763580322266,
                43.6026611328125
              ],
              [
                25.84855079650879,
                43.73301696777344
              ],
              [
                26.113985061645508,
                43.99384307861328
              ],
              [
                26.356142044067383,
                43.99384307861328
              ],
              [
                26.660621643066406,
                43.79821014404297
              ],
              [
                27.218685150146484,
                43.73301696777344
              ],
              [
                27.360790252685547,
                43.53750228881836
              ],
              [
                27.682809829711914,
                43.53750228881836
              ],
              [
                27.750347137451172,
                43.407203674316406
              ],
              [
                28.06553840637207,
                43.342071533203125
              ],
              [
                27.985124588012695,
                43.342071533203125
              ],
              [
                27.80489730834961,
                43.146724700927734
              ]
            ]
          ],
          [
            [
              [
                28.139352798461914,
                43.276947021484375
              ],
              [
                28.05896759033203,
                43.276947021484375
              ],
              [
                28.06553840637207,
                43.342071533203125
              ],
              [
                28.145952224731445,
                43.342071533203125
              ],
              [
                28.139352798461914,
                43.276947021484375
              ]
            ]
          ]
        ]
      }
    }
  ]
}
