{
  "type": "FeatureCollection",
  "features": [
    {
      "type": "Feature",
      "properties": {
        "Name": "Gurjara-Pratihara Dynasty",
        "FromYear": 947,
        "ToYear": 959,
        "Area": 323732.89986266935,
        "Type": "POLITY",
        "Wikipedia": "Gurjara-Pratihara dynasty",
        "Wikidata": "Q5324",
        "SeshatID": "in_gurjara_pratihara_dyn",
        "Components": "",
        "MemberOf": "",
        "displayYear": 951,
        "sourceYear": 951,
        "mappedTerritoryId": "cliopatria_gurjara_pratihara_dynasty"
      },
      "geometry": {
        "type": "Polygon",
        "coordinates": [
          [
            [
              70.89169311523438,
              26.450830459594727
            ],
            [
              71.43032836914062,
              27.029460906982422
            ],
            [
              71.46070098876953,
              27.222335815429688
            ],
            [
              71.70687103271484,
              27.35091781616211
            ],
            [
              74.72898864746094,
              27.865236282348633
            ],
            [
              77.44073486328125,
              27.865236282348633
            ],
            [
              77.7185287475586,
              27.736658096313477
            ],
            [
              79.64044952392578,
              27.54378890991211
            ],
            [
              79.75555419921875,
              27.35091781616211
            ],
            [
              79.90599822998047,
              27.35091781616211
            ],
            [
              79.96414184570312,
              26.836584091186523
            ],
            [
              80.03926849365234,
              26.836584091186523
            ],
            [
              79.91986846923828,
              25.67931365966797
            ],
            [
              79.9947738647461,
              25.67931365966797
            ],
            [
              80.01885223388672,
              25.357851028442383
            ],
            [
              79.7066879272461,
              24.779226303100586
            ],
            [
              79.463623046875,
              24.650644302368164
            ],
            [
              79.44503784179688,
              24.522062301635742
            ],
            [
              78.8947525024414,
              24.329193115234375
            ],
            [
              75.83267974853516,
              24.329193115234375
            ],
            [
              75.28446960449219,
              24.136323928833008
            ],
            [
              74.68849182128906,
              23.557723999023438
            ],
            [
              74.37169647216797,
              22.143402099609375
            ],
            [
              74.14128875732422,
              22.079116821289062
            ],
            [
              74.10568234696828,
              22.079116821289062
            ],
            [
              74.41652100287708,
              23.005251342110963
            ],
            [
              74.46628626384214,
              23.71338312056818
            ],
            [
              74.36675574191202,
              24.00920868729833
            ],
            [
              73.14750684826822,
              24.22722914551229
            ],
            [
              73.06290590462763,
              24.888073561049865
            ],
            [
              72.45079319475748,
              25.52294839133567
            ],
            [
              72.2318260465113,
              25.913016639400006
            ],
            [
              71.37088703181587,
              24.607866694082784
            ],
            [
              71.08462596689648,
              24.58267316991605
            ],
            [
              71.08509063720703,
              24.586353302001953
            ],
            [
              71.10973358154297,
              24.779226303100586
            ],
            [
              70.78622436523438,
              25.164974212646484
            ],
            [
              70.69733428955078,
              25.615020751953125
            ],
            [
              70.27718549387824,
              25.743606567382812
            ],
            [
              70.8822021484375,
              26.386537551879883
            ],
            [
              70.89169311523438,
              26.450830459594727
            ]
          ]
        ]
      }
    }
  ]
}
