{"type": "FeatureCollection", "features": [{"type": "Feature", "properties": {"name": "Emirate of Jabal Shammar", "displayYear": 1920, "fromYear": 1920, "toYear": 1921, "wikipedia": "Emirate of Jabal Shammar", "seshatId": "", "areaKm2": 244390.5431151028, "source": "Seshat Cliopatria"}, "geometry": {"type": "MultiPolygon", "coordinates": [[[[41.44991683959961, 30.500701904296875], [42.10071563720703, 30.179353713989258], [42.447715759277344, 29.857990264892578], [42.59925842285156, 29.857990264892578], [42.87034606933594, 29.536611557006836], [43.02173614501953, 29.536611557006836], [44.05558776855469, 28.508106231689453], [44.366641998291016, 27.800947189331055], [44.36079406738281, 27.736658096313477], [43.90899658203125, 27.736658096313477], [43.5908203125, 27.54378890991211], [43.47163391113281, 27.029460906982422], [43.2408332824707, 26.96516990661621], [43.144710540771484, 26.70800018310547], [42.354087829589844, 26.19365882873535], [41.78725051879883, 25.615020751953125], [41.24973678588867, 25.422143936157227], [41.223960876464844, 25.03639030456543], [40.916465759277344, 24.907808303833008], [40.61735534667969, 24.907808303833008], [40.401180267333984, 25.03639030456543], [40.4094352722168, 25.164974212646484], [40.263938903808594, 25.229267120361328], [40.27651596069336, 25.422143936157227], [40.12678909301758, 25.422143936157227], [40.099609375, 26.129364013671875], [39.883567810058594, 26.257951736450195], [39.915592193603516, 26.70800018310547], [40.16952896118164, 27.093751907348633], [39.80815505981445, 27.2866268157959], [39.75751495361328, 27.608078002929688], [39.54661560058594, 27.800947189331055], [38.22005081176758, 28.186676025390625], [37.958133697509766, 28.700960159301758], [37.81216049194336, 28.765243530273438], [37.82230758666992, 28.893810272216797], [37.67628860473633, 28.958093643188477], [37.23020553588867, 29.986536026000977], [37.306007385253906, 29.986536026000977], [37.68501663208008, 29.986536026000977], [37.84764862060547, 30.115081787109375], [38.46569061279297, 30.243623733520508], [38.746116638183594, 30.822044372558594], [39.06229019165039, 30.950578689575195], [38.998451232910156, 31.079113006591797], [39.45489501953125, 31.079113006591797], [40.33598327636719, 30.757776260375977], [41.08945846557617, 30.69350814819336], [41.152587890625, 30.564971923828125], [41.37398910522461, 30.500701904296875], [41.44991683959961, 30.500701904296875]]], [[[38.91020584106445, 30.950578689575195], [38.83416748046875, 30.950578689575195], [38.8402214050293, 31.014846801757812], [38.91627883911133, 31.014846801757812], [38.91020584106445, 30.950578689575195]]]]}}]}