{
  "type": "FeatureCollection",
  "features": [
    {
      "type": "Feature",
      "properties": {
        "Name": "Khmer Empire",
        "FromYear": 875,
        "ToYear": 1027,
        "Area": 397553.16538030736,
        "Type": "POLITY",
        "Wikipedia": "Khmer Empire",
        "Wikidata": "Q201705",
        "SeshatID": "kh_angkor_1",
        "Components": "",
        "MemberOf": "",
        "displayYear": 881,
        "sourceYear": 881,
        "mappedTerritoryId": "cliopatria_khmer_empire"
      },
      "geometry": {
        "type": "MultiPolygon",
        "coordinates": [
          [
            [
              [
                103.9781494140625,
                10.443102836608887
              ],
              [
                104.12442779541016,
                10.443102836608887
              ],
              [
                104.0897445678711,
                10.057377815246582
              ],
              [
                103.94351959228516,
                10.057377815246582
              ],
              [
                103.81444549560547,
                10.250240325927734
              ],
              [
                103.90501403808594,
                10.443102836608887
              ],
              [
                103.9781494140625,
                10.443102836608887
              ]
            ]
          ],
          [
            [
              [
                107.69268798828125,
                15.328963279724121
              ],
              [
                107.57395935058594,
                15.007523536682129
              ],
              [
                107.60345458984375,
                14.686083793640137
              ],
              [
                107.42219543457031,
                14.428933143615723
              ],
              [
                107.38037109375,
                14.107494354248047
              ],
              [
                107.66691589355469,
                13.464617729187012
              ],
              [
                107.5248031616211,
                12.886029243469238
              ],
              [
                107.64191436767578,
                12.628878593444824
              ],
              [
                107.5397720336914,
                12.37172794342041
              ],
              [
                107.08599853515625,
                12.24315357208252
              ],
              [
                106.84535217285156,
                12.050291061401367
              ],
              [
                106.87786865234375,
                11.664566040039062
              ],
              [
                107.05804443359375,
                11.278841018676758
              ],
              [
                107.03242492675781,
                11.021690368652344
              ],
              [
                107.10559844970703,
                11.021690368652344
              ],
              [
                107.07432556152344,
                10.7002534866333
              ],
              [
                107.00117492675781,
                10.7002534866333
              ],
              [
                106.98281860351562,
                10.507390975952148
              ],
              [
                106.75736236572266,
                10.443102836608887
              ],
              [
                106.81851196289062,
                10.314528465270996
              ],
              [
                106.66631317138672,
                10.250240325927734
              ],
              [
                106.80664825439453,
                10.185953140258789
              ],
              [
                106.79491424560547,
                10.057377815246582
              ],
              [
                106.64287567138672,
                9.993090629577637
              ],
              [
                106.69871520996094,
                9.800228118896484
              ],
              [
                106.55252075195312,
                9.800228118896484
              ],
              [
                106.60304260253906,
                9.543078422546387
              ],
              [
                106.2320785522461,
                9.478790283203125
              ],
              [
                106.14253997802734,
                9.285927772521973
              ],
              [
                105.62030029296875,
                9.157352447509766
              ],
              [
                105.13510131835938,
                8.578764915466309
              ],
              [
                104.7649154663086,
                8.514476776123047
              ],
              [
                104.7020034790039,
                8.643052101135254
              ],
              [
                104.8582992553711,
                8.771627426147461
              ],
              [
                104.71222686767578,
                8.771627426147461
              ],
              [
                104.7926025390625,
                9.735940933227539
              ],
              [
                105.03448486328125,
                9.993090629577637
              ],
              [
                104.53990173339844,
                10.185953140258789
              ],
              [
                104.4169692993164,
                10.443102836608887
              ],
              [
                104.12442779541016,
                10.443102836608887
              ],
              [
                103.91679382324219,
                10.571678161621094
              ],
              [
                103.54518127441406,
                10.507390975952148
              ],
              [
                103.48978424072266,
                10.7002534866333
              ],
              [
                103.64208221435547,
                10.764540672302246
              ],
              [
                103.59931945800781,
                11.085978507995605
              ],
              [
                103.3554458618164,
                10.828827857971191
              ],
              [
                103.06279754638672,
                10.828827857971191
              ],
              [
                103.05123901367188,
                11.47170352935791
              ],
              [
                102.84432220458984,
                11.6002779006958
              ],
              [
                102.8701400756836,
                11.857428550720215
              ],
              [
                102.7302017211914,
                11.92171573638916
              ],
              [
                102.74337005615234,
                12.050291061401367
              ],
              [
                102.60350799560547,
                12.114578247070312
              ],
              [
                102.44378662109375,
                11.986002922058105
              ],
              [
                102.22405242919922,
                11.986002922058105
              ],
              [
                102.25727081298828,
                12.307440757751465
              ],
              [
                102.11073303222656,
                12.307440757751465
              ],
              [
                101.7783432006836,
                12.628878593444824
              ],
              [
                101.78524780273438,
                12.69316577911377
              ],
              [
                101.81324768066406,
                12.950316429138184
              ],
              [
                101.68081665039062,
                13.07889175415039
              ],
              [
                101.72439575195312,
                13.464617729187012
              ],
              [
                101.96285247802734,
                14.236069679260254
              ],
              [
                101.61150360107422,
                14.364645004272461
              ],
              [
                101.61138153076172,
                14.943235397338867
              ],
              [
                101.48114013671875,
                15.07181167602539
              ],
              [
                101.5324935913086,
                15.457538604736328
              ],
              [
                101.69709014892578,
                15.586114883422852
              ],
              [
                102.21077728271484,
                16.614723205566406
              ],
              [
                102.20140075683594,
                16.550434112548828
              ],
              [
                102.34874725341797,
                16.550434112548828
              ],
              [
                102.25640869140625,
                16.421857833862305
              ],
              [
                102.66126251220703,
                16.16470718383789
              ],
              [
                103.02941131591797,
                16.16470718383789
              ],
              [
                103.2226791381836,
                15.971842765808105
              ],
              [
                103.65515899658203,
                15.907554626464844
              ],
              [
                104.28113555908203,
                16.16470718383789
              ],
              [
                104.2999267578125,
                16.293283462524414
              ],
              [
                104.88909149169922,
                16.293283462524414
              ],
              [
                106.49409484863281,
                16.67901039123535
              ],
              [
                106.56777954101562,
                16.67901039123535
              ],
              [
                106.70530700683594,
                16.614723205566406
              ],
              [
                106.68570709228516,
                16.486146926879883
              ],
              [
                106.97059631347656,
                16.421857833862305
              ],
              [
                107.1527328491211,
                16.16470718383789
              ],
              [
                107.5016098022461,
                16.036130905151367
              ],
              [
                107.29759979248047,
                15.650403022766113
              ],
              [
                107.5639877319336,
                15.457538604736328
              ],
              [
                107.55477142333984,
                15.393251419067383
              ],
              [
                107.69268798828125,
                15.328963279724121
              ]
            ]
          ],
          [
            [
              [
                102.33007049560547,
                16.421857833862305
              ],
              [
                102.33939361572266,
                16.486146926879883
              ],
              [
                102.41305541992188,
                16.486146926879883
              ],
              [
                102.40372467041016,
                16.421857833862305
              ],
              [
                102.33007049560547,
                16.421857833862305
              ]
            ]
          ]
        ]
      }
    }
  ]
}
