{
  "type": "FeatureCollection",
  "features": [
    {
      "type": "Feature",
      "properties": {
        "Name": "Vijayanagara Empire",
        "FromYear": 1492,
        "ToYear": 1501,
        "Area": 528466.072653749,
        "Type": "POLITY",
        "Wikipedia": "Vijayanagara Empire",
        "Wikidata": "Q167639",
        "SeshatID": "in_vijayanagara_emp",
        "Components": "",
        "MemberOf": "",
        "displayYear": 1500,
        "sourceYear": 1500,
        "mappedTerritoryId": "cliopatria_vijayanagara_empire"
      },
      "geometry": {
        "type": "Polygon",
        "coordinates": [
          [
            [
              81.91413116455078,
              17.57904052734375
            ],
            [
              81.53600311279297,
              16.87187385559082
            ],
            [
              81.62456512451172,
              16.35757064819336
            ],
            [
              81.32273864746094,
              16.293283462524414
            ],
            [
              81.11875915527344,
              15.77897834777832
            ],
            [
              80.45646667480469,
              15.77897834777832
            ],
            [
              80.10137939453125,
              15.200387001037598
            ],
            [
              80.19024658203125,
              14.621796607971191
            ],
            [
              80.26371765136719,
              14.621796607971191
            ],
            [
              80.24600982666016,
              13.657480239868164
            ],
            [
              80.16102600097656,
              13.528904914855957
            ],
            [
              80.3077621459961,
              13.528904914855957
            ],
            [
              80.43157196044922,
              13.271754264831543
            ],
            [
              80.30301666259766,
              12.628878593444824
            ],
            [
              79.8844223022461,
              11.986002922058105
            ],
            [
              79.90264892578125,
              10.250240325927734
            ],
            [
              79.3176498413086,
              10.250240325927734
            ],
            [
              79.29590606689453,
              9.928803443908691
            ],
            [
              78.98654174804688,
              9.671652793884277
            ],
            [
              78.95767211914062,
              9.221640586853027
            ],
            [
              78.58833312988281,
              9.157352447509766
            ],
            [
              78.28418731689453,
              8.964489936828613
            ],
            [
              78.1802749633789,
              8.450189590454102
            ],
            [
              77.57392883300781,
              8.06446361541748
            ],
            [
              77.1395492553711,
              8.128751754760742
            ],
            [
              76.72357177734375,
              8.514476776123047
            ],
            [
              76.7310791015625,
              8.643052101135254
            ],
            [
              76.58878326416016,
              8.707340240478516
            ],
            [
              76.53102111816406,
              8.964489936828613
            ],
            [
              76.32349395751953,
              9.157352447509766
            ],
            [
              76.33528137207031,
              9.350214958190918
            ],
            [
              76.19708251953125,
              9.478790283203125
            ],
            [
              76.20915222167969,
              9.671652793884277
            ],
            [
              76.3553237915039,
              9.671652793884277
            ],
            [
              76.36347961425781,
              9.800228118896484
            ],
            [
              76.22138977050781,
              9.86451530456543
            ],
            [
              76.23381042480469,
              10.057377815246582
            ],
            [
              75.90209197998047,
              10.571678161621094
            ],
            [
              75.72676849365234,
              11.214552879333496
            ],
            [
              75.58491516113281,
              11.278841018676758
            ],
            [
              75.3384780883789,
              11.92171573638916
            ],
            [
              75.06465148925781,
              12.178865432739258
            ],
            [
              74.74769592285156,
              12.821741104125977
            ],
            [
              74.66364288330078,
              13.593193054199219
            ],
            [
              74.30680084228516,
              14.55750846862793
            ],
            [
              74.3125991821289,
              14.621796607971191
            ],
            [
              74.55064392089844,
              14.81466007232666
            ],
            [
              74.51935577392578,
              15.26467514038086
            ],
            [
              75.04652404785156,
              15.393251419067383
            ],
            [
              75.3311767578125,
              16.036130905151367
            ],
            [
              75.50479888916016,
              16.293283462524414
            ],
            [
              75.89991760253906,
              16.550434112548828
            ],
            [
              75.91350555419922,
              16.67901039123535
            ],
            [
              76.44308471679688,
              16.807586669921875
            ],
            [
              76.53065490722656,
              16.9361629486084
            ],
            [
              77.6863021850586,
              17.38617706298828
            ],
            [
              77.76007080078125,
              17.38617706298828
            ],
            [
              77.8338394165039,
              17.38617706298828
            ],
            [
              77.90760803222656,
              17.38617706298828
            ],
            [
              77.91483306884766,
              17.450464248657227
            ],
            [
              79.4274673461914,
              17.77190399169922
            ],
            [
              80.2262954711914,
              18.286205291748047
            ],
            [
              80.25688934326172,
              18.543354034423828
            ],
            [
              80.42779541015625,
              18.736217498779297
            ],
            [
              80.5017318725586,
              18.736217498779297
            ],
            [
              80.83272552490234,
              18.414779663085938
            ],
            [
              81.64555358886719,
              18.414779663085938
            ],
            [
              81.62997436523438,
              18.286205291748047
            ],
            [
              81.9098892211914,
              18.157629013061523
            ],
            [
              81.92180633544922,
              17.643327713012695
            ],
            [
              81.91413116455078,
              17.57904052734375
            ]
          ]
        ]
      }
    }
  ]
}
