{
  "type": "FeatureCollection",
  "features": [
    {
      "type": "Feature",
      "properties": {
        "Name": "Kingdom of Italy",
        "FromYear": 936,
        "ToYear": 959,
        "Area": 171837.49069699403,
        "Type": "POLITY",
        "Wikipedia": "Kingdom of Italy",
        "Wikidata": "Q172579",
        "SeshatID": "",
        "Components": "",
        "MemberOf": "",
        "displayYear": 936,
        "sourceYear": 936,
        "mappedTerritoryId": "cliopatria_kingdom_of_italy"
      },
      "geometry": {
        "type": "MultiPolygon",
        "coordinates": [
          [
            [
              [
                14.689077377319336,
                42.17123794555664
              ],
              [
                14.768959999084473,
                42.17123794555664
              ],
              [
                14.76742172241211,
                42.10627746582031
              ],
              [
                14.687567710876465,
                42.10627746582031
              ],
              [
                14.689077377319336,
                42.17123794555664
              ]
            ]
          ],
          [
            [
              [
                9.491888999938965,
                43.016544342041016
              ],
              [
                9.49340534210205,
                42.75628662109375
              ],
              [
                9.5735502243042,
                42.75628662109375
              ],
              [
                9.577608108520508,
                41.97637939453125
              ],
              [
                9.497812271118164,
                41.97637939453125
              ],
              [
                9.49889087677002,
                41.781593322753906
              ],
              [
                9.262411117553711,
                41.39224624633789
              ],
              [
                9.1038236618042,
                41.32738494873047
              ],
              [
                8.783942222595215,
                41.521995544433594
              ],
              [
                8.782108306884766,
                41.71668243408203
              ],
              [
                8.622743606567383,
                41.71668243408203
              ],
              [
                8.700496673583984,
                41.911441802978516
              ],
              [
                8.538846015930176,
                42.10627746582031
              ],
              [
                8.534564018249512,
                42.496177673339844
              ],
              [
                8.772740364074707,
                42.691246032714844
              ],
              [
                9.17282485961914,
                42.75628662109375
              ],
              [
                9.251097679138184,
                43.016544342041016
              ],
              [
                9.331360816955566,
                43.016544342041016
              ],
              [
                9.491888999938965,
                43.016544342041016
              ]
            ]
          ],
          [
            [
              [
                10.45510196685791,
                42.88639831542969
              ],
              [
                10.455166816711426,
                42.691246032714844
              ],
              [
                10.21481990814209,
                42.691246032714844
              ],
              [
                10.134284973144531,
                42.88639831542969
              ],
              [
                10.214488983154297,
                42.88639831542969
              ],
              [
                10.45510196685791,
                42.88639831542969
              ]
            ]
          ],
          [
            [
              [
                14.189410209655762,
                45.03877639770508
              ],
              [
                14.026969909667969,
                45.03877639770508
              ],
              [
                13.945749282836914,
                45.03877639770508
              ],
              [
                13.628785133361816,
                45.496795654296875
              ],
              [
                13.710229873657227,
                45.496795654296875
              ],
              [
                13.714865684509277,
                45.75876998901367
              ],
              [
                13.144780158996582,
                45.82429504394531
              ],
              [
                13.061376571655273,
                45.693260192871094
              ],
              [
                12.9815673828125,
                45.82429504394531
              ],
              [
                12.818355560302734,
                45.82429504394531
              ],
              [
                12.736748695373535,
                45.82429504394531
              ],
              [
                12.164421081542969,
                45.693260192871094
              ],
              [
                12.000378608703613,
                45.56227111816406
              ],
              [
                11.998926162719727,
                45.36587905883789
              ],
              [
                12.161685943603516,
                45.36587905883789
              ],
              [
                12.161133766174316,
                45.300437927246094
              ],
              [
                12.160021781921387,
                45.169586181640625
              ],
              [
                12.40256118774414,
                45.03877639770508
              ],
              [
                12.399906158447266,
                44.77729415893555
              ],
              [
                12.157197952270508,
                44.842647552490234
              ],
              [
                12.153728485107422,
                44.45067596435547
              ],
              [
                12.312999725341797,
                44.18956756591797
              ],
              [
                12.873446464538574,
                43.79821014404297
              ],
              [
                13.035634994506836,
                43.86341094970703
              ],
              [
                13.033763885498047,
                43.73301696777344
              ],
              [
                13.355091094970703,
                43.6678352355957
              ],
              [
                13.672640800476074,
                43.407203674316406
              ],
              [
                13.747068405151367,
                43.08163070678711
              ],
              [
                13.98537540435791,
                42.95146560668945
              ],
              [
                13.901384353637695,
                42.75628662109375
              ],
              [
                14.056464195251465,
                42.496177673339844
              ],
              [
                14.607714653015137,
                42.10627746582031
              ],
              [
                14.687567710876465,
                42.10627746582031
              ],
              [
                14.365377426147461,
                41.97637939453125
              ],
              [
                14.120827674865723,
                41.71668243408203
              ],
              [
                13.96146297454834,
                41.71668243408203
              ],
              [
                13.804443359375,
                41.84651184082031
              ],
              [
                13.327016830444336,
                41.911441802978516
              ],
              [
                13.328027725219727,
                41.97637939453125
              ],
              [
                13.00974178314209,
                42.041324615478516
              ],
              [
                12.615199089050293,
                42.43117141723633
              ],
              [
                12.375204086303711,
                42.43117141723633
              ],
              [
                12.301782608032227,
                43.08163070678711
              ],
              [
                12.141195297241211,
                43.08163070678711
              ],
              [
                12.224648475646973,
                43.407203674316406
              ],
              [
                11.82194709777832,
                43.342071533203125
              ],
              [
                11.820984840393066,
                43.211830139160156
              ],
              [
                11.981149673461914,
                43.146724700927734
              ],
              [
                12.0580472946167,
                42.75628662109375
              ],
              [
                11.736565589904785,
                42.62621307373047
              ],
              [
                11.574831008911133,
                42.36617660522461
              ],
              [
                11.494861602783203,
                42.36617660522461
              ],
              [
                11.255227088928223,
                42.43117141723633
              ],
              [
                11.175962448120117,
                42.62621307373047
              ],
              [
                11.015789985656738,
                42.62621307373047
              ],
              [
                11.01634693145752,
                42.82133865356445
              ],
              [
                10.535322189331055,
                43.08163070678711
              ],
              [
                10.212339401245117,
                43.99384307861328
              ],
              [
                9.889463424682617,
                43.99384307861328
              ],
              [
                9.969700813293457,
                44.12431716918945
              ],
              [
                9.7273588180542,
                44.12431716918945
              ],
              [
                9.159077644348145,
                44.45067596435547
              ],
              [
                8.431501388549805,
                44.38538360595703
              ],
              [
                8.033902168273926,
                43.92862319946289
              ],
              [
                7.632706642150879,
                43.79821014404297
              ],
              [
                7.552080154418945,
                43.79821014404297
              ],
              [
                7.625912189483643,
                44.18956756591797
              ],
              [
                7.303933143615723,
                44.12431716918945
              ],
              [
                6.895741939544678,
                44.32010269165039
              ],
              [
                6.965181350708008,
                44.842647552490234
              ],
              [
                6.637507915496826,
                44.973392486572266
              ],
              [
                6.634309768676758,
                45.10417556762695
              ],
              [
                7.037666320800781,
                45.23500442504883
              ],
              [
                7.114676952362061,
                45.431331634521484
              ],
              [
                7.356207847595215,
                45.56227111816406
              ],
              [
                7.926544666290283,
                45.56227111816406
              ],
              [
                8.002460479736328,
                45.889827728271484
              ],
              [
                7.918499946594238,
                46.02093505859375
              ],
              [
                8.40284538269043,
                46.414546966552734
              ],
              [
                8.488550186157227,
                46.1520881652832
              ],
              [
                8.652090072631836,
                46.1520881652832
              ],
              [
                8.98212718963623,
                45.889827728271484
              ],
              [
                9.303140640258789,
                46.480194091796875
              ],
              [
                10.041536331176758,
                46.283294677734375
              ],
              [
                10.122788429260254,
                46.414546966552734
              ],
              [
                10.040886878967285,
                46.414546966552734
              ],
              [
                10.039896965026855,
                46.61152267456055
              ],
              [
                10.859914779663086,
                46.54585266113281
              ],
              [
                11.598238945007324,
                46.677207946777344
              ],
              [
                12.582664489746094,
                46.677207946777344
              ],
              [
                13.72764778137207,
                46.480194091796875
              ],
              [
                13.726480484008789,
                46.414546966552734
              ],
              [
                13.808382034301758,
                46.414546966552734
              ],
              [
                13.722986221313477,
                46.21768569946289
              ],
              [
                13.881686210632324,
                45.95537567138672
              ],
              [
                13.963357925415039,
                45.95537567138672
              ],
              [
                14.039873123168945,
                45.693260192871094
              ],
              [
                14.281725883483887,
                45.56227111816406
              ],
              [
                14.189410209655762,
                45.03877639770508
              ]
            ]
          ],
          [
            [
              [
                13.805985450744629,
                46.283294677734375
              ],
              [
                13.887821197509766,
                46.283294677734375
              ],
              [
                13.886591911315918,
                46.21768569946289
              ],
              [
                13.804789543151855,
                46.21768569946289
              ],
              [
                13.805985450744629,
                46.283294677734375
              ]
            ]
          ]
        ]
      }
    }
  ]
}
