{
  "type": "FeatureCollection",
  "features": [
    {
      "type": "Feature",
      "properties": {
        "Name": "Ottoman Empire",
        "FromYear": 1859,
        "ToYear": 1865,
        "Area": 2106937.12785219,
        "Type": "POLITY",
        "Wikipedia": "Ottoman Empire",
        "Wikidata": "Q12560",
        "SeshatID": "tr_ottoman_emp_4",
        "Components": "",
        "MemberOf": "",
        "displayYear": 1864,
        "sourceYear": 1864,
        "mappedTerritoryId": "ottoman_empire"
      },
      "geometry": {
        "type": "MultiPolygon",
        "coordinates": [
          [
            [
              [
                23.615402221679688,
                35.51579284667969
              ],
              [
                24.156919479370117,
                35.51579284667969
              ],
              [
                24.149879455566406,
                35.38706970214844
              ],
              [
                24.30097007751465,
                35.32271194458008
              ],
              [
                25.69233512878418,
                35.32271194458008
              ],
              [
                25.680648803710938,
                35.12965774536133
              ],
              [
                26.22533416748047,
                35.194007873535156
              ],
              [
                26.140073776245117,
                35.065311431884766
              ],
              [
                24.823745727539062,
                35.00096893310547
              ],
              [
                24.7574462890625,
                35.194007873535156
              ],
              [
                24.52567481994629,
                35.194007873535156
              ],
              [
                24.44841766357422,
                35.194007873535156
              ],
              [
                23.679210662841797,
                35.258358001708984
              ],
              [
                23.615402221679688,
                35.51579284667969
              ]
            ]
          ],
          [
            [
              [
                25.988245010375977,
                37.51277160644531
              ],
              [
                26.079580307006836,
                37.706241607666016
              ],
              [
                26.157678604125977,
                37.706241607666016
              ],
              [
                26.313875198364258,
                37.706241607666016
              ],
              [
                26.304851531982422,
                37.5772590637207
              ],
              [
                25.988245010375977,
                37.51277160644531
              ]
            ]
          ],
          [
            [
              [
                25.876405715942383,
                38.157840728759766
              ],
              [
                25.89913558959961,
                38.48057174682617
              ],
              [
                25.820756912231445,
                38.48057174682617
              ],
              [
                25.912982940673828,
                38.67427444458008
              ],
              [
                25.99143409729004,
                38.67427444458008
              ],
              [
                26.217344284057617,
                38.54513168334961
              ],
              [
                26.111188888549805,
                38.157840728759766
              ],
              [
                25.876405715942383,
                38.157840728759766
              ]
            ]
          ],
          [
            [
              [
                20.070056915283203,
                39.57893371582031
              ],
              [
                20.073074340820312,
                39.64360046386719
              ],
              [
                20.151897430419922,
                39.64360046386719
              ],
              [
                20.148855209350586,
                39.57893371582031
              ],
              [
                20.070056915283203,
                39.57893371582031
              ]
            ]
          ],
          [
            [
              [
                24.973936080932617,
                39.8376350402832
              ],
              [
                25.066978454589844,
                40.031734466552734
              ],
              [
                25.145954132080078,
                40.031734466552734
              ],
              [
                25.46186065673828,
                40.031734466552734
              ],
              [
                25.447328567504883,
                39.8376350402832
              ],
              [
                24.973936080932617,
                39.8376350402832
              ]
            ]
          ],
          [
            [
              [
                25.703752517700195,
                40.0964469909668
              ],
              [
                25.718765258789062,
                40.29063034057617
              ],
              [
                25.7978458404541,
                40.29063034057617
              ],
              [
                26.03508949279785,
                40.29063034057617
              ],
              [
                26.024850845336914,
                40.16116714477539
              ],
              [
                25.703752517700195,
                40.0964469909668
              ]
            ]
          ],
          [
            [
              [
                24.793624877929688,
                40.614410400390625
              ],
              [
                24.551259994506836,
                40.54964065551758
              ],
              [
                24.490964889526367,
                40.80876541137695
              ],
              [
                24.57025909423828,
                40.80876541137695
              ],
              [
                24.808143615722656,
                40.80876541137695
              ],
              [
                24.793624877929688,
                40.614410400390625
              ]
            ]
          ],
          [
            [
              [
                43.822265625,
                13.07889175415039
              ],
              [
                43.819374084472656,
                13.014603614807129
              ],
              [
                43.590843200683594,
                12.821741104125977
              ],
              [
                43.658504486083984,
                12.69316577911377
              ],
              [
                43.438602447509766,
                12.69316577911377
              ],
              [
                43.44704818725586,
                12.886029243469238
              ],
              [
                43.23561477661133,
                13.07889175415039
              ],
              [
                43.25004959106445,
                13.40032958984375
              ],
              [
                43.32341003417969,
                13.40032958984375
              ],
              [
                43.396766662597656,
                13.40032958984375
              ],
              [
                43.6139030456543,
                13.336042404174805
              ],
              [
                43.678497314453125,
                13.143178939819336
              ],
              [
                43.822265625,
                13.07889175415039
              ]
            ]
          ],
          [
            [
              [
                28.53555679321289,
                43.99384307861328
              ],
              [
                28.616275787353516,
                43.99384307861328
              ],
              [
                28.48109245300293,
                43.472347259521484
              ],
              [
                28.159194946289062,
                43.472347259521484
              ],
              [
                28.22636604309082,
                43.342071533203125
              ],
              [
                27.89820098876953,
                43.276947021484375
              ],
              [
                27.80489730834961,
                43.146724700927734
              ],
              [
                27.84662628173828,
                42.75628662109375
              ],
              [
                27.513538360595703,
                42.62621307373047
              ],
              [
                27.494890213012695,
                42.43117141723633
              ],
              [
                27.936981201171875,
                42.041324615478516
              ],
              [
                27.979368209838867,
                41.65177917480469
              ],
              [
                28.21833038330078,
                41.65177917480469
              ],
              [
                28.27918243408203,
                41.45711898803711
              ],
              [
                28.505287170410156,
                41.32738494873047
              ],
              [
                28.975934982299805,
                41.26253128051758
              ],
              [
                28.96312141418457,
                41.132843017578125
              ],
              [
                30.47923469543457,
                41.19768524169922
              ],
              [
                30.62422752380371,
                41.06801223754883
              ],
              [
                31.1800537109375,
                41.06801223754883
              ],
              [
                31.534175872802734,
                41.39224624633789
              ],
              [
                32.02653121948242,
                41.521995544433594
              ],
              [
                32.04172897338867,
                41.65177917480469
              ],
              [
                32.1933708190918,
                41.586883544921875
              ],
              [
                32.694705963134766,
                41.781593322753906
              ],
              [
                32.630775451660156,
                41.911441802978516
              ],
              [
                34.78450012207031,
                41.911441802978516
              ],
              [
                34.881736755371094,
                42.041324615478516
              ],
              [
                35.121212005615234,
                42.041324615478516
              ],
              [
                35.08602523803711,
                41.781593322753906
              ],
              [
                35.30754852294922,
                41.65177917480469
              ],
              [
                35.953800201416016,
                41.71668243408203
              ],
              [
                36.20920181274414,
                41.26253128051758
              ],
              [
                36.77476501464844,
                41.32738494873047
              ],
              [
                37.06510925292969,
                41.132843017578125
              ],
              [
                37.23323440551758,
                41.19768524169922
              ],
              [
                37.21474075317383,
                41.06801223754883
              ],
              [
                37.770565032958984,
                41.06801223754883
              ],
              [
                37.83116149902344,
                40.93837356567383
              ],
              [
                38.15805435180664,
                41.00318908691406
              ],
              [
                38.29773712158203,
                40.873565673828125
              ],
              [
                38.78335189819336,
                40.93837356567383
              ],
              [
                39.0508918762207,
                41.132843017578125
              ],
              [
                39.735538482666016,
                40.93837356567383
              ],
              [
                40.370330810546875,
                40.93837356567383
              ],
              [
                40.390892028808594,
                41.06801223754883
              ],
              [
                40.53934860229492,
                41.00318908691406
              ],
              [
                41.04725646972656,
                41.19768524169922
              ],
              [
                41.15876007080078,
                41.39224624633789
              ],
              [
                41.307071685791016,
                41.32738494873047
              ],
              [
                41.40821838378906,
                41.45711898803711
              ],
              [
                41.567359924316406,
                41.45711898803711
              ],
              [
                41.57828140258789,
                41.521995544433594
              ],
              [
                42.442626953125,
                41.45711898803711
              ],
              [
                42.62437438964844,
                41.586883544921875
              ],
              [
                42.86325454711914,
                41.586883544921875
              ],
              [
                43.19264602661133,
                41.19768524169922
              ],
              [
                43.57847213745117,
                41.132843017578125
              ],
              [
                43.55564880371094,
                41.00318908691406
              ],
              [
                43.77094650268555,
                40.873565673828125
              ],
              [
                43.63535690307617,
                40.54964065551758
              ],
              [
                43.648197174072266,
                40.16116714477539
              ],
              [
                43.86334228515625,
                40.031734466552734
              ],
              [
                44.416175842285156,
                40.031734466552734
              ],
              [
                44.75540542602539,
                39.70827102661133
              ],
              [
                44.51885986328125,
                39.70827102661133
              ],
              [
                44.396663665771484,
                39.449623107910156
              ],
              [
                44.071044921875,
                39.38497543334961
              ],
              [
                44.165225982666016,
                38.997230529785156
              ],
              [
                44.31191635131836,
                38.93262481689453
              ],
              [
                44.30800247192383,
                38.416015625
              ],
              [
                44.45452117919922,
                38.351463317871094
              ],
              [
                44.30603790283203,
                37.89975357055664
              ],
              [
                44.58888626098633,
                37.706241607666016
              ],
              [
                44.627601623535156,
                37.44829177856445
              ],
              [
                44.773807525634766,
                37.38381576538086
              ],
              [
                44.85211181640625,
                36.8681755065918
              ],
              [
                45.056724548339844,
                36.67487716674805
              ],
              [
                45.09638595581055,
                36.417205810546875
              ],
              [
                45.37849426269531,
                36.2239875793457
              ],
              [
                45.350242614746094,
                36.03080368041992
              ],
              [
                45.78702163696289,
                35.837650299072266
              ],
              [
                46.25180435180664,
                35.837650299072266
              ],
              [
                46.059085845947266,
                35.58015823364258
              ],
              [
                46.1484375,
                35.12965774536133
              ],
              [
                45.812076568603516,
                34.93662643432617
              ],
              [
                45.68980026245117,
                34.614952087402344
              ],
              [
                45.535648345947266,
                34.614952087402344
              ],
              [
                45.50016784667969,
                34.3576545715332
              ],
              [
                45.64531326293945,
                34.2933349609375
              ],
              [
                45.43903350830078,
                33.90746307373047
              ],
              [
                45.59275817871094,
                33.90746307373047
              ],
              [
                46.137794494628906,
                33.393062591552734
              ],
              [
                46.231224060058594,
                32.94303894042969
              ],
              [
                46.682132720947266,
                32.878753662109375
              ],
              [
                46.945579528808594,
                32.557350158691406
              ],
              [
                47.31937026977539,
                32.493072509765625
              ],
              [
                47.599449157714844,
                32.30024337768555
              ],
              [
                47.58243942260742,
                32.171695709228516
              ],
              [
                47.98128890991211,
                31.7217960357666
              ],
              [
                47.79570007324219,
                31.464719772338867
              ],
              [
                47.738956451416016,
                31.014846801757812
              ],
              [
                48.103145599365234,
                30.886310577392578
              ],
              [
                48.04780960083008,
                30.436433792114258
              ],
              [
                48.27554702758789,
                30.436433792114258
              ],
              [
                48.41168975830078,
                30.307893753051758
              ],
              [
                48.38842010498047,
                30.115081787109375
              ],
              [
                48.6004753112793,
                29.986536026000977
              ],
              [
                48.592803955078125,
                29.922264099121094
              ],
              [
                48.36544418334961,
                29.922264099121094
              ],
              [
                48.40353012084961,
                29.600887298583984
              ],
              [
                48.09330749511719,
                29.536611557006836
              ],
              [
                48.01761245727539,
                29.536611557006836
              ],
              [
                47.7442512512207,
                29.79371452331543
              ],
              [
                47.751686096191406,
                29.857990264892578
              ],
              [
                47.160240173339844,
                29.986536026000977
              ],
              [
                47.25092697143555,
                30.115081787109375
              ],
              [
                46.955020904541016,
                30.179353713989258
              ],
              [
                46.56842803955078,
                30.115081787109375
              ],
              [
                46.583160400390625,
                30.243623733520508
              ],
              [
                45.68001174926758,
                30.307893753051758
              ],
              [
                45.12348556518555,
                30.757776260375977
              ],
              [
                45.13818359375,
                30.886310577392578
              ],
              [
                44.79490280151367,
                31.20764923095703
              ],
              [
                44.63529586791992,
                31.143381118774414
              ],
              [
                44.657562255859375,
                31.336183547973633
              ],
              [
                44.44402313232422,
                31.464719772338867
              ],
              [
                44.459014892578125,
                31.593257904052734
              ],
              [
                43.152584075927734,
                32.81447219848633
              ],
              [
                42.708534240722656,
                32.94303894042969
              ],
              [
                42.578269958496094,
                33.13589859008789
              ],
              [
                42.064544677734375,
                33.32876968383789
              ],
              [
                41.580623626708984,
                33.77885055541992
              ],
              [
                40.92682647705078,
                34.10039138793945
              ],
              [
                40.22715759277344,
                34.03607940673828
              ],
              [
                39.904991149902344,
                33.90746307373047
              ],
              [
                39.806495666503906,
                33.71455001831055
              ],
              [
                39.415401458740234,
                33.65024948120117
              ],
              [
                39.40131759643555,
                33.52165222167969
              ],
              [
                39.24782180786133,
                33.52165222167969
              ],
              [
                38.91337203979492,
                33.26447677612305
              ],
              [
                38.893001556396484,
                33.07160949707031
              ],
              [
                38.64313507080078,
                32.878753662109375
              ],
              [
                38.28504943847656,
                32.36451721191406
              ],
              [
                38.26596450805664,
                32.171695709228516
              ],
              [
                38.01194763183594,
                31.91460609436035
              ],
              [
                38.06972885131836,
                31.7217960357666
              ],
              [
                37.83492660522461,
                31.65752601623535
              ],
              [
                37.48277282714844,
                31.143381118774414
              ],
              [
                37.547245025634766,
                31.014846801757812
              ],
              [
                37.3951301574707,
                31.014846801757812
              ],
              [
                37.20909118652344,
                30.629240036010742
              ],
              [
                37.159767150878906,
                30.050809860229492
              ],
              [
                37.306007385253906,
                29.986536026000977
              ],
              [
                37.21951675415039,
                29.857990264892578
              ],
              [
                37.67628860473633,
                28.958093643188477
              ],
              [
                37.82230758666992,
                28.893810272216797
              ],
              [
                37.81216049194336,
                28.765243530273438
              ],
              [
                37.96828842163086,
                28.829526901245117
              ],
              [
                38.01356506347656,
                28.44382095336914
              ],
              [
                38.22993469238281,
                28.315250396728516
              ],
              [
                38.22005081176758,
                28.186676025390625
              ],
              [
                38.446231842041016,
                28.186676025390625
              ],
              [
                38.356117248535156,
                27.993812561035156
              ],
              [
                38.43146896362305,
                27.993812561035156
              ],
              [
                38.426597595214844,
                27.92952537536621
              ],
              [
                38.70368576049805,
                27.608078002929688
              ],
              [
                38.75993347167969,
                27.35091781616211
              ],
              [
                38.90565490722656,
                27.2866268157959
              ],
              [
                38.89628219604492,
                27.158044815063477
              ],
              [
                39.04197311401367,
                27.093751907348633
              ],
              [
                39.03269958496094,
                26.96516990661621
              ],
              [
                39.17836380004883,
                26.900876998901367
              ],
              [
                39.169185638427734,
                26.772293090820312
              ],
              [
                39.31482696533203,
                26.70800018310547
              ],
              [
                39.77783966064453,
                25.807899475097656
              ],
              [
                39.92338562011719,
                25.743606567382812
              ],
              [
                40.24751663208008,
                24.97209930419922
              ],
              [
                40.39302444458008,
                24.907808303833008
              ],
              [
                40.51856994628906,
                24.522062301635742
              ],
              [
                40.86863327026367,
                24.136323928833008
              ],
              [
                41.26723861694336,
                23.30057144165039
              ],
              [
                41.41260528564453,
                23.236284255981445
              ],
              [
                41.40525817871094,
                23.107707977294922
              ],
              [
                41.550594329833984,
                23.043420791625977
              ],
              [
                41.81938171386719,
                22.529123306274414
              ],
              [
                42.17338943481445,
                22.20768928527832
              ],
              [
                42.16621398925781,
                22.079116821289062
              ],
              [
                42.44926071166992,
                21.821969985961914
              ],
              [
                42.78487777709961,
                21.179107666015625
              ],
              [
                43.1416130065918,
                20.921964645385742
              ],
              [
                43.27187728881836,
                20.60053253173828
              ],
              [
                43.694766998291016,
                20.214815139770508
              ],
              [
                43.68737030029297,
                20.08624267578125
              ],
              [
                43.835575103759766,
                20.08624267578125
              ],
              [
                43.82813262939453,
                19.95766830444336
              ],
              [
                44.113182067871094,
                19.764808654785156
              ],
              [
                44.10563278198242,
                19.6362361907959
              ],
              [
                44.24993133544922,
                19.571949005126953
              ],
              [
                44.449073791503906,
                19.186227798461914
              ],
              [
                44.44524002075195,
                19.12194061279297
              ],
              [
                44.27817916870117,
                18.800504684448242
              ],
              [
                44.13029479980469,
                18.800504684448242
              ],
              [
                43.50886917114258,
                18.286205291748047
              ],
              [
                43.641666412353516,
                18.029054641723633
              ],
              [
                43.46803665161133,
                17.57904052734375
              ],
              [
                43.464351654052734,
                17.514753341674805
              ],
              [
                42.55038070678711,
                17.000450134277344
              ],
              [
                42.476654052734375,
                17.000450134277344
              ],
              [
                42.48373794555664,
                17.129026412963867
              ],
              [
                42.33625793457031,
                17.129026412963867
              ],
              [
                42.28022766113281,
                17.450464248657227
              ],
              [
                41.784889221191406,
                17.836191177368164
              ],
              [
                41.45082092285156,
                18.479066848754883
              ],
              [
                41.23610305786133,
                18.607641220092773
              ],
              [
                41.25007629394531,
                18.864791870117188
              ],
              [
                41.04209899902344,
                19.12194061279297
              ],
              [
                40.985382080078125,
                19.443374633789062
              ],
              [
                40.84076690673828,
                19.507661819458008
              ],
              [
                40.85103988647461,
                19.700523376464844
              ],
              [
                40.561588287353516,
                19.8290958404541
              ],
              [
                40.14036178588867,
                20.279102325439453
              ],
              [
                39.84385299682617,
                20.279102325439453
              ],
              [
                39.35056686401367,
                20.793392181396484
              ],
              [
                39.14701461791992,
                21.179107666015625
              ],
              [
                39.16929626464844,
                21.629112243652344
              ],
              [
                39.02705764770508,
                21.7576847076416
              ],
              [
                39.14019775390625,
                22.529123306274414
              ],
              [
                38.8588752746582,
                22.85055923461914
              ],
              [
                38.86882400512695,
                23.043420791625977
              ],
              [
                38.60107421875,
                23.622013092041016
              ],
              [
                38.03175354003906,
                24.136323928833008
              ],
              [
                37.444801330566406,
                24.329193115234375
              ],
              [
                37.38759231567383,
                24.650644302368164
              ],
              [
                37.17045593261719,
                24.779226303100586
              ],
              [
                37.1776123046875,
                24.907808303833008
              ],
              [
                37.3307991027832,
                24.97209930419922
              ],
              [
                37.27071762084961,
                25.229267120361328
              ],
              [
                36.772972106933594,
                25.67931365966797
              ],
              [
                36.7172966003418,
                26.000778198242188
              ],
              [
                36.42910385131836,
                26.19365882873535
              ],
              [
                36.16486358642578,
                26.772293090820312
              ],
              [
                35.671688079833984,
                27.2866268157959
              ],
              [
                35.61323928833008,
                27.54378890991211
              ],
              [
                35.46693801879883,
                27.608078002929688
              ],
              [
                35.40869903564453,
                27.865236282348633
              ],
              [
                35.04917907714844,
                28.12238883972168
              ],
              [
                34.59267044067383,
                28.058101654052734
              ],
              [
                34.60541915893555,
                28.25096321105957
              ],
              [
                34.853519439697266,
                28.572391510009766
              ],
              [
                34.908206939697266,
                29.34377670288086
              ],
              [
                34.91290283203125,
                29.40805435180664
              ],
              [
                34.80942916870117,
                30.050809860229492
              ],
              [
                34.667564392089844,
                30.179353713989258
              ],
              [
                34.682376861572266,
                30.372163772583008
              ],
              [
                34.54050064086914,
                30.500701904296875
              ],
              [
                34.43400573730469,
                31.079113006591797
              ],
              [
                34.2972412109375,
                31.271915435791016
              ],
              [
                34.30241012573242,
                31.336183547973633
              ],
              [
                34.63344955444336,
                31.65752601623535
              ],
              [
                34.57329559326172,
                31.8503360748291
              ],
              [
                34.81304168701172,
                31.978878021240234
              ],
              [
                34.76983642578125,
                32.36451721191406
              ],
              [
                35.021759033203125,
                32.62162780761719
              ],
              [
                35.05632781982422,
                33.00732421875
              ],
              [
                35.21538543701172,
                33.07160949707031
              ],
              [
                35.39840316772461,
                33.393062591552734
              ],
              [
                35.34577560424805,
                33.65024948120117
              ],
              [
                35.49934768676758,
                33.65024948120117
              ],
              [
                35.4470100402832,
                33.90746307373047
              ],
              [
                35.68381118774414,
                33.971771240234375
              ],
              [
                35.64447784423828,
                34.3576545715332
              ],
              [
                35.79212951660156,
                34.2933349609375
              ],
              [
                36.048770904541016,
                34.55062484741211
              ],
              [
                36.0682373046875,
                34.743614196777344
              ],
              [
                35.92698669433594,
                34.87228775024414
              ],
              [
                35.959747314453125,
                35.194007873535156
              ],
              [
                35.88248825073242,
                35.194007873535156
              ],
              [
                35.99294662475586,
                35.51579284667969
              ],
              [
                35.84488296508789,
                35.58015823364258
              ],
              [
                35.990074157714844,
                36.2239875793457
              ],
              [
                35.84174346923828,
                36.28839111328125
              ],
              [
                36.26490020751953,
                36.61045455932617
              ],
              [
                36.28622817993164,
                36.80373764038086
              ],
              [
                36.144901275634766,
                36.932613372802734
              ],
              [
                35.833587646484375,
                36.932613372802734
              ],
              [
                35.487709045410156,
                36.61045455932617
              ],
              [
                35.11265563964844,
                36.73930740356445
              ],
              [
                34.95038986206055,
                36.67487716674805
              ],
              [
                34.892860412597656,
                36.8681755065918
              ],
              [
                34.581634521484375,
                36.8681755065918
              ],
              [
                34.2507209777832,
                36.67487716674805
              ],
              [
                33.97906494140625,
                36.28839111328125
              ],
              [
                33.2744140625,
                36.2239875793457
              ],
              [
                32.713401794433594,
                36.03080368041992
              ],
              [
                32.558349609375,
                36.03080368041992
              ],
              [
                32.498512268066406,
                36.2239875793457
              ],
              [
                32.06806182861328,
                36.61045455932617
              ],
              [
                31.08603858947754,
                36.932613372802734
              ],
              [
                30.619068145751953,
                36.932613372802734
              ],
              [
                30.49193572998047,
                36.3527946472168
              ],
              [
                30.02613639831543,
                36.3527946472168
              ],
              [
                29.938032150268555,
                36.2239875793457
              ],
              [
                29.239721298217773,
                36.2239875793457
              ],
              [
                29.124916076660156,
                36.73930740356445
              ],
              [
                28.736103057861328,
                36.73930740356445
              ],
              [
                28.590524673461914,
                36.8681755065918
              ],
              [
                28.357105255126953,
                36.8681755065918
              ],
              [
                28.186922073364258,
                36.67487716674805
              ],
              [
                28.03143882751465,
                36.67487716674805
              ],
              [
                28.138330459594727,
                37.06150817871094
              ],
              [
                28.065349578857422,
                37.12596130371094
              ],
              [
                27.597978591918945,
                37.12596130371094
              ],
              [
                27.53919219970703,
                37.38381576538086
              ],
              [
                27.22254180908203,
                37.3193473815918
              ],
              [
                27.309988021850586,
                37.44829177856445
              ],
              [
                27.16343116760254,
                37.5772590637207
              ],
              [
                27.2558650970459,
                37.7707405090332
              ],
              [
                27.177743911743164,
                37.7707405090332
              ],
              [
                27.27528190612793,
                38.028785705566406
              ],
              [
                26.888994216918945,
                38.09331130981445
              ],
              [
                26.820327758789062,
                38.22237777709961
              ],
              [
                26.42890739440918,
                38.22237777709961
              ],
              [
                26.38368797302246,
                38.67427444458008
              ],
              [
                26.535762786865234,
                38.60969924926758
              ],
              [
                26.594974517822266,
                38.351463317871094
              ],
              [
                27.06496238708496,
                38.351463317871094
              ],
              [
                27.079774856567383,
                38.54513168334961
              ],
              [
                26.849470138549805,
                38.60969924926758
              ],
              [
                26.95786476135254,
                38.997230529785156
              ],
              [
                26.879291534423828,
                38.997230529785156
              ],
              [
                26.894468307495117,
                39.19107437133789
              ],
              [
                26.742225646972656,
                39.25570297241211
              ],
              [
                26.84657859802246,
                39.57893371582031
              ],
              [
                26.132457733154297,
                39.51427459716797
              ],
              [
                26.16754913330078,
                39.9670295715332
              ],
              [
                26.24650001525879,
                39.9670295715332
              ],
              [
                26.2723331451416,
                40.29063034057617
              ],
              [
                26.604726791381836,
                40.4848747253418
              ],
              [
                26.683887481689453,
                40.4848747253418
              ],
              [
                26.673099517822266,
                40.355369567871094
              ],
              [
                27.46982192993164,
                40.42012023925781
              ],
              [
                27.537628173828125,
                40.29063034057617
              ],
              [
                27.695789337158203,
                40.29063034057617
              ],
              [
                27.792133331298828,
                40.4848747253418
              ],
              [
                27.950454711914062,
                40.4848747253418
              ],
              [
                27.938817977905273,
                40.355369567871094
              ],
              [
                29.046321868896484,
                40.355369567871094
              ],
              [
                28.900379180908203,
                40.4848747253418
              ],
              [
                28.91274642944336,
                40.614410400390625
              ],
              [
                29.3944091796875,
                40.6791877746582
              ],
              [
                29.493009567260742,
                40.873565673828125
              ],
              [
                29.24864959716797,
                40.80876541137695
              ],
              [
                29.10276222229004,
                40.93837356567383
              ],
              [
                29.115554809570312,
                41.06801223754883
              ],
              [
                27.527481079101562,
                41.06801223754883
              ],
              [
                27.017187118530273,
                40.6791877746582
              ],
              [
                26.921367645263672,
                40.4848747253418
              ],
              [
                26.62644386291504,
                40.74397277832031
              ],
              [
                26.140260696411133,
                40.614410400390625
              ],
              [
                26.082168579101562,
                40.873565673828125
              ],
              [
                25.849451065063477,
                40.93837356567383
              ],
              [
                24.34656524658203,
                41.00318908691406
              ],
              [
                24.010608673095703,
                40.74397277832031
              ],
              [
                23.698017120361328,
                40.80876541137695
              ],
              [
                23.684629440307617,
                40.614410400390625
              ],
              [
                23.83857536315918,
                40.54964065551758
              ],
              [
                23.73737335205078,
                40.225894927978516
              ],
              [
                23.267255783081055,
                40.29063034057617
              ],
              [
                22.884185791015625,
                40.4848747253418
              ],
              [
                22.89249038696289,
                40.614410400390625
              ],
              [
                22.654850006103516,
                40.614410400390625
              ],
              [
                22.55951499938965,
                40.355369567871094
              ],
              [
                22.543659210205078,
                40.0964469909668
              ],
              [
                22.701663970947266,
                40.0964469909668
              ],
              [
                22.610868453979492,
                39.90232849121094
              ],
              [
                23.135168075561523,
                39.449623107910156
              ],
              [
                22.816326141357422,
                39.38497543334961
              ],
              [
                22.801063537597656,
                39.1264533996582
              ],
              [
                22.797286987304688,
                39.06184005737305
              ],
              [
                21.929227828979492,
                38.997230529785156
              ],
              [
                21.71074104309082,
                39.320335388183594
              ],
              [
                21.156566619873047,
                39.25570297241211
              ],
              [
                21.068151473999023,
                39.06184005737305
              ],
              [
                20.98955535888672,
                39.06184005737305
              ],
              [
                20.448524475097656,
                39.25570297241211
              ],
              [
                20.15495491027832,
                39.70827102661133
              ],
              [
                19.918411254882812,
                39.70827102661133
              ],
              [
                20.009418487548828,
                39.9670295715332
              ],
              [
                19.62952995300293,
                40.29063034057617
              ],
              [
                19.47136878967285,
                40.29063034057617
              ],
              [
                19.48629379272461,
                40.614410400390625
              ],
              [
                19.2486515045166,
                40.614410400390625
              ],
              [
                19.254547119140625,
                40.74397277832031
              ],
              [
                19.498455047607422,
                40.873565673828125
              ],
              [
                19.437559127807617,
                41.26253128051758
              ],
              [
                19.523332595825195,
                41.39224624633789
              ],
              [
                19.443790435791016,
                41.39224624633789
              ],
              [
                19.529659271240234,
                41.521995544433594
              ],
              [
                19.450061798095703,
                41.521995544433594
              ],
              [
                19.54244041442871,
                41.781593322753906
              ],
              [
                18.8489990234375,
                42.30118942260742
              ],
              [
                18.85202980041504,
                42.36617660522461
              ],
              [
                19.095064163208008,
                42.43117141723633
              ],
              [
                19.35124969482422,
                42.75628662109375
              ],
              [
                19.671829223632812,
                42.75628662109375
              ],
              [
                19.681989669799805,
                42.95146560668945
              ],
              [
                19.374223709106445,
                43.211830139160156
              ],
              [
                18.73753547668457,
                43.342071533203125
              ],
              [
                18.481433868408203,
                43.016544342041016
              ],
              [
                18.47258949279785,
                42.82133865356445
              ],
              [
                18.469654083251953,
                42.75628662109375
              ],
              [
                18.389509201049805,
                42.75628662109375
              ],
              [
                18.386608123779297,
                42.691246032714844
              ],
              [
                18.306493759155273,
                42.691246032714844
              ],
              [
                18.226377487182617,
                42.691246032714844
              ],
              [
                18.229217529296875,
                42.75628662109375
              ],
              [
                18.232065200805664,
                42.82133865356445
              ],
              [
                18.080114364624023,
                43.016544342041016
              ],
              [
                17.595905303955078,
                42.95146560668945
              ],
              [
                17.362831115722656,
                43.146724700927734
              ],
              [
                17.36538314819336,
                43.211830139160156
              ],
              [
                16.98054313659668,
                43.6678352355957
              ],
              [
                16.819412231445312,
                43.6678352355957
              ],
              [
                16.429935455322266,
                44.05907440185547
              ],
              [
                16.268434524536133,
                44.05907440185547
              ],
              [
                16.19840431213379,
                44.38538360595703
              ],
              [
                15.803844451904297,
                44.71194839477539
              ],
              [
                15.819802284240723,
                45.23500442504883
              ],
              [
                15.982434272766113,
                45.23500442504883
              ],
              [
                16.219921112060547,
                45.03877639770508
              ],
              [
                16.4703311920166,
                45.23500442504883
              ],
              [
                17.120859146118164,
                45.23500442504883
              ],
              [
                17.76310920715332,
                45.03877639770508
              ],
              [
                18.57839012145996,
                45.10417556762695
              ],
              [
                18.890594482421875,
                44.842647552490234
              ],
              [
                19.14055824279785,
                44.973392486572266
              ],
              [
                19.296220779418945,
                44.842647552490234
              ],
              [
                19.107723236083984,
                44.32010269165039
              ],
              [
                19.498432159423828,
                44.05907440185547
              ],
              [
                19.400859832763672,
                43.73301696777344
              ],
              [
                20.34213638305664,
                43.276947021484375
              ],
              [
                20.747880935668945,
                43.342071533203125
              ],
              [
                21.37496566772461,
                43.08163070678711
              ],
              [
                21.78904151916504,
                43.276947021484375
              ],
              [
                22.110576629638672,
                43.276947021484375
              ],
              [
                22.182247161865234,
                43.146724700927734
              ],
              [
                22.673261642456055,
                43.276947021484375
              ],
              [
                22.682373046875,
                43.407203674316406
              ],
              [
                22.373964309692383,
                43.6026611328125
              ],
              [
                22.400911331176758,
                43.99384307861328
              ],
              [
                22.65691566467285,
                44.18956756591797
              ],
              [
                22.894636154174805,
                44.12431716918945
              ],
              [
                22.951791763305664,
                43.79821014404297
              ],
              [
                23.601760864257812,
                43.86341094970703
              ],
              [
                24.15087890625,
                43.6678352355957
              ],
              [
                24.881397247314453,
                43.73301696777344
              ],
              [
                25.434297561645508,
                43.6026611328125
              ],
              [
                25.84855079650879,
                43.73301696777344
              ],
              [
                26.281423568725586,
                44.05907440185547
              ],
              [
                27.492671966552734,
                44.05907440185547
              ],
              [
                27.828874588012695,
                44.18956756591797
              ],
              [
                27.943035125732422,
                44.5159797668457
              ],
              [
                27.787734985351562,
                44.58129119873047
              ],
              [
                27.801036834716797,
                44.71194839477539
              ],
              [
                27.969886779785156,
                44.77729415893555
              ],
              [
                27.99687957763672,
                45.03877639770508
              ],
              [
                27.847858428955078,
                45.169586181640625
              ],
              [
                27.868051528930664,
                45.36587905883789
              ],
              [
                28.037626266479492,
                45.431331634521484
              ],
              [
                28.281864166259766,
                45.431331634521484
              ],
              [
                28.505107879638672,
                45.23500442504883
              ],
              [
                28.837488174438477,
                45.300437927246094
              ],
              [
                28.985836029052734,
                45.169586181640625
              ],
              [
                29.22968864440918,
                45.169586181640625
              ],
              [
                29.215187072753906,
                45.03877639770508
              ],
              [
                29.444190979003906,
                44.908016204833984
              ],
              [
                29.363035202026367,
                44.908016204833984
              ],
              [
                29.024105072021484,
                44.77729415893555
              ],
              [
                29.04557228088379,
                44.973392486572266
              ],
              [
                28.802005767822266,
                44.973392486572266
              ],
              [
                28.794937133789062,
                44.908016204833984
              ],
              [
                28.84072494506836,
                44.58129119873047
              ],
              [
                28.576906204223633,
                44.38538360595703
              ],
              [
                28.53555679321289,
                43.99384307861328
              ]
            ]
          ],
          [
            [
              [
                33.95713424682617,
                35.258358001708984
              ],
              [
                34.08732223510742,
                35.00096893310547
              ],
              [
                33.69539260864258,
                34.93662643432617
              ],
              [
                33.523399353027344,
                34.743614196777344
              ],
              [
                33.1320686340332,
                34.679283142089844
              ],
              [
                33.04356002807617,
                34.55062484741211
              ],
              [
                32.36665725708008,
                34.743614196777344
              ],
              [
                32.229042053222656,
                34.93662643432617
              ],
              [
                32.24578857421875,
                35.12965774536133
              ],
              [
                32.55473709106445,
                35.12965774536133
              ],
              [
                32.875247955322266,
                35.258358001708984
              ],
              [
                32.886871337890625,
                35.38706970214844
              ],
              [
                33.73737716674805,
                35.38706970214844
              ],
              [
                34.309810638427734,
                35.708900451660156
              ],
              [
                34.38723373413086,
                35.708900451660156
              ],
              [
                34.542076110839844,
                35.708900451660156
              ],
              [
                34.5294189453125,
                35.58015823364258
              ],
              [
                33.95713424682617,
                35.258358001708984
              ]
            ]
          ],
          [
            [
              [
                27.742563247680664,
                35.902034759521484
              ],
              [
                27.692523956298828,
                36.28839111328125
              ],
              [
                28.01713752746582,
                36.48161697387695
              ],
              [
                28.09481430053711,
                36.48161697387695
              ],
              [
                28.250165939331055,
                36.48161697387695
              ],
              [
                28.139331817626953,
                36.03080368041992
              ],
              [
                27.742563247680664,
                35.902034759521484
              ]
            ]
          ],
          [
            [
              [
                27.038949966430664,
                36.932613372802734
              ],
              [
                27.116777420043945,
                36.932613372802734
              ],
              [
                27.18541717529297,
                36.80373764038086
              ],
              [
                26.865324020385742,
                36.67487716674805
              ],
              [
                27.038949966430664,
                36.932613372802734
              ]
            ]
          ],
          [
            [
              [
                26.24588966369629,
                38.93262481689453
              ],
              [
                26.09356689453125,
                38.997230529785156
              ],
              [
                26.103172302246094,
                39.1264533996582
              ],
              [
                25.793418884277344,
                39.19107437133789
              ],
              [
                26.043895721435547,
                39.38497543334961
              ],
              [
                26.122615814208984,
                39.38497543334961
              ],
              [
                26.511207580566406,
                39.320335388183594
              ],
              [
                26.643573760986328,
                38.997230529785156
              ],
              [
                26.24588966369629,
                38.93262481689453
              ]
            ]
          ]
        ]
      }
    }
  ]
}
