{
  "type": "FeatureCollection",
  "features": [
    {
      "type": "Feature",
      "properties": {
        "Name": "Later Tang",
        "FromYear": 926,
        "ToYear": 935,
        "Area": 1556339.1668651307,
        "Type": "POLITY",
        "Wikipedia": "Later Tang",
        "Wikidata": "Q1143126",
        "SeshatID": "cn_five_dyn",
        "Components": "",
        "MemberOf": "(Five Dynasties and Ten Kingdoms)",
        "displayYear": 926,
        "sourceYear": 926,
        "mappedTerritoryId": "cliopatria_later_tang"
      },
      "geometry": {
        "type": "Polygon",
        "coordinates": [
          [
            [
              119.80270385742188,
              39.9670295715332
            ],
            [
              119.587890625,
              40.29063034057617
            ],
            [
              118.60298156738281,
              40.225894927978516
            ],
            [
              118.638916015625,
              40.29063034057617
            ],
            [
              118.07810974121094,
              40.42012023925781
            ],
            [
              118.0712661743164,
              40.54964065551758
            ],
            [
              117.91288757324219,
              40.54964065551758
            ],
            [
              117.82709503173828,
              40.6791877746582
            ],
            [
              117.9001693725586,
              40.80876541137695
            ],
            [
              117.77824401855469,
              40.873565673828125
            ],
            [
              117.84668731689453,
              41.132843017578125
            ],
            [
              117.76231384277344,
              41.26253128051758
            ],
            [
              117.60334014892578,
              41.26253128051758
            ],
            [
              117.59864044189453,
              41.39224624633789
            ],
            [
              117.3600082397461,
              41.39224624633789
            ],
            [
              117.39749145507812,
              41.45711898803711
            ],
            [
              115.76353454589844,
              41.521995544433594
            ],
            [
              114.6191635131836,
              41.32738494873047
            ],
            [
              113.99818420410156,
              41.06801223754883
            ],
            [
              112.57799530029297,
              40.93837356567383
            ],
            [
              112.54299926757812,
              40.873565673828125
            ],
            [
              112.48341369628906,
              40.614410400390625
            ],
            [
              111.57200622558594,
              39.77294921875
            ],
            [
              111.45638275146484,
              39.38497543334961
            ],
            [
              111.3456802368164,
              39.320335388183594
            ],
            [
              111.47116088867188,
              39.25570297241211
            ],
            [
              111.37611389160156,
              39.06184005737305
            ],
            [
              111.04651641845703,
              38.8680305480957
            ],
            [
              110.95370483398438,
              38.67427444458008
            ],
            [
              111.03215789794922,
              38.67427444458008
            ],
            [
              111.01862335205078,
              38.48057174682617
            ],
            [
              110.67475891113281,
              38.416015625
            ],
            [
              110.39788055419922,
              38.157840728759766
            ],
            [
              109.76148986816406,
              37.96426773071289
            ],
            [
              109.55626678466797,
              38.028785705566406
            ],
            [
              108.79415893554688,
              37.89975357055664
            ],
            [
              108.69591522216797,
              38.028785705566406
            ],
            [
              108.05005645751953,
              38.157840728759766
            ],
            [
              107.93232727050781,
              38.416015625
            ],
            [
              107.58959197998047,
              38.351463317871094
            ],
            [
              107.52104949951172,
              38.54513168334961
            ],
            [
              107.31535339355469,
              38.60969924926758
            ],
            [
              106.52194213867188,
              38.416015625
            ],
            [
              106.40658569335938,
              38.157840728759766
            ],
            [
              106.08653259277344,
              37.96426773071289
            ],
            [
              105.88021850585938,
              38.028785705566406
            ],
            [
              104.56840515136719,
              37.706241607666016
            ],
            [
              104.59166717529297,
              37.5772590637207
            ],
            [
              104.8258285522461,
              37.5772590637207
            ],
            [
              104.72044372558594,
              37.51277160644531
            ],
            [
              104.7440414428711,
              37.38381576538086
            ],
            [
              105.08324432373047,
              37.44829177856445
            ],
            [
              105.80465698242188,
              37.12596130371094
            ],
            [
              105.85546875,
              37.06150817871094
            ],
            [
              105.69690704345703,
              36.8681755065918
            ],
            [
              106.0551528930664,
              36.417205810546875
            ],
            [
              106.00199127197266,
              36.09519577026367
            ],
            [
              105.74381256103516,
              35.837650299072266
            ],
            [
              104.94551086425781,
              35.58015823364258
            ],
            [
              104.635986328125,
              35.58015823364258
            ],
            [
              103.89337158203125,
              35.258358001708984
            ],
            [
              103.66561889648438,
              35.065311431884766
            ],
            [
              103.4793472290039,
              34.3576545715332
            ],
            [
              103.35535430908203,
              34.22901916503906
            ],
            [
              103.4928207397461,
              33.971771240234375
            ],
            [
              103.3320083618164,
              33.52165222167969
            ],
            [
              103.0340576171875,
              33.32876968383789
            ],
            [
              102.55159759521484,
              33.26447677612305
            ],
            [
              101.76339721679688,
              32.75019073486328
            ],
            [
              101.68687438964844,
              32.75019073486328
            ],
            [
              100.97924041748047,
              31.014846801757812
            ],
            [
              101.05530548095703,
              31.014846801757812
            ],
            [
              100.92024230957031,
              30.564971923828125
            ],
            [
              100.99618530273438,
              30.564971923828125
            ],
            [
              100.93939971923828,
              30.372163772583008
            ],
            [
              101.01528930664062,
              30.372163772583008
            ],
            [
              100.95915222167969,
              30.179353713989258
            ],
            [
              101.0553207397461,
              29.986536026000977
            ],
            [
              100.98237609863281,
              29.729440689086914
            ],
            [
              101.05811309814453,
              29.729440689086914
            ],
            [
              101.0620346069336,
              29.472333908081055
            ],
            [
              101.19561004638672,
              29.40805435180664
            ],
            [
              101.36564636230469,
              28.636676788330078
            ],
            [
              101.6957778930664,
              27.865236282348633
            ],
            [
              101.58399963378906,
              26.772293090820312
            ],
            [
              102.08015441894531,
              26.643707275390625
            ],
            [
              102.1864242553711,
              26.450830459594727
            ],
            [
              102.05396270751953,
              26.19365882873535
            ],
            [
              102.20396423339844,
              26.19365882873535
            ],
            [
              102.2506332397461,
              26.06507110595703
            ],
            [
              102.55054473876953,
              26.06507110595703
            ],
            [
              102.90777587890625,
              26.32224464416504
            ],
            [
              103.19337463378906,
              26.257951736450195
            ],
            [
              103.46222686767578,
              26.450830459594727
            ],
            [
              103.50674438476562,
              26.643707275390625
            ],
            [
              103.4316635131836,
              26.643707275390625
            ],
            [
              103.35932922363281,
              27.2866268157959
            ],
            [
              103.28411865234375,
              27.2866268157959
            ],
            [
              103.28815460205078,
              27.608078002929688
            ],
            [
              103.32039642333984,
              27.736658096313477
            ],
            [
              103.4548110961914,
              27.6723690032959
            ],
            [
              103.63789367675781,
              27.800947189331055
            ],
            [
              103.96347045898438,
              28.186676025390625
            ],
            [
              103.99732208251953,
              28.315250396728516
            ],
            [
              103.86349487304688,
              28.379535675048828
            ],
            [
              103.99048614501953,
              28.572391510009766
            ],
            [
              104.63507843017578,
              28.44382095336914
            ],
            [
              104.25687408447266,
              27.865236282348633
            ],
            [
              104.43353271484375,
              27.6723690032959
            ],
            [
              104.61695861816406,
              27.800947189331055
            ],
            [
              105.12759399414062,
              27.736658096313477
            ],
            [
              105.51264190673828,
              28.058101654052734
            ],
            [
              105.52306365966797,
              28.379535675048828
            ],
            [
              106.14405822753906,
              28.44382095336914
            ],
            [
              106.24258422851562,
              28.25096321105957
            ],
            [
              106.1326904296875,
              28.12238883972168
            ],
            [
              106.20807647705078,
              28.12238883972168
            ],
            [
              106.22381591796875,
              27.608078002929688
            ],
            [
              106.45912170410156,
              27.35091781616211
            ],
            [
              106.60956573486328,
              27.35091781616211
            ],
            [
              106.77047729492188,
              27.093751907348633
            ],
            [
              107.26460266113281,
              26.96516990661621
            ],
            [
              107.3397445678711,
              26.96516990661621
            ],
            [
              107.80455017089844,
              27.608078002929688
            ],
            [
              108.26642608642578,
              27.92952537536621
            ],
            [
              108.30120849609375,
              28.058101654052734
            ],
            [
              109.38613891601562,
              28.700960159301758
            ],
            [
              109.80445861816406,
              29.600887298583984
            ],
            [
              110.03543853759766,
              29.857990264892578
            ],
            [
              110.47509765625,
              30.050809860229492
            ],
            [
              110.51606750488281,
              30.179353713989258
            ],
            [
              110.48149871826172,
              30.307893753051758
            ],
            [
              110.3297348022461,
              30.307893753051758
            ],
            [
              110.33724975585938,
              30.564971923828125
            ],
            [
              110.11796569824219,
              30.822044372558594
            ],
            [
              110.12771606445312,
              31.079113006591797
            ],
            [
              109.99717712402344,
              31.143381118774414
            ],
            [
              110.00830078125,
              31.40045166015625
            ],
            [
              109.87796020507812,
              31.464719772338867
            ],
            [
              109.89041900634766,
              31.7217960357666
            ],
            [
              109.76026153564453,
              31.78606605529785
            ],
            [
              109.77403259277344,
              32.043148040771484
            ],
            [
              109.61325073242188,
              32.23596954345703
            ],
            [
              109.67528533935547,
              32.62162780761719
            ],
            [
              109.8930892944336,
              33.00732421875
            ],
            [
              110.51097869873047,
              32.81447219848633
            ],
            [
              110.61671447753906,
              32.685909271240234
            ],
            [
              110.84623718261719,
              32.685909271240234
            ],
            [
              111.0814437866211,
              32.493072509765625
            ],
            [
              111.92813873291016,
              32.30024337768555
            ],
            [
              112.0045394897461,
              32.30024337768555
            ],
            [
              113.31470489501953,
              31.91460609436035
            ],
            [
              113.2245101928711,
              31.014846801757812
            ],
            [
              113.38632202148438,
              30.822044372558594
            ],
            [
              113.69036102294922,
              30.822044372558594
            ],
            [
              113.68988800048828,
              30.372163772583008
            ],
            [
              113.72297668457031,
              30.243623733520508
            ],
            [
              113.87470245361328,
              30.243623733520508
            ],
            [
              114.11265563964844,
              30.500701904296875
            ],
            [
              114.43309783935547,
              31.20764923095703
            ],
            [
              115.614501953125,
              32.75019073486328
            ],
            [
              116.71101379394531,
              32.81447219848633
            ],
            [
              117.42537689208984,
              33.07160949707031
            ],
            [
              118.06416320800781,
              33.13589859008789
            ],
            [
              118.42486572265625,
              33.45735549926758
            ],
            [
              118.61140441894531,
              33.90746307373047
            ],
            [
              119.30474853515625,
              34.80794906616211
            ],
            [
              119.22760772705078,
              34.80794906616211
            ],
            [
              119.61874389648438,
              35.51579284667969
            ],
            [
              119.98648071289062,
              35.644527435302734
            ],
            [
              120.31848907470703,
              36.03080368041992
            ],
            [
              120.65852355957031,
              36.09519577026367
            ],
            [
              120.73184967041016,
              36.417205810546875
            ],
            [
              120.96481323242188,
              36.417205810546875
            ],
            [
              120.97892761230469,
              36.61045455932617
            ],
            [
              121.21208190917969,
              36.61045455932617
            ],
            [
              121.91207885742188,
              36.932613372802734
            ],
            [
              122.39389038085938,
              36.80373764038086
            ],
            [
              122.56636810302734,
              36.9970588684082
            ],
            [
              122.47421264648438,
              37.12596130371094
            ],
            [
              122.71288299560547,
              37.44829177856445
            ],
            [
              122.1211166381836,
              37.51277160644531
            ],
            [
              122.15351867675781,
              37.5772590637207
            ],
            [
              121.49687957763672,
              37.51277160644531
            ],
            [
              121.48333740234375,
              37.641746520996094
            ],
            [
              121.17103576660156,
              37.641746520996094
            ],
            [
              121.11202239990234,
              37.835243225097656
            ],
            [
              120.75377655029297,
              37.89975357055664
            ],
            [
              120.18807220458984,
              37.706241607666016
            ],
            [
              120.20220184326172,
              37.5772590637207
            ],
            [
              119.82661437988281,
              37.44829177856445
            ],
            [
              119.70111083984375,
              37.1904182434082
            ],
            [
              119.15568542480469,
              37.1904182434082
            ],
            [
              119.13996124267578,
              37.3193473815918
            ],
            [
              118.98403930664062,
              37.3193473815918
            ],
            [
              119.23655700683594,
              37.835243225097656
            ],
            [
              119.3928451538086,
              37.835243225097656
            ],
            [
              119.4571304321289,
              37.96426773071289
            ],
            [
              118.77176666259766,
              38.157840728759766
            ],
            [
              118.80416870117188,
              38.22237777709961
            ],
            [
              118.64759826660156,
              38.22237777709961
            ],
            [
              118.58300018310547,
              38.09331130981445
            ],
            [
              118.06742095947266,
              38.157840728759766
            ],
            [
              118.05360412597656,
              38.28691864013672
            ],
            [
              117.60245513916016,
              38.48057174682617
            ],
            [
              117.6549072265625,
              38.738853454589844
            ],
            [
              117.57643127441406,
              38.738853454589844
            ],
            [
              117.77603912353516,
              39.1264533996582
            ],
            [
              118.04566192626953,
              39.19107437133789
            ],
            [
              118.0568618774414,
              39.06184005737305
            ],
            [
              118.44984436035156,
              39.06184005737305
            ],
            [
              118.98941802978516,
              39.19107437133789
            ],
            [
              119.21530151367188,
              39.320335388183594
            ],
            [
              119.38044738769531,
              39.77294921875
            ],
            [
              119.76698303222656,
              39.90232849121094
            ],
            [
              119.80270385742188,
              39.9670295715332
            ]
          ]
        ]
      }
    }
  ]
}
