{
  "type": "FeatureCollection",
  "features": [
    {
      "type": "Feature",
      "properties": {
        "Name": "First Bulgarian Empire",
        "FromYear": 970,
        "ToYear": 979,
        "Area": 226160.03188568566,
        "Type": "POLITY",
        "Wikipedia": "First Bulgarian Empire",
        "Wikidata": "Q203817",
        "SeshatID": "bg_bulgaria_medieval",
        "Components": "",
        "MemberOf": "",
        "displayYear": 979,
        "sourceYear": 979,
        "mappedTerritoryId": "cliopatria_first_bulgarian_empire"
      },
      "geometry": {
        "type": "Polygon",
        "coordinates": [
          [
            [
              22.87523651123047,
              44.973392486572266
            ],
            [
              22.865732192993164,
              44.842647552490234
            ],
            [
              23.25666618347168,
              44.64661407470703
            ],
            [
              23.499759674072266,
              44.64661407470703
            ],
            [
              23.519737243652344,
              44.908016204833984
            ],
            [
              24.41246223449707,
              44.908016204833984
            ],
            [
              24.72614097595215,
              44.77729415893555
            ],
            [
              24.980562210083008,
              44.908016204833984
            ],
            [
              25.137239456176758,
              44.842647552490234
            ],
            [
              25.716838836669922,
              44.973392486572266
            ],
            [
              25.710973739624023,
              44.908016204833984
            ],
            [
              25.61817169189453,
              44.77729415893555
            ],
            [
              26.149749755859375,
              44.38538360595703
            ],
            [
              26.119922637939453,
              44.05907440185547
            ],
            [
              26.505428314208984,
              43.86341094970703
            ],
            [
              26.48125457763672,
              43.6026611328125
            ],
            [
              26.400718688964844,
              43.6026611328125
            ],
            [
              26.469234466552734,
              43.472347259521484
            ],
            [
              26.1297607421875,
              43.276947021484375
            ],
            [
              26.11229133605957,
              43.08163070678711
            ],
            [
              25.50588607788086,
              42.56119155883789
            ],
            [
              25.34577178955078,
              42.56119155883789
            ],
            [
              25.084333419799805,
              42.30118942260742
            ],
            [
              24.504514694213867,
              42.041324615478516
            ],
            [
              24.49448013305664,
              41.911441802978516
            ],
            [
              24.798267364501953,
              41.71668243408203
            ],
            [
              24.778104782104492,
              41.45711898803711
            ],
            [
              24.52469253540039,
              41.26253128051758
            ],
            [
              24.20674705505371,
              41.26253128051758
            ],
            [
              23.473424911499023,
              41.00318908691406
            ],
            [
              22.997167587280273,
              41.00318908691406
            ],
            [
              22.508596420288086,
              40.80876541137695
            ],
            [
              22.171741485595703,
              40.4848747253418
            ],
            [
              21.128570556640625,
              40.225894927978516
            ],
            [
              20.31264877319336,
              39.70827102661133
            ],
            [
              20.15495491027832,
              39.70827102661133
            ],
            [
              20.076107025146484,
              39.70827102661133
            ],
            [
              19.918411254882812,
              39.70827102661133
            ],
            [
              20.009418487548828,
              39.9670295715332
            ],
            [
              19.62952995300293,
              40.29063034057617
            ],
            [
              19.47136878967285,
              40.29063034057617
            ],
            [
              19.48629379272461,
              40.614410400390625
            ],
            [
              19.2486515045166,
              40.614410400390625
            ],
            [
              19.254547119140625,
              40.74397277832031
            ],
            [
              19.33381462097168,
              40.74397277832031
            ],
            [
              19.81257438659668,
              40.80876541137695
            ],
            [
              19.917755126953125,
              41.32738494873047
            ],
            [
              19.765199661254883,
              41.45711898803711
            ],
            [
              19.857959747314453,
              41.71668243408203
            ],
            [
              19.705137252807617,
              41.84651184082031
            ],
            [
              19.715024948120117,
              42.041324615478516
            ],
            [
              19.171907424926758,
              42.36617660522461
            ],
            [
              19.178226470947266,
              42.496177673339844
            ],
            [
              19.97850227355957,
              42.496177673339844
            ],
            [
              20.50290298461914,
              43.276947021484375
            ],
            [
              19.884435653686523,
              43.73301696777344
            ],
            [
              19.817901611328125,
              43.99384307861328
            ],
            [
              19.495025634765625,
              43.99384307861328
            ],
            [
              19.34027862548828,
              44.12431716918945
            ],
            [
              19.343629837036133,
              44.18956756591797
            ],
            [
              19.107723236083984,
              44.32010269165039
            ],
            [
              19.299577713012695,
              44.908016204833984
            ],
            [
              19.14055824279785,
              44.973392486572266
            ],
            [
              19.143856048583984,
              45.03877639770508
            ],
            [
              19.14715576171875,
              45.10417556762695
            ],
            [
              19.15045738220215,
              45.169586181640625
            ],
            [
              19.231740951538086,
              45.169586181640625
            ],
            [
              19.235076904296875,
              45.23500442504883
            ],
            [
              19.885604858398438,
              45.23500442504883
            ],
            [
              20.136940002441406,
              45.36587905883789
            ],
            [
              20.288434982299805,
              45.169586181640625
            ],
            [
              20.5284423828125,
              45.10417556762695
            ],
            [
              20.590364456176758,
              44.77729415893555
            ],
            [
              20.829694747924805,
              44.71194839477539
            ],
            [
              21.080976486206055,
              44.842647552490234
            ],
            [
              21.40547752380371,
              44.842647552490234
            ],
            [
              21.87479591369629,
              44.58129119873047
            ],
            [
              22.1177921295166,
              44.58129119873047
            ],
            [
              22.126689910888672,
              44.71194839477539
            ],
            [
              22.297855377197266,
              44.842647552490234
            ],
            [
              22.541231155395508,
              44.842647552490234
            ],
            [
              22.636333465576172,
              45.03877639770508
            ],
            [
              22.879995346069336,
              45.03877639770508
            ],
            [
              22.87523651123047,
              44.973392486572266
            ]
          ]
        ]
      }
    }
  ]
}
