{
  "type": "FeatureCollection",
  "features": [
    {
      "type": "Feature",
      "properties": {
        "Name": "Dzungar Khanate",
        "FromYear": 1683,
        "ToYear": 1686,
        "Area": 1721863.1604643068,
        "Type": "POLITY",
        "Wikipedia": "Dzungar Khanate",
        "Wikidata": "Q1923401",
        "SeshatID": "mn_zungharian_emp",
        "Components": "",
        "MemberOf": "",
        "displayYear": 1683,
        "sourceYear": 1683,
        "mappedTerritoryId": "cliopatria_dzungar_khanate"
      },
      "geometry": {
        "type": "Polygon",
        "coordinates": [
          [
            [
              92.74707794189453,
              39.64360046386719
            ],
            [
              93.19642639160156,
              39.9670295715332
            ],
            [
              93.92472076416016,
              40.74397277832031
            ],
            [
              94.2928237915039,
              41.39224624633789
            ],
            [
              94.48135375976562,
              41.45711898803711
            ],
            [
              95.76094818115234,
              42.82133865356445
            ],
            [
              95.90279388427734,
              43.276947021484375
            ],
            [
              95.77397918701172,
              43.342071533203125
            ],
            [
              95.773681640625,
              43.6678352355957
            ],
            [
              95.53234100341797,
              43.99384307861328
            ],
            [
              95.32258605957031,
              44.05907440185547
            ],
            [
              95.3393325805664,
              44.25482940673828
            ],
            [
              94.80583190917969,
              44.32010269165039
            ],
            [
              94.70895385742188,
              44.45067596435547
            ],
            [
              94.54708099365234,
              44.45067596435547
            ],
            [
              94.57954406738281,
              44.5159797668457
            ],
            [
              94.41761016845703,
              44.5159797668457
            ],
            [
              94.45006561279297,
              44.58129119873047
            ],
            [
              93.94771575927734,
              44.71194839477539
            ],
            [
              93.80162811279297,
              44.908016204833984
            ],
            [
              93.55815887451172,
              44.908016204833984
            ],
            [
              93.59053802490234,
              44.973392486572266
            ],
            [
              91.7549057006836,
              45.03877639770508
            ],
            [
              91.78665924072266,
              45.10417556762695
            ],
            [
              91.00562286376953,
              45.169586181640625
            ],
            [
              90.90606689453125,
              45.300437927246094
            ],
            [
              90.74337005615234,
              45.300437927246094
            ],
            [
              90.59378051757812,
              45.496795654296875
            ],
            [
              90.994384765625,
              46.1520881652832
            ],
            [
              90.91261291503906,
              46.1520881652832
            ],
            [
              91.00859832763672,
              46.677207946777344
            ],
            [
              90.17317962646484,
              47.79592514038086
            ],
            [
              89.71098327636719,
              47.86185836791992
            ],
            [
              89.61286163330078,
              47.993770599365234
            ],
            [
              89.0337905883789,
              47.993770599365234
            ],
            [
              88.93529510498047,
              48.1257438659668
            ],
            [
              88.76969909667969,
              48.1257438659668
            ],
            [
              88.80326080322266,
              48.191749572753906
            ],
            [
              88.6375961303711,
              48.191749572753906
            ],
            [
              88.62197875976562,
              48.323814392089844
            ],
            [
              88.32398986816406,
              48.38986587524414
            ],
            [
              88.30854797363281,
              48.52202224731445
            ],
            [
              88.05951690673828,
              48.52202224731445
            ],
            [
              87.8968734741211,
              48.852684020996094
            ],
            [
              87.73048400878906,
              48.852684020996094
            ],
            [
              87.78443908691406,
              49.11750411987305
            ],
            [
              87.33345031738281,
              49.051273345947266
            ],
            [
              87.1864013671875,
              49.2500114440918
            ],
            [
              86.75463104248047,
              49.38258361816406
            ],
            [
              86.60783386230469,
              49.58156967163086
            ],
            [
              86.57315063476562,
              49.51522445678711
            ],
            [
              85.9389877319336,
              49.58156967163086
            ],
            [
              85.97349548339844,
              49.64793395996094
            ],
            [
              85.220703125,
              49.64793395996094
            ],
            [
              84.58384704589844,
              49.38258361816406
            ],
            [
              84.50035858154297,
              49.38258361816406
            ],
            [
              84.18576049804688,
              48.91886520385742
            ],
            [
              83.83905029296875,
              48.72037124633789
            ],
            [
              82.39451599121094,
              48.654239654541016
            ],
            [
              81.93778228759766,
              48.38986587524414
            ],
            [
              80.55032348632812,
              48.257774353027344
            ],
            [
              80.09963989257812,
              47.993770599365234
            ],
            [
              79.9234848022461,
              47.598209381103516
            ],
            [
              79.39262390136719,
              47.13737487792969
            ],
            [
              79.27954864501953,
              46.87434005737305
            ],
            [
              79.25145721435547,
              46.808616638183594
            ],
            [
              79.33355712890625,
              46.808616638183594
            ],
            [
              79.24960327148438,
              46.61152267456055
            ],
            [
              79.0855941772461,
              46.61152267456055
            ],
            [
              78.97484588623047,
              46.348915100097656
            ],
            [
              78.456298828125,
              46.283294677734375
            ],
            [
              77.8016128540039,
              46.283294677734375
            ],
            [
              77.82868194580078,
              46.348915100097656
            ],
            [
              77.36439514160156,
              46.414546966552734
            ],
            [
              77.39138793945312,
              46.480194091796875
            ],
            [
              75.4511947631836,
              46.54585266113281
            ],
            [
              75.31684112548828,
              46.414546966552734
            ],
            [
              75.07113647460938,
              46.414546966552734
            ],
            [
              74.88140106201172,
              46.348915100097656
            ],
            [
              74.7525863647461,
              46.02093505859375
            ],
            [
              74.3186264038086,
              45.95537567138672
            ],
            [
              74.1169662475586,
              45.431331634521484
            ],
            [
              74.25473022460938,
              45.36587905883789
            ],
            [
              74.13007354736328,
              45.03877639770508
            ],
            [
              74.0488510131836,
              45.03877639770508
            ],
            [
              74.10968780517578,
              44.12431716918945
            ],
            [
              71.92626953125,
              43.6678352355957
            ],
            [
              70.82308197021484,
              43.276947021484375
            ],
            [
              70.33184814453125,
              43.016544342041016
            ],
            [
              69.73401641845703,
              42.43117141723633
            ],
            [
              70.13400268554688,
              42.43117141723633
            ],
            [
              70.48380279541016,
              42.75628662109375
            ],
            [
              71.70730590820312,
              43.276947021484375
            ],
            [
              74.35960388183594,
              43.92862319946289
            ],
            [
              74.20819091796875,
              43.08163070678711
            ],
            [
              73.37991333007812,
              42.10627746582031
            ],
            [
              73.60877227783203,
              41.84651184082031
            ],
            [
              73.63404083251953,
              41.45711898803711
            ],
            [
              73.71360778808594,
              41.45711898803711
            ],
            [
              73.66934967041016,
              41.32738494873047
            ],
            [
              73.81987762451172,
              41.06801223754883
            ],
            [
              73.73299407958984,
              40.80876541137695
            ],
            [
              73.84847259521484,
              40.6791877746582
            ],
            [
              73.39533996582031,
              39.51427459716797
            ],
            [
              73.6902847290039,
              39.449623107910156
            ],
            [
              73.61043548583984,
              39.19107437133789
            ],
            [
              73.78703308105469,
              38.997230529785156
            ],
            [
              73.78738403320312,
              38.738853454589844
            ],
            [
              73.67025756835938,
              38.60969924926758
            ],
            [
              73.74868774414062,
              38.60969924926758
            ],
            [
              73.96465301513672,
              38.54513168334961
            ],
            [
              74.3956069946289,
              38.67427444458008
            ],
            [
              75.3203353881836,
              39.1264533996582
            ],
            [
              75.79206848144531,
              39.1264533996582
            ],
            [
              76.28092956542969,
              38.93262481689453
            ],
            [
              76.59512329101562,
              38.93262481689453
            ],
            [
              77.16180419921875,
              38.738853454589844
            ],
            [
              77.257568359375,
              38.54513168334961
            ],
            [
              77.6670150756836,
              38.351463317871094
            ],
            [
              77.84146118164062,
              38.157840728759766
            ],
            [
              77.80143737792969,
              38.028785705566406
            ],
            [
              78.09307098388672,
              37.706241607666016
            ],
            [
              78.38568878173828,
              37.641746520996094
            ],
            [
              78.42435455322266,
              37.51277160644531
            ],
            [
              79.14535522460938,
              37.3193473815918
            ],
            [
              79.39822387695312,
              37.12596130371094
            ],
            [
              80.37127685546875,
              36.9970588684082
            ],
            [
              81.03121185302734,
              36.61045455932617
            ],
            [
              81.26437377929688,
              36.61045455932617
            ],
            [
              81.71249389648438,
              36.80373764038086
            ],
            [
              82.1014175415039,
              36.80373764038086
            ],
            [
              85.1133804321289,
              37.44829177856445
            ],
            [
              85.35621643066406,
              37.706241607666016
            ],
            [
              85.81294250488281,
              37.89975357055664
            ],
            [
              86.08140563964844,
              38.22237777709961
            ],
            [
              86.44012451171875,
              38.351463317871094
            ],
            [
              87.66171264648438,
              38.48057174682617
            ],
            [
              88.7458267211914,
              38.8680305480957
            ],
            [
              92.64201354980469,
              39.38497543334961
            ],
            [
              92.74707794189453,
              39.64360046386719
            ]
          ]
        ]
      }
    }
  ]
}
