{
  "type": "FeatureCollection",
  "features": [
    {
      "type": "Feature",
      "properties": {
        "Name": "Sultanate of Oman",
        "FromYear": 1830,
        "ToYear": 1855,
        "Area": 176397.18860134698,
        "Type": "POLITY",
        "Wikipedia": "Oman",
        "Wikidata": "Q842",
        "SeshatID": "om_busaidi_imamate_1",
        "Components": "",
        "MemberOf": "",
        "displayYear": 1851,
        "sourceYear": 1851,
        "mappedTerritoryId": "cliopatria_sultanate_of_oman"
      },
      "geometry": {
        "type": "MultiPolygon",
        "coordinates": [
          [
            [
              [
                59.00082778930664,
                20.664819717407227
              ],
              [
                58.97935485839844,
                20.40767478942871
              ],
              [
                58.81501007080078,
                20.214815139770508
              ],
              [
                58.666770935058594,
                20.214815139770508
              ],
              [
                58.76761245727539,
                20.53624725341797
              ],
              [
                58.772953033447266,
                20.60053253173828
              ],
              [
                59.00082778930664,
                20.664819717407227
              ]
            ]
          ],
          [
            [
              [
                58.811527252197266,
                23.622013092041016
              ],
              [
                59.08000183105469,
                23.30057144165039
              ],
              [
                59.0682487487793,
                23.171995162963867
              ],
              [
                59.280067443847656,
                23.043420791625977
              ],
              [
                59.2684440612793,
                22.914846420288086
              ],
              [
                59.543212890625,
                22.657697677612305
              ],
              [
                59.903873443603516,
                22.529123306274414
              ],
              [
                59.864044189453125,
                22.079116821289062
              ],
              [
                59.436954498291016,
                21.43625259399414
              ],
              [
                58.799705505371094,
                20.921964645385742
              ],
              [
                58.608638763427734,
                20.40767478942871
              ],
              [
                58.30677032470703,
                20.343387603759766
              ],
              [
                58.24849319458008,
                20.53624725341797
              ],
              [
                58.10017395019531,
                20.53624725341797
              ],
              [
                57.93083953857422,
                20.279102325439453
              ],
              [
                57.79355239868164,
                19.507661819458008
              ],
              [
                57.867584228515625,
                19.507661819458008
              ],
              [
                57.899253845214844,
                18.993366241455078
              ],
              [
                56.99609375,
                18.800504684448242
              ],
              [
                56.75362777709961,
                18.543354034423828
              ],
              [
                56.64381790161133,
                18.093341827392578
              ],
              [
                56.40702438354492,
                17.90047836303711
              ],
              [
                55.58990478515625,
                17.836191177368164
              ],
              [
                55.348690032958984,
                17.57904052734375
              ],
              [
                55.31448745727539,
                17.129026412963867
              ],
              [
                55.15735626220703,
                17.000450134277344
              ],
              [
                54.19893264770508,
                17.000450134277344
              ],
              [
                53.89468002319336,
                16.87187385559082
              ],
              [
                54.0061149597168,
                17.38617706298828
              ],
              [
                54.787635803222656,
                17.964767456054688
              ],
              [
                55.03881072998047,
                18.350492477416992
              ],
              [
                55.270442962646484,
                18.479066848754883
              ],
              [
                55.3643684387207,
                18.736217498779297
              ],
              [
                55.84343338012695,
                19.186227798461914
              ],
              [
                56.60676956176758,
                20.40767478942871
              ],
              [
                56.76017761230469,
                20.471960067749023
              ],
              [
                56.8548583984375,
                20.72910499572754
              ],
              [
                57.00837707519531,
                20.793392181396484
              ],
              [
                57.18785095214844,
                21.179107666015625
              ],
              [
                57.511051177978516,
                21.500539779663086
              ],
              [
                57.542823791503906,
                21.88625717163086
              ],
              [
                57.12870788574219,
                22.271976470947266
              ],
              [
                56.83116149902344,
                22.271976470947266
              ],
              [
                56.84720230102539,
                22.46483612060547
              ],
              [
                56.62931442260742,
                22.529123306274414
              ],
              [
                56.43838119506836,
                22.914846420288086
              ],
              [
                56.225830078125,
                23.043420791625977
              ],
              [
                56.173316955566406,
                23.30057144165039
              ],
              [
                55.88624954223633,
                23.429147720336914
              ],
              [
                55.701881408691406,
                23.879167556762695
              ],
              [
                55.70759963989258,
                23.943456649780273
              ],
              [
                56.0177001953125,
                24.07203483581543
              ],
              [
                55.823150634765625,
                24.393482208251953
              ],
              [
                55.865665435791016,
                24.843517303466797
              ],
              [
                56.027706146240234,
                24.97209930419922
              ],
              [
                56.08375549316406,
                24.779226303100586
              ],
              [
                56.23326873779297,
                24.779226303100586
              ],
              [
                56.401641845703125,
                24.97209930419922
              ],
              [
                56.4764289855957,
                24.97209930419922
              ],
              [
                56.78811264038086,
                24.329193115234375
              ],
              [
                57.06272888183594,
                24.07203483581543
              ],
              [
                57.355316162109375,
                24.00774574279785
              ],
              [
                57.34935760498047,
                23.943456649780273
              ],
              [
                58.811527252197266,
                23.622013092041016
              ]
            ]
          ],
          [
            [
              [
                56.39881896972656,
                25.67931365966797
              ],
              [
                56.392086029052734,
                25.615020751953125
              ],
              [
                56.249000549316406,
                25.67931365966797
              ],
              [
                56.28312683105469,
                26.000778198242188
              ],
              [
                56.06513595581055,
                26.06507110595703
              ],
              [
                56.072078704833984,
                26.129364013671875
              ],
              [
                56.32533645629883,
                26.386537551879883
              ],
              [
                56.47541046142578,
                26.386537551879883
              ],
              [
                56.53614807128906,
                26.257951736450195
              ],
              [
                56.52906036376953,
                26.19365882873535
              ],
              [
                56.39881896972656,
                25.67931365966797
              ]
            ]
          ],
          [
            [
              [
                56.32361602783203,
                27.029460906982422
              ],
              [
                56.30864334106445,
                26.900876998901367
              ],
              [
                56.06119155883789,
                26.70800018310547
              ],
              [
                55.28888702392578,
                26.515121459960938
              ],
              [
                55.31023025512695,
                26.70800018310547
              ],
              [
                55.535518646240234,
                26.70800018310547
              ],
              [
                55.79009246826172,
                26.96516990661621
              ],
              [
                56.01552963256836,
                26.96516990661621
              ],
              [
                56.02298355102539,
                27.029460906982422
              ],
              [
                56.32361602783203,
                27.029460906982422
              ]
            ]
          ]
        ]
      }
    }
  ]
}
