{
  "type": "FeatureCollection",
  "features": [
    {
      "type": "Feature",
      "properties": {
        "Name": "Crown of Aragon",
        "FromYear": 1326,
        "ToYear": 1343,
        "Area": 115445.37576330872,
        "Type": "POLITY",
        "Wikipedia": "Crown of Aragon",
        "Wikidata": "Q204920",
        "SeshatID": "es_aragon_crown",
        "Components": "",
        "MemberOf": "",
        "displayYear": 1333,
        "sourceYear": 1333,
        "mappedTerritoryId": "cliopatria_crown_of_aragon"
      },
      "geometry": {
        "type": "MultiPolygon",
        "coordinates": [
          [
            [
              [
                9.50210952758789,
                41.19768524169922
              ],
              [
                9.821690559387207,
                40.74397277832031
              ],
              [
                9.823226928710938,
                40.355369567871094
              ],
              [
                9.665326118469238,
                40.29063034057617
              ],
              [
                9.744987487792969,
                40.16116714477539
              ],
              [
                9.670903205871582,
                39.19107437133789
              ],
              [
                9.120378494262695,
                39.19107437133789
              ],
              [
                8.96590518951416,
                38.8680305480957
              ],
              [
                8.415505409240723,
                38.93262481689453
              ],
              [
                8.330102920532227,
                39.51427459716797
              ],
              [
                8.40887451171875,
                39.51427459716797
              ],
              [
                8.408137321472168,
                39.57893371582031
              ],
              [
                8.959155082702637,
                39.64360046386719
              ],
              [
                9.272167205810547,
                39.9670295715332
              ],
              [
                9.112258911132812,
                40.225894927978516
              ],
              [
                8.796040534973145,
                40.225894927978516
              ],
              [
                8.716985702514648,
                40.225894927978516
              ],
              [
                8.401503562927246,
                40.16116714477539
              ],
              [
                8.318660736083984,
                40.4848747253418
              ],
              [
                8.159523010253906,
                40.54964065551758
              ],
              [
                8.154606819152832,
                40.93837356567383
              ],
              [
                8.552037239074707,
                40.873565673828125
              ],
              [
                9.024832725524902,
                41.26253128051758
              ],
              [
                9.10431957244873,
                41.26253128051758
              ],
              [
                9.50210952758789,
                41.19768524169922
              ]
            ]
          ],
          [
            [
              [
                1.412113666534424,
                42.496177673339844
              ],
              [
                1.415431022644043,
                42.43117141723633
              ],
              [
                1.418739318847656,
                42.36617660522461
              ],
              [
                1.505239844322205,
                42.236209869384766
              ],
              [
                2.860961675643921,
                42.30118942260742
              ],
              [
                2.863730669021606,
                42.236209869384766
              ],
              [
                3.114119291305542,
                41.97637939453125
              ],
              [
                2.885612010955811,
                41.71668243408203
              ],
              [
                2.333626985549927,
                41.586883544921875
              ],
              [
                2.106574535369873,
                41.32738494873047
              ],
              [
                1.238392949104309,
                41.19768524169922
              ],
              [
                0.695793092250824,
                40.93837356567383
              ],
              [
                0.709256291389465,
                40.6791877746582
              ],
              [
                0.474957317113876,
                40.614410400390625
              ],
              [
                0.247769102454185,
                40.42012023925781
              ],
              [
                0.182543575763702,
                40.16116714477539
              ],
              [
                -0.201878547668457,
                39.9670295715332
              ],
              [
                -0.345421016216278,
                39.70827102661133
              ],
              [
                -0.313707679510117,
                39.1264533996582
              ],
              [
                0.099359586834908,
                38.738853454589844
              ],
              [
                -0.357796877622604,
                38.48057174682617
              ],
              [
                -0.436175793409348,
                38.48057174682617
              ],
              [
                -0.678330957889557,
                38.60969924926758
              ],
              [
                -0.771014451980591,
                38.8680305480957
              ],
              [
                -1.092494964599609,
                38.997230529785156
              ],
              [
                -1.114913702011108,
                39.38497543334961
              ],
              [
                -1.354927182197571,
                39.449623107910156
              ],
              [
                -1.370439767837524,
                39.70827102661133
              ],
              [
                -1.145419836044312,
                39.90232849121094
              ],
              [
                -1.15704333782196,
                40.0964469909668
              ],
              [
                -1.726450324058533,
                40.355369567871094
              ],
              [
                -1.513591289520264,
                40.74397277832031
              ],
              [
                -2.098877191543579,
                41.19768524169922
              ],
              [
                -2.116528034210205,
                41.45711898803711
              ],
              [
                -1.8821781873703,
                41.521995544433594
              ],
              [
                -1.979450225830078,
                41.781593322753906
              ],
              [
                -1.820028781890869,
                41.781593322753906
              ],
              [
                -1.828825831413269,
                41.911441802978516
              ],
              [
                -1.429987907409668,
                41.911441802978516
              ],
              [
                -1.438547492027283,
                42.041324615478516
              ],
              [
                -1.442844986915588,
                42.10627746582031
              ],
              [
                -1.388849973678589,
                42.496177673339844
              ],
              [
                -0.857915937900543,
                42.95146560668945
              ],
              [
                -0.288277387619019,
                42.82133865356445
              ],
              [
                0.040142297744751,
                42.691246032714844
              ],
              [
                0.994516909122467,
                42.82133865356445
              ],
              [
                1.074691534042358,
                42.82133865356445
              ],
              [
                1.485537886619568,
                42.62621307373047
              ],
              [
                1.488844156265259,
                42.56119155883789
              ],
              [
                1.492141246795654,
                42.496177673339844
              ],
              [
                1.412113666534424,
                42.496177673339844
              ]
            ]
          ]
        ]
      }
    }
  ]
}
