{
  "type": "FeatureCollection",
  "features": [
    {
      "type": "Feature",
      "properties": {
        "Name": "Yugoslavia",
        "FromYear": 1945,
        "ToYear": 1945,
        "Area": 250299.5656504925,
        "Type": "POLITY",
        "Wikipedia": "Yugoslavia",
        "Wikidata": "Q83286",
        "SeshatID": "",
        "Components": "",
        "MemberOf": "",
        "displayYear": 1945,
        "sourceYear": 1945,
        "mappedTerritoryId": "cliopatria_yugoslavia"
      },
      "geometry": {
        "type": "MultiPolygon",
        "coordinates": [
          [
            [
              [
                22.94363784790039,
                41.39224624633789
              ],
              [
                22.529191970825195,
                41.132843017578125
              ],
              [
                22.052602767944336,
                41.132843017578125
              ],
              [
                21.07770347595215,
                40.74397277832031
              ],
              [
                20.54340934753418,
                41.132843017578125
              ],
              [
                20.495418548583984,
                41.71668243408203
              ],
              [
                20.57509994506836,
                41.71668243408203
              ],
              [
                20.593097686767578,
                42.041324615478516
              ],
              [
                20.062023162841797,
                42.56119155883789
              ],
              [
                19.898473739624023,
                42.496177673339844
              ],
              [
                19.66509437561035,
                42.62621307373047
              ],
              [
                19.415058135986328,
                42.43117141723633
              ],
              [
                19.389352798461914,
                41.911441802978516
              ],
              [
                19.309585571289062,
                41.911441802978516
              ],
              [
                18.85202980041504,
                42.36617660522461
              ],
              [
                18.143457412719727,
                42.62621307373047
              ],
              [
                17.991540908813477,
                42.82133865356445
              ],
              [
                17.593284606933594,
                42.88639831542969
              ],
              [
                17.50791358947754,
                42.75628662109375
              ],
              [
                17.515670776367188,
                42.95146560668945
              ],
              [
                17.35520362854004,
                42.95146560668945
              ],
              [
                17.36538314819336,
                43.211830139160156
              ],
              [
                17.12186050415039,
                43.146724700927734
              ],
              [
                17.05129051208496,
                43.407203674316406
              ],
              [
                16.727190017700195,
                43.342071533203125
              ],
              [
                16.734172821044922,
                43.53750228881836
              ],
              [
                16.575437545776367,
                43.6026611328125
              ],
              [
                15.927099227905273,
                43.472347259521484
              ],
              [
                16.01169204711914,
                43.6026611328125
              ],
              [
                15.856636047363281,
                43.79821014404297
              ],
              [
                15.695383071899414,
                43.79821014404297
              ],
              [
                15.618592262268066,
                43.92862319946289
              ],
              [
                15.374701499938965,
                43.86341094970703
              ],
              [
                15.459075927734375,
                43.99384307861328
              ],
              [
                15.218687057495117,
                44.05907440185547
              ],
              [
                15.146636962890625,
                44.38538360595703
              ],
              [
                14.908865928649902,
                44.58129119873047
              ],
              [
                14.91874885559082,
                44.973392486572266
              ],
              [
                14.515777587890625,
                45.10417556762695
              ],
              [
                14.603090286254883,
                45.36587905883789
              ],
              [
                14.196189880371094,
                45.36587905883789
              ],
              [
                14.189410209655762,
                45.03877639770508
              ],
              [
                13.945749282836914,
                45.03877639770508
              ],
              [
                13.943220138549805,
                44.908016204833984
              ],
              [
                13.780906677246094,
                44.908016204833984
              ],
              [
                13.705584526062012,
                45.23500442504883
              ],
              [
                13.544051170349121,
                45.300437927246094
              ],
              [
                13.547340393066406,
                45.496795654296875
              ],
              [
                13.710229873657227,
                45.496795654296875
              ],
              [
                13.714865684509277,
                45.75876998901367
              ],
              [
                13.633292198181152,
                45.75876998901367
              ],
              [
                13.635544776916504,
                45.889827728271484
              ],
              [
                13.473328590393066,
                45.95537567138672
              ],
              [
                13.559380531311035,
                46.21768569946289
              ],
              [
                13.396806716918945,
                46.283294677734375
              ],
              [
                13.563776969909668,
                46.480194091796875
              ],
              [
                14.137324333190918,
                46.480194091796875
              ],
              [
                14.625872611999512,
                46.348915100097656
              ],
              [
                14.878016471862793,
                46.61152267456055
              ],
              [
                15.370028495788574,
                46.61152267456055
              ],
              [
                15.452030181884766,
                46.61152267456055
              ],
              [
                15.864084243774414,
                46.677207946777344
              ],
              [
                16.036643981933594,
                46.94007873535156
              ],
              [
                16.28315544128418,
                46.94007873535156
              ],
              [
                16.278697967529297,
                46.808616638183594
              ],
              [
                16.597719192504883,
                46.54585266113281
              ],
              [
                16.593053817749023,
                46.414546966552734
              ],
              [
                16.836334228515625,
                46.348915100097656
              ],
              [
                17.151081085205078,
                46.02093505859375
              ],
              [
                17.87512969970703,
                45.75876998901367
              ],
              [
                18.446147918701172,
                45.75876998901367
              ],
              [
                19.445716857910156,
                46.1520881652832
              ],
              [
                20.263416290283203,
                46.1520881652832
              ],
              [
                20.333738327026367,
                45.95537567138672
              ],
              [
                20.81178855895996,
                45.75876998901367
              ],
              [
                20.869359970092773,
                45.36587905883789
              ],
              [
                21.42641258239746,
                45.169586181640625
              ],
              [
                21.401302337646484,
                44.77729415893555
              ],
              [
                21.879146575927734,
                44.64661407470703
              ],
              [
                21.951416015625,
                44.5159797668457
              ],
              [
                22.689453125,
                44.64661407470703
              ],
              [
                22.518192291259766,
                44.5159797668457
              ],
              [
                22.50443458557129,
                44.32010269165039
              ],
              [
                22.66154670715332,
                44.25482940673828
              ],
              [
                22.652294158935547,
                44.12431716918945
              ],
              [
                22.400911331176758,
                43.99384307861328
              ],
              [
                22.373964309692383,
                43.6026611328125
              ],
              [
                22.909780502319336,
                43.211830139160156
              ],
              [
                22.900545120239258,
                43.08163070678711
              ],
              [
                22.481321334838867,
                42.82133865356445
              ],
              [
                22.539382934570312,
                42.496177673339844
              ],
              [
                22.366365432739258,
                42.30118942260742
              ],
              [
                22.513214111328125,
                42.10627746582031
              ],
              [
                22.67292022705078,
                42.10627746582031
              ],
              [
                22.899127960205078,
                41.911441802978516
              ],
              [
                22.94363784790039,
                41.39224624633789
              ]
            ]
          ],
          [
            [
              [
                14.350428581237793,
                44.973392486572266
              ],
              [
                14.51131820678711,
                44.908016204833984
              ],
              [
                14.502378463745117,
                44.5159797668457
              ],
              [
                14.260871887207031,
                44.58129119873047
              ],
              [
                14.269240379333496,
                44.973392486572266
              ],
              [
                14.350428581237793,
                44.973392486572266
              ]
            ]
          ]
        ]
      }
    }
  ]
}
