{
  "type": "FeatureCollection",
  "features": [
    {
      "type": "Feature",
      "properties": {
        "Name": "Kingdom of Cambodia",
        "FromYear": 1996,
        "ToYear": 2023,
        "Area": 184307.34982487344,
        "Type": "POLITY",
        "Wikipedia": "Cambodia",
        "Wikidata": "Q424",
        "SeshatID": "",
        "Components": "",
        "MemberOf": "",
        "displayYear": 2020,
        "sourceYear": 2020,
        "mappedTerritoryId": "cliopatria_kingdom_of_cambodia"
      },
      "geometry": {
        "type": "Polygon",
        "coordinates": [
          [
            [
              107.61723327636719,
              13.657480239868164
            ],
            [
              107.38037109375,
              14.107494354248047
            ],
            [
              107.5127182006836,
              14.55750846862793
            ],
            [
              106.89125061035156,
              14.300357818603516
            ],
            [
              106.63114166259766,
              14.55750846862793
            ],
            [
              106.17350769042969,
              14.428933143615723
            ],
            [
              106.03453826904297,
              13.914630889892578
            ],
            [
              105.69166564941406,
              14.107494354248047
            ],
            [
              105.25923156738281,
              14.171781539916992
            ],
            [
              105.27556610107422,
              14.300357818603516
            ],
            [
              104.9818115234375,
              14.300357818603516
            ],
            [
              104.9248275756836,
              14.428933143615723
            ],
            [
              103.45578002929688,
              14.428933143615723
            ],
            [
              102.90162658691406,
              14.107494354248047
            ],
            [
              102.70829010009766,
              13.721768379211426
            ],
            [
              102.39213562011719,
              13.528904914855957
            ],
            [
              102.35527038574219,
              13.207467079162598
            ],
            [
              102.6440658569336,
              12.500303268432617
            ],
            [
              102.84342956542969,
              12.307440757751465
            ],
            [
              102.74337005615234,
              12.050291061401367
            ],
            [
              102.73677062988281,
              11.986002922058105
            ],
            [
              102.8701400756836,
              11.857428550720215
            ],
            [
              102.84432220458984,
              11.6002779006958
            ],
            [
              103.05123901367188,
              11.47170352935791
            ],
            [
              103.06279754638672,
              10.828827857971191
            ],
            [
              103.3554458618164,
              10.828827857971191
            ],
            [
              103.59931945800781,
              11.085978507995605
            ],
            [
              103.64208221435547,
              10.764540672302246
            ],
            [
              103.48978424072266,
              10.7002534866333
            ],
            [
              103.54518127441406,
              10.507390975952148
            ],
            [
              103.91679382324219,
              10.571678161621094
            ],
            [
              104.34383392333984,
              10.443102836608887
            ],
            [
              104.4169692993164,
              10.443102836608887
            ],
            [
              104.94083404541016,
              10.571678161621094
            ],
            [
              105.11748504638672,
              10.893115997314453
            ],
            [
              105.78219604492188,
              10.957403182983398
            ],
            [
              105.91613006591797,
              10.828827857971191
            ],
            [
              106.1356201171875,
              10.828827857971191
            ],
            [
              106.22122192382812,
              10.957403182983398
            ],
            [
              105.88694763183594,
              11.278841018676758
            ],
            [
              105.84618377685547,
              11.6002779006958
            ],
            [
              106.005859375,
              11.728853225708008
            ],
            [
              106.37198638916016,
              11.728853225708008
            ],
            [
              106.54549407958984,
              11.986002922058105
            ],
            [
              106.76522827148438,
              11.986002922058105
            ],
            [
              107.08599853515625,
              12.24315357208252
            ],
            [
              107.5397720336914,
              12.37172794342041
            ],
            [
              107.54692840576172,
              12.436016082763672
            ],
            [
              107.64191436767578,
              12.628878593444824
            ],
            [
              107.5248031616211,
              12.886029243469238
            ],
            [
              107.66691589355469,
              13.464617729187012
            ],
            [
              107.60929870605469,
              13.593193054199219
            ],
            [
              107.61723327636719,
              13.657480239868164
            ]
          ]
        ]
      }
    }
  ]
}
