{"type": "FeatureCollection", "features": [{"type": "Feature", "properties": {"name": "Goguryeo", "displayYear": 400, "fromYear": 395, "toYear": 401, "wikipedia": "Goguryeo", "seshatId": "kr_goguryeo_k", "areaKm2": 220819.18018316728, "source": "Seshat Cliopatria"}, "geometry": {"type": "Polygon", "coordinates": [[[129.77735900878906, 41.65177917480469], [129.7268524169922, 41.32738494873047], [129.8822021484375, 41.19768524169922], [129.75584411621094, 40.873565673828125], [129.23776245117188, 40.6791877746582], [129.0777130126953, 40.42012023925781], [128.6822052001953, 40.29063034057617], [128.3679962158203, 40.031734466552734], [127.9345932006836, 39.9670295715332], [127.58325958251953, 39.77294921875], [127.665283203125, 39.64360046386719], [127.44142150878906, 39.25570297241211], [127.79782104492188, 39.19107437133789], [127.92344665527344, 38.997230529785156], [128.36380004882812, 38.80344009399414], [129.10020446777344, 37.5772590637207], [129.2563018798828, 37.5772590637207], [129.38720703125, 37.38381576538086], [129.35301208496094, 37.3193473815918], [129.20703125, 37.1904182434082], [128.69540405273438, 37.254878997802734], [127.99439239501953, 36.80373764038086], [127.8718032836914, 36.8681755065918], [127.93807220458984, 36.9970588684082], [127.81562042236328, 37.06150817871094], [127.88243865966797, 37.1904182434082], [127.61720275878906, 37.5772590637207], [127.68551635742188, 37.706241607666016], [127.5979995727539, 37.835243225097656], [126.6025161743164, 37.5772590637207], [126.52446746826172, 37.5772590637207], [126.24594116210938, 37.641746520996094], [126.34768676757812, 37.835243225097656], [125.84493255615234, 37.7707405090332], [125.83466339111328, 37.89975357055664], [125.6783218383789, 37.89975357055664], [125.38711547851562, 37.641746520996094], [125.23096466064453, 37.641746520996094], [125.29808044433594, 37.7707405090332], [125.20932006835938, 37.89975357055664], [124.89665222167969, 37.89975357055664], [125.07669067382812, 38.09331130981445], [124.76374053955078, 38.09331130981445], [124.86637115478516, 38.28691864013672], [124.7880630493164, 38.28691864013672], [124.96138000488281, 38.60969924926758], [125.15330505371094, 38.67427444458008], [125.18850708007812, 38.738853454589844], [125.03155517578125, 38.738853454589844], [125.39002990722656, 39.38497543334961], [125.30574798583984, 39.51427459716797], [124.86974334716797, 39.57893371582031], [124.86456298828125, 39.70827102661133], [124.51239776611328, 39.64360046386719], [124.3446044921875, 39.90232849121094], [124.26568603515625, 39.90232849121094], [124.56999206542969, 40.29063034057617], [124.88362121582031, 40.42012023925781], [125.0769271850586, 40.74397277832031], [124.99766540527344, 40.74397277832031], [125.03530883789062, 41.06801223754883], [124.83663940429688, 41.132843017578125], [124.7572021484375, 41.132843017578125], [124.00180053710938, 41.45711898803711], [124.04171752929688, 41.521995544433594], [123.80292510986328, 41.521995544433594], [123.84288024902344, 41.586883544921875], [123.56433868408203, 41.65177917480469], [123.60441589355469, 41.71668243408203], [123.36537170410156, 41.71668243408203], [123.40548706054688, 41.781593322753906], [123.12676239013672, 41.84651184082031], [123.1669921875, 41.911441802978516], [123.24675750732422, 41.911441802978516], [124.60717010498047, 42.17123794555664], [125.45890045166016, 42.62621307373047], [126.46783447265625, 42.82133865356445], [130.33346557617188, 43.08163070678711], [130.65463256835938, 43.08163070678711], [130.60995483398438, 43.016544342041016], [130.77049255371094, 43.016544342041016], [130.76153564453125, 42.88639831542969], [130.92193603515625, 42.88639831542969], [130.7445831298828, 42.62621307373047], [130.90475463867188, 42.62621307373047], [130.7727508544922, 42.43117141723633], [130.32212829589844, 42.236209869384766], [129.6977081298828, 41.65177917480469], [129.77735900878906, 41.65177917480469]], [[126.91495513916016, 38.738853454589844], [126.9934310913086, 38.738853454589844], [127.02931213378906, 38.80344009399414], [126.95081329345703, 38.80344009399414], [126.91495513916016, 38.738853454589844]]]}}]}