{
  "type": "FeatureCollection",
  "features": [
    {
      "type": "Feature",
      "properties": {
        "Name": "Emirate of Córdoba",
        "FromYear": 922,
        "ToYear": 925,
        "Area": 408298.84480022424,
        "Type": "POLITY",
        "Wikipedia": "Emirate of Córdoba",
        "Wikidata": "Q1337854",
        "SeshatID": "es_cordoba_emirate",
        "Components": "",
        "MemberOf": "",
        "displayYear": 923,
        "sourceYear": 923,
        "mappedTerritoryId": "cliopatria_emirate_of_c_rdoba"
      },
      "geometry": {
        "type": "MultiPolygon",
        "coordinates": [
          [
            [
              [
                1.651834011077881,
                39.1264533996582
              ],
              [
                1.657540321350098,
                38.997230529785156
              ],
              [
                1.430543661117554,
                38.80344009399414
              ],
              [
                1.273545265197754,
                38.80344009399414
              ],
              [
                1.183109045028687,
                39.06184005737305
              ],
              [
                1.258725643157959,
                39.1264533996582
              ],
              [
                1.337347388267517,
                39.1264533996582
              ],
              [
                1.651834011077881,
                39.1264533996582
              ]
            ]
          ],
          [
            [
              [
                1.365143060684204,
                41.84651184082031
              ],
              [
                1.368399381637573,
                41.781593322753906
              ],
              [
                1.448110103607178,
                41.781593322753906
              ],
              [
                1.451329112052917,
                41.71668243408203
              ],
              [
                1.791565299034119,
                41.26253128051758
              ],
              [
                1.712078809738159,
                41.26253128051758
              ],
              [
                1.238392949104309,
                41.19768524169922
              ],
              [
                0.695793092250824,
                40.93837356567383
              ],
              [
                0.709256291389465,
                40.6791877746582
              ],
              [
                0.474957317113876,
                40.614410400390625
              ],
              [
                0.247769102454185,
                40.42012023925781
              ],
              [
                0.182543575763702,
                40.16116714477539
              ],
              [
                -0.201878547668457,
                39.9670295715332
              ],
              [
                -0.345421016216278,
                39.70827102661133
              ],
              [
                -0.313707679510117,
                39.1264533996582
              ],
              [
                0.099359586834908,
                38.738853454589844
              ],
              [
                -0.660861134529114,
                38.28691864013672
              ],
              [
                -0.803495347499847,
                38.028785705566406
              ],
              [
                -0.704753637313843,
                37.641746520996094
              ],
              [
                -1.708719491958618,
                37.44829177856445
              ],
              [
                -1.623468399047852,
                37.3193473815918
              ],
              [
                -1.857354998588562,
                37.3193473815918
              ],
              [
                -2.061630010604858,
                36.80373764038086
              ],
              [
                -2.532132625579834,
                36.8681755065918
              ],
              [
                -2.680080890655518,
                36.73930740356445
              ],
              [
                -4.468626022338867,
                36.73930740356445
              ],
              [
                -4.688807487487793,
                36.5460319519043
              ],
              [
                -5.22819709777832,
                36.48161697387695
              ],
              [
                -5.287947177886963,
                36.2239875793457
              ],
              [
                -5.51620626449585,
                36.15959167480469
              ],
              [
                -5.584750652313232,
                36.03080368041992
              ],
              [
                -5.831079006195068,
                36.2239875793457
              ],
              [
                -6.063849925994873,
                36.2239875793457
              ],
              [
                -6.330093860626221,
                36.67487716674805
              ],
              [
                -6.349542140960693,
                36.932613372802734
              ],
              [
                -6.587993621826172,
                36.9970588684082
              ],
              [
                -6.84182596206665,
                37.254878997802734
              ],
              [
                -7.465344429016113,
                37.254878997802734
              ],
              [
                -7.454815864562988,
                37.12596130371094
              ],
              [
                -7.677903652191162,
                36.9970588684082
              ],
              [
                -8.067157745361328,
                36.9970588684082
              ],
              [
                -8.311661720275879,
                37.12596130371094
              ],
              [
                -8.70113754272461,
                37.12596130371094
              ],
              [
                -9.00136661529541,
                36.9970588684082
              ],
              [
                -8.896896362304688,
                37.5772590637207
              ],
              [
                -8.818843841552734,
                37.5772590637207
              ],
              [
                -8.822718620300293,
                38.48057174682617
              ],
              [
                -9.20852279663086,
                38.416015625
              ],
              [
                -9.23299789428711,
                38.67427444458008
              ],
              [
                -9.38370418548584,
                38.60969924926758
              ],
              [
                -9.553065299987793,
                38.738853454589844
              ],
              [
                -9.571974754333496,
                38.93262481689453
              ],
              [
                -9.42748737335205,
                39.06184005737305
              ],
              [
                -9.387048721313477,
                39.449623107910156
              ],
              [
                -9.157164573669434,
                39.51427459716797
              ],
              [
                -9.044321060180664,
                39.9670295715332
              ],
              [
                -8.965371131896973,
                39.9670295715332
              ],
              [
                -8.97181224822998,
                40.031734466552734
              ],
              [
                -8.485403060913086,
                39.90232849121094
              ],
              [
                -8.182049751281738,
                40.031734466552734
              ],
              [
                -8.140421867370605,
                40.42012023925781
              ],
              [
                -8.219554901123047,
                40.42012023925781
              ],
              [
                -8.238571166992188,
                40.614410400390625
              ],
              [
                -8.09281063079834,
                40.74397277832031
              ],
              [
                -8.11837387084961,
                41.00318908691406
              ],
              [
                -7.813545227050781,
                41.132843017578125
              ],
              [
                -7.568986415863037,
                41.06801223754883
              ],
              [
                -7.422617435455322,
                41.19768524169922
              ],
              [
                -7.098663806915283,
                41.132843017578125
              ],
              [
                -7.031431674957275,
                41.26253128051758
              ],
              [
                -5.293777465820312,
                41.39224624633789
              ],
              [
                -5.145692348480225,
                41.521995544433594
              ],
              [
                -4.747703075408936,
                41.521995544433594
              ],
              [
                -4.519521236419678,
                41.65177917480469
              ],
              [
                -3.961942195892334,
                41.65177917480469
              ],
              [
                -1.966176152229309,
                41.586883544921875
              ],
              [
                -1.979450225830078,
                41.781593322753906
              ],
              [
                -1.820028781890869,
                41.781593322753906
              ],
              [
                -1.775568842887878,
                42.30118942260742
              ],
              [
                -1.784502625465393,
                42.43117141723633
              ],
              [
                -1.140275835990906,
                42.36617660522461
              ],
              [
                -1.068739891052246,
                42.496177673339844
              ],
              [
                -0.748629748821259,
                42.496177673339844
              ],
              [
                -0.652363061904907,
                42.236209869384766
              ],
              [
                -0.492540627717972,
                42.236209869384766
              ],
              [
                0.074372105300426,
                42.10627746582031
              ],
              [
                0.161661341786385,
                41.97637939453125
              ],
              [
                0.636897385120392,
                42.041324615478516
              ],
              [
                0.723737120628357,
                41.911441802978516
              ],
              [
                1.122575044631958,
                41.911441802978516
              ],
              [
                1.202342629432678,
                41.911441802978516
              ],
              [
                1.205664873123169,
                41.84651184082031
              ],
              [
                1.285403966903687,
                41.84651184082031
              ],
              [
                1.365143060684204,
                41.84651184082031
              ]
            ]
          ],
          [
            [
              [
                3.19298791885376,
                39.9670295715332
              ],
              [
                3.197866439819336,
                39.8376350402832
              ],
              [
                3.515789270401001,
                39.77294921875
              ],
              [
                3.295835733413696,
                39.320335388183594
              ],
              [
                2.82365870475769,
                39.320335388183594
              ],
              [
                2.658556938171387,
                39.51427459716797
              ],
              [
                2.346148252487183,
                39.449623107910156
              ],
              [
                2.338095426559448,
                39.64360046386719
              ],
              [
                2.877186298370361,
                39.9670295715332
              ],
              [
                2.956136703491211,
                39.9670295715332
              ],
              [
                3.19298791885376,
                39.9670295715332
              ]
            ]
          ],
          [
            [
              [
                4.215116024017334,
                40.0964469909668
              ],
              [
                4.302449703216553,
                39.8376350402832
              ],
              [
                3.826826572418213,
                39.90232849121094
              ],
              [
                3.741101741790771,
                40.0964469909668
              ],
              [
                3.820104122161865,
                40.0964469909668
              ],
              [
                4.215116024017334,
                40.0964469909668
              ]
            ]
          ]
        ]
      }
    }
  ]
}
