{
  "type": "FeatureCollection",
  "features": [
    {
      "type": "Feature",
      "properties": {
        "Name": "Marinid Sultanate",
        "FromYear": 1363,
        "ToYear": 1414,
        "Area": 388541.00210950506,
        "Type": "POLITY",
        "Wikipedia": "Marinid Sultanate",
        "Wikidata": "Q582861",
        "SeshatID": "ma_marinid_dyn",
        "Components": "",
        "MemberOf": "",
        "displayYear": 1405,
        "sourceYear": 1405,
        "mappedTerritoryId": "cliopatria_marinid_sultanate"
      },
      "geometry": {
        "type": "MultiPolygon",
        "coordinates": [
          [
            [
              [
                -3.286933660507202,
                35.194007873535156
              ],
              [
                -2.981565713882446,
                35.258358001708984
              ],
              [
                -2.992615222930908,
                35.45143127441406
              ],
              [
                -2.837937116622925,
                35.45143127441406
              ],
              [
                -2.819781064987183,
                35.12965774536133
              ],
              [
                -2.198449373245239,
                35.065311431884766
              ],
              [
                -2.121232748031616,
                35.065311431884766
              ],
              [
                -2.114432096481323,
                34.93662643432617
              ],
              [
                -1.715473294258118,
                34.679283142089844
              ],
              [
                -1.578816890716553,
                33.45735549926758
              ],
              [
                -1.575780987739563,
                33.393062591552734
              ],
              [
                -1.879519820213318,
                33.32876968383789
              ],
              [
                -2.540791511535645,
                32.75019073486328
              ],
              [
                -2.840430974960327,
                32.62162780761719
              ],
              [
                -2.834011793136597,
                32.493072509765625
              ],
              [
                -3.203212976455688,
                32.23596954345703
              ],
              [
                -3.19352912902832,
                32.043148040771484
              ],
              [
                -3.349440097808838,
                32.107421875
              ],
              [
                -3.416012048721313,
                31.91460609436035
              ],
              [
                -3.638331174850464,
                31.78606605529785
              ],
              [
                -3.555586099624634,
                31.65752601623535
              ],
              [
                -3.780986070632935,
                31.593257904052734
              ],
              [
                -3.767992734909058,
                31.336183547973633
              ],
              [
                -3.923539161682129,
                31.40045166015625
              ],
              [
                -4.214911460876465,
                31.143381118774414
              ],
              [
                -4.208353042602539,
                31.014846801757812
              ],
              [
                -4.648018360137939,
                30.69350814819336
              ],
              [
                -4.565487384796143,
                30.564971923828125
              ],
              [
                -4.865938663482666,
                30.500701904296875
              ],
              [
                -5.442872047424316,
                29.922264099121094
              ],
              [
                -5.594444751739502,
                29.922264099121094
              ],
              [
                -5.884006500244141,
                29.665164947509766
              ],
              [
                -5.877293586730957,
                29.536611557006836
              ],
              [
                -6.180073738098145,
                29.536611557006836
              ],
              [
                -7.19746208190918,
                28.765243530273438
              ],
              [
                -7.348500728607178,
                28.765243530273438
              ],
              [
                -7.561113834381104,
                28.508106231689453
              ],
              [
                -8.006837844848633,
                28.379535675048828
              ],
              [
                -8.660667419433594,
                27.92952537536621
              ],
              [
                -10.468818664550781,
                27.92952537536621
              ],
              [
                -11.619404792785645,
                28.25096321105957
              ],
              [
                -10.977602005004883,
                28.829526901245117
              ],
              [
                -10.465293884277344,
                29.08665657043457
              ],
              [
                -10.33069133758545,
                29.34377670288086
              ],
              [
                -10.040523529052734,
                29.536611557006836
              ],
              [
                -10.048895835876465,
                29.665164947509766
              ],
              [
                -9.83006763458252,
                29.79371452331543
              ],
              [
                -9.627961158752441,
                30.179353713989258
              ],
              [
                -9.649378776550293,
                30.500701904296875
              ],
              [
                -9.881543159484863,
                30.564971923828125
              ],
              [
                -9.859257698059082,
                31.336183547973633
              ],
              [
                -9.783116340637207,
                31.336183547973633
              ],
              [
                -9.734487533569336,
                31.7217960357666
              ],
              [
                -9.5149564743042,
                31.8503360748291
              ],
              [
                -9.52421760559082,
                31.978878021240234
              ],
              [
                -9.309136390686035,
                32.171695709228516
              ],
              [
                -9.332544326782227,
                32.493072509765625
              ],
              [
                -9.198505401611328,
                32.75019073486328
              ],
              [
                -8.551655769348145,
                33.32876968383789
              ],
              [
                -7.129902839660645,
                33.84315490722656
              ],
              [
                -7.062007427215576,
                33.971771240234375
              ],
              [
                -6.90380334854126,
                33.90746307373047
              ],
              [
                -6.613898754119873,
                34.164703369140625
              ],
              [
                -6.699729919433594,
                34.2933349609375
              ],
              [
                -6.473203659057617,
                34.3576545715332
              ],
              [
                -6.482059955596924,
                34.48630142211914
              ],
              [
                -6.332395076751709,
                34.55062484741211
              ],
              [
                -6.277484893798828,
                34.87228775024414
              ],
              [
                -6.200328826904297,
                34.87228775024414
              ],
              [
                -6.290933609008789,
                35.065311431884766
              ],
              [
                -6.132044315338135,
                35.00096893310547
              ],
              [
                -6.14545202255249,
                35.194007873535156
              ],
              [
                -5.999861240386963,
                35.32271194458008
              ],
              [
                -5.876633644104004,
                35.77327346801758
              ],
              [
                -5.338923931121826,
                35.837650299072266
              ],
              [
                -5.239750862121582,
                35.51579284667969
              ],
              [
                -4.754821300506592,
                35.194007873535156
              ],
              [
                -3.364191055297852,
                35.194007873535156
              ],
              [
                -3.286933660507202,
                35.194007873535156
              ]
            ]
          ],
          [
            [
              [
                4.640142440795898,
                36.3527946472168
              ],
              [
                4.562509536743164,
                36.3527946472168
              ],
              [
                4.560747623443604,
                36.417205810546875
              ],
              [
                4.638402462005615,
                36.417205810546875
              ],
              [
                4.640142440795898,
                36.3527946472168
              ]
            ]
          ]
        ]
      }
    }
  ]
}
