{
  "type": "FeatureCollection",
  "features": [
    {
      "type": "Feature",
      "properties": {
        "Name": "Arab Republic of Egypt",
        "FromYear": 1983,
        "ToYear": 2023,
        "Area": 1010870.692181525,
        "Type": "POLITY",
        "Wikipedia": "Egypt",
        "Wikidata": "Q79",
        "SeshatID": "eg_egypt_modern_2",
        "Components": "",
        "MemberOf": "",
        "displayYear": 1984,
        "sourceYear": 1984,
        "mappedTerritoryId": "cliopatria_arab_republic_of_egypt"
      },
      "geometry": {
        "type": "Polygon",
        "coordinates": [
          [
            [
              29.877870559692383,
              31.20764923095703
            ],
            [
              29.78937339782715,
              31.014846801757812
            ],
            [
              29.485143661499023,
              31.014846801757812
            ],
            [
              29.3970890045166,
              30.822044372558594
            ],
            [
              28.865032196044922,
              30.822044372558594
            ],
            [
              28.496395111083984,
              31.014846801757812
            ],
            [
              27.514896392822266,
              31.143381118774414
            ],
            [
              27.297456741333008,
              31.336183547973633
            ],
            [
              26.847702026367188,
              31.464719772338867
            ],
            [
              25.248035430908203,
              31.464719772338867
            ],
            [
              25.17825698852539,
              31.593257904052734
            ],
            [
              25.102048873901367,
              31.593257904052734
            ],
            [
              24.864051818847656,
              31.40045166015625
            ],
            [
              24.982572555541992,
              30.69350814819336
            ],
            [
              24.7429256439209,
              30.436433792114258
            ],
            [
              24.72010040283203,
              29.922264099121094
            ],
            [
              24.93060874938965,
              29.536611557006836
            ],
            [
              24.935914993286133,
              27.800947189331055
            ],
            [
              25.011228561401367,
              27.800947189331055
            ],
            [
              24.99679183959961,
              27.41520881652832
            ],
            [
              25.072025299072266,
              27.41520881652832
            ],
            [
              25.06007957458496,
              21.950544357299805
            ],
            [
              31.156240463256836,
              21.950544357299805
            ],
            [
              31.309558868408203,
              22.079116821289062
            ],
            [
              31.60230255126953,
              21.950544357299805
            ],
            [
              36.95502853393555,
              21.950544357299805
            ],
            [
              36.9579963684082,
              22.014829635620117
            ],
            [
              36.24660110473633,
              22.72198486328125
            ],
            [
              35.808685302734375,
              22.914846420288086
            ],
            [
              35.546443939208984,
              23.68630027770996
            ],
            [
              35.558753967285156,
              23.943456649780273
            ],
            [
              35.85411834716797,
              23.879167556762695
            ],
            [
              35.860408782958984,
              24.00774574279785
            ],
            [
              35.145530700683594,
              24.650644302368164
            ],
            [
              34.60763931274414,
              25.807899475097656
            ],
            [
              34.461280822753906,
              25.8721923828125
            ],
            [
              34.197208404541016,
              26.515121459960938
            ],
            [
              34.05074691772461,
              26.57941436767578
            ],
            [
              34.07311248779297,
              26.96516990661621
            ],
            [
              33.92659378051758,
              27.029460906982422
            ],
            [
              33.7991943359375,
              27.41520881652832
            ],
            [
              33.585105895996094,
              27.608078002929688
            ],
            [
              33.60887145996094,
              27.993812561035156
            ],
            [
              33.10531997680664,
              28.379535675048828
            ],
            [
              32.83612823486328,
              28.893810272216797
            ],
            [
              32.68916320800781,
              28.958093643188477
            ],
            [
              32.44160079956055,
              29.79371452331543
            ],
            [
              32.60188293457031,
              29.922264099121094
            ],
            [
              32.58876037597656,
              29.729440689086914
            ],
            [
              32.857112884521484,
              29.21521759033203
            ],
            [
              33.14677429199219,
              29.022375106811523
            ],
            [
              33.18891525268555,
              28.508106231689453
            ],
            [
              33.40296936035156,
              28.315250396728516
            ],
            [
              33.553810119628906,
              28.315250396728516
            ],
            [
              33.6169548034668,
              28.12238883972168
            ],
            [
              34.12004470825195,
              27.736658096313477
            ],
            [
              34.345943450927734,
              27.736658096313477
            ],
            [
              34.35825729370117,
              27.92952537536621
            ],
            [
              34.517303466796875,
              28.058101654052734
            ],
            [
              34.75225830078125,
              29.279497146606445
            ],
            [
              34.91762161254883,
              29.472333908081055
            ],
            [
              34.92236328125,
              29.536611557006836
            ],
            [
              34.2972412109375,
              31.271915435791016
            ],
            [
              34.22111892700195,
              31.271915435791016
            ],
            [
              33.74934005737305,
              31.079113006591797
            ],
            [
              32.8316764831543,
              31.014846801757812
            ],
            [
              32.76515197753906,
              31.143381118774414
            ],
            [
              32.53215408325195,
              31.079113006591797
            ],
            [
              32.38941192626953,
              31.20764923095703
            ],
            [
              32.23719787597656,
              31.20764923095703
            ],
            [
              32.303932189941406,
              31.079113006591797
            ],
            [
              31.999635696411133,
              31.079113006591797
            ],
            [
              31.93739891052246,
              31.271915435791016
            ],
            [
              31.780553817749023,
              31.20764923095703
            ],
            [
              31.875221252441406,
              31.464719772338867
            ],
            [
              31.265825271606445,
              31.464719772338867
            ],
            [
              31.117990493774414,
              31.528987884521484
            ],
            [
              31.203296661376953,
              31.65752601623535
            ],
            [
              30.974620819091797,
              31.65752601623535
            ],
            [
              30.965608596801758,
              31.528987884521484
            ],
            [
              30.80877685546875,
              31.464719772338867
            ],
            [
              30.351730346679688,
              31.464719772338867
            ],
            [
              30.271244049072266,
              31.40045166015625
            ],
            [
              30.33879280090332,
              31.271915435791016
            ],
            [
              29.882049560546875,
              31.271915435791016
            ],
            [
              29.877870559692383,
              31.20764923095703
            ]
          ]
        ]
      }
    }
  ]
}
