{
  "type": "FeatureCollection",
  "features": [
    {
      "type": "Feature",
      "properties": {
        "Name": "Crown of Castile",
        "FromYear": 1363,
        "ToYear": 1374,
        "Area": 369600.7481061431,
        "Type": "POLITY",
        "Wikipedia": "Crown of Castile",
        "Wikidata": "Q217196",
        "SeshatID": "es_castile_crown",
        "Components": "",
        "MemberOf": "",
        "displayYear": 1368,
        "sourceYear": 1368,
        "mappedTerritoryId": "cliopatria_crown_of_castile"
      },
      "geometry": {
        "type": "Polygon",
        "coordinates": [
          [
            [
              -5.726631164550781,
              43.53750228881836
            ],
            [
              -7.175715446472168,
              43.53750228881836
            ],
            [
              -7.343485832214355,
              43.6026611328125
            ],
            [
              -7.276463031768799,
              43.73301696777344
            ],
            [
              -8.243616104125977,
              43.73301696777344
            ],
            [
              -8.39044189453125,
              43.6026611328125
            ],
            [
              -8.369025230407715,
              43.407203674316406
            ],
            [
              -8.851689338684082,
              43.407203674316406
            ],
            [
              -9.30460262298584,
              43.146724700927734
            ],
            [
              -9.078654289245605,
              42.56119155883789
            ],
            [
              -8.65738296508789,
              42.36617660522461
            ],
            [
              -8.956093788146973,
              42.17123794555664
            ],
            [
              -8.935100555419922,
              41.97637939453125
            ],
            [
              -8.928141593933105,
              41.911441802978516
            ],
            [
              -8.469955444335938,
              42.10627746582031
            ],
            [
              -8.150541305541992,
              42.10627746582031
            ],
            [
              -8.137139320373535,
              41.97637939453125
            ],
            [
              -8.216935157775879,
              41.97637939453125
            ],
            [
              -8.11717414855957,
              41.781593322753906
            ],
            [
              -6.700808048248291,
              41.97637939453125
            ],
            [
              -6.351566314697266,
              41.65177917480469
            ],
            [
              -6.271912097930908,
              41.65177917480469
            ],
            [
              -6.254164218902588,
              41.45711898803711
            ],
            [
              -6.927728176116943,
              41.00318908691406
            ],
            [
              -6.868430137634277,
              40.355369567871094
            ],
            [
              -7.014894485473633,
              40.225894927978516
            ],
            [
              -7.00321626663208,
              40.0964469909668
            ],
            [
              -6.839452266693115,
              40.031734466552734
            ],
            [
              -6.895466804504395,
              39.77294921875
            ],
            [
              -7.435848712921143,
              39.64360046386719
            ],
            [
              -7.418391227722168,
              39.449623107910156
            ],
            [
              -7.255166053771973,
              39.38497543334961
            ],
            [
              -6.985427379608154,
              38.997230529785156
            ],
            [
              -7.120340347290039,
              38.738853454589844
            ],
            [
              -7.271727085113525,
              38.67427444458008
            ],
            [
              -7.244168281555176,
              38.351463317871094
            ],
            [
              -6.998411178588867,
              38.22237777709961
            ],
            [
              -6.987714290618896,
              38.09331130981445
            ],
            [
              -7.14418888092041,
              38.09331130981445
            ],
            [
              -7.27909517288208,
              37.835243225097656
            ],
            [
              -7.502705097198486,
              37.706241607666016
            ],
            [
              -7.387404441833496,
              37.254878997802734
            ],
            [
              -7.309464931488037,
              37.254878997802734
            ],
            [
              -6.84182596206665,
              37.254878997802734
            ],
            [
              -6.587993621826172,
              36.9970588684082
            ],
            [
              -6.432291984558105,
              36.9970588684082
            ],
            [
              -6.063849925994873,
              36.2239875793457
            ],
            [
              -5.831079006195068,
              36.2239875793457
            ],
            [
              -5.744351387023926,
              36.09519577026367
            ],
            [
              -5.66680383682251,
              36.09519577026367
            ],
            [
              -5.8636474609375,
              36.67487716674805
            ],
            [
              -5.726912975311279,
              36.932613372802734
            ],
            [
              -4.953128337860107,
              36.9970588684082
            ],
            [
              -4.810880661010742,
              37.1904182434082
            ],
            [
              -4.044610500335693,
              37.38381576538086
            ],
            [
              -3.897218227386475,
              37.51277160644531
            ],
            [
              -3.585098505020142,
              37.51277160644531
            ],
            [
              -3.515470266342163,
              37.641746520996094
            ],
            [
              -3.042947053909302,
              37.5772590637207
            ],
            [
              -2.828919172286987,
              37.89975357055664
            ],
            [
              -2.121570110321045,
              37.835243225097656
            ],
            [
              -1.939023733139038,
              37.38381576538086
            ],
            [
              -1.779392838478088,
              37.3193473815918
            ],
            [
              -1.701430559158325,
              37.3193473815918
            ],
            [
              -1.623468399047852,
              37.3193473815918
            ],
            [
              -1.708719491958618,
              37.44829177856445
            ],
            [
              -1.403841376304626,
              37.5772590637207
            ],
            [
              -0.704753637313843,
              37.641746520996094
            ],
            [
              -0.803495347499847,
              38.028785705566406
            ],
            [
              -0.660861134529114,
              38.28691864013672
            ],
            [
              -0.432753294706345,
              38.416015625
            ],
            [
              -0.436175793409348,
              38.48057174682617
            ],
            [
              -1.096204280853271,
              39.06184005737305
            ],
            [
              -1.099924325942993,
              39.1264533996582
            ],
            [
              -1.107397198677063,
              39.25570297241211
            ],
            [
              -0.3206847012043,
              39.25570297241211
            ],
            [
              -0.324188232421875,
              39.320335388183594
            ],
            [
              -0.345421016216278,
              39.70827102661133
            ],
            [
              -0.1983253210783,
              39.90232849121094
            ],
            [
              -0.201878547668457,
              39.9670295715332
            ],
            [
              -0.758276045322418,
              40.031734466552734
            ],
            [
              -1.006739020347595,
              40.225894927978516
            ],
            [
              -1.018372893333435,
              40.42012023925781
            ],
            [
              -1.438414812088013,
              40.80876541137695
            ],
            [
              -1.157592535018921,
              41.39224624633789
            ],
            [
              -1.329168319702148,
              41.586883544921875
            ],
            [
              -1.651971936225891,
              41.65177917480469
            ],
            [
              -1.749058246612549,
              41.911441802978516
            ],
            [
              -1.828825831413269,
              41.911441802978516
            ],
            [
              -1.846565842628479,
              42.17123794555664
            ],
            [
              -1.766683578491211,
              42.17123794555664
            ],
            [
              -1.775568842887878,
              42.30118942260742
            ],
            [
              -2.01993727684021,
              42.36617660522461
            ],
            [
              -2.203093767166138,
              42.691246032714844
            ],
            [
              -1.8391273021698,
              43.211830139160156
            ],
            [
              -1.848402380943298,
              43.342071533203125
            ],
            [
              -1.853058218955994,
              43.407203674316406
            ],
            [
              -3.295851230621338,
              43.342071533203125
            ],
            [
              -3.467212915420532,
              43.472347259521484
            ],
            [
              -4.990375518798828,
              43.407203674316406
            ],
            [
              -5.646126270294189,
              43.53750228881836
            ],
            [
              -5.726631164550781,
              43.53750228881836
            ]
          ]
        ]
      }
    }
  ]
}
