{
  "type": "FeatureCollection",
  "features": [
    {
      "type": "Feature",
      "properties": {
        "Name": "Syria",
        "FromYear": 2014,
        "ToYear": 2023,
        "Area": 118759.34177025282,
        "Type": "POLITY",
        "Wikipedia": "Syria",
        "Wikidata": "Q41137",
        "SeshatID": "",
        "Components": "",
        "MemberOf": "",
        "displayYear": 2020,
        "sourceYear": 2020,
        "mappedTerritoryId": "cliopatria_syria"
      },
      "geometry": {
        "type": "MultiPolygon",
        "coordinates": [
          [
            [
              [
                36.45262145996094,
                33.971771240234375
              ],
              [
                36.45904541015625,
                34.03607940673828
              ],
              [
                36.535945892333984,
                34.03607940673828
              ],
              [
                36.52949905395508,
                33.971771240234375
              ],
              [
                36.45262145996094,
                33.971771240234375
              ]
            ]
          ],
          [
            [
              [
                39.69090270996094,
                35.38706970214844
              ],
              [
                39.930564880371094,
                35.45143127441406
              ],
              [
                40.05438232421875,
                35.194007873535156
              ],
              [
                40.20119094848633,
                35.12965774536133
              ],
              [
                40.18584442138672,
                35.00096893310547
              ],
              [
                40.61809539794922,
                34.743614196777344
              ],
              [
                40.71872329711914,
                34.2933349609375
              ],
              [
                39.89773941040039,
                33.84315490722656
              ],
              [
                39.583213806152344,
                33.77885055541992
              ],
              [
                39.4921875,
                33.65024948120117
              ],
              [
                39.017581939697266,
                33.52165222167969
              ],
              [
                38.84351348876953,
                33.32876968383789
              ],
              [
                37.967071533203125,
                33.00732421875
              ],
              [
                36.98594665527344,
                32.36451721191406
              ],
              [
                36.603858947753906,
                32.36451721191406
              ],
              [
                36.6219596862793,
                32.557350158691406
              ],
              [
                36.47505187988281,
                32.62162780761719
              ],
              [
                36.42284393310547,
                32.878753662109375
              ],
              [
                36.17508316040039,
                32.685909271240234
              ],
              [
                36.187110900878906,
                32.81447219848633
              ],
              [
                35.89891052246094,
                33.00732421875
              ],
              [
                35.90494155883789,
                33.07160949707031
              ],
              [
                35.99981689453125,
                33.26447677612305
              ],
              [
                35.769798278808594,
                33.26447677612305
              ],
              [
                35.7758674621582,
                33.32876968383789
              ],
              [
                36.0244255065918,
                33.52165222167969
              ],
              [
                36.049339294433594,
                33.77885055541992
              ],
              [
                36.45262145996094,
                33.971771240234375
              ],
              [
                36.439823150634766,
                33.84315490722656
              ],
              [
                36.587100982666016,
                33.77885055541992
              ],
              [
                36.8370246887207,
                33.971771240234375
              ],
              [
                36.77316665649414,
                34.10039138793945
              ],
              [
                36.535945892333984,
                34.03607940673828
              ],
              [
                36.63888931274414,
                34.2933349609375
              ],
              [
                36.4275016784668,
                34.48630142211914
              ],
              [
                36.44062423706055,
                34.614952087402344
              ],
              [
                36.055240631103516,
                34.614952087402344
              ],
              [
                36.061729431152344,
                34.679283142089844
              ],
              [
                35.92698669433594,
                34.87228775024414
              ],
              [
                35.959747314453125,
                35.194007873535156
              ],
              [
                35.88248825073242,
                35.194007873535156
              ],
              [
                35.99294662475586,
                35.51579284667969
              ],
              [
                35.84488296508789,
                35.58015823364258
              ],
              [
                35.87843704223633,
                35.902034759521484
              ],
              [
                36.10407638549805,
                35.837650299072266
              ],
              [
                36.181541442871094,
                35.837650299072266
              ],
              [
                36.329612731933594,
                35.77327346801758
              ],
              [
                36.5052490234375,
                35.9664192199707
              ],
              [
                36.82231521606445,
                36.03080368041992
              ],
              [
                36.88573455810547,
                35.902034759521484
              ],
              [
                36.79426956176758,
                35.77327346801758
              ],
              [
                36.646324157714844,
                35.837650299072266
              ],
              [
                36.53446578979492,
                35.51579284667969
              ],
              [
                36.78036880493164,
                35.644527435302734
              ],
              [
                36.9351692199707,
                35.644527435302734
              ],
              [
                36.99862289428711,
                35.51579284667969
              ],
              [
                37.31510925292969,
                35.58015823364258
              ],
              [
                37.568695068359375,
                35.77327346801758
              ],
              [
                37.59757995605469,
                36.03080368041992
              ],
              [
                37.301876068115234,
                36.15959167480469
              ],
              [
                37.31636428833008,
                36.28839111328125
              ],
              [
                37.47158432006836,
                36.28839111328125
              ],
              [
                38.04066848754883,
                35.837650299072266
              ],
              [
                38.36538314819336,
                35.9664192199707
              ],
              [
                38.50544738769531,
                35.837650299072266
              ],
              [
                38.97023010253906,
                35.837650299072266
              ],
              [
                39.489402770996094,
                35.644527435302734
              ],
              [
                39.56680679321289,
                35.644527435302734
              ],
              [
                39.69090270996094,
                35.38706970214844
              ]
            ],
            [
              [
                36.89368438720703,
                35.258358001708984
              ],
              [
                37.06207275390625,
                35.38706970214844
              ],
              [
                36.91434097290039,
                35.45143127441406
              ],
              [
                36.8232536315918,
                35.32271194458008
              ],
              [
                36.74595260620117,
                35.32271194458008
              ],
              [
                36.89368438720703,
                35.258358001708984
              ]
            ],
            [
              [
                36.50390625,
                33.71455001831055
              ],
              [
                36.42710494995117,
                33.71455001831055
              ],
              [
                36.35029983520508,
                33.71455001831055
              ],
              [
                36.34398651123047,
                33.65024948120117
              ],
              [
                36.420772552490234,
                33.65024948120117
              ],
              [
                36.49755859375,
                33.65024948120117
              ],
              [
                36.50390625,
                33.71455001831055
              ]
            ]
          ],
          [
            [
              [
                40.98903274536133,
                36.48161697387695
              ],
              [
                40.64548873901367,
                36.2239875793457
              ],
              [
                40.506591796875,
                36.3527946472168
              ],
              [
                40.52297592163086,
                36.48161697387695
              ],
              [
                40.60065460205078,
                36.48161697387695
              ],
              [
                40.98903274536133,
                36.48161697387695
              ]
            ]
          ],
          [
            [
              [
                38.72871780395508,
                36.417205810546875
              ],
              [
                38.992923736572266,
                36.67487716674805
              ],
              [
                39.07066345214844,
                36.67487716674805
              ],
              [
                39.148406982421875,
                36.67487716674805
              ],
              [
                39.22614669799805,
                36.67487716674805
              ],
              [
                39.30388641357422,
                36.67487716674805
              ],
              [
                39.381629943847656,
                36.67487716674805
              ],
              [
                39.45936965942383,
                36.67487716674805
              ],
              [
                39.73822784423828,
                36.417205810546875
              ],
              [
                39.543548583984375,
                36.09519577026367
              ],
              [
                38.92316818237305,
                36.09519577026367
              ],
              [
                38.86091232299805,
                36.2239875793457
              ],
              [
                38.488136291503906,
                36.3527946472168
              ],
              [
                38.41050338745117,
                36.3527946472168
              ],
              [
                38.72871780395508,
                36.417205810546875
              ]
            ]
          ]
        ]
      }
    }
  ]
}
