{
  "type": "FeatureCollection",
  "features": [
    {
      "type": "Feature",
      "properties": {
        "Name": "Vakataka Kingdom",
        "FromYear": 306,
        "ToYear": 346,
        "Area": 574401.5902009669,
        "Type": "POLITY",
        "Wikipedia": "Vakataka dynasty",
        "Wikidata": "Q1501306",
        "SeshatID": "in_vakataka_k",
        "Components": "",
        "MemberOf": "",
        "displayYear": 317,
        "sourceYear": 317,
        "mappedTerritoryId": "cliopatria_vakataka_kingdom"
      },
      "geometry": {
        "type": "Polygon",
        "coordinates": [
          [
            [
              75.4597505189377,
              15.077087221526613
            ],
            [
              75.96856049956754,
              14.694669607564341
            ],
            [
              77.30724601952879,
              14.86308569349074
            ],
            [
              78.19306766470761,
              15.564190054818974
            ],
            [
              78.76039163970975,
              15.72712260541966
            ],
            [
              78.7305324831307,
              16.673336400470006
            ],
            [
              78.87485173992947,
              17.36332986647108
            ],
            [
              79.44715224102815,
              17.956077645526726
            ],
            [
              80.31804430791742,
              18.56571601770533
            ],
            [
              80.73109597392776,
              18.589302102233056
            ],
            [
              80.79579081318238,
              20.003042385701843
            ],
            [
              82.25888948555635,
              20.40002444399762
            ],
            [
              83.7294529470751,
              20.407020896421894
            ],
            [
              84.14001635003719,
              20.798312350804082
            ],
            [
              84.4435844419243,
              21.425046108913318
            ],
            [
              84.57795064653008,
              22.57394915329135
            ],
            [
              83.93597878008028,
              22.56475834928234
            ],
            [
              83.4582322748153,
              23.101383464634903
            ],
            [
              83.02527450441893,
              22.977735032092774
            ],
            [
              82.2240538028808,
              23.01438343248055
            ],
            [
              81.23870163577178,
              22.4222226634812
            ],
            [
              81.1491241660346,
              22.2196626548468
            ],
            [
              80.76095513050682,
              22.136712641126618
            ],
            [
              78.05870146010182,
              22.596923481612418
            ],
            [
              77.2126920236951,
              22.945659525523478
            ],
            [
              75.89391260811992,
              22.47741518211063
            ],
            [
              75.36888910493808,
              22.468217954870845
            ],
            [
              74.31137730942967,
              22.224269552749618
            ],
            [
              74.38353693782906,
              21.66805597551932
            ],
            [
              74.1770111048239,
              20.84482753669022
            ],
            [
              73.91325522170887,
              20.602792196401897
            ],
            [
              74.11095203668535,
              19.8290958404541
            ],
            [
              74.24668247017505,
              19.530030629063372
            ],
            [
              74.45569656622847,
              18.942699581705476
            ],
            [
              73.72165896699322,
              18.6081686191685
            ],
            [
              73.94311437828793,
              18.15952787612248
            ],
            [
              74.2765416267541,
              17.908729961407094
            ],
            [
              75.05785622390619,
              16.768658472332966
            ],
            [
              75.0080909629411,
              15.540218463169508
            ],
            [
              75.36640084188981,
              15.170706074046128
            ],
            [
              75.4597505189377,
              15.077087221526613
            ]
          ]
        ]
      }
    }
  ]
}
