{
  "type": "FeatureCollection",
  "features": [
    {
      "type": "Feature",
      "properties": {
        "Name": "Kingdom of the Franks",
        "FromYear": 569,
        "ToYear": 586,
        "Area": 684448.7991789257,
        "Type": "POLITY",
        "Wikipedia": "Francia",
        "Wikidata": "Q146246",
        "SeshatID": "fr_merovingian_emp_2",
        "Components": "",
        "MemberOf": "(Merovingian Empire);(Kingdom of the Franks)",
        "displayYear": 577,
        "sourceYear": 577,
        "mappedTerritoryId": "cliopatria_kingdom_of_the_franks"
      },
      "geometry": {
        "type": "MultiPolygon",
        "coordinates": [
          [
            [
              [
                0.830587804317474,
                42.88639831542969
              ],
              [
                0.520835757255554,
                42.691246032714844
              ],
              [
                0.040142297744751,
                42.691246032714844
              ],
              [
                -0.942404747009277,
                43.016544342041016
              ],
              [
                -1.022668600082397,
                43.016544342041016
              ],
              [
                -1.423987507820129,
                43.016544342041016
              ],
              [
                -1.517712950706482,
                43.211830139160156
              ],
              [
                -1.441840410232544,
                43.276947021484375
              ],
              [
                -1.763375043869019,
                43.276947021484375
              ],
              [
                -1.535829067230225,
                43.472347259521484
              ],
              [
                -1.540387988090515,
                43.53750228881836
              ],
              [
                -1.459883332252502,
                43.53750228881836
              ],
              [
                -1.464423894882202,
                43.6026611328125
              ],
              [
                -1.468976378440857,
                43.6678352355957
              ],
              [
                -1.388410806655884,
                43.6678352355957
              ],
              [
                -1.392944693565369,
                43.73301696777344
              ],
              [
                -1.286344885826111,
                44.5159797668457
              ],
              [
                -1.205376982688904,
                44.5159797668457
              ],
              [
                -1.251859068870544,
                45.169586181640625
              ],
              [
                -1.170574903488159,
                45.169586181640625
              ],
              [
                -1.189373373985291,
                45.431331634521484
              ],
              [
                -1.031213998794556,
                45.496795654296875
              ],
              [
                -1.035891175270081,
                45.56227111816406
              ],
              [
                -1.04058039188385,
                45.62776184082031
              ],
              [
                -1.213142395019531,
                45.75876998901367
              ],
              [
                -1.141096234321594,
                45.889827728271484
              ],
              [
                -1.222735166549683,
                45.889827728271484
              ],
              [
                -1.251809358596802,
                46.283294677734375
              ],
              [
                -1.666043281555176,
                46.348915100097656
              ],
              [
                -2.014399528503418,
                46.61152267456055
              ],
              [
                -2.024919986724854,
                46.74290466308594
              ],
              [
                -2.194406032562256,
                46.808616638183594
              ],
              [
                -2.139080047607422,
                47.13737487792969
              ],
              [
                -2.226783275604248,
                47.20316696166992
              ],
              [
                -2.232228517532349,
                47.26897048950195
              ],
              [
                -2.314568996429443,
                47.26897048950195
              ],
              [
                -2.561590671539307,
                47.26897048950195
              ],
              [
                -2.578423976898193,
                47.46647262573242
              ],
              [
                -2.831500053405762,
                47.53233337402344
              ],
              [
                -2.837259292602539,
                47.598209381103516
              ],
              [
                -2.447182655334473,
                47.86185836791992
              ],
              [
                -1.796727180480957,
                47.993770599365234
              ],
              [
                -1.647326707839966,
                48.191749572753906
              ],
              [
                -1.652703642845154,
                48.257774353027344
              ],
              [
                -1.658094763755798,
                48.323814392089844
              ],
              [
                -1.663500070571899,
                48.38986587524414
              ],
              [
                -1.668919563293457,
                48.455936431884766
              ],
              [
                -1.585945725440979,
                48.455936431884766
              ],
              [
                -1.502971887588501,
                48.455936431884766
              ],
              [
                -1.508333325386047,
                48.52202224731445
              ],
              [
                -1.696232676506042,
                48.786521911621094
              ],
              [
                -1.651668906211853,
                49.2500114440918
              ],
              [
                -1.913302421569824,
                49.38258361816406
              ],
              [
                -2.031550645828247,
                49.78071212768555
              ],
              [
                -1.361783027648926,
                49.78071212768555
              ],
              [
                -1.250783205032349,
                49.44889450073242
              ],
              [
                0.007001183927059,
                49.38258361816406
              ],
              [
                -0.012448177672923,
                49.64793395996094
              ],
              [
                0.224112883210182,
                49.84712600708008
              ],
              [
                1.052847385406494,
                49.98000717163086
              ],
              [
                1.454967975616455,
                50.2459831237793
              ],
              [
                1.424705147743225,
                50.71213912963867
              ],
              [
                1.656218767166138,
                51.04566955566406
              ],
              [
                2.577829360961914,
                51.17921447753906
              ],
              [
                3.155481338500977,
                51.44654083251953
              ],
              [
                3.409677743911743,
                51.44654083251953
              ],
              [
                3.416590452194214,
                51.31283950805664
              ],
              [
                4.175347805023193,
                51.37968063354492
              ],
              [
                4.260037899017334,
                51.37968063354492
              ],
              [
                4.256999492645264,
                51.44654083251953
              ],
              [
                4.159882545471191,
                51.71418380737305
              ],
              [
                4.496551513671875,
                51.78114318847656
              ],
              [
                4.487694263458252,
                51.98215103149414
              ],
              [
                4.890939235687256,
                52.51908493041992
              ],
              [
                4.885351657867432,
                52.653533935546875
              ],
              [
                5.307767868041992,
                52.78806686401367
              ],
              [
                5.385728359222412,
                52.99003219604492
              ],
              [
                5.559673309326172,
                52.92268753051758
              ],
              [
                5.654990673065186,
                52.653533935546875
              ],
              [
                5.994833469390869,
                52.720787048339844
              ],
              [
                6.076033592224121,
                52.85536575317383
              ],
              [
                6.249425888061523,
                52.78806686401367
              ],
              [
                6.330934524536133,
                52.92268753051758
              ],
              [
                6.245238780975342,
                52.92268753051758
              ],
              [
                6.241037368774414,
                53.057395935058594
              ],
              [
                6.412610530853271,
                53.057395935058594
              ],
              [
                6.494455337524414,
                53.192195892333984
              ],
              [
                6.666211605072021,
                53.192195892333984
              ],
              [
                6.93080472946167,
                52.92268753051758
              ],
              [
                7.016500473022461,
                52.92268753051758
              ],
              [
                6.948029518127441,
                52.250450134277344
              ],
              [
                6.697800159454346,
                52.0491943359375
              ],
              [
                6.612682342529297,
                52.0491943359375
              ],
              [
                6.614560127258301,
                51.98215103149414
              ],
              [
                6.699635028839111,
                51.98215103149414
              ],
              [
                7.301267147064209,
                51.71418380737305
              ],
              [
                7.392090797424316,
                51.44654083251953
              ],
              [
                7.648990631103516,
                51.31283950805664
              ],
              [
                7.651692390441895,
                51.17921447753906
              ],
              [
                8.335354804992676,
                50.71213912963867
              ],
              [
                8.837132453918457,
                51.04566955566406
              ],
              [
                9.427069664001465,
                51.24601745605469
              ],
              [
                9.345601081848145,
                50.84549331665039
              ],
              [
                9.178116798400879,
                50.71213912963867
              ],
              [
                9.266509056091309,
                50.2459831237793
              ],
              [
                9.520442008972168,
                49.98000717163086
              ],
              [
                9.439866065979004,
                49.58156967163086
              ],
              [
                9.690682411193848,
                49.58156967163086
              ],
              [
                9.775094032287598,
                49.44889450073242
              ],
              [
                10.527070999145508,
                49.2500114440918
              ],
              [
                10.860734939575195,
                49.2500114440918
              ],
              [
                10.944150924682617,
                49.2500114440918
              ],
              [
                11.110798835754395,
                49.18375015258789
              ],
              [
                11.026754379272461,
                48.852684020996094
              ],
              [
                11.026633262634277,
                48.786521911621094
              ],
              [
                10.11336898803711,
                48.455936431884766
              ],
              [
                9.950777053833008,
                47.86185836791992
              ],
              [
                9.868124008178711,
                47.86185836791992
              ],
              [
                9.951909065246582,
                47.664100646972656
              ],
              [
                9.541373252868652,
                47.4006233215332
              ],
              [
                9.54301929473877,
                47.20316696166992
              ],
              [
                9.625325202941895,
                47.20316696166992
              ],
              [
                9.627367973327637,
                46.94007873535156
              ],
              [
                9.545197486877441,
                46.94007873535156
              ],
              [
                9.385076522827148,
                46.480194091796875
              ],
              [
                9.142709732055664,
                46.1520881652832
              ],
              [
                8.243240356445312,
                46.1520881652832
              ],
              [
                7.837991714477539,
                45.95537567138672
              ],
              [
                6.939604759216309,
                45.95537567138672
              ],
              [
                6.779487133026123,
                45.82429504394531
              ],
              [
                6.782690525054932,
                45.693260192871094
              ],
              [
                7.113230228424072,
                45.496795654296875
              ],
              [
                7.117553234100342,
                45.300437927246094
              ],
              [
                6.713985443115234,
                45.169586181640625
              ],
              [
                6.637507915496826,
                44.973392486572266
              ],
              [
                6.965181350708008,
                44.842647552490234
              ],
              [
                6.895741939544678,
                44.32010269165039
              ],
              [
                7.139705181121826,
                44.25482940673828
              ],
              [
                7.227019786834717,
                43.92862319946289
              ],
              [
                7.228299140930176,
                43.86341094970703
              ],
              [
                7.147641658782959,
                43.86341094970703
              ],
              [
                7.151541233062744,
                43.6678352355957
              ],
              [
                6.833500385284424,
                43.472347259521484
              ],
              [
                6.753026008605957,
                43.472347259521484
              ],
              [
                6.67255163192749,
                43.472347259521484
              ],
              [
                6.674009799957275,
                43.407203674316406
              ],
              [
                6.593565464019775,
                43.407203674316406
              ],
              [
                6.595048904418945,
                43.342071533203125
              ],
              [
                6.596527099609375,
                43.276947021484375
              ],
              [
                6.516143321990967,
                43.276947021484375
              ],
              [
                6.517646789550781,
                43.211830139160156
              ],
              [
                6.437293529510498,
                43.211830139160156
              ],
              [
                6.356939792633057,
                43.211830139160156
              ],
              [
                5.796233177185059,
                43.146724700927734
              ],
              [
                5.226016998291016,
                43.407203674316406
              ],
              [
                5.145573139190674,
                43.407203674316406
              ],
              [
                5.065128803253174,
                43.407203674316406
              ],
              [
                5.063065528869629,
                43.472347259521484
              ],
              [
                4.982591152191162,
                43.472347259521484
              ],
              [
                4.419270515441895,
                43.472347259521484
              ],
              [
                4.338796615600586,
                43.472347259521484
              ],
              [
                4.258322238922119,
                43.472347259521484
              ],
              [
                4.177847862243652,
                43.472347259521484
              ],
              [
                4.17544412612915,
                43.53750228881836
              ],
              [
                4.173032760620117,
                43.6026611328125
              ],
              [
                4.092497825622559,
                43.6026611328125
              ],
              [
                4.236700534820557,
                44.05907440185547
              ],
              [
                4.633574962615967,
                44.25482940673828
              ],
              [
                4.057530879974365,
                44.5159797668457
              ],
              [
                3.814627170562744,
                44.5159797668457
              ],
              [
                3.429201602935791,
                44.05907440185547
              ],
              [
                3.025451898574829,
                44.05907440185547
              ],
              [
                2.017845392227173,
                43.211830139160156
              ],
              [
                1.950274229049683,
                42.95146560668945
              ],
              [
                1.789806246757507,
                42.95146560668945
              ],
              [
                1.485537886619568,
                42.62621307373047
              ],
              [
                1.238463044166565,
                42.75628662109375
              ],
              [
                0.830587804317474,
                42.88639831542969
              ]
            ],
            [
              [
                2.437577247619629,
                46.1520881652832
              ],
              [
                2.355807542800903,
                46.1520881652832
              ],
              [
                2.359213590621948,
                46.08650588989258
              ],
              [
                2.440950632095337,
                46.08650588989258
              ],
              [
                2.437577247619629,
                46.1520881652832
              ]
            ]
          ],
          [
            [
              [
                -1.772614240646362,
                43.407203674316406
              ],
              [
                -1.767988562583923,
                43.342071533203125
              ],
              [
                -1.848402380943298,
                43.342071533203125
              ],
              [
                -1.853058218955994,
                43.407203674316406
              ],
              [
                -1.772614240646362,
                43.407203674316406
              ]
            ]
          ],
          [
            [
              [
                4.643398761749268,
                52.31757736206055
              ],
              [
                4.728692054748535,
                52.31757736206055
              ],
              [
                4.56398868560791,
                52.18334197998047
              ],
              [
                4.55810546875,
                52.31757736206055
              ],
              [
                4.643398761749268,
                52.31757736206055
              ]
            ]
          ]
        ]
      }
    }
  ]
}
