{
  "type": "FeatureCollection",
  "features": [
    {
      "type": "Feature",
      "properties": {
        "Name": "Safavid Dynasty",
        "FromYear": 1626,
        "ToYear": 1635,
        "Area": 2814712.6032360606,
        "Type": "POLITY",
        "Wikipedia": "Safavid dynasty",
        "Wikidata": "Q161205",
        "SeshatID": "ir_safavid_emp",
        "Components": "",
        "MemberOf": "",
        "displayYear": 1627,
        "sourceYear": 1627,
        "mappedTerritoryId": "cliopatria_safavid_dynasty"
      },
      "geometry": {
        "type": "MultiPolygon",
        "coordinates": [
          [
            [
              [
                50.666831970214844,
                26.06507110595703
              ],
              [
                50.64872360229492,
                25.8721923828125
              ],
              [
                50.42986297607422,
                25.936485290527344
              ],
              [
                50.460208892822266,
                26.257951736450195
              ],
              [
                50.68524169921875,
                26.257951736450195
              ],
              [
                50.672935485839844,
                26.129364013671875
              ],
              [
                50.666831970214844,
                26.06507110595703
              ]
            ]
          ],
          [
            [
              [
                47.35015106201172,
                41.32738494873047
              ],
              [
                47.81422424316406,
                41.26253128051758
              ],
              [
                48.09209060668945,
                41.45711898803711
              ],
              [
                48.1191520690918,
                41.97637939453125
              ],
              [
                48.278743743896484,
                41.97637939453125
              ],
              [
                49.08600997924805,
                41.26253128051758
              ],
              [
                49.059226989746094,
                41.132843017578125
              ],
              [
                49.270748138427734,
                41.00318908691406
              ],
              [
                49.2441520690918,
                40.873565673828125
              ],
              [
                49.50836181640625,
                40.614410400390625
              ],
              [
                50.04951477050781,
                40.54964065551758
              ],
              [
                50.2603759765625,
                40.42012023925781
              ],
              [
                49.6933479309082,
                40.355369567871094
              ],
              [
                49.40445327758789,
                40.0964469909668
              ],
              [
                49.26664352416992,
                39.38497543334961
              ],
              [
                49.151405334472656,
                39.19107437133789
              ],
              [
                48.91546630859375,
                39.19107437133789
              ],
              [
                48.801002502441406,
                38.997230529785156
              ],
              [
                48.82852554321289,
                37.835243225097656
              ],
              [
                49.08510208129883,
                37.51277160644531
              ],
              [
                49.85409164428711,
                37.44829177856445
              ],
              [
                50.320892333984375,
                36.9970588684082
              ],
              [
                50.56571960449219,
                37.06150817871094
              ],
              [
                50.632293701171875,
                36.9970588684082
              ],
              [
                50.53199768066406,
                36.8681755065918
              ],
              [
                51.6419677734375,
                36.5460319519043
              ],
              [
                52.58595275878906,
                36.61045455932617
              ],
              [
                53.488651275634766,
                36.8681755065918
              ],
              [
                54.033294677734375,
                36.8681755065918
              ],
              [
                54.09466552734375,
                37.1904182434082
              ],
              [
                53.91046905517578,
                37.44829177856445
              ],
              [
                53.88258743286133,
                37.706241607666016
              ],
              [
                55.53718185424805,
                38.157840728759766
              ],
              [
                56.006744384765625,
                38.157840728759766
              ],
              [
                56.37468338012695,
                38.416015625
              ],
              [
                56.44440841674805,
                38.738853454589844
              ],
              [
                56.08003234863281,
                38.8680305480957
              ],
              [
                56.287353515625,
                39.449623107910156
              ],
              [
                56.474159240722656,
                39.57893371582031
              ],
              [
                56.51854705810547,
                39.77294921875
              ],
              [
                56.360801696777344,
                39.77294921875
              ],
              [
                56.39057540893555,
                39.90232849121094
              ],
              [
                56.890953063964844,
                40.6791877746582
              ],
              [
                57.0336799621582,
                40.614410400390625
              ],
              [
                57.81306457519531,
                41.19768524169922
              ],
              [
                57.82952117919922,
                41.26253128051758
              ],
              [
                60.003623962402344,
                41.06801223754883
              ],
              [
                60.12825393676758,
                40.93837356567383
              ],
              [
                60.8423957824707,
                40.93837356567383
              ],
              [
                62.378334045410156,
                41.32738494873047
              ],
              [
                62.36785125732422,
                41.00318908691406
              ],
              [
                62.447227478027344,
                41.00318908691406
              ],
              [
                62.29690933227539,
                40.74397277832031
              ],
              [
                62.4027099609375,
                40.54964065551758
              ],
              [
                62.31605529785156,
                40.225894927978516
              ],
              [
                62.687564849853516,
                39.8376350402832
              ],
              [
                62.65380859375,
                39.70827102661133
              ],
              [
                63.088340759277344,
                39.25570297241211
              ],
              [
                63.24568557739258,
                39.25570297241211
              ],
              [
                63.41547393798828,
                38.997230529785156
              ],
              [
                63.837432861328125,
                38.80344009399414
              ],
              [
                64.00749206542969,
                38.54513168334961
              ],
              [
                64.36690521240234,
                38.416015625
              ],
              [
                64.66151428222656,
                38.028785705566406
              ],
              [
                65.23883056640625,
                37.835243225097656
              ],
              [
                65.62744903564453,
                37.51277160644531
              ],
              [
                65.93956756591797,
                37.51277160644531
              ],
              [
                65.90766143798828,
                37.38381576538086
              ],
              [
                66.17185974121094,
                37.1904182434082
              ],
              [
                66.21778869628906,
                36.73930740356445
              ],
              [
                66.3577651977539,
                36.67487716674805
              ],
              [
                66.32786560058594,
                36.2239875793457
              ],
              [
                66.3072738647461,
                35.12965774536133
              ],
              [
                66.38451385498047,
                35.12965774536133
              ],
              [
                66.21251678466797,
                34.3576545715332
              ],
              [
                66.28951263427734,
                34.3576545715332
              ],
              [
                66.15039825439453,
                33.71455001831055
              ],
              [
                66.2271957397461,
                33.71455001831055
              ],
              [
                66.13213348388672,
                33.26447677612305
              ],
              [
                65.75917053222656,
                32.94303894042969
              ],
              [
                65.77044677734375,
                32.62162780761719
              ],
              [
                65.55342102050781,
                32.30024337768555
              ],
              [
                65.62981414794922,
                32.30024337768555
              ],
              [
                65.59336853027344,
                31.7217960357666
              ],
              [
                66.02130889892578,
                30.757776260375977
              ],
              [
                65.99299621582031,
                30.179353713989258
              ],
              [
                66.27361297607422,
                30.050809860229492
              ],
              [
                66.25102233886719,
                29.922264099121094
              ],
              [
                66.48970031738281,
                29.986536026000977
              ],
              [
                66.6944351196289,
                29.857990264892578
              ],
              [
                66.59559631347656,
                28.829526901245117
              ],
              [
                66.67112731933594,
                28.829526901245117
              ],
              [
                66.58834838867188,
                28.315250396728516
              ],
              [
                66.66377258300781,
                28.315250396728516
              ],
              [
                66.38557434082031,
                26.96516990661621
              ],
              [
                66.46072387695312,
                26.96516990661621
              ],
              [
                66.42440795898438,
                26.70800018310547
              ],
              [
                66.54779052734375,
                26.515121459960938
              ],
              [
                66.22828674316406,
                25.807899475097656
              ],
              [
                66.270263671875,
                25.55072784423828
              ],
              [
                66.26213836669922,
                25.48643684387207
              ],
              [
                66.02147674560547,
                25.357851028442383
              ],
              [
                64.8160629272461,
                25.29355812072754
              ],
              [
                64.80064392089844,
                25.164974212646484
              ],
              [
                64.2845230102539,
                25.229267120361328
              ],
              [
                64.22502136230469,
                25.357851028442383
              ],
              [
                63.62620544433594,
                25.357851028442383
              ],
              [
                63.536216735839844,
                25.229267120361328
              ],
              [
                62.563419342041016,
                25.229267120361328
              ],
              [
                62.47393035888672,
                25.100683212280273
              ],
              [
                62.18195724487305,
                25.164974212646484
              ],
              [
                62.01787185668945,
                25.03639030456543
              ],
              [
                61.71868133544922,
                25.03639030456543
              ],
              [
                61.65822219848633,
                25.164974212646484
              ],
              [
                61.12736892700195,
                25.100683212280273
              ],
              [
                60.91714859008789,
                25.229267120361328
              ],
              [
                60.617828369140625,
                25.229267120361328
              ],
              [
                60.63211441040039,
                25.357851028442383
              ],
              [
                59.060218811035156,
                25.357851028442383
              ],
              [
                58.78172302246094,
                25.55072784423828
              ],
              [
                57.957984924316406,
                25.55072784423828
              ],
              [
                57.7402229309082,
                25.615020751953125
              ],
              [
                57.67921447753906,
                25.743606567382812
              ],
              [
                57.37953567504883,
                25.743606567382812
              ],
              [
                57.11480712890625,
                26.06507110595703
              ],
              [
                57.05242156982422,
                26.836584091186523
              ],
              [
                56.714656829833984,
                27.158044815063477
              ],
              [
                56.188377380371094,
                27.158044815063477
              ],
              [
                56.098140716552734,
                27.029460906982422
              ],
              [
                56.32361602783203,
                27.029460906982422
              ],
              [
                56.30864334106445,
                26.900876998901367
              ],
              [
                56.06119155883789,
                26.70800018310547
              ],
              [
                55.60341262817383,
                26.643707275390625
              ],
              [
                55.439002990722656,
                26.515121459960938
              ],
              [
                55.28888702392578,
                26.515121459960938
              ],
              [
                55.31023025512695,
                26.70800018310547
              ],
              [
                55.542747497558594,
                26.772293090820312
              ],
              [
                55.242313385009766,
                26.772293090820312
              ],
              [
                54.83156204223633,
                26.450830459594727
              ],
              [
                54.463233947753906,
                26.515121459960938
              ],
              [
                54.25889205932617,
                26.70800018310547
              ],
              [
                53.65812301635742,
                26.70800018310547
              ],
              [
                53.46059036254883,
                26.96516990661621
              ],
              [
                52.736968994140625,
                27.222335815429688
              ],
              [
                52.478694915771484,
                27.608078002929688
              ],
              [
                52.04855728149414,
                27.800947189331055
              ],
              [
                51.5966796875,
                27.800947189331055
              ],
              [
                51.31684494018555,
                27.993812561035156
              ],
              [
                51.331298828125,
                28.12238883972168
              ],
              [
                51.06624984741211,
                28.44382095336914
              ],
              [
                51.028076171875,
                28.765243530273438
              ],
              [
                50.80903244018555,
                28.829526901245117
              ],
              [
                50.9150390625,
                29.08665657043457
              ],
              [
                50.620323181152344,
                29.150936126708984
              ],
              [
                50.65126037597656,
                29.40805435180664
              ],
              [
                50.23628234863281,
                29.729440689086914
              ],
              [
                50.0648078918457,
                30.179353713989258
              ],
              [
                49.585899353027344,
                29.986536026000977
              ],
              [
                48.942848205566406,
                30.307893753051758
              ],
              [
                48.987266540527344,
                30.050809860229492
              ],
              [
                48.903682708740234,
                29.986536026000977
              ],
              [
                48.36544418334961,
                29.922264099121094
              ],
              [
                48.40353012084961,
                29.600887298583984
              ],
              [
                47.8662223815918,
                29.536611557006836
              ],
              [
                47.768760681152344,
                29.34377670288086
              ],
              [
                47.23920822143555,
                29.34377670288086
              ],
              [
                47.10211944580078,
                29.472333908081055
              ],
              [
                46.868003845214844,
                29.40805435180664
              ],
              [
                46.74504852294922,
                29.665164947509766
              ],
              [
                46.58648681640625,
                29.600887298583984
              ],
              [
                46.53215789794922,
                29.79371452331543
              ],
              [
                46.09901428222656,
                29.986536026000977
              ],
              [
                45.55000686645508,
                30.500701904296875
              ],
              [
                45.39815139770508,
                30.500701904296875
              ],
              [
                44.79490280151367,
                31.20764923095703
              ],
              [
                44.63529586791992,
                31.143381118774414
              ],
              [
                44.657562255859375,
                31.336183547973633
              ],
              [
                44.44402313232422,
                31.464719772338867
              ],
              [
                44.459014892578125,
                31.593257904052734
              ],
              [
                43.152584075927734,
                32.81447219848633
              ],
              [
                42.708534240722656,
                32.94303894042969
              ],
              [
                42.578269958496094,
                33.13589859008789
              ],
              [
                42.064544677734375,
                33.32876968383789
              ],
              [
                41.86487579345703,
                33.5859489440918
              ],
              [
                41.35774612426758,
                33.84315490722656
              ],
              [
                41.36536407470703,
                33.90746307373047
              ],
              [
                41.73515701293945,
                34.42197799682617
              ],
              [
                42.5296630859375,
                34.614952087402344
              ],
              [
                43.85737228393555,
                35.32271194458008
              ],
              [
                44.06496047973633,
                35.708900451660156
              ],
              [
                44.60259246826172,
                36.2239875793457
              ],
              [
                44.7647590637207,
                36.80373764038086
              ],
              [
                44.84254455566406,
                36.80373764038086
              ],
              [
                44.929779052734375,
                37.38381576538086
              ],
              [
                45.12554168701172,
                37.641746520996094
              ],
              [
                45.186256408691406,
                38.028785705566406
              ],
              [
                44.97199630737305,
                38.157840728759766
              ],
              [
                45.03401565551758,
                38.54513168334961
              ],
              [
                44.90858459472656,
                38.738853454589844
              ],
              [
                44.9478874206543,
                39.449623107910156
              ],
              [
                44.81224060058594,
                39.57893371582031
              ],
              [
                44.834251403808594,
                39.70827102661133
              ],
              [
                44.56298828125,
                39.9670295715332
              ],
              [
                44.25822448730469,
                40.031734466552734
              ],
              [
                44.23493957519531,
                40.355369567871094
              ],
              [
                44.03129577636719,
                40.54964065551758
              ],
              [
                44.065338134765625,
                40.74397277832031
              ],
              [
                43.83888244628906,
                40.80876541137695
              ],
              [
                43.87315368652344,
                41.00318908691406
              ],
              [
                43.737335205078125,
                41.132843017578125
              ],
              [
                43.57847213745117,
                41.132843017578125
              ],
              [
                43.58993911743164,
                41.19768524169922
              ],
              [
                43.601444244384766,
                41.26253128051758
              ],
              [
                43.680931091308594,
                41.26253128051758
              ],
              [
                43.69249725341797,
                41.32738494873047
              ],
              [
                43.77201461791992,
                41.32738494873047
              ],
              [
                44.12541580200195,
                41.521995544433594
              ],
              [
                44.24076843261719,
                41.71668243408203
              ],
              [
                44.49188995361328,
                41.781593322753906
              ],
              [
                44.65729904174805,
                42.236209869384766
              ],
              [
                44.58973693847656,
                42.30118942260742
              ],
              [
                44.76205825805664,
                42.36617660522461
              ],
              [
                44.82474899291992,
                42.691246032714844
              ],
              [
                44.90486526489258,
                42.691246032714844
              ],
              [
                45.157962799072266,
                42.75628662109375
              ],
              [
                45.44002914428711,
                42.56119155883789
              ],
              [
                45.68020248413086,
                42.56119155883789
              ],
              [
                45.68342208862305,
                42.17123794555664
              ],
              [
                46.229713439941406,
                42.10627746582031
              ],
              [
                46.43056869506836,
                41.911441802978516
              ],
              [
                46.883209228515625,
                41.781593322753906
              ],
              [
                46.87028503417969,
                41.71668243408203
              ],
              [
                47.0296516418457,
                41.71668243408203
              ],
              [
                47.35015106201172,
                41.32738494873047
              ]
            ]
          ]
        ]
      }
    }
  ]
}
