{
  "type": "FeatureCollection",
  "features": [
    {
      "type": "Feature",
      "properties": {
        "Name": "Assyria",
        "FromYear": -1100,
        "ToYear": -1001,
        "Area": 515079.55062841554,
        "Type": "POLITY",
        "Wikipedia": "Assyria",
        "Wikidata": "Q41137",
        "SeshatID": "iq_middle_assyrian_emp",
        "Components": "",
        "MemberOf": "",
        "displayYear": -1100,
        "sourceYear": -1100,
        "mappedTerritoryId": "cliopatria_assyria"
      },
      "geometry": {
        "type": "Polygon",
        "coordinates": [
          [
            [
              36.215576171875,
              36.8681755065918
            ],
            [
              35.833587646484375,
              36.932613372802734
            ],
            [
              35.487709045410156,
              36.61045455932617
            ],
            [
              35.18361282348633,
              36.67487716674805
            ],
            [
              35.11945724487305,
              36.80373764038086
            ],
            [
              35.21095657348633,
              36.932613372802734
            ],
            [
              35.146888732910156,
              37.06150817871094
            ],
            [
              35.29570007324219,
              36.9970588684082
            ],
            [
              35.784080505371094,
              37.1904182434082
            ],
            [
              35.954307556152344,
              37.3193473815918
            ],
            [
              36.076168060302734,
              37.706241607666016
            ],
            [
              36.411128997802734,
              37.89975357055664
            ],
            [
              36.47249221801758,
              38.416015625
            ],
            [
              36.637046813964844,
              38.48057174682617
            ],
            [
              36.75519561767578,
              38.80344009399414
            ],
            [
              36.9202880859375,
              38.8680305480957
            ],
            [
              36.93656539916992,
              38.997230529785156
            ],
            [
              36.78755187988281,
              39.06184005737305
            ],
            [
              36.73347473144531,
              39.25570297241211
            ],
            [
              36.89081573486328,
              39.25570297241211
            ],
            [
              37.77325439453125,
              39.9670295715332
            ],
            [
              38.60896682739258,
              40.29063034057617
            ],
            [
              39.766170501708984,
              40.0964469909668
            ],
            [
              40.12135314941406,
              40.355369567871094
            ],
            [
              40.58599090576172,
              40.29063034057617
            ],
            [
              40.78462219238281,
              40.54964065551758
            ],
            [
              41.861717224121094,
              40.355369567871094
            ],
            [
              42.346988677978516,
              40.42012023925781
            ],
            [
              42.73662567138672,
              39.90232849121094
            ],
            [
              43.22083282470703,
              39.9670295715332
            ],
            [
              43.27845764160156,
              39.8376350402832
            ],
            [
              43.436256408691406,
              39.8376350402832
            ],
            [
              43.41499328613281,
              39.70827102661133
            ],
            [
              44.51885986328125,
              39.70827102661133
            ],
            [
              44.486209869384766,
              39.51427459716797
            ],
            [
              44.06045150756836,
              39.320335388183594
            ],
            [
              44.1391487121582,
              39.320335388183594
            ],
            [
              44.17567443847656,
              39.06184005737305
            ],
            [
              44.32237243652344,
              38.997230529785156
            ],
            [
              44.31817626953125,
              38.48057174682617
            ],
            [
              44.53285217285156,
              38.351463317871094
            ],
            [
              44.34591293334961,
              38.157840728759766
            ],
            [
              44.30603790283203,
              37.89975357055664
            ],
            [
              44.462371826171875,
              37.89975357055664
            ],
            [
              44.598793029785156,
              37.7707405090332
            ],
            [
              44.63739776611328,
              37.51277160644531
            ],
            [
              44.8517951965332,
              37.38381576538086
            ],
            [
              44.86170959472656,
              36.932613372802734
            ],
            [
              45.0662956237793,
              36.73930740356445
            ],
            [
              45.10586166381836,
              36.48161697387695
            ],
            [
              45.387969970703125,
              36.28839111328125
            ],
            [
              45.369049072265625,
              36.15959167480469
            ],
            [
              45.44662094116211,
              36.15959167480469
            ],
            [
              45.350242614746094,
              36.03080368041992
            ],
            [
              46.32926940917969,
              35.837650299072266
            ],
            [
              46.0684928894043,
              35.644527435302734
            ],
            [
              46.040348052978516,
              35.45143127441406
            ],
            [
              46.2442741394043,
              35.258358001708984
            ],
            [
              46.22567367553711,
              35.12965774536133
            ],
            [
              45.89838409423828,
              35.00096893310547
            ],
            [
              45.86199951171875,
              34.743614196777344
            ],
            [
              45.939117431640625,
              34.743614196777344
            ],
            [
              46.1573600769043,
              34.10039138793945
            ],
            [
              46.14847946166992,
              34.03607940673828
            ],
            [
              45.91777801513672,
              34.03607940673828
            ],
            [
              45.968299865722656,
              33.84315490722656
            ],
            [
              45.891456604003906,
              33.84315490722656
            ],
            [
              45.856727600097656,
              33.5859489440918
            ],
            [
              46.069705963134766,
              33.45735549926758
            ],
            [
              46.052490234375,
              33.32876968383789
            ],
            [
              45.899105072021484,
              33.32876968383789
            ],
            [
              45.46541976928711,
              32.94303894042969
            ],
            [
              44.71588897705078,
              33.07160949707031
            ],
            [
              44.53839874267578,
              32.878753662109375
            ],
            [
              44.3087158203125,
              32.878753662109375
            ],
            [
              44.208351135253906,
              32.685909271240234
            ],
            [
              43.91015625,
              32.75019073486328
            ],
            [
              43.42790222167969,
              32.557350158691406
            ],
            [
              43.3514289855957,
              32.557350158691406
            ],
            [
              43.152584075927734,
              32.81447219848633
            ],
            [
              42.708534240722656,
              32.94303894042969
            ],
            [
              42.36363983154297,
              33.26447677612305
            ],
            [
              42.064544677734375,
              33.32876968383789
            ],
            [
              42.003082275390625,
              33.45735549926758
            ],
            [
              40.91171646118164,
              33.971771240234375
            ],
            [
              40.84990692138672,
              34.10039138793945
            ],
            [
              40.472782135009766,
              34.164703369140625
            ],
            [
              40.41832733154297,
              34.3576545715332
            ],
            [
              40.117794036865234,
              34.42197799682617
            ],
            [
              40.05571746826172,
              34.55062484741211
            ],
            [
              39.60816192626953,
              34.679283142089844
            ],
            [
              39.2520866394043,
              34.93662643432617
            ],
            [
              39.09039306640625,
              34.87228775024414
            ],
            [
              38.80360794067383,
              35.065311431884766
            ],
            [
              38.41752624511719,
              35.065311431884766
            ],
            [
              37.926029205322266,
              34.80794906616211
            ],
            [
              37.72257614135742,
              35.065311431884766
            ],
            [
              37.56814193725586,
              35.065311431884766
            ],
            [
              37.47011184692383,
              34.87228775024414
            ],
            [
              37.24550247192383,
              34.93662643432617
            ],
            [
              37.154666900634766,
              34.80794906616211
            ],
            [
              36.768985748291016,
              34.80794906616211
            ],
            [
              36.70526885986328,
              34.93662643432617
            ],
            [
              36.39656448364258,
              34.93662643432617
            ],
            [
              36.383304595947266,
              34.80794906616211
            ],
            [
              36.30616760253906,
              34.80794906616211
            ],
            [
              36.165035247802734,
              34.93662643432617
            ],
            [
              36.184871673583984,
              35.12965774536133
            ],
            [
              36.35274124145508,
              35.258358001708984
            ],
            [
              36.40019989013672,
              35.708900451660156
            ],
            [
              35.9559211730957,
              35.902034759521484
            ],
            [
              35.962711334228516,
              35.9664192199707
            ],
            [
              35.968117384390276,
              36.01753592284476
            ],
            [
              36.39030368728888,
              35.89740311888448
            ],
            [
              37.05223166613484,
              36.17557901729134
            ],
            [
              38.27935622247941,
              37.18116314497941
            ],
            [
              38.60317105766537,
              37.63572189891799
            ],
            [
              38.08026315145466,
              38.12888904795058
            ],
            [
              37.61630906597816,
              37.62440426391662
            ],
            [
              36.87988285691343,
              37.1832105815959
            ],
            [
              36.21553250398414,
              36.86778104776167
            ],
            [
              36.215576171875,
              36.8681755065918
            ]
          ]
        ]
      }
    }
  ]
}
