{
  "type": "FeatureCollection",
  "features": [
    {
      "type": "Feature",
      "properties": {
        "Name": "Ottoman Tripolitania",
        "FromYear": 1911,
        "ToYear": 1911,
        "Area": 880043.0415452142,
        "Type": "POLITY",
        "Wikipedia": "Ottoman Tripolitania",
        "Wikidata": "Q1529261",
        "SeshatID": "",
        "Components": "",
        "MemberOf": "",
        "displayYear": 1911,
        "sourceYear": 1911,
        "mappedTerritoryId": "cliopatria_ottoman_tripolitania"
      },
      "geometry": {
        "type": "Polygon",
        "coordinates": [
          [
            [
              13.759129524230957,
              32.75019073486328
            ],
            [
              13.760527610778809,
              32.878753662109375
            ],
            [
              13.453653335571289,
              32.81447219848633
            ],
            [
              13.301749229431152,
              32.94303894042969
            ],
            [
              12.841785430908203,
              32.878753662109375
            ],
            [
              12.840824127197266,
              32.75019073486328
            ],
            [
              12.534722328186035,
              32.75019073486328
            ],
            [
              12.612099647521973,
              32.878753662109375
            ],
            [
              12.228955268859863,
              32.81447219848633
            ],
            [
              11.617557525634766,
              33.13589859008789
            ],
            [
              11.540922164916992,
              33.13589859008789
            ],
            [
              11.539381980895996,
              32.557350158691406
            ],
            [
              11.615853309631348,
              32.557350158691406
            ],
            [
              11.538878440856934,
              32.36451721191406
            ],
            [
              11.003870010375977,
              32.23596954345703
            ],
            [
              10.469846725463867,
              31.7217960357666
            ],
            [
              10.165175437927246,
              31.593257904052734
            ],
            [
              10.318992614746094,
              30.822044372558594
            ],
            [
              9.940349578857422,
              30.372163772583008
            ],
            [
              9.410012245178223,
              30.179353713989258
            ],
            [
              9.410943984985352,
              29.986536026000977
            ],
            [
              12.060201644897461,
              28.829526901245117
            ],
            [
              12.361360549926758,
              28.572391510009766
            ],
            [
              12.889029502868652,
              28.44382095336914
            ],
            [
              12.963454246520996,
              28.25096321105957
            ],
            [
              13.188925743103027,
              28.12238883972168
            ],
            [
              13.188187599182129,
              27.993812561035156
            ],
            [
              12.356865882873535,
              27.222335815429688
            ],
            [
              12.35649299621582,
              27.093751907348633
            ],
            [
              11.980175018310547,
              26.836584091186523
            ],
            [
              11.829520225524902,
              26.515121459960938
            ],
            [
              10.85487174987793,
              25.67931365966797
            ],
            [
              10.855062484741211,
              25.55072784423828
            ],
            [
              10.257676124572754,
              24.97209930419922
            ],
            [
              10.183701515197754,
              24.714935302734375
            ],
            [
              10.483336448669434,
              24.457773208618164
            ],
            [
              11.006176948547363,
              24.522062301635742
            ],
            [
              11.230445861816406,
              24.393482208251953
            ],
            [
              11.977554321289062,
              24.650644302368164
            ],
            [
              13.248723030090332,
              24.843517303466797
            ],
            [
              14.145225524902344,
              24.714935302734375
            ],
            [
              14.293633460998535,
              24.522062301635742
            ],
            [
              14.28496265411377,
              22.85055923461914
            ],
            [
              14.507655143737793,
              22.72198486328125
            ],
            [
              15.03004264831543,
              22.914846420288086
            ],
            [
              15.85341739654541,
              23.429147720336914
            ],
            [
              16.151613235473633,
              23.429147720336914
            ],
            [
              16.374088287353516,
              23.30057144165039
            ],
            [
              16.375261306762695,
              23.429147720336914
            ],
            [
              18.92595863342285,
              24.522062301635742
            ],
            [
              18.966373443603516,
              26.836584091186523
            ],
            [
              18.891252517700195,
              26.836584091186523
            ],
            [
              18.97939109802246,
              27.4794979095459
            ],
            [
              19.28318214416504,
              27.608078002929688
            ],
            [
              19.514863967895508,
              27.865236282348633
            ],
            [
              19.665517807006836,
              27.865236282348633
            ],
            [
              19.820816040039062,
              28.058101654052734
            ],
            [
              19.97154998779297,
              28.058101654052734
            ],
            [
              20.204238891601562,
              28.315250396728516
            ],
            [
              20.35508155822754,
              28.315250396728516
            ],
            [
              20.511127471923828,
              28.508106231689453
            ],
            [
              20.66205406188965,
              28.508106231689453
            ],
            [
              20.818435668945312,
              28.700960159301758
            ],
            [
              20.969446182250977,
              28.700960159301758
            ],
            [
              21.126171112060547,
              28.893810272216797
            ],
            [
              21.277267456054688,
              28.893810272216797
            ],
            [
              21.28118324279785,
              29.022375106811523
            ],
            [
              21.50590705871582,
              28.958093643188477
            ],
            [
              21.718536376953125,
              28.508106231689453
            ],
            [
              22.161165237426758,
              28.186676025390625
            ],
            [
              22.9129695892334,
              28.12238883972168
            ],
            [
              23.21887969970703,
              28.25096321105957
            ],
            [
              23.685270309448242,
              28.636676788330078
            ],
            [
              23.92885971069336,
              29.08665657043457
            ],
            [
              23.941450119018555,
              29.40805435180664
            ],
            [
              23.729698181152344,
              29.79371452331543
            ],
            [
              23.910633087158203,
              30.500701904296875
            ],
            [
              24.07367706298828,
              30.757776260375977
            ],
            [
              24.307418823242188,
              30.886310577392578
            ],
            [
              24.313230514526367,
              31.014846801757812
            ],
            [
              25.102048873901367,
              31.593257904052734
            ],
            [
              25.105247497558594,
              31.65752601623535
            ],
            [
              25.11168098449707,
              31.78606605529785
            ],
            [
              24.892484664916992,
              31.978878021240234
            ],
            [
              24.129365921020508,
              31.978878021240234
            ],
            [
              23.680339813232422,
              32.171695709228516
            ],
            [
              23.148635864257812,
              32.23596954345703
            ],
            [
              23.089431762695312,
              32.62162780761719
            ],
            [
              22.70979118347168,
              32.685909271240234
            ],
            [
              22.562345504760742,
              32.81447219848633
            ],
            [
              22.108469009399414,
              32.94303894042969
            ],
            [
              21.569839477539062,
              32.878753662109375
            ],
            [
              21.41167449951172,
              32.75019073486328
            ],
            [
              21.108016967773438,
              32.81447219848633
            ],
            [
              20.87124252319336,
              32.62162780761719
            ],
            [
              20.644094467163086,
              32.685909271240234
            ],
            [
              20.71593475341797,
              32.557350158691406
            ],
            [
              20.562992095947266,
              32.557350158691406
            ],
            [
              20.481992721557617,
              32.428794860839844
            ],
            [
              20.33134651184082,
              32.493072509765625
            ],
            [
              20.246112823486328,
              32.23596954345703
            ],
            [
              20.016965866088867,
              32.23596954345703
            ],
            [
              20.089075088500977,
              32.107421875
            ],
            [
              19.996076583862305,
              31.593257904052734
            ],
            [
              20.214296340942383,
              31.271915435791016
            ],
            [
              20.13410186767578,
              31.143381118774414
            ],
            [
              20.202085494995117,
              30.886310577392578
            ],
            [
              19.968164443969727,
              30.69350814819336
            ],
            [
              19.964311599731445,
              30.564971923828125
            ],
            [
              19.50142478942871,
              30.307893753051758
            ],
            [
              18.968589782714844,
              30.243623733520508
            ],
            [
              18.896053314208984,
              30.372163772583008
            ],
            [
              18.592470169067383,
              30.372163772583008
            ],
            [
              18.222288131713867,
              30.757776260375977
            ],
            [
              17.846824645996094,
              30.950578689575195
            ],
            [
              16.8635196685791,
              31.20764923095703
            ],
            [
              16.178552627563477,
              31.20764923095703
            ],
            [
              15.64897632598877,
              31.40045166015625
            ],
            [
              15.575982093811035,
              31.593257904052734
            ],
            [
              15.424593925476074,
              31.65752601623535
            ],
            [
              15.206924438476562,
              32.36451721191406
            ],
            [
              14.749334335327148,
              32.428794860839844
            ],
            [
              14.674704551696777,
              32.557350158691406
            ],
            [
              14.444439888000488,
              32.493072509765625
            ],
            [
              14.217477798461914,
              32.685909271240234
            ],
            [
              13.835655212402344,
              32.75019073486328
            ],
            [
              13.759129524230957,
              32.75019073486328
            ]
          ]
        ]
      }
    }
  ]
}
