{
  "type": "FeatureCollection",
  "features": [
    {
      "type": "Feature",
      "properties": {
        "Name": "Emirate of Jabal Shammar",
        "FromYear": 1842,
        "ToYear": 1845,
        "Area": 459742.8250602392,
        "Type": "POLITY",
        "Wikipedia": "Emirate of Jabal Shammar",
        "Wikidata": "Q5362837",
        "SeshatID": "",
        "Components": "",
        "MemberOf": "",
        "displayYear": 1842,
        "sourceYear": 1842,
        "mappedTerritoryId": "cliopatria_emirate_of_jabal_shammar"
      },
      "geometry": {
        "type": "Polygon",
        "coordinates": [
          [
            [
              43.4281005859375,
              28.25096321105957
            ],
            [
              43.340999603271484,
              28.12238883972168
            ],
            [
              43.48592758178711,
              28.058101654052734
            ],
            [
              43.671722412109375,
              27.608078002929688
            ],
            [
              44.065391540527344,
              27.800947189331055
            ],
            [
              44.366641998291016,
              27.800947189331055
            ],
            [
              44.65612030029297,
              27.6723690032959
            ],
            [
              44.7891731262207,
              27.4794979095459
            ],
            [
              44.939666748046875,
              27.4794979095459
            ],
            [
              45.1422004699707,
              27.222335815429688
            ],
            [
              45.807308197021484,
              27.093751907348633
            ],
            [
              47.010032653808594,
              27.093751907348633
            ],
            [
              47.1785888671875,
              27.2866268157959
            ],
            [
              47.41038513183594,
              27.35091781616211
            ],
            [
              47.585933685302734,
              27.608078002929688
            ],
            [
              47.592288970947266,
              27.6723690032959
            ],
            [
              47.79905700683594,
              27.4794979095459
            ],
            [
              48.03797149658203,
              26.836584091186523
            ],
            [
              48.18215560913086,
              26.772293090820312
            ],
            [
              49.07245635986328,
              24.97209930419922
            ],
            [
              49.43046188354492,
              24.779226303100586
            ],
            [
              49.48435974121094,
              24.522062301635742
            ],
            [
              49.69307327270508,
              24.329193115234375
            ],
            [
              49.61838912963867,
              24.329193115234375
            ],
            [
              48.79685974121094,
              24.329193115234375
            ],
            [
              48.562957763671875,
              24.200613021850586
            ],
            [
              48.38954544067383,
              23.879167556762695
            ],
            [
              48.17043685913086,
              23.943456649780273
            ],
            [
              47.55492401123047,
              23.68630027770996
            ],
            [
              47.18653869628906,
              23.75058937072754
            ],
            [
              46.721126556396484,
              23.493436813354492
            ],
            [
              45.511268615722656,
              23.236284255981445
            ],
            [
              44.95306396484375,
              22.657697677612305
            ],
            [
              44.937171936035156,
              22.400548934936523
            ],
            [
              44.77661895751953,
              22.20768928527832
            ],
            [
              44.67521286010742,
              21.7576847076416
            ],
            [
              44.522762298583984,
              21.693397521972656
            ],
            [
              44.511356353759766,
              21.500539779663086
            ],
            [
              44.046993255615234,
              21.179107666015625
            ],
            [
              44.03211975097656,
              20.921964645385742
            ],
            [
              43.80211639404297,
              20.793392181396484
            ],
            [
              43.86151885986328,
              20.53624725341797
            ],
            [
              43.639041900634766,
              20.53624725341797
            ],
            [
              43.69845962524414,
              20.279102325439453
            ],
            [
              43.694766998291016,
              20.214815139770508
            ],
            [
              43.27187728881836,
              20.60053253173828
            ],
            [
              43.1416130065918,
              20.921964645385742
            ],
            [
              42.78487777709961,
              21.179107666015625
            ],
            [
              42.44926071166992,
              21.821969985961914
            ],
            [
              42.16621398925781,
              22.079116821289062
            ],
            [
              42.17338943481445,
              22.20768928527832
            ],
            [
              41.81938171386719,
              22.529123306274414
            ],
            [
              41.550594329833984,
              23.043420791625977
            ],
            [
              41.40525817871094,
              23.107707977294922
            ],
            [
              41.41260528564453,
              23.236284255981445
            ],
            [
              41.26723861694336,
              23.30057144165039
            ],
            [
              41.14045715332031,
              23.68630027770996
            ],
            [
              40.99503707885742,
              23.75058937072754
            ],
            [
              40.45972442626953,
              24.779226303100586
            ],
            [
              40.534481048583984,
              24.779226303100586
            ],
            [
              41.223960876464844,
              25.03639030456543
            ],
            [
              41.24973678588867,
              25.422143936157227
            ],
            [
              41.17487335205078,
              25.422143936157227
            ],
            [
              41.27193069458008,
              25.743606567382812
            ],
            [
              40.88224792480469,
              26.57941436767578
            ],
            [
              40.785865783691406,
              27.2866268157959
            ],
            [
              40.20410919189453,
              27.54378890991211
            ],
            [
              40.2142219543457,
              27.6723690032959
            ],
            [
              40.0687141418457,
              27.736658096313477
            ],
            [
              40.089237213134766,
              27.993812561035156
            ],
            [
              40.3257942199707,
              28.12238883972168
            ],
            [
              40.508827209472656,
              28.508106231689453
            ],
            [
              40.455345153808594,
              28.765243530273438
            ],
            [
              40.60638427734375,
              28.765243530273438
            ],
            [
              40.77435302734375,
              28.958093643188477
            ],
            [
              41.29177474975586,
              28.829526901245117
            ],
            [
              41.83812713623047,
              29.022375106811523
            ],
            [
              42.047115325927734,
              28.829526901245117
            ],
            [
              42.43074417114258,
              28.893810272216797
            ],
            [
              42.72092819213867,
              28.765243530273438
            ],
            [
              42.91775131225586,
              28.44382095336914
            ],
            [
              43.30694580078125,
              28.572391510009766
            ],
            [
              43.352691650390625,
              28.25096321105957
            ],
            [
              43.4281005859375,
              28.25096321105957
            ]
          ]
        ]
      }
    }
  ]
}
