{
  "type": "FeatureCollection",
  "features": [
    {
      "type": "Feature",
      "properties": {
        "Name": "Free Orange State",
        "FromYear": 1856,
        "ToYear": 1870,
        "Area": 132872.0841937635,
        "Type": "POLITY",
        "Wikipedia": "Orange Free State",
        "Wikidata": "Q218023",
        "SeshatID": "",
        "Components": "",
        "MemberOf": "",
        "displayYear": 1864,
        "sourceYear": 1864,
        "mappedTerritoryId": "cliopatria_free_orange_state"
      },
      "geometry": {
        "type": "Polygon",
        "coordinates": [
          [
            [
              28.65679359436035,
              -28.772504806518555
            ],
            [
              28.574382781982422,
              -28.643938064575195
            ],
            [
              28.272411346435547,
              -28.643938064575195
            ],
            [
              28.12477684020996,
              -28.708221435546875
            ],
            [
              28.131532669067383,
              -28.836788177490234
            ],
            [
              27.53384780883789,
              -28.96535301208496
            ],
            [
              27.54387855529785,
              -29.1581974029541
            ],
            [
              27.392662048339844,
              -29.1581974029541
            ],
            [
              27.402767181396484,
              -29.351036071777344
            ],
            [
              26.889875411987305,
              -29.67242431640625
            ],
            [
              27.048179626464844,
              -29.800975799560547
            ],
            [
              27.22444725036621,
              -30.250883102416992
            ],
            [
              27.22805404663086,
              -30.315153121948242
            ],
            [
              27.16305160522461,
              -30.50796127319336
            ],
            [
              26.862930297851562,
              -30.57223129272461
            ],
            [
              26.797826766967773,
              -30.76503562927246
            ],
            [
              26.577058792114258,
              -30.893569946289062
            ],
            [
              26.348979949951172,
              -30.893569946289062
            ],
            [
              25.95500373840332,
              -30.636499404907227
            ],
            [
              25.429935455322266,
              -30.76503562927246
            ],
            [
              24.648075103759766,
              -30.315153121948242
            ],
            [
              24.56006622314453,
              -30.058069229125977
            ],
            [
              24.16939926147461,
              -29.800975799560547
            ],
            [
              24.160879135131836,
              -29.6081485748291
            ],
            [
              24.158069610595703,
              -29.54387092590332
            ],
            [
              24.651460647583008,
              -28.708221435546875
            ],
            [
              24.570598602294922,
              -28.579652786254883
            ],
            [
              24.635498046875,
              -28.322511672973633
            ],
            [
              24.632890701293945,
              -28.258224487304688
            ],
            [
              25.518844604492188,
              -27.808208465576172
            ],
            [
              25.898141860961914,
              -27.87249755859375
            ],
            [
              26.40604591369629,
              -27.422470092773438
            ],
            [
              26.32278823852539,
              -27.229597091674805
            ],
            [
              26.6129093170166,
              -26.972431182861328
            ],
            [
              26.916187286376953,
              -27.03672218322754
            ],
            [
              27.13893699645996,
              -26.972431182861328
            ],
            [
              27.281070709228516,
              -26.77955436706543
            ],
            [
              27.578773498535156,
              -26.715261459350586
            ],
            [
              27.728967666625977,
              -26.715261459350586
            ],
            [
              27.96554946899414,
              -26.972431182861328
            ],
            [
              28.11296844482422,
              -26.908138275146484
            ],
            [
              28.422332763671875,
              -27.101015090942383
            ],
            [
              28.948535919189453,
              -27.101015090942383
            ],
            [
              29.65440559387207,
              -27.679630279541016
            ],
            [
              29.66452980041504,
              -27.87249755859375
            ],
            [
              29.520666122436523,
              -28.001075744628906
            ],
            [
              29.53798484802246,
              -28.322511672973633
            ],
            [
              28.732315063476562,
              -28.772504806518555
            ],
            [
              28.65679359436035,
              -28.772504806518555
            ]
          ]
        ]
      }
    }
  ]
}
