{
  "type": "FeatureCollection",
  "features": [
    {
      "type": "Feature",
      "properties": {
        "Name": "Free French",
        "FromYear": 1940,
        "ToYear": 1940,
        "Area": 1654262.5803567437,
        "Type": "POLITY",
        "Wikipedia": "Free France",
        "Wikidata": "Q152582",
        "SeshatID": "",
        "Components": "",
        "MemberOf": "",
        "displayYear": 1940,
        "sourceYear": 1940,
        "mappedTerritoryId": "cliopatria_free_french"
      },
      "geometry": {
        "type": "Polygon",
        "coordinates": [
          [
            [
              22.367101669311523,
              10.957403182983398
            ],
            [
              21.924413681030273,
              10.764540672302246
            ],
            [
              21.775678634643555,
              10.635965347290039
            ],
            [
              21.62101173400879,
              10.185953140258789
            ],
            [
              20.953691482543945,
              9.671652793884277
            ],
            [
              20.951387405395508,
              9.543078422546387
            ],
            [
              20.65451431274414,
              9.285927772521973
            ],
            [
              19.992502212524414,
              9.028778076171875
            ],
            [
              18.968719482421875,
              8.964489936828613
            ],
            [
              18.892518997192383,
              8.771627426147461
            ],
            [
              19.03753662109375,
              8.707340240478516
            ],
            [
              19.03435707092285,
              8.514476776123047
            ],
            [
              18.588912963867188,
              8.06446361541748
            ],
            [
              17.491897583007812,
              7.935888767242432
            ],
            [
              16.829092025756836,
              7.550163269042969
            ],
            [
              16.469013214111328,
              7.871601104736328
            ],
            [
              16.39315414428711,
              7.678738594055176
            ],
            [
              15.586633682250977,
              7.421587944030762
            ],
            [
              15.236207008361816,
              8.450189590454102
            ],
            [
              14.080917358398438,
              9.478790283203125
            ],
            [
              14.084884643554688,
              9.800228118896484
            ],
            [
              14.30656623840332,
              9.993090629577637
            ],
            [
              15.475446701049805,
              9.928803443908691
            ],
            [
              15.550274848937988,
              10.057377815246582
            ],
            [
              15.26034927368164,
              10.250240325927734
            ],
            [
              15.048361778259277,
              10.828827857971191
            ],
            [
              15.136094093322754,
              11.986002922058105
            ],
            [
              14.918718338012695,
              12.178865432739258
            ],
            [
              14.922635078430176,
              12.500303268432617
            ],
            [
              14.41633415222168,
              13.07889175415039
            ],
            [
              14.123007774353027,
              13.07889175415039
            ],
            [
              14.189059257507324,
              12.436016082763672
            ],
            [
              14.69894027709961,
              12.178865432739258
            ],
            [
              14.617207527160645,
              11.47170352935791
            ],
            [
              13.8082857131958,
              11.15026569366455
            ],
            [
              13.582919120788574,
              10.635965347290039
            ],
            [
              13.579967498779297,
              10.378815650939941
            ],
            [
              13.28304386138916,
              9.993090629577637
            ],
            [
              13.278571128845215,
              9.607365608215332
            ],
            [
              12.91019058227539,
              9.350214958190918
            ],
            [
              12.906442642211914,
              9.028778076171875
            ],
            [
              12.756562232971191,
              8.707340240478516
            ],
            [
              12.610492706298828,
              8.707340240478516
            ],
            [
              12.241597175598145,
              8.385902404785156
            ],
            [
              12.237802505493164,
              8.06446361541748
            ],
            [
              11.866700172424316,
              7.550163269042969
            ],
            [
              11.712908744812012,
              6.907287120819092
            ],
            [
              11.566218376159668,
              6.842999458312988
            ],
            [
              11.415517807006836,
              6.457273483276367
            ],
            [
              11.269660949707031,
              6.457273483276367
            ],
            [
              10.385770797729492,
              5.750109672546387
            ],
            [
              10.093358039855957,
              5.685822010040283
            ],
            [
              9.942658424377441,
              5.300096035003662
            ],
            [
              9.796062469482422,
              5.235808849334717
            ],
            [
              9.865591049194336,
              4.978658199310303
            ],
            [
              9.71729850769043,
              4.785795211791992
            ],
            [
              9.571562767028809,
              4.785795211791992
            ],
            [
              9.421545028686523,
              4.464356899261475
            ],
            [
              9.48822021484375,
              4.01434326171875
            ],
            [
              9.561065673828125,
              4.01434326171875
            ],
            [
              9.632100105285645,
              3.885768175125122
            ],
            [
              9.485508918762207,
              3.821480512619019
            ],
            [
              9.482758522033691,
              3.628617763519287
            ],
            [
              9.6274995803833,
              3.564330101013184
            ],
            [
              9.624690055847168,
              3.371467113494873
            ],
            [
              9.839350700378418,
              3.114316701889038
            ],
            [
              9.687862396240234,
              2.728590965270996
            ],
            [
              9.680851936340332,
              2.27857780456543
            ],
            [
              9.67983341217041,
              2.214290142059326
            ],
            [
              11.20765209197998,
              2.150002479553223
            ],
            [
              11.271918296813965,
              1.635701775550842
            ],
            [
              11.189230918884277,
              1.057113647460938
            ],
            [
              11.116446495056152,
              1.057113647460938
            ],
            [
              9.94968032836914,
              0.928538501262665
            ],
            [
              9.441303253173828,
              0.992826044559479
            ],
            [
              9.440199851989746,
              0.928538501262665
            ],
            [
              9.435741424560547,
              0.671388268470764
            ],
            [
              9.217402458190918,
              0.671388268470764
            ],
            [
              9.141240119934082,
              0.478525668382645
            ],
            [
              9.572155952453613,
              0.15708801150322
            ],
            [
              9.137816429138184,
              0.285663068294525
            ],
            [
              9.149606704711914,
              -0.421499729156494
            ],
            [
              8.932085990905762,
              -0.67864990234375
            ],
            [
              8.713746070861816,
              -0.67864990234375
            ],
            [
              8.641728401184082,
              -0.935800075531006
            ],
            [
              8.933778762817383,
              -1.257237911224365
            ],
            [
              8.93447494506836,
              -1.514388203620911
            ],
            [
              9.153019905090332,
              -1.578675746917725
            ],
            [
              9.080726623535156,
              -1.771538615226746
            ],
            [
              9.226644515991211,
              -1.900113701820374
            ],
            [
              9.373335838317871,
              -2.350126981735229
            ],
            [
              10.394654273986816,
              -3.185865879058838
            ],
            [
              10.83321762084961,
              -3.893029928207397
            ],
            [
              11.489850997924805,
              -4.343043327331543
            ],
            [
              11.709745407104492,
              -4.921631813049316
            ],
            [
              11.855782508850098,
              -5.050207138061523
            ],
            [
              11.928659439086914,
              -5.050207138061523
            ],
            [
              12.6556978225708,
              -4.407330989837646
            ],
            [
              12.947854042053223,
              -4.664481639862061
            ],
            [
              13.093583106994629,
              -4.664481639862061
            ],
            [
              13.239876747131348,
              -4.857344150543213
            ],
            [
              13.458487510681152,
              -4.857344150543213
            ],
            [
              13.748747825622559,
              -4.47161865234375
            ],
            [
              14.331172943115234,
              -4.343043327331543
            ],
            [
              14.332929611206055,
              -4.857344150543213
            ],
            [
              14.551765441894531,
              -4.921631813049316
            ],
            [
              14.915185928344727,
              -4.664481639862061
            ],
            [
              14.914715766906738,
              -4.535906314849854
            ],
            [
              15.205182075500488,
              -4.278755664825439
            ],
            [
              15.350887298583984,
              -4.278755664825439
            ],
            [
              15.641023635864258,
              -3.957317352294922
            ],
            [
              15.859294891357422,
              -3.893029928207397
            ],
            [
              16.147998809814453,
              -3.250153541564941
            ],
            [
              16.145339965820312,
              -2.607277393341064
            ],
            [
              16.072528839111328,
              -2.607277393341064
            ],
            [
              16.143207550048828,
              -2.092976570129395
            ],
            [
              16.433595657348633,
              -1.900113701820374
            ],
            [
              16.722021102905273,
              -1.257237911224365
            ],
            [
              17.230398178100586,
              -1.00008761882782
            ],
            [
              17.229829788208008,
              -0.871512532234192
            ],
            [
              17.520097732543945,
              -0.67864990234375
            ],
            [
              17.66450309753418,
              -0.421499729156494
            ],
            [
              17.64887046813965,
              0.092800483107567
            ],
            [
              17.873321533203125,
              0.414238125085831
            ],
            [
              17.813817977905273,
              1.121401190757751
            ],
            [
              18.0428524017334,
              1.699989318847656
            ],
            [
              17.971233367919922,
              1.76427698135376
            ],
            [
              18.0556697845459,
              2.407152891159058
            ],
            [
              18.579145431518555,
              3.178604364395142
            ],
            [
              18.52657699584961,
              4.335781574249268
            ],
            [
              18.747371673583984,
              4.464356899261475
            ],
            [
              18.824682235717773,
              4.721507549285889
            ],
            [
              19.268592834472656,
              5.10723352432251
            ],
            [
              19.705862045288086,
              5.10723352432251
            ],
            [
              20.139705657958984,
              4.914370536804199
            ],
            [
              20.567659378051758,
              4.400069236755371
            ],
            [
              21.80381965637207,
              4.271493911743164
            ],
            [
              22.310155868530273,
              4.078630924224854
            ],
            [
              22.457063674926758,
              4.142918586730957
            ],
            [
              22.760662078857422,
              4.785795211791992
            ],
            [
              23.33989715576172,
              4.592932224273682
            ],
            [
              24.22054100036621,
              4.914370536804199
            ],
            [
              24.29593849182129,
              5.042945861816406
            ],
            [
              24.949260711669922,
              4.914370536804199
            ],
            [
              25.243330001831055,
              5.042945861816406
            ],
            [
              25.394269943237305,
              5.300096035003662
            ],
            [
              26.26624298095703,
              5.171521186828613
            ],
            [
              26.409351348876953,
              5.042945861816406
            ],
            [
              26.846609115600586,
              5.042945861816406
            ],
            [
              27.215042114257812,
              5.235808849334717
            ],
            [
              27.22317886352539,
              5.62153434753418
            ],
            [
              26.502262115478516,
              6.007260322570801
            ],
            [
              26.504953384399414,
              6.135835647583008
            ],
            [
              26.290231704711914,
              6.328698635101318
            ],
            [
              26.296966552734375,
              6.650136470794678
            ],
            [
              26.08084487915039,
              6.778711795806885
            ],
            [
              26.083538055419922,
              6.907287120819092
            ],
            [
              25.79710578918457,
              7.164437294006348
            ],
            [
              25.218721389770508,
              7.421587944030762
            ],
            [
              25.226688385009766,
              7.807313442230225
            ],
            [
              24.937376022338867,
              7.935888767242432
            ],
            [
              24.723649978637695,
              8.193038940429688
            ],
            [
              24.213891983032227,
              8.25732707977295
            ],
            [
              24.146059036254883,
              8.514476776123047
            ],
            [
              24.22038459777832,
              8.578764915466309
            ],
            [
              24.076921463012695,
              8.707340240478516
            ],
            [
              23.566953659057617,
              8.771627426147461
            ],
            [
              23.50156021118164,
              9.157352447509766
            ],
            [
              23.72589874267578,
              9.41450309753418
            ],
            [
              23.73238182067871,
              9.735940933227539
            ],
            [
              23.451618194580078,
              10.314528465270996
            ],
            [
              23.16295051574707,
              10.507390975952148
            ],
            [
              23.165523529052734,
              10.635965347290039
            ],
            [
              22.948627471923828,
              10.764540672302246
            ],
            [
              22.87929916381836,
              10.957403182983398
            ],
            [
              22.367101669311523,
              10.957403182983398
            ]
          ]
        ]
      }
    }
  ]
}
