{
  "type": "FeatureCollection",
  "features": [
    {
      "type": "Feature",
      "properties": {
        "Name": "Chenla",
        "FromYear": 555,
        "ToYear": 616,
        "Area": 183795.8702049876,
        "Type": "POLITY",
        "Wikipedia": "Chenla",
        "Wikidata": "Q1057118",
        "SeshatID": "kh_chenla",
        "Components": "",
        "MemberOf": "(Chenla)",
        "displayYear": 557,
        "sourceYear": 557,
        "mappedTerritoryId": "cliopatria_chenla"
      },
      "geometry": {
        "type": "Polygon",
        "coordinates": [
          [
            [
              101.90443629509099,
              14.030101914398998
            ],
            [
              103.207,
              13.593
            ],
            [
              105.539,
              13.465
            ],
            [
              105.876,
              13.207
            ],
            [
              106.242,
              13.207
            ],
            [
              106.301,
              13.079
            ],
            [
              108.238,
              13.336
            ],
            [
              108.32475055082827,
              13.14380265894082
            ],
            [
              108.27767181396484,
              13.657480239868164
            ],
            [
              108.05786895751953,
              14.236069679260254
            ],
            [
              108.06971255748135,
              14.621796607971191
            ],
            [
              108.07958221435547,
              14.943235397338867
            ],
            [
              107.8950424194336,
              15.200387001037598
            ],
            [
              107.67445373535156,
              15.200387001037598
            ],
            [
              107.62372970581055,
              15.361107349395752
            ],
            [
              107.55477142333984,
              15.393251419067383
            ],
            [
              107.29759979248047,
              15.650403022766113
            ],
            [
              107.5016098022461,
              16.036130905151367
            ],
            [
              107.1527328491211,
              16.16470718383789
            ],
            [
              106.97059631347656,
              16.421857833862305
            ],
            [
              106.68570709228516,
              16.486146926879883
            ],
            [
              106.70530700683594,
              16.614723205566406
            ],
            [
              106.56777954101562,
              16.67901039123535
            ],
            [
              104.88909149169922,
              16.293283462524414
            ],
            [
              104.3830337524414,
              16.35757064819336
            ],
            [
              104.28113555908203,
              16.16470718383789
            ],
            [
              103.65515899658203,
              15.907554626464844
            ],
            [
              103.51712036132812,
              15.971842765808105
            ],
            [
              103.25995635986328,
              15.714691162109375
            ],
            [
              103.11279296875,
              15.714691162109375
            ],
            [
              103.09488677978516,
              15.586114883422852
            ],
            [
              102.87418365478516,
              15.586114883422852
            ],
            [
              102.93003845214844,
              15.457538604736328
            ],
            [
              102.19102478027344,
              14.878947257995605
            ],
            [
              101.89733123779297,
              14.300357818603516
            ],
            [
              101.96285247802734,
              14.236069679260254
            ],
            [
              101.90443629509099,
              14.030101914398998
            ]
          ]
        ]
      }
    }
  ]
}
