{"type": "FeatureCollection", "features": [{"type": "Feature", "properties": {"name": "Gothia", "displayYear": 229, "fromYear": 207, "toYear": 237, "wikipedia": "Gothia", "seshatId": "", "areaKm2": 210831.41202807587, "source": "Seshat Cliopatria"}, "geometry": {"type": "Polygon", "coordinates": [[[28.419212341308594, 50.912200927734375], [27.912818908691406, 50.912200927734375], [27.50750732421875, 51.04566955566406], [25.47995376586914, 51.04566955566406], [24.62126350402832, 50.912200927734375], [24.010730743408203, 50.71213912963867], [23.991239547729492, 50.51224899291992], [23.648340225219727, 50.445655822753906], [22.833574295043945, 49.78071212768555], [23.96904945373535, 49.38258361816406], [23.873634338378906, 49.2500114440918], [24.123882293701172, 49.2500114440918], [24.5810604095459, 48.786521911621094], [25.47635841369629, 48.5881233215332], [25.546506881713867, 48.455936431884766], [26.196914672851562, 48.323814392089844], [26.34928321838379, 48.191749572753906], [26.929094314575195, 48.191749572753906], [27.156536102294922, 47.993770599365234], [27.35562515258789, 47.53233337402344], [27.815019607543945, 47.20316696166992], [27.800966262817383, 47.07159423828125], [28.03349494934082, 46.94007873535156], [28.01938247680664, 46.808616638183594], [28.169408798217773, 46.677207946777344], [28.120285034179688, 46.21768569946289], [28.038482666015625, 46.21768569946289], [28.044450759887695, 45.496795654296875], [28.037626266479492, 45.431331634521484], [28.281864166259766, 45.431331634521484], [28.505107879638672, 45.23500442504883], [29.088754653930664, 45.36587905883789], [29.288110733032227, 45.693260192871094], [30.540401458740234, 46.61152267456055], [30.548437118530273, 46.677207946777344], [30.951017379760742, 47.26897048950195], [31.124147415161133, 47.33478927612305], [31.041772842407227, 47.33478927612305], [31.092761993408203, 47.730003356933594], [31.01017951965332, 47.730003356933594], [31.0618896484375, 48.1257438659668], [30.979095458984375, 48.1257438659668], [31.08812141418457, 48.323814392089844], [31.005218505859375, 48.323814392089844], [31.04046630859375, 48.5881233215332], [30.95741844177246, 48.5881233215332], [31.085229873657227, 48.91886520385742], [31.001998901367188, 48.91886520385742], [31.047412872314453, 49.2500114440918], [30.96399688720703, 49.2500114440918], [31.01011085510254, 49.58156967163086], [30.926504135131836, 49.58156967163086], [31.03822898864746, 49.78071212768555], [30.880159378051758, 49.84712600708008], [30.862855911254883, 50.312522888183594], [30.415721893310547, 50.71213912963867], [28.503610610961914, 50.912200927734375], [28.419212341308594, 50.912200927734375]]]}}]}