{"type": "FeatureCollection", "features": [{"type": "Feature", "properties": {"name": "House of Jagiellon", "displayYear": 1530, "fromYear": 1529, "toYear": 1539, "wikipedia": "Jagiellonian dynasty", "seshatId": "pl_jagiellonian_dyn", "areaKm2": 751237.848395523, "source": "Seshat Cliopatria"}, "geometry": {"type": "MultiPolygon", "coordinates": [[[[19.085887908935547, 50.11296081542969], [19.081897735595703, 50.04647445678711], [19.165773391723633, 50.04647445678711], [19.1698055267334, 50.11296081542969], [19.17385482788086, 50.17946243286133], [19.089900970458984, 50.17946243286133], [19.085887908935547, 50.11296081542969]]], [[[31.650415420532227, 48.191749572753906], [31.65941047668457, 48.257774353027344], [31.74227523803711, 48.257774353027344], [31.733245849609375, 48.191749572753906], [31.650415420532227, 48.191749572753906]]], [[[20.694847106933594, 49.11750411987305], [20.778188705444336, 49.11750411987305], [20.77368927001953, 49.051273345947266], [20.690385818481445, 49.051273345947266], [20.694847106933594, 49.11750411987305]]], [[[20.52816390991211, 49.11750411987305], [20.523778915405273, 49.051273345947266], [20.440475463867188, 49.051273345947266], [20.44482421875, 49.11750411987305], [20.44919204711914, 49.18375015258789], [20.532569885253906, 49.18375015258789], [20.52816390991211, 49.11750411987305]]], [[[20.61150550842285, 49.11750411987305], [20.615947723388672, 49.18375015258789], [20.69932746887207, 49.18375015258789], [20.694847106933594, 49.11750411987305], [20.61150550842285, 49.11750411987305]]], [[[20.365812301635742, 49.18375015258789], [20.278141021728516, 49.11750411987305], [20.286745071411133, 49.2500114440918], [20.44919204711914, 49.18375015258789], [20.365812301635742, 49.18375015258789]]], [[[20.916179656982422, 56.04508590698242], [21.18651008605957, 56.11355972290039], [21.382530212402344, 56.319149017333984], [21.74201202392578, 56.387733459472656], [23.41761016845703, 56.387733459472656], [24.458789825439453, 56.25059127807617], [24.82863998413086, 56.387733459472656], [25.066509246826172, 56.182064056396484], [25.761505126953125, 56.11355972290039], [25.8309326171875, 55.97663879394531], [26.583187103271484, 55.70311737060547], [26.865774154663086, 55.83982467651367], [27.470035552978516, 55.77145767211914], [27.971586227416992, 56.182064056396484], [28.14765167236328, 56.182064056396484], [28.40092658996582, 56.11355972290039], [28.62078285217285, 56.387733459472656], [28.665178298950195, 56.662349700927734], [29.04159164428711, 56.799827575683594], [29.116010665893555, 56.182064056396484], [29.42254638671875, 55.90821838378906], [29.39994239807129, 55.77145767211914], [30.02564811706543, 55.83982467651367], [30.41249656677246, 56.04508590698242], [30.83993148803711, 55.97663879394531], [31.21630859375, 56.11355972290039], [31.36719512939453, 55.97663879394531], [31.217506408691406, 55.63479995727539], [30.90642738342285, 55.36180877685547], [30.882522583007812, 55.225467681884766], [30.96984100341797, 55.225467681884766], [30.7999210357666, 54.74907684326172], [31.2387638092041, 54.27390670776367], [31.573381423950195, 54.20612335205078], [31.797195434570312, 54.00291442871094], [31.77342414855957, 53.86756134033203], [32.020484924316406, 53.799922943115234], [31.99665069580078, 53.664710998535156], [32.14518737792969, 53.52959060668945], [32.10966491699219, 53.32708740234375], [31.902822494506836, 53.124786376953125], [31.313270568847656, 53.192195892333984], [31.279556274414062, 52.99003219604492], [31.502992630004883, 52.78806686401367], [31.659305572509766, 52.18334197998047], [30.871335983276367, 52.0491943359375], [30.58497428894043, 51.84812545776367], [30.538990020751953, 50.97892379760742], [30.68813133239746, 50.84549331665039], [31.109920501708984, 50.84549331665039], [31.214509963989258, 50.97892379760742], [31.752540588378906, 51.17921447753906], [32.259925842285156, 51.17921447753906], [32.322940826416016, 51.04566955566406], [32.807952880859375, 50.912200927734375], [33.09078598022461, 50.578861236572266], [33.405643463134766, 50.445655822753906], [34.16267776489258, 50.445655822753906], [34.24679183959961, 50.445655822753906], [34.465030670166016, 50.2459831237793], [34.35860824584961, 50.11296081542969], [34.44252395629883, 50.11296081542969], [34.398067474365234, 49.84712600708008], [34.0821418762207, 49.44889450073242], [34.144386291503906, 49.316287994384766], [33.95650863647461, 49.18375015258789], [33.45623779296875, 49.18375015258789], [33.362693786621094, 49.11750411987305], [33.42574691772461, 48.98506164550781], [33.00941467285156, 48.98506164550781], [32.48087692260742, 48.786521911621094], [32.28615951538086, 48.5881233215332], [31.852519989013672, 48.455936431884766], [31.56758689880371, 48.191749572753906], [31.218721389770508, 48.059749603271484], [30.887685775756836, 48.059749603271484], [30.622472763061523, 47.92780685424805], [29.795589447021484, 47.92780685424805], [29.69684410095215, 47.79592514038086], [29.53160858154297, 47.79592514038086], [29.507915496826172, 47.598209381103516], [29.335107803344727, 47.53233337402344], [29.39427375793457, 47.33478927612305], [29.229524612426758, 47.33478927612305], [29.221864700317383, 47.26897048950195], [28.982398986816406, 47.33478927612305], [28.93032455444336, 47.598209381103516], [29.028188705444336, 47.730003356933594], [28.87833023071289, 47.86185836791992], [28.555265426635742, 47.92780685424805], [28.570432662963867, 48.059749603271484], [28.4200382232666, 48.191749572753906], [27.537879943847656, 48.455936431884766], [27.39371109008789, 48.654239654541016], [25.981304168701172, 48.654239654541016], [25.50884246826172, 48.91886520385742], [25.342382431030273, 48.91886520385742], [25.246307373046875, 48.786521911621094], [25.559406280517578, 48.5881233215332], [25.54009246826172, 48.38986587524414], [25.01179313659668, 48.059749603271484], [24.987621307373047, 47.79592514038086], [24.90500259399414, 47.79592514038086], [24.586227416992188, 47.92780685424805], [24.686708450317383, 48.1257438659668], [24.367206573486328, 48.257774353027344], [24.378963470458984, 48.38986587524414], [24.052976608276367, 48.455936431884766], [23.666343688964844, 48.786521911621094], [22.928722381591797, 48.91886520385742], [22.77837371826172, 49.11750411987305], [22.5230712890625, 49.051273345947266], [21.79827117919922, 49.38258361816406], [20.71288299560547, 49.38258361816406], [20.703824996948242, 49.2500114440918], [20.453577041625977, 49.2500114440918], [20.545900344848633, 49.38258361816406], [20.21193504333496, 49.38258361816406], [19.865541458129883, 49.18375015258789], [19.472537994384766, 49.58156967163086], [19.13038444519043, 49.44889450073242], [18.88353729248047, 49.51522445678711], [19.23756217956543, 49.84712600708008], [19.165773391723633, 50.04647445678711], [19.1698055267334, 50.11296081542969], [19.17385482788086, 50.17946243286133], [19.18613052368164, 50.37908172607422], [19.022031784057617, 50.445655822753906], [19.030193328857422, 50.578861236572266], [18.70132827758789, 50.71213912963867], [18.709320068359375, 50.84549331665039], [18.049345016479492, 51.112430572509766], [17.972288131713867, 51.24601745605469], [17.549257278442383, 51.24601745605469], [17.31973648071289, 51.71418380737305], [16.980127334594727, 51.71418380737305], [16.803813934326172, 51.580322265625], [16.55561637878418, 51.71418380737305], [16.131103515625, 51.71418380737305], [16.136985778808594, 51.84812545776367], [15.80826187133789, 52.11625671386719], [15.813953399658203, 52.250450134277344], [15.646231651306152, 52.31757736206055], [15.48926830291748, 52.653533935546875], [15.574783325195312, 52.653533935546875], [16.097135543823242, 52.85536575317383], [16.02382469177246, 53.124786376953125], [16.109657287597656, 53.124786376953125], [16.119178771972656, 53.32708740234375], [16.294410705566406, 53.39456558227539], [16.301027297973633, 53.52959060668945], [16.476667404174805, 53.597137451171875], [16.400707244873047, 53.799922943115234], [16.65959930419922, 53.799922943115234], [16.821292877197266, 53.597137451171875], [17.079761505126953, 53.597137451171875], [17.18896484375, 54.00291442871094], [17.62116241455078, 54.00291442871094], [17.641929626464844, 54.341712951660156], [17.910659790039062, 54.47740173339844], [18.024137496948242, 54.88506317138672], [18.1112060546875, 54.88506317138672], [18.459484100341797, 54.88506317138672], [18.44533348083496, 54.681121826171875], [18.686851501464844, 54.4095458984375], [19.462186813354492, 54.341712951660156], [19.559396743774414, 54.47740173339844], [19.732948303222656, 54.47740173339844], [19.819725036621094, 54.47740173339844], [19.808900833129883, 54.341712951660156], [20.14447593688965, 54.20612335205078], [20.49656105041504, 54.27390670776367], [20.75055503845215, 54.20612335205078], [20.825302124023438, 54.07062530517578], [20.273035049438477, 53.664710998535156], [20.100629806518555, 53.664710998535156], [19.8579044342041, 53.86756134033203], [19.873947143554688, 54.07062530517578], [19.45181655883789, 54.20612335205078], [19.268539428710938, 54.07062530517578], [19.253494262695312, 53.86756134033203], [18.979990005493164, 53.664710998535156], [18.80758285522461, 53.664710998535156], [18.7028751373291, 53.39456558227539], [19.214111328125, 53.32708740234375], [19.309919357299805, 53.462066650390625], [19.740234375, 53.462066650390625], [19.72993278503418, 53.32708740234375], [19.972116470336914, 53.124786376953125], [20.395845413208008, 53.057395935058594], [20.66997718811035, 53.25962829589844], [20.927749633789062, 53.25962829589844], [21.28936767578125, 53.462066650390625], [22.42144775390625, 53.597137451171875], [22.548198699951172, 54.00291442871094], [22.461759567260742, 54.00291442871094], [22.482206344604492, 54.20612335205078], [22.66232681274414, 54.27390670776367], [22.69742774963379, 54.613189697265625], [22.704511642456055, 54.681121826171875], [22.812959671020508, 54.88506317138672], [22.573020935058594, 55.089229583740234], [22.398584365844727, 55.089229583740234], [22.412668228149414, 55.225467681884766], [21.640066146850586, 55.36180877685547], [21.235198974609375, 55.70311737060547], [21.248220443725586, 55.83982467651367], [20.991283416748047, 55.90821838378906], [20.9976863861084, 55.97663879394531], [20.909809112548828, 55.97663879394531], [20.916179656982422, 56.04508590698242]]]]}}]}