{
  "type": "FeatureCollection",
  "features": [
    {
      "type": "Feature",
      "properties": {
        "Name": "Later Mayan City-States",
        "FromYear": 1440,
        "ToYear": 1449,
        "Area": 135135.53784790618,
        "Type": "POLITY",
        "Wikipedia": "Maya civilization",
        "Wikidata": "Q28567",
        "SeshatID": "",
        "Components": "",
        "MemberOf": "",
        "displayYear": 1449,
        "sourceYear": 1449,
        "mappedTerritoryId": "cliopatria_later_mayan_city_states"
      },
      "geometry": {
        "type": "MultiPolygon",
        "coordinates": [
          [
            [
              [
                -89.07402801513672,
                17.643327713012695
              ],
              [
                -89.1478271484375,
                17.643327713012695
              ],
              [
                -89.15792083740234,
                17.707616806030273
              ],
              [
                -89.08411407470703,
                17.707616806030273
              ],
              [
                -89.07402801513672,
                17.643327713012695
              ]
            ]
          ],
          [
            [
              [
                -89.7585678100586,
                17.77190399169922
              ],
              [
                -89.7052001953125,
                17.90047836303711
              ],
              [
                -90.36876678466797,
                18.350492477416992
              ],
              [
                -90.38985443115234,
                18.479066848754883
              ],
              [
                -91.06687927246094,
                18.993366241455078
              ],
              [
                -91.20398712158203,
                18.929079055786133
              ],
              [
                -91.16253662109375,
                19.12194061279297
              ],
              [
                -90.81432342529297,
                19.25051498413086
              ],
              [
                -90.74271392822266,
                19.700523376464844
              ],
              [
                -90.42727661132812,
                20.021955490112305
              ],
              [
                -90.49354553222656,
                20.40767478942871
              ],
              [
                -90.41940307617188,
                20.40767478942871
              ],
              [
                -90.3199234008789,
                21.114822387695312
              ],
              [
                -90.17145538330078,
                21.114822387695312
              ],
              [
                -89.9826889038086,
                21.307680130004883
              ],
              [
                -89.1771240234375,
                21.371967315673828
              ],
              [
                -88.47954559326172,
                21.629112243652344
              ],
              [
                -87.3426742553711,
                21.500539779663086
              ],
              [
                -87.2164306640625,
                21.629112243652344
              ],
              [
                -86.91922760009766,
                21.629112243652344
              ],
              [
                -86.74839782714844,
                21.500539779663086
              ],
              [
                -86.72407531738281,
                20.921964645385742
              ],
              [
                -86.71324920654297,
                20.857677459716797
              ],
              [
                -87.34735107421875,
                20.214815139770508
              ],
              [
                -87.29402160644531,
                19.893383026123047
              ],
              [
                -87.54778289794922,
                19.6362361907959
              ],
              [
                -87.38911437988281,
                19.571949005126953
              ],
              [
                -87.36799621582031,
                19.443374633789062
              ],
              [
                -87.49495697021484,
                19.314802169799805
              ],
              [
                -87.45301055908203,
                19.057653427124023
              ],
              [
                -87.7293930053711,
                18.479066848754883
              ],
              [
                -87.69865417480469,
                18.286205291748047
              ],
              [
                -87.91007232666016,
                18.2219181060791
              ],
              [
                -88.03532409667969,
                18.543354034423828
              ],
              [
                -87.96141052246094,
                18.543354034423828
              ],
              [
                -87.99251556396484,
                18.736217498779297
              ],
              [
                -88.2467041015625,
                18.479066848754883
              ],
              [
                -88.22607421875,
                18.350492477416992
              ],
              [
                -88.07830810546875,
                18.350492477416992
              ],
              [
                -88.02729034423828,
                18.029054641723633
              ],
              [
                -88.10113525390625,
                18.029054641723633
              ],
              [
                -88.16853332519531,
                17.514753341674805
              ],
              [
                -88.61125183105469,
                17.514753341674805
              ],
              [
                -89.16804504394531,
                17.77190399169922
              ],
              [
                -89.15792083740234,
                17.707616806030273
              ],
              [
                -89.23172760009766,
                17.707616806030273
              ],
              [
                -89.30553436279297,
                17.707616806030273
              ],
              [
                -89.315673828125,
                17.77190399169922
              ],
              [
                -89.7585678100586,
                17.77190399169922
              ]
            ]
          ]
        ]
      }
    }
  ]
}
