{
  "type": "FeatureCollection",
  "features": [
    {
      "type": "Feature",
      "properties": {
        "Name": "Shang Dynasty",
        "FromYear": -1600,
        "ToYear": -1241,
        "Area": 154175.1809778602,
        "Type": "POLITY",
        "Wikipedia": "Shang dynasty",
        "Wikidata": "Q128938",
        "SeshatID": "cn_erligang",
        "Components": "",
        "MemberOf": "",
        "displayYear": -1500,
        "sourceYear": -1500,
        "mappedTerritoryId": "cliopatria_shang_dynasty"
      },
      "geometry": {
        "type": "Polygon",
        "coordinates": [
          [
            [
              116.39225769042969,
              37.7707405090332
            ],
            [
              116.28266143798828,
              38.028785705566406
            ],
            [
              116.12623596191406,
              38.028785705566406
            ],
            [
              116.03263854980469,
              38.157840728759766
            ],
            [
              116.09590911865234,
              38.28691864013672
            ],
            [
              115.63345336914062,
              38.93262481689453
            ],
            [
              115.0836181640625,
              38.93262481689453
            ],
            [
              114.388916015625,
              38.48057174682617
            ],
            [
              114.24909973144531,
              38.028785705566406
            ],
            [
              114.32731628417969,
              38.028785705566406
            ],
            [
              113.97607421875,
              37.44829177856445
            ],
            [
              113.7887954711914,
              36.8681755065918
            ],
            [
              113.29812622070312,
              36.28839111328125
            ],
            [
              111.52283477783203,
              35.58015823364258
            ],
            [
              110.8770980834961,
              35.51579284667969
            ],
            [
              110.66930389404297,
              35.38706970214844
            ],
            [
              110.54113006591797,
              35.45143127441406
            ],
            [
              110.0746078491211,
              35.065311431884766
            ],
            [
              110.82063293457031,
              35.00096893310547
            ],
            [
              111.10469818115234,
              35.12965774536133
            ],
            [
              112.47119140625,
              35.258358001708984
            ],
            [
              114.3758544921875,
              35.194007873535156
            ],
            [
              114.83484649658203,
              35.00096893310547
            ],
            [
              114.85417938232422,
              34.679283142089844
            ],
            [
              115.1089096069336,
              34.55062484741211
            ],
            [
              115.1829833984375,
              34.3576545715332
            ],
            [
              115.43783569335938,
              34.22901916503906
            ],
            [
              116.00321197509766,
              34.2933349609375
            ],
            [
              116.42337036132812,
              34.743614196777344
            ],
            [
              117.05194091796875,
              35.12965774536133
            ],
            [
              117.0586166381836,
              35.32271194458008
            ],
            [
              117.26962280273438,
              35.45143127441406
            ],
            [
              117.71170806884766,
              36.09519577026367
            ],
            [
              118.30652618408203,
              36.5460319519043
            ],
            [
              118.45719909667969,
              36.8681755065918
            ],
            [
              118.31512451171875,
              37.06150817871094
            ],
            [
              116.8150863647461,
              37.51277160644531
            ],
            [
              116.84593200683594,
              37.5772590637207
            ],
            [
              116.56458282470703,
              37.641746520996094
            ],
            [
              116.47037506103516,
              37.7707405090332
            ],
            [
              116.39225769042969,
              37.7707405090332
            ]
          ]
        ]
      }
    }
  ]
}
