{
  "type": "FeatureCollection",
  "features": [
    {
      "type": "Feature",
      "properties": {
        "Name": "Kingdom of Poland",
        "FromYear": 1003,
        "ToYear": 1009,
        "Area": 424990.7377962991,
        "Type": "POLITY",
        "Wikipedia": "Kingdom of Poland",
        "Wikidata": "Q577867",
        "SeshatID": "pl_piast_dyn_1",
        "Components": "",
        "MemberOf": "(Kingdom of Poland)",
        "displayYear": 1004,
        "sourceYear": 1004,
        "mappedTerritoryId": "cliopatria_kingdom_of_poland"
      },
      "geometry": {
        "type": "Polygon",
        "coordinates": [
          [
            [
              19.3398380279541,
              53.86756134033203
            ],
            [
              19.268539428710938,
              54.07062530517578
            ],
            [
              19.355026245117188,
              54.07062530517578
            ],
            [
              19.462186813354492,
              54.341712951660156
            ],
            [
              18.686851501464844,
              54.4095458984375
            ],
            [
              18.44533348083496,
              54.681121826171875
            ],
            [
              18.459484100341797,
              54.88506317138672
            ],
            [
              17.149450302124023,
              54.817054748535156
            ],
            [
              16.442564010620117,
              54.613189697265625
            ],
            [
              15.991765975952148,
              54.27390670776367
            ],
            [
              15.036103248596191,
              54.20612335205078
            ],
            [
              14.50934886932373,
              54.00291442871094
            ],
            [
              14.499796867370605,
              53.732303619384766
            ],
            [
              13.813799858093262,
              53.86756134033203
            ],
            [
              13.809796333312988,
              53.732303619384766
            ],
            [
              13.978137016296387,
              53.597137451171875
            ],
            [
              13.887948989868164,
              53.462066650390625
            ],
            [
              14.057977676391602,
              53.39456558227539
            ],
            [
              14.053811073303223,
              53.25962829589844
            ],
            [
              14.22566032409668,
              53.25962829589844
            ],
            [
              14.221344947814941,
              53.124786376953125
            ],
            [
              14.047627449035645,
              53.057395935058594
            ],
            [
              14.041525840759277,
              52.85536575317383
            ],
            [
              14.548598289489746,
              52.653533935546875
            ],
            [
              14.544095993041992,
              52.51908493041992
            ],
            [
              14.458669662475586,
              52.51908493041992
            ],
            [
              14.5352144241333,
              52.250450134277344
            ],
            [
              13.174235343933105,
              52.38472366333008
            ],
            [
              12.828912734985352,
              52.18334197998047
            ],
            [
              12.402885437011719,
              52.18334197998047
            ],
            [
              12.315593719482422,
              52.0491943359375
            ],
            [
              11.889187812805176,
              51.98215103149414
            ],
            [
              11.804113388061523,
              51.98215103149414
            ],
            [
              11.547623634338379,
              51.84812545776367
            ],
            [
              11.545768737792969,
              51.64724349975586
            ],
            [
              11.290238380432129,
              51.51342010498047
            ],
            [
              11.288854598999023,
              51.31283950805664
            ],
            [
              12.131903648376465,
              51.04566955566406
            ],
            [
              12.21121883392334,
              50.64549255371094
            ],
            [
              12.04199504852295,
              50.578861236572266
            ],
            [
              12.038346290588379,
              50.2459831237793
            ],
            [
              12.370920181274414,
              49.98000717163086
            ],
            [
              12.36764907836914,
              49.71431350708008
            ],
            [
              12.534139633178711,
              49.64793395996094
            ],
            [
              12.532414436340332,
              49.51522445678711
            ],
            [
              13.02955150604248,
              49.2500114440918
            ],
            [
              13.270737648010254,
              48.72037124633789
            ],
            [
              13.435803413391113,
              48.654239654541016
            ],
            [
              13.432323455810547,
              48.455936431884766
            ],
            [
              16.336408615112305,
              48.455936431884766
            ],
            [
              16.660673141479492,
              48.257774353027344
            ],
            [
              16.909269332885742,
              48.257774353027344
            ],
            [
              17.066926956176758,
              48.059749603271484
            ],
            [
              17.714326858520508,
              47.730003356933594
            ],
            [
              18.540157318115234,
              47.730003356933594
            ],
            [
              18.887624740600586,
              48.059749603271484
            ],
            [
              20.13701820373535,
              48.191749572753906
            ],
            [
              20.576623916625977,
              48.5881233215332
            ],
            [
              21.070402145385742,
              48.52202224731445
            ],
            [
              21.24558448791504,
              48.654239654541016
            ],
            [
              21.254819869995117,
              48.786521911621094
            ],
            [
              21.42584991455078,
              48.852684020996094
            ],
            [
              21.36635398864746,
              49.18375015258789
            ],
            [
              21.282976150512695,
              49.18375015258789
            ],
            [
              21.385677337646484,
              49.44889450073242
            ],
            [
              21.390560150146484,
              49.51522445678711
            ],
            [
              22.158485412597656,
              49.71431350708008
            ],
            [
              22.258319854736328,
              49.91355895996094
            ],
            [
              22.862110137939453,
              50.11296081542969
            ],
            [
              22.946025848388672,
              50.11296081542969
            ],
            [
              22.91514015197754,
              50.71213912963867
            ],
            [
              23.08979606628418,
              50.77880859375
            ],
            [
              23.10826873779297,
              50.97892379760742
            ],
            [
              23.023828506469727,
              50.97892379760742
            ],
            [
              23.042409896850586,
              51.17921447753906
            ],
            [
              22.87944221496582,
              51.24601745605469
            ],
            [
              22.995450973510742,
              51.580322265625
            ],
            [
              22.6685791015625,
              51.71418380737305
            ],
            [
              22.687358856201172,
              51.91512680053711
            ],
            [
              22.347232818603516,
              51.91512680053711
            ],
            [
              22.10417366027832,
              52.0491943359375
            ],
            [
              22.292898178100586,
              52.250450134277344
            ],
            [
              22.422412872314453,
              52.720787048339844
            ],
            [
              22.343225479125977,
              52.78806686401367
            ],
            [
              22.428829193115234,
              52.78806686401367
            ],
            [
              22.6462345123291,
              53.25962829589844
            ],
            [
              22.56031036376953,
              53.25962829589844
            ],
            [
              22.30253791809082,
              53.25962829589844
            ],
            [
              22.50091552734375,
              53.52959060668945
            ],
            [
              22.16950225830078,
              53.664710998535156
            ],
            [
              21.9842586517334,
              53.52959060668945
            ],
            [
              21.8183536529541,
              53.597137451171875
            ],
            [
              21.719682693481445,
              53.462066650390625
            ],
            [
              21.381492614746094,
              53.52959060668945
            ],
            [
              21.019489288330078,
              53.32708740234375
            ],
            [
              20.58405303955078,
              53.25962829589844
            ],
            [
              20.487110137939453,
              53.124786376953125
            ],
            [
              19.972116470336914,
              53.124786376953125
            ],
            [
              19.901874542236328,
              53.32708740234375
            ],
            [
              19.56304168701172,
              53.39456558227539
            ],
            [
              19.421106338500977,
              53.799922943115234
            ],
            [
              19.334808349609375,
              53.799922943115234
            ],
            [
              19.3398380279541,
              53.86756134033203
            ]
          ]
        ]
      }
    }
  ]
}
