{
  "type": "FeatureCollection",
  "features": [
    {
      "type": "Feature",
      "properties": {
        "Name": "Zengid dynasty",
        "FromYear": 1139,
        "ToYear": 1146,
        "Area": 345935.87031838065,
        "Type": "POLITY",
        "Wikipedia": "Zengid dynasty",
        "Wikidata": "Q189545",
        "SeshatID": "",
        "Components": "",
        "MemberOf": "",
        "displayYear": 1141,
        "sourceYear": 1141,
        "mappedTerritoryId": "cliopatria_zengid_dynasty"
      },
      "geometry": {
        "type": "MultiPolygon",
        "coordinates": [
          [
            [
              [
                36.76776885986328,
                31.65752601623535
              ],
              [
                36.69154357910156,
                31.65752601623535
              ],
              [
                36.69736099243164,
                31.7217960357666
              ],
              [
                36.77360153198242,
                31.7217960357666
              ],
              [
                36.76776885986328,
                31.65752601623535
              ]
            ]
          ],
          [
            [
              [
                39.747135162353516,
                38.8680305480957
              ],
              [
                39.99177932739258,
                38.93262481689453
              ],
              [
                40.26435852050781,
                39.19107437133789
              ],
              [
                41.06999969482422,
                39.320335388183594
              ],
              [
                41.51301956176758,
                39.1264533996582
              ],
              [
                43.01698303222656,
                39.19107437133789
              ],
              [
                43.21224594116211,
                38.93262481689453
              ],
              [
                44.22297668457031,
                38.8680305480957
              ],
              [
                44.359256744384766,
                38.738853454589844
              ],
              [
                44.30800247192383,
                38.416015625
              ],
              [
                44.45452117919922,
                38.351463317871094
              ],
              [
                44.30603790283203,
                37.89975357055664
              ],
              [
                44.44255065917969,
                37.7707405090332
              ],
              [
                44.042198181152344,
                37.706241607666016
              ],
              [
                43.89569854736328,
                37.7707405090332
              ],
              [
                43.56403350830078,
                37.641746520996094
              ],
              [
                43.32033157348633,
                37.5772590637207
              ],
              [
                43.41068649291992,
                37.12596130371094
              ],
              [
                44.3570556640625,
                36.67487716674805
              ],
              [
                44.3383903503418,
                36.5460319519043
              ],
              [
                44.611854553222656,
                36.28839111328125
              ],
              [
                44.593360900878906,
                36.15959167480469
              ],
              [
                44.95335388183594,
                35.9664192199707
              ],
              [
                44.898380279541016,
                35.58015823364258
              ],
              [
                44.40733337402344,
                35.38706970214844
              ],
              [
                44.1740608215332,
                34.80794906616211
              ],
              [
                43.92555618286133,
                34.679283142089844
              ],
              [
                43.81462097167969,
                34.42197799682617
              ],
              [
                43.660587310791016,
                34.42197799682617
              ],
              [
                43.39646530151367,
                34.164703369140625
              ],
              [
                43.242584228515625,
                34.164703369140625
              ],
              [
                42.89459991455078,
                33.84315490722656
              ],
              [
                42.57145309448242,
                33.71455001831055
              ],
              [
                42.36363983154297,
                33.26447677612305
              ],
              [
                42.286964416503906,
                33.26447677612305
              ],
              [
                40.70359802246094,
                34.164703369140625
              ],
              [
                40.31147003173828,
                34.10039138793945
              ],
              [
                40.403316497802734,
                34.22901916503906
              ],
              [
                40.25685501098633,
                34.2933349609375
              ],
              [
                39.12379455566406,
                34.48630142211914
              ],
              [
                37.990238189697266,
                33.971771240234375
              ],
              [
                37.73945236206055,
                33.77885055541992
              ],
              [
                37.72612380981445,
                33.65024948120117
              ],
              [
                37.57255172729492,
                33.65024948120117
              ],
              [
                37.0732307434082,
                33.26447677612305
              ],
              [
                37.054195404052734,
                33.07160949707031
              ],
              [
                36.90095901489258,
                33.07160949707031
              ],
              [
                36.716766357421875,
                32.75019073486328
              ],
              [
                36.750667572021484,
                32.30024337768555
              ],
              [
                36.5155143737793,
                32.23596954345703
              ],
              [
                36.66231155395508,
                32.171695709228516
              ],
              [
                36.55650329589844,
                31.8503360748291
              ],
              [
                36.70319747924805,
                31.78606605529785
              ],
              [
                36.61531448364258,
                31.65752601623535
              ],
              [
                36.69154357910156,
                31.65752601623535
              ],
              [
                36.668487548828125,
                31.40045166015625
              ],
              [
                36.80363464355469,
                31.20764923095703
              ],
              [
                36.19477844238281,
                31.20764923095703
              ],
              [
                36.11867141723633,
                31.20764923095703
              ],
              [
                36.25139617919922,
                31.8503360748291
              ],
              [
                35.9337158203125,
                32.557350158691406
              ],
              [
                36.07036590576172,
                33.20018768310547
              ],
              [
                35.769798278808594,
                33.26447677612305
              ],
              [
                35.8250846862793,
                33.84315490722656
              ],
              [
                35.83131790161133,
                33.90746307373047
              ],
              [
                36.58816909790039,
                34.55062484741211
              ],
              [
                36.621395111083984,
                34.87228775024414
              ],
              [
                36.165035247802734,
                34.93662643432617
              ],
              [
                36.268775939941406,
                35.194007873535156
              ],
              [
                36.19152069091797,
                35.194007873535156
              ],
              [
                36.198184967041016,
                35.258358001708984
              ],
              [
                36.20486831665039,
                35.32271194458008
              ],
              [
                36.211570739746094,
                35.38706970214844
              ],
              [
                36.28888702392578,
                35.38706970214844
              ],
              [
                36.99168014526367,
                35.45143127441406
              ],
              [
                37.168373107910156,
                36.3527946472168
              ],
              [
                37.09074020385742,
                36.3527946472168
              ],
              [
                37.119815826416016,
                36.61045455932617
              ],
              [
                38.72113037109375,
                36.9970588684082
              ],
              [
                39.343936920166016,
                36.9970588684082
              ],
              [
                39.51593017578125,
                37.12596130371094
              ],
              [
                39.582183837890625,
                37.641746520996094
              ],
              [
                39.59059143066406,
                37.706241607666016
              ],
              [
                39.72853469848633,
                38.157840728759766
              ],
              [
                39.80679702758789,
                38.157840728759766
              ],
              [
                39.754642486572266,
                38.351463317871094
              ],
              [
                38.744789123535156,
                38.416015625
              ],
              [
                38.613487243652344,
                38.60969924926758
              ],
              [
                38.656463623046875,
                38.93262481689453
              ],
              [
                39.06686782836914,
                39.06184005737305
              ],
              [
                39.747135162353516,
                38.8680305480957
              ]
            ]
          ]
        ]
      }
    }
  ]
}
