{
  "type": "FeatureCollection",
  "features": [
    {
      "type": "Feature",
      "properties": {
        "Name": "Sultanate of Oman",
        "FromYear": 1898,
        "ToYear": 1899,
        "Area": 118671.89601946542,
        "Type": "POLITY",
        "Wikipedia": "Oman",
        "Wikidata": "Q842",
        "SeshatID": "",
        "Components": "",
        "MemberOf": "",
        "displayYear": 1898,
        "sourceYear": 1898,
        "mappedTerritoryId": "cliopatria_sultanate_of_oman"
      },
      "geometry": {
        "type": "MultiPolygon",
        "coordinates": [
          [
            [
              [
                58.772953033447266,
                20.60053253173828
              ],
              [
                59.00082778930664,
                20.664819717407227
              ],
              [
                58.97935485839844,
                20.40767478942871
              ],
              [
                58.81501007080078,
                20.214815139770508
              ],
              [
                58.666770935058594,
                20.214815139770508
              ],
              [
                58.76761245727539,
                20.53624725341797
              ],
              [
                58.772953033447266,
                20.60053253173828
              ]
            ]
          ],
          [
            [
              [
                58.811527252197266,
                23.622013092041016
              ],
              [
                59.08000183105469,
                23.30057144165039
              ],
              [
                59.0682487487793,
                23.171995162963867
              ],
              [
                59.280067443847656,
                23.043420791625977
              ],
              [
                59.2684440612793,
                22.914846420288086
              ],
              [
                59.543212890625,
                22.657697677612305
              ],
              [
                59.903873443603516,
                22.529123306274414
              ],
              [
                59.864044189453125,
                22.079116821289062
              ],
              [
                59.436954498291016,
                21.43625259399414
              ],
              [
                58.799705505371094,
                20.921964645385742
              ],
              [
                58.5291748046875,
                20.343387603759766
              ],
              [
                58.30677032470703,
                20.343387603759766
              ],
              [
                58.24849319458008,
                20.53624725341797
              ],
              [
                58.03127670288086,
                20.60053253173828
              ],
              [
                57.97814178466797,
                20.857677459716797
              ],
              [
                57.760780334472656,
                20.921964645385742
              ],
              [
                57.85076141357422,
                21.114822387695312
              ],
              [
                57.341129302978516,
                22.143402099609375
              ],
              [
                56.453956604003906,
                22.20768928527832
              ],
              [
                55.694705963134766,
                22.014829635620117
              ],
              [
                55.2949333190918,
                22.59341049194336
              ],
              [
                55.3001594543457,
                22.657697677612305
              ],
              [
                55.35348129272461,
                23.30057144165039
              ],
              [
                55.61030197143555,
                23.68630027770996
              ],
              [
                55.558345794677734,
                23.943456649780273
              ],
              [
                55.70759963989258,
                23.943456649780273
              ],
              [
                55.71334457397461,
                24.00774574279785
              ],
              [
                56.0177001953125,
                24.07203483581543
              ],
              [
                55.823150634765625,
                24.393482208251953
              ],
              [
                55.865665435791016,
                24.843517303466797
              ],
              [
                56.027706146240234,
                24.97209930419922
              ],
              [
                56.08375549316406,
                24.779226303100586
              ],
              [
                56.23326873779297,
                24.779226303100586
              ],
              [
                56.401641845703125,
                24.97209930419922
              ],
              [
                56.4764289855957,
                24.97209930419922
              ],
              [
                56.78811264038086,
                24.329193115234375
              ],
              [
                57.06272888183594,
                24.07203483581543
              ],
              [
                57.355316162109375,
                24.00774574279785
              ],
              [
                57.34935760498047,
                23.943456649780273
              ],
              [
                58.811527252197266,
                23.622013092041016
              ]
            ]
          ],
          [
            [
              [
                56.39881896972656,
                25.67931365966797
              ],
              [
                56.392086029052734,
                25.615020751953125
              ],
              [
                56.249000549316406,
                25.67931365966797
              ],
              [
                56.28312683105469,
                26.000778198242188
              ],
              [
                56.06513595581055,
                26.06507110595703
              ],
              [
                56.072078704833984,
                26.129364013671875
              ],
              [
                56.32533645629883,
                26.386537551879883
              ],
              [
                56.47541046142578,
                26.386537551879883
              ],
              [
                56.53614807128906,
                26.257951736450195
              ],
              [
                56.52906036376953,
                26.19365882873535
              ],
              [
                56.39881896972656,
                25.67931365966797
              ]
            ]
          ]
        ]
      }
    }
  ]
}
