{
  "type": "FeatureCollection",
  "features": [
    {
      "type": "Feature",
      "properties": {
        "Name": "Khmer Empire",
        "FromYear": 1375,
        "ToYear": 1474,
        "Area": 240474.29224646668,
        "Type": "POLITY",
        "Wikipedia": "Khmer Empire",
        "Wikidata": "Q201705",
        "SeshatID": "",
        "Components": "",
        "MemberOf": "",
        "displayYear": 1435,
        "sourceYear": 1435,
        "mappedTerritoryId": "cliopatria_khmer_empire"
      },
      "geometry": {
        "type": "MultiPolygon",
        "coordinates": [
          [
            [
              [
                103.9781494140625,
                10.443102836608887
              ],
              [
                104.12442779541016,
                10.443102836608887
              ],
              [
                104.0897445678711,
                10.057377815246582
              ],
              [
                103.94351959228516,
                10.057377815246582
              ],
              [
                103.81444549560547,
                10.250240325927734
              ],
              [
                103.90501403808594,
                10.443102836608887
              ],
              [
                103.9781494140625,
                10.443102836608887
              ]
            ]
          ],
          [
            [
              [
                107.00117492675781,
                10.7002534866333
              ],
              [
                106.98281860351562,
                10.507390975952148
              ],
              [
                106.75736236572266,
                10.443102836608887
              ],
              [
                106.81851196289062,
                10.314528465270996
              ],
              [
                106.66631317138672,
                10.250240325927734
              ],
              [
                106.80664825439453,
                10.185953140258789
              ],
              [
                106.79491424560547,
                10.057377815246582
              ],
              [
                106.64287567138672,
                9.993090629577637
              ],
              [
                106.69871520996094,
                9.800228118896484
              ],
              [
                106.55252075195312,
                9.800228118896484
              ],
              [
                106.60304260253906,
                9.543078422546387
              ],
              [
                106.2320785522461,
                9.478790283203125
              ],
              [
                106.14253997802734,
                9.285927772521973
              ],
              [
                105.62030029296875,
                9.157352447509766
              ],
              [
                105.13510131835938,
                8.578764915466309
              ],
              [
                104.7649154663086,
                8.514476776123047
              ],
              [
                104.7020034790039,
                8.643052101135254
              ],
              [
                104.8582992553711,
                8.771627426147461
              ],
              [
                104.71222686767578,
                8.771627426147461
              ],
              [
                104.7926025390625,
                9.735940933227539
              ],
              [
                105.03448486328125,
                9.993090629577637
              ],
              [
                104.53990173339844,
                10.185953140258789
              ],
              [
                104.4169692993164,
                10.443102836608887
              ],
              [
                104.12442779541016,
                10.443102836608887
              ],
              [
                103.91679382324219,
                10.571678161621094
              ],
              [
                103.54518127441406,
                10.507390975952148
              ],
              [
                103.48978424072266,
                10.7002534866333
              ],
              [
                103.64208221435547,
                10.764540672302246
              ],
              [
                103.59931945800781,
                11.085978507995605
              ],
              [
                103.3554458618164,
                10.828827857971191
              ],
              [
                103.06279754638672,
                10.828827857971191
              ],
              [
                103.05123901367188,
                11.47170352935791
              ],
              [
                102.84432220458984,
                11.6002779006958
              ],
              [
                102.8701400756836,
                11.857428550720215
              ],
              [
                102.73677062988281,
                11.986002922058105
              ],
              [
                102.74337005615234,
                12.050291061401367
              ],
              [
                102.84342956542969,
                12.307440757751465
              ],
              [
                102.4069595336914,
                13.014603614807129
              ],
              [
                102.39213562011719,
                13.528904914855957
              ],
              [
                102.70829010009766,
                13.721768379211426
              ],
              [
                102.90162658691406,
                14.107494354248047
              ],
              [
                103.2273178100586,
                14.364645004272461
              ],
              [
                103.4476547241211,
                14.364645004272461
              ],
              [
                103.61087036132812,
                14.493220329284668
              ],
              [
                103.81488037109375,
                14.364645004272461
              ],
              [
                104.9248275756836,
                14.428933143615723
              ],
              [
                104.9818115234375,
                14.300357818603516
              ],
              [
                105.27556610107422,
                14.300357818603516
              ],
              [
                105.25923156738281,
                14.171781539916992
              ],
              [
                105.69166564941406,
                14.107494354248047
              ],
              [
                106.03453826904297,
                13.914630889892578
              ],
              [
                106.17350769042969,
                14.428933143615723
              ],
              [
                106.63114166259766,
                14.55750846862793
              ],
              [
                106.89125061035156,
                14.300357818603516
              ],
              [
                107.5127182006836,
                14.55750846862793
              ],
              [
                107.38037109375,
                14.107494354248047
              ],
              [
                107.66691589355469,
                13.464617729187012
              ],
              [
                107.5248031616211,
                12.886029243469238
              ],
              [
                107.5981216430664,
                12.886029243469238
              ],
              [
                107.62740325927734,
                12.500303268432617
              ],
              [
                106.84535217285156,
                12.050291061401367
              ],
              [
                106.87786865234375,
                11.664566040039062
              ],
              [
                107.05804443359375,
                11.278841018676758
              ],
              [
                107.03242492675781,
                11.021690368652344
              ],
              [
                107.10559844970703,
                11.021690368652344
              ],
              [
                107.07432556152344,
                10.7002534866333
              ],
              [
                107.00117492675781,
                10.7002534866333
              ]
            ]
          ]
        ]
      }
    }
  ]
}
