{
  "type": "FeatureCollection",
  "features": [
    {
      "type": "Feature",
      "properties": {
        "Name": "Karkota Dynasty",
        "FromYear": 850,
        "ToYear": 859,
        "Area": 122660.10847524831,
        "Type": "POLITY",
        "Wikipedia": "Karkota dynasty",
        "Wikidata": "Q466433",
        "SeshatID": "in_karkota_dyn",
        "Components": "",
        "MemberOf": "",
        "displayYear": 859,
        "sourceYear": 859,
        "mappedTerritoryId": "cliopatria_karkota_dynasty"
      },
      "geometry": {
        "type": "Polygon",
        "coordinates": [
          [
            [
              73.29431436811512,
              36.49355718940584
            ],
            [
              73.154971637413,
              36.14605056860258
            ],
            [
              73.27440826372911,
              35.89918803090186
            ],
            [
              73.3009497362438,
              35.33822056138265
            ],
            [
              73.01562890671083,
              35.15940041033561
            ],
            [
              72.83647396723664,
              33.88015469907049
            ],
            [
              74.68755524640339,
              32.5966087670576
            ],
            [
              75.31975873576837,
              33.03275369614575
            ],
            [
              75.65527718493676,
              33.06505252737923
            ],
            [
              76.2452277335399,
              32.40301028906886
            ],
            [
              76.55862993144908,
              32.61104337944035
            ],
            [
              76.7977887400549,
              33.84158495755703
            ],
            [
              76.69162284999612,
              35.24615034476569
            ],
            [
              76.08589707252858,
              35.592139886173925
            ],
            [
              75.84229572952584,
              35.64616124678116
            ],
            [
              74.8469905102248,
              36.31732437475001
            ],
            [
              74.68774167513662,
              36.70663624355918
            ],
            [
              74.1370061204567,
              36.77576014459299
            ],
            [
              73.88486213156712,
              36.97745739259756
            ],
            [
              73.25450215934312,
              36.98275801928945
            ],
            [
              73.29431436811512,
              36.49355718940584
            ]
          ]
        ]
      }
    }
  ]
}
