{
  "type": "FeatureCollection",
  "features": [
    {
      "type": "Feature",
      "properties": {
        "Name": "Afghanistan",
        "FromYear": 2006,
        "ToYear": 2023,
        "Area": 643925.8781634201,
        "Type": "POLITY",
        "Wikipedia": "Afghanistan",
        "Wikidata": "Q889",
        "SeshatID": "af_afghanistan_rep",
        "Components": "",
        "MemberOf": "",
        "displayYear": 2008,
        "sourceYear": 2008,
        "mappedTerritoryId": "cliopatria_afghanistan"
      },
      "geometry": {
        "type": "Polygon",
        "coordinates": [
          [
            [
              74.91697692871094,
              37.254878997802734
            ],
            [
              74.79792022705078,
              37.38381576538086
            ],
            [
              74.09605407714844,
              37.38381576538086
            ],
            [
              73.82582092285156,
              37.254878997802734
            ],
            [
              73.72431945800781,
              37.44829177856445
            ],
            [
              73.33428192138672,
              37.44829177856445
            ],
            [
              72.24005126953125,
              36.8681755065918
            ],
            [
              71.58341979980469,
              36.73930740356445
            ],
            [
              71.41844177246094,
              36.9970588684082
            ],
            [
              71.56851959228516,
              37.835243225097656
            ],
            [
              71.27379608154297,
              37.89975357055664
            ],
            [
              71.3639907836914,
              38.22237777709961
            ],
            [
              71.18379211425781,
              38.416015625
            ],
            [
              70.71366119384766,
              38.416015625
            ],
            [
              70.2146987915039,
              38.028785705566406
            ],
            [
              70.16192626953125,
              37.835243225097656
            ],
            [
              70.26583862304688,
              37.641746520996094
            ],
            [
              70.07515716552734,
              37.51277160644531
            ],
            [
              69.5460205078125,
              37.5772590637207
            ],
            [
              69.3497543334961,
              37.12596130371094
            ],
            [
              69.1160659790039,
              37.12596130371094
            ],
            [
              69.0102767944336,
              37.3193473815918
            ],
            [
              68.7763900756836,
              37.3193473815918
            ],
            [
              68.1487045288086,
              36.9970588684082
            ],
            [
              67.91515350341797,
              36.9970588684082
            ],
            [
              67.74652099609375,
              37.254878997802734
            ],
            [
              66.45355224609375,
              37.38381576538086
            ],
            [
              65.70548248291016,
              37.51277160644531
            ],
            [
              65.564208984375,
              37.254878997802734
            ],
            [
              64.92518615722656,
              37.1904182434082
            ],
            [
              64.6951675415039,
              36.5460319519043
            ],
            [
              64.48042297363281,
              36.28839111328125
            ],
            [
              63.61789321899414,
              35.902034759521484
            ],
            [
              63.138858795166016,
              35.837650299072266
            ],
            [
              63.11072540283203,
              35.708900451660156
            ],
            [
              63.188148498535156,
              35.708900451660156
            ],
            [
              63.0549430847168,
              35.45143127441406
            ],
            [
              62.458980560302734,
              35.194007873535156
            ],
            [
              62.304466247558594,
              35.194007873535156
            ],
            [
              62.190589904785156,
              35.38706970214844
            ],
            [
              61.80400085449219,
              35.38706970214844
            ],
            [
              61.303009033203125,
              35.58015823364258
            ],
            [
              61.05390167236328,
              34.743614196777344
            ],
            [
              60.783958435058594,
              34.55062484741211
            ],
            [
              60.82268524169922,
              34.3576545715332
            ],
            [
              60.56644058227539,
              34.22901916503906
            ],
            [
              60.531375885009766,
              33.65024948120117
            ],
            [
              60.890625,
              33.52165222167969
            ],
            [
              60.68838119506836,
              33.26447677612305
            ],
            [
              60.61639404296875,
              32.878753662109375
            ],
            [
              60.692955017089844,
              32.878753662109375
            ],
            [
              60.65742874145508,
              32.685909271240234
            ],
            [
              60.88142776489258,
              32.23596954345703
            ],
            [
              60.84385299682617,
              31.593257904052734
            ],
            [
              61.115089416503906,
              31.40045166015625
            ],
            [
              61.72434997558594,
              31.40045166015625
            ],
            [
              61.91905212402344,
              31.20764923095703
            ],
            [
              61.87461853027344,
              30.950578689575195
            ],
            [
              61.38716506958008,
              30.307893753051758
            ],
            [
              60.95616912841797,
              29.986536026000977
            ],
            [
              60.92573928833008,
              29.79371452331543
            ],
            [
              61.001495361328125,
              29.79371452331543
            ],
            [
              62.3036994934082,
              29.40805435180664
            ],
            [
              63.75174331665039,
              29.472333908081055
            ],
            [
              63.76219177246094,
              29.536611557006836
            ],
            [
              63.837886810302734,
              29.536611557006836
            ],
            [
              63.827423095703125,
              29.472333908081055
            ],
            [
              64.11966705322266,
              29.40805435180664
            ],
            [
              64.52979278564453,
              29.600887298583984
            ],
            [
              65.12470245361328,
              29.536611557006836
            ],
            [
              65.99028778076172,
              29.729440689086914
            ],
            [
              66.25102233886719,
              29.922264099121094
            ],
            [
              66.26229095458984,
              29.986536026000977
            ],
            [
              66.33809661865234,
              29.986536026000977
            ],
            [
              66.43708038330078,
              30.950578689575195
            ],
            [
              66.87832641601562,
              31.271915435791016
            ],
            [
              67.71569061279297,
              31.271915435791016
            ],
            [
              67.81696319580078,
              31.40045166015625
            ],
            [
              67.6646499633789,
              31.40045166015625
            ],
            [
              67.61372375488281,
              31.528987884521484
            ],
            [
              67.93124389648438,
              31.593257904052734
            ],
            [
              68.12230682373047,
              31.78606605529785
            ],
            [
              68.6561279296875,
              31.78606605529785
            ],
            [
              68.78253173828125,
              31.65752601623535
            ],
            [
              69.08743286132812,
              31.65752601623535
            ],
            [
              69.292724609375,
              31.91460609436035
            ],
            [
              69.33792877197266,
              32.493072509765625
            ],
            [
              69.54618072509766,
              32.75019073486328
            ],
            [
              69.53977966308594,
              33.07160949707031
            ],
            [
              70.2580337524414,
              33.20018768310547
            ],
            [
              70.31597137451172,
              33.45735549926758
            ],
            [
              70.17707824707031,
              33.52165222167969
            ],
            [
              70.20632934570312,
              33.65024948120117
            ],
            [
              69.92847442626953,
              33.77885055541992
            ],
            [
              69.98755645751953,
              34.03607940673828
            ],
            [
              70.72654724121094,
              33.90746307373047
            ],
            [
              71.18670654296875,
              34.22901916503906
            ],
            [
              71.1557388305664,
              34.42197799682617
            ],
            [
              71.01707458496094,
              34.48630142211914
            ],
            [
              71.04795837402344,
              34.614952087402344
            ],
            [
              71.51179504394531,
              34.93662643432617
            ],
            [
              71.6846694946289,
              35.32271194458008
            ],
            [
              71.60736846923828,
              35.32271194458008
            ],
            [
              71.65575408935547,
              35.51579284667969
            ],
            [
              71.5172119140625,
              35.58015823364258
            ],
            [
              71.5497055053711,
              35.708900451660156
            ],
            [
              71.22772979736328,
              35.9664192199707
            ],
            [
              71.38785552978516,
              36.28839111328125
            ],
            [
              71.98176574707031,
              36.48161697387695
            ],
            [
              72.37832641601562,
              36.80373764038086
            ],
            [
              74.10740661621094,
              36.8681755065918
            ],
            [
              74.55056762695312,
              37.06150817871094
            ],
            [
              74.58694458007812,
              37.1904182434082
            ],
            [
              74.91697692871094,
              37.254878997802734
            ]
          ]
        ]
      }
    }
  ]
}
