{
  "type": "FeatureCollection",
  "features": [
    {
      "type": "Feature",
      "properties": {
        "Name": "Chauhan Dynasty",
        "FromYear": 1056,
        "ToYear": 1176,
        "Area": 149498.48747495213,
        "Type": "POLITY",
        "Wikipedia": "Chauhan Dynasty",
        "Wikidata": "Q1068371",
        "SeshatID": "in_chauhana_dyn",
        "Components": "",
        "MemberOf": "",
        "displayYear": 1085,
        "sourceYear": 1085,
        "mappedTerritoryId": "cliopatria_chauhan_dynasty"
      },
      "geometry": {
        "type": "Polygon",
        "coordinates": [
          [
            [
              76.54730359319709,
              26.258106947241497
            ],
            [
              76.9255195765315,
              26.608663902016318
            ],
            [
              77.1776635654211,
              27.02909957311833
            ],
            [
              76.99187325781824,
              27.223980563051573
            ],
            [
              76.61365727448381,
              27.706752898951912
            ],
            [
              76.29515960430746,
              28.48525294628307
            ],
            [
              75.38611417067911,
              29.217525186025732
            ],
            [
              74.51688094582278,
              29.217525186025732
            ],
            [
              73.81353192418332,
              28.968202808672803
            ],
            [
              73.22961952886,
              28.38606090803968
            ],
            [
              72.69879007856605,
              27.871116114385348
            ],
            [
              71.67694338675024,
              27.212179267717264
            ],
            [
              71.90254590312516,
              26.436489495215742
            ],
            [
              73.24289026511734,
              25.637598089904195
            ],
            [
              73.71400140225322,
              25.48196210999848
            ],
            [
              73.89302085960593,
              25.552011826353947
            ],
            [
              74.65622367652493,
              25.775107191062627
            ],
            [
              74.8221078797418,
              25.70338313324067
            ],
            [
              74.92163840167257,
              25.392642263679242
            ],
            [
              76.00983877477445,
              25.918425231415654
            ],
            [
              76.54730359319709,
              26.258106947241497
            ]
          ]
        ]
      }
    }
  ]
}
