{
  "type": "FeatureCollection",
  "features": [
    {
      "type": "Feature",
      "properties": {
        "Name": "Indo-Scythians",
        "FromYear": -126,
        "ToYear": -111,
        "Area": 461271.8178538013,
        "Type": "POLITY",
        "Wikipedia": "Indo-Scythians",
        "Wikidata": "Q240123",
        "SeshatID": "",
        "Components": "",
        "MemberOf": "",
        "displayYear": -121,
        "sourceYear": -121,
        "mappedTerritoryId": "cliopatria_indo_scythians"
      },
      "geometry": {
        "type": "Polygon",
        "coordinates": [
          [
            [
              65.1384048461914,
              38.67427444458008
            ],
            [
              64.76129913330078,
              36.15959167480469
            ],
            [
              64.8388671875,
              36.15959167480469
            ],
            [
              64.75106811523438,
              35.77327346801758
            ],
            [
              64.8285140991211,
              35.77327346801758
            ],
            [
              64.85395812988281,
              35.194007873535156
            ],
            [
              65.09204864501953,
              34.87228775024414
            ],
            [
              65.41487121582031,
              34.93662643432617
            ],
            [
              65.61793518066406,
              34.80794906616211
            ],
            [
              65.92647552490234,
              34.80794906616211
            ],
            [
              66.06645965576172,
              34.743614196777344
            ],
            [
              66.0379867553711,
              34.614952087402344
            ],
            [
              66.45768737792969,
              34.42197799682617
            ],
            [
              66.6259765625,
              34.48630142211914
            ],
            [
              66.67450714111328,
              34.3576545715332
            ],
            [
              66.96822357177734,
              34.2933349609375
            ],
            [
              67.00257873535156,
              34.10039138793945
            ],
            [
              67.38717651367188,
              34.10039138793945
            ],
            [
              67.4356460571289,
              33.971771240234375
            ],
            [
              68.23835754394531,
              33.77885055541992
            ],
            [
              68.51705169677734,
              33.65024948120117
            ],
            [
              68.4744873046875,
              33.45735549926758
            ],
            [
              68.55121612548828,
              33.45735549926758
            ],
            [
              68.3905258178711,
              33.07160949707031
            ],
            [
              67.6294174194336,
              32.36451721191406
            ],
            [
              66.62550354003906,
              31.143381118774414
            ],
            [
              66.54940795898438,
              31.143381118774414
            ],
            [
              66.38511657714844,
              31.079113006591797
            ],
            [
              65.90084838867188,
              31.336183547973633
            ],
            [
              65.5201416015625,
              31.336183547973633
            ],
            [
              65.54437255859375,
              31.464719772338867
            ],
            [
              65.31584930419922,
              31.464719772338867
            ],
            [
              64.74685668945312,
              31.271915435791016
            ],
            [
              64.72323608398438,
              31.143381118774414
            ],
            [
              64.50669860839844,
              31.20764923095703
            ],
            [
              63.01523208618164,
              30.950578689575195
            ],
            [
              62.73356246948242,
              31.079113006591797
            ],
            [
              62.35319137573242,
              31.079113006591797
            ],
            [
              62.082515716552734,
              31.271915435791016
            ],
            [
              61.84294509887695,
              31.20764923095703
            ],
            [
              61.648193359375,
              31.40045166015625
            ],
            [
              61.115089416503906,
              31.40045166015625
            ],
            [
              61.03893280029297,
              31.40045166015625
            ],
            [
              60.84385299682617,
              31.593257904052734
            ],
            [
              60.88142776489258,
              32.23596954345703
            ],
            [
              60.65742874145508,
              32.685909271240234
            ],
            [
              60.692955017089844,
              32.878753662109375
            ],
            [
              60.61639404296875,
              32.878753662109375
            ],
            [
              60.68838119506836,
              33.26447677612305
            ],
            [
              60.890625,
              33.52165222167969
            ],
            [
              60.59587860107422,
              33.5859489440918
            ],
            [
              60.56838607788086,
              33.84315490722656
            ],
            [
              60.49154281616211,
              33.84315490722656
            ],
            [
              60.56644058227539,
              34.22901916503906
            ],
            [
              60.82268524169922,
              34.3576545715332
            ],
            [
              60.783958435058594,
              34.55062484741211
            ],
            [
              61.05390167236328,
              34.743614196777344
            ],
            [
              61.18545150756836,
              35.38706970214844
            ],
            [
              61.316497802734375,
              35.644527435302734
            ],
            [
              61.484867095947266,
              35.708900451660156
            ],
            [
              61.58096694946289,
              36.15959167480469
            ],
            [
              61.50339889526367,
              36.15959167480469
            ],
            [
              61.53782272338867,
              36.67487716674805
            ],
            [
              60.95139694213867,
              37.1904182434082
            ],
            [
              60.96575927734375,
              37.254878997802734
            ],
            [
              60.775108337402344,
              37.44829177856445
            ],
            [
              60.80412673950195,
              37.5772590637207
            ],
            [
              60.66255569458008,
              37.641746520996094
            ],
            [
              60.73598098754883,
              37.96426773071289
            ],
            [
              60.5309944152832,
              38.09331130981445
            ],
            [
              60.56078338623047,
              38.22237777709961
            ],
            [
              60.370792388916016,
              38.416015625
            ],
            [
              60.43135452270508,
              38.67427444458008
            ],
            [
              60.32030487060547,
              38.8680305480957
            ],
            [
              60.41352081298828,
              39.25570297241211
            ],
            [
              60.713134765625,
              39.51427459716797
            ],
            [
              60.791908264160156,
              39.51427459716797
            ],
            [
              62.50175094604492,
              40.031734466552734
            ],
            [
              62.879478454589844,
              39.9670295715332
            ],
            [
              64.01988983154297,
              40.0964469909668
            ],
            [
              64.38936614990234,
              40.29063034057617
            ],
            [
              65.23503112792969,
              40.4848747253418
            ],
            [
              65.27192687988281,
              40.614410400390625
            ],
            [
              65.35114288330078,
              40.614410400390625
            ],
            [
              65.36971282958984,
              40.6791877746582
            ],
            [
              65.4489517211914,
              40.6791877746582
            ],
            [
              65.43035125732422,
              40.614410400390625
            ],
            [
              65.58878326416016,
              40.614410400390625
            ],
            [
              65.80352020263672,
              40.80876541137695
            ],
            [
              65.88282012939453,
              40.80876541137695
            ],
            [
              65.56378936767578,
              39.9670295715332
            ],
            [
              65.29122161865234,
              39.8376350402832
            ],
            [
              65.20310974121094,
              39.51427459716797
            ],
            [
              65.2818832397461,
              39.51427459716797
            ],
            [
              65.06549835205078,
              38.997230529785156
            ],
            [
              65.1440658569336,
              38.997230529785156
            ],
            [
              65.07666015625,
              38.738853454589844
            ],
            [
              65.15513610839844,
              38.738853454589844
            ],
            [
              65.1384048461914,
              38.67427444458008
            ]
          ]
        ]
      }
    }
  ]
}
