{
  "type": "FeatureCollection",
  "features": [
    {
      "type": "Feature",
      "properties": {
        "Name": "Kingdom of Hungary",
        "FromYear": 1415,
        "ToYear": 1421,
        "Area": 331723.47341909184,
        "Type": "POLITY",
        "Wikipedia": "Kingdom of Hungary",
        "Wikidata": "Q171150",
        "SeshatID": "hu_later_dyn",
        "Components": "",
        "MemberOf": "",
        "displayYear": 1421,
        "sourceYear": 1421,
        "mappedTerritoryId": "cliopatria_kingdom_of_hungary"
      },
      "geometry": {
        "type": "Polygon",
        "coordinates": [
          [
            [
              20.71288299560547,
              49.38258361816406
            ],
            [
              21.79827117919922,
              49.38258361816406
            ],
            [
              22.5230712890625,
              49.051273345947266
            ],
            [
              22.77837371826172,
              49.11750411987305
            ],
            [
              22.928722381591797,
              48.91886520385742
            ],
            [
              23.666343688964844,
              48.786521911621094
            ],
            [
              24.052976608276367,
              48.455936431884766
            ],
            [
              24.378963470458984,
              48.38986587524414
            ],
            [
              24.367206573486328,
              48.257774353027344
            ],
            [
              24.686708450317383,
              48.1257438659668
            ],
            [
              24.586227416992188,
              47.92780685424805
            ],
            [
              24.90500259399414,
              47.79592514038086
            ],
            [
              24.881271362304688,
              47.53233337402344
            ],
            [
              25.03432846069336,
              47.4006233215332
            ],
            [
              25.016605377197266,
              47.20316696166992
            ],
            [
              25.668907165527344,
              47.13737487792969
            ],
            [
              25.72661018371582,
              46.87434005737305
            ],
            [
              25.966814041137695,
              46.808616638183594
            ],
            [
              25.942142486572266,
              46.54585266113281
            ],
            [
              26.477930068969727,
              46.1520881652832
            ],
            [
              26.44038200378418,
              45.75876998901367
            ],
            [
              26.10191535949707,
              45.62776184082031
            ],
            [
              25.93889808654785,
              45.62776184082031
            ],
            [
              25.84545135498047,
              45.496795654296875
            ],
            [
              25.438228607177734,
              45.496795654296875
            ],
            [
              25.34526824951172,
              45.36587905883789
            ],
            [
              25.042299270629883,
              45.62776184082031
            ],
            [
              23.483562469482422,
              45.496795654296875
            ],
            [
              23.47352409362793,
              45.36587905883789
            ],
            [
              23.138248443603516,
              45.23500442504883
            ],
            [
              22.650352478027344,
              45.23500442504883
            ],
            [
              22.531999588012695,
              44.71194839477539
            ],
            [
              22.113351821899414,
              44.5159797668457
            ],
            [
              22.032384872436523,
              44.5159797668457
            ],
            [
              21.951416015625,
              44.5159797668457
            ],
            [
              21.955795288085938,
              44.58129119873047
            ],
            [
              21.87479591369629,
              44.58129119873047
            ],
            [
              21.879146575927734,
              44.64661407470703
            ],
            [
              21.79811668395996,
              44.64661407470703
            ],
            [
              21.717084884643555,
              44.64661407470703
            ],
            [
              21.40547752380371,
              44.842647552490234
            ],
            [
              21.080976486206055,
              44.842647552490234
            ],
            [
              20.829694747924805,
              44.71194839477539
            ],
            [
              20.350849151611328,
              44.842647552490234
            ],
            [
              19.856950759887695,
              44.71194839477539
            ],
            [
              19.624204635620117,
              44.908016204833984
            ],
            [
              19.296220779418945,
              44.842647552490234
            ],
            [
              19.22174644470215,
              44.973392486572266
            ],
            [
              18.890594482421875,
              44.842647552490234
            ],
            [
              18.57839012145996,
              45.10417556762695
            ],
            [
              16.544801712036133,
              45.03877639770508
            ],
            [
              16.294586181640625,
              44.842647552490234
            ],
            [
              16.285852432250977,
              44.58129119873047
            ],
            [
              16.52429962158203,
              44.45067596435547
            ],
            [
              16.51975440979004,
              44.32010269165039
            ],
            [
              16.27495574951172,
              44.25482940673828
            ],
            [
              16.268434524536133,
              44.05907440185547
            ],
            [
              16.429935455322266,
              44.05907440185547
            ],
            [
              16.741186141967773,
              43.73301696777344
            ],
            [
              16.66059112548828,
              43.73301696777344
            ],
            [
              16.579994201660156,
              43.73301696777344
            ],
            [
              16.582277297973633,
              43.79821014404297
            ],
            [
              16.501649856567383,
              43.79821014404297
            ],
            [
              16.421024322509766,
              43.79821014404297
            ],
            [
              15.146636962890625,
              44.38538360595703
            ],
            [
              15.148378372192383,
              44.45067596435547
            ],
            [
              14.908865928649902,
              44.58129119873047
            ],
            [
              14.91874885559082,
              44.973392486572266
            ],
            [
              14.75637149810791,
              44.973392486572266
            ],
            [
              14.521710395812988,
              45.36587905883789
            ],
            [
              14.440329551696777,
              45.36587905883789
            ],
            [
              14.524674415588379,
              45.496795654296875
            ],
            [
              15.339118957519531,
              45.496795654296875
            ],
            [
              15.264768600463867,
              45.75876998901367
            ],
            [
              15.678460121154785,
              45.95537567138672
            ],
            [
              15.604452133178711,
              46.21768569946289
            ],
            [
              16.01764488220215,
              46.348915100097656
            ],
            [
              15.864084243774414,
              46.677207946777344
            ],
            [
              16.032390594482422,
              46.808616638183594
            ],
            [
              16.138551712036133,
              47.53233337402344
            ],
            [
              16.303508758544922,
              47.53233337402344
            ],
            [
              16.3150634765625,
              47.86185836791992
            ],
            [
              16.986814498901367,
              48.1257438659668
            ],
            [
              16.989469528198242,
              48.191749572753906
            ],
            [
              16.829010009765625,
              48.323814392089844
            ],
            [
              16.927988052368164,
              48.72037124633789
            ],
            [
              17.938142776489258,
              48.98506164550781
            ],
            [
              18.378620147705078,
              49.44889450073242
            ],
            [
              18.88353729248047,
              49.51522445678711
            ],
            [
              19.13038444519043,
              49.44889450073242
            ],
            [
              19.472537994384766,
              49.58156967163086
            ],
            [
              19.865541458129883,
              49.18375015258789
            ],
            [
              20.21193504333496,
              49.38258361816406
            ],
            [
              20.545900344848633,
              49.38258361816406
            ],
            [
              20.453577041625977,
              49.2500114440918
            ],
            [
              20.703824996948242,
              49.2500114440918
            ],
            [
              20.71288299560547,
              49.38258361816406
            ]
          ],
          [
            [
              20.370161056518555,
              49.2500114440918
            ],
            [
              20.286745071411133,
              49.2500114440918
            ],
            [
              20.282434463500977,
              49.18375015258789
            ],
            [
              20.278141021728516,
              49.11750411987305
            ],
            [
              20.361482620239258,
              49.11750411987305
            ],
            [
              20.365812301635742,
              49.18375015258789
            ],
            [
              20.44919204711914,
              49.18375015258789
            ],
            [
              20.453577041625977,
              49.2500114440918
            ],
            [
              20.370161056518555,
              49.2500114440918
            ]
          ]
        ]
      }
    }
  ]
}
