{
  "type": "FeatureCollection",
  "features": [
    {
      "type": "Feature",
      "properties": {
        "Name": "Western Satraps",
        "FromYear": 184,
        "ToYear": 214,
        "Area": 467528.83432172984,
        "Type": "POLITY",
        "Wikipedia": "Western Satraps",
        "Wikidata": "Q2086608",
        "SeshatID": "pk_western_satraps",
        "Components": "",
        "MemberOf": "",
        "displayYear": 189,
        "sourceYear": 189,
        "mappedTerritoryId": "cliopatria_western_satraps"
      },
      "geometry": {
        "type": "Polygon",
        "coordinates": [
          [
            [
              78.34355163574219,
              26.129364013671875
            ],
            [
              78.26856231689453,
              26.129364013671875
            ],
            [
              78.33210754394531,
              26.515121459960938
            ],
            [
              78.25704956054688,
              26.515121459960938
            ],
            [
              78.23637390136719,
              26.836584091186523
            ],
            [
              77.78565216064453,
              26.836584091186523
            ],
            [
              77.68878173828125,
              26.70800018310547
            ],
            [
              77.23820495605469,
              26.70800018310547
            ],
            [
              77.10957336425781,
              26.836584091186523
            ],
            [
              75.9721450805664,
              26.772293090820312
            ],
            [
              73.95864868164062,
              26.386537551879883
            ],
            [
              73.47901916503906,
              26.19365882873535
            ],
            [
              73.17902374267578,
              26.19365882873535
            ],
            [
              71.90473175048828,
              25.67931365966797
            ],
            [
              71.23513793945312,
              25.164974212646484
            ],
            [
              71.08550262451172,
              25.164974212646484
            ],
            [
              70.57011413574219,
              24.650644302368164
            ],
            [
              70.6047592163086,
              24.329193115234375
            ],
            [
              70.44752502441406,
              24.264904022216797
            ],
            [
              70.42416381835938,
              24.07203483581543
            ],
            [
              70.06529235839844,
              23.557723999023438
            ],
            [
              69.49991607666016,
              23.171995162963867
            ],
            [
              69.03872680664062,
              23.043420791625977
            ],
            [
              69.02472686767578,
              22.914846420288086
            ],
            [
              69.09920501708984,
              22.914846420288086
            ],
            [
              69.45060729980469,
              22.72198486328125
            ],
            [
              70.36528778076172,
              22.914846420288086
            ],
            [
              70.26250457763672,
              22.657697677612305
            ],
            [
              69.86946868896484,
              22.46483612060547
            ],
            [
              69.49740600585938,
              22.46483612060547
            ],
            [
              69.40931701660156,
              22.33626365661621
            ],
            [
              68.97650909423828,
              22.46483612060547
            ],
            [
              68.94945526123047,
              22.20768928527832
            ],
            [
              69.34872436523438,
              21.7576847076416
            ],
            [
              69.49736022949219,
              21.7576847076416
            ],
            [
              69.90315246582031,
              21.371967315673828
            ],
            [
              69.88987731933594,
              21.24339485168457
            ],
            [
              70.29546356201172,
              20.857677459716797
            ],
            [
              70.72064208984375,
              20.664819717407227
            ],
            [
              71.32078552246094,
              20.72910499572754
            ],
            [
              71.4084701538086,
              20.857677459716797
            ],
            [
              72.18476104736328,
              21.179107666015625
            ],
            [
              72.3214340209961,
              21.7576847076416
            ],
            [
              72.17279815673828,
              21.7576847076416
            ],
            [
              72.11245727539062,
              21.88625717163086
            ],
            [
              72.34249877929688,
              21.950544357299805
            ],
            [
              72.37797546386719,
              22.271976470947266
            ],
            [
              72.52674865722656,
              22.271976470947266
            ],
            [
              72.54438781738281,
              21.7576847076416
            ],
            [
              72.76029968261719,
              21.693397521972656
            ],
            [
              72.56289672851562,
              21.24339485168457
            ],
            [
              72.89940643310547,
              20.921964645385742
            ],
            [
              72.8372573852539,
              20.343387603759766
            ],
            [
              72.63394165039062,
              19.8290958404541
            ],
            [
              72.7080078125,
              19.8290958404541
            ],
            [
              72.8699722290039,
              19.95766830444336
            ],
            [
              73.46963500976562,
              20.021955490112305
            ],
            [
              74.2458267211914,
              20.343387603759766
            ],
            [
              74.34819793701172,
              20.60053253173828
            ],
            [
              74.49653625488281,
              20.60053253173828
            ],
            [
              74.75463104248047,
              20.921964645385742
            ],
            [
              75.75566101074219,
              21.24339485168457
            ],
            [
              77.73033142089844,
              22.85055923461914
            ],
            [
              78.28469848632812,
              23.68630027770996
            ],
            [
              78.37977600097656,
              24.907808303833008
            ],
            [
              78.34355163574219,
              26.129364013671875
            ]
          ]
        ]
      }
    }
  ]
}
