{
  "type": "FeatureCollection",
  "features": [
    {
      "type": "Feature",
      "properties": {
        "Name": "Sasanian Empire",
        "FromYear": 561,
        "ToYear": 566,
        "Area": 3166958.036423235,
        "Type": "POLITY",
        "Wikipedia": "Sasanian Empire",
        "Wikidata": "Q1661685",
        "SeshatID": "ir_sassanid_emp_2",
        "Components": "",
        "MemberOf": "",
        "displayYear": 561,
        "sourceYear": 561,
        "mappedTerritoryId": "cliopatria_sasanian_empire"
      },
      "geometry": {
        "type": "MultiPolygon",
        "coordinates": [
          [
            [
              [
                51.13168716430664,
                25.422143936157227
              ],
              [
                51.13753128051758,
                25.48643684387207
              ],
              [
                51.212406158447266,
                25.48643684387207
              ],
              [
                51.20655059814453,
                25.422143936157227
              ],
              [
                51.13168716430664,
                25.422143936157227
              ]
            ]
          ],
          [
            [
              [
                50.64872360229492,
                25.8721923828125
              ],
              [
                50.42986297607422,
                25.936485290527344
              ],
              [
                50.460208892822266,
                26.257951736450195
              ],
              [
                50.68524169921875,
                26.257951736450195
              ],
              [
                50.672935485839844,
                26.129364013671875
              ],
              [
                50.666831970214844,
                26.06507110595703
              ],
              [
                50.64872360229492,
                25.8721923828125
              ]
            ]
          ],
          [
            [
              [
                45.68342208862305,
                42.17123794555664
              ],
              [
                46.229713439941406,
                42.10627746582031
              ],
              [
                46.43056869506836,
                41.911441802978516
              ],
              [
                46.81643295288086,
                41.84651184082031
              ],
              [
                47.496280670166016,
                41.26253128051758
              ],
              [
                47.98626708984375,
                41.32738494873047
              ],
              [
                48.1719970703125,
                41.84651184082031
              ],
              [
                48.09225845336914,
                41.84651184082031
              ],
              [
                48.1191520690918,
                41.97637939453125
              ],
              [
                48.278743743896484,
                41.97637939453125
              ],
              [
                49.08600997924805,
                41.26253128051758
              ],
              [
                49.059226989746094,
                41.132843017578125
              ],
              [
                49.270748138427734,
                41.00318908691406
              ],
              [
                49.2441520690918,
                40.873565673828125
              ],
              [
                49.50836181640625,
                40.614410400390625
              ],
              [
                50.194541931152344,
                40.4848747253418
              ],
              [
                50.247100830078125,
                40.355369567871094
              ],
              [
                49.6933479309082,
                40.355369567871094
              ],
              [
                49.50919723510742,
                40.225894927978516
              ],
              [
                49.26664352416992,
                39.38497543334961
              ],
              [
                49.151405334472656,
                39.19107437133789
              ],
              [
                48.91546630859375,
                39.19107437133789
              ],
              [
                48.801002502441406,
                38.997230529785156
              ],
              [
                48.82852554321289,
                37.835243225097656
              ],
              [
                49.08510208129883,
                37.51277160644531
              ],
              [
                49.85409164428711,
                37.44829177856445
              ],
              [
                50.320892333984375,
                36.9970588684082
              ],
              [
                50.56571960449219,
                37.06150817871094
              ],
              [
                50.632293701171875,
                36.9970588684082
              ],
              [
                50.53199768066406,
                36.8681755065918
              ],
              [
                51.6419677734375,
                36.5460319519043
              ],
              [
                52.58595275878906,
                36.61045455932617
              ],
              [
                53.488651275634766,
                36.8681755065918
              ],
              [
                54.033294677734375,
                36.8681755065918
              ],
              [
                54.09466552734375,
                37.1904182434082
              ],
              [
                53.91046905517578,
                37.44829177856445
              ],
              [
                53.90790557861328,
                37.835243225097656
              ],
              [
                53.82976150512695,
                37.835243225097656
              ],
              [
                53.98678207397461,
                38.997230529785156
              ],
              [
                53.5175895690918,
                39.38497543334961
              ],
              [
                53.13750457763672,
                39.449623107910156
              ],
              [
                53.54492950439453,
                39.51427459716797
              ],
              [
                53.498451232910156,
                40.031734466552734
              ],
              [
                52.72255325317383,
                40.0964469909668
              ],
              [
                52.71352767944336,
                40.42012023925781
              ],
              [
                52.792659759521484,
                40.42012023925781
              ],
              [
                52.89295959472656,
                40.873565673828125
              ],
              [
                52.97228240966797,
                40.873565673828125
              ],
              [
                52.943321228027344,
                40.74397277832031
              ],
              [
                53.33966064453125,
                40.74397277832031
              ],
              [
                53.448211669921875,
                40.873565673828125
              ],
              [
                53.40435791015625,
                40.6791877746582
              ],
              [
                54.543670654296875,
                40.80876541137695
              ],
              [
                56.6547966003418,
                40.355369567871094
              ],
              [
                56.98675537109375,
                40.42012023925781
              ],
              [
                56.955753326416016,
                40.29063034057617
              ],
              [
                57.113914489746094,
                40.29063034057617
              ],
              [
                57.16206359863281,
                40.16116714477539
              ],
              [
                57.351158142089844,
                40.29063034057617
              ],
              [
                58.33203125,
                40.42012023925781
              ],
              [
                58.53737258911133,
                40.29063034057617
              ],
              [
                58.85369873046875,
                40.29063034057617
              ],
              [
                58.97971725463867,
                40.16116714477539
              ],
              [
                59.77000427246094,
                40.16116714477539
              ],
              [
                59.768306732177734,
                39.8376350402832
              ],
              [
                60.08390426635742,
                39.8376350402832
              ],
              [
                60.05183792114258,
                39.70827102661133
              ],
              [
                60.6826171875,
                39.70827102661133
              ],
              [
                60.713134765625,
                39.51427459716797
              ],
              [
                62.4057731628418,
                39.9670295715332
              ],
              [
                62.48472595214844,
                39.9670295715332
              ],
              [
                62.687564849853516,
                39.8376350402832
              ],
              [
                62.65380859375,
                39.70827102661133
              ],
              [
                63.088340759277344,
                39.25570297241211
              ],
              [
                63.24568557739258,
                39.25570297241211
              ],
              [
                63.41547393798828,
                38.997230529785156
              ],
              [
                63.5726203918457,
                38.997230529785156
              ],
              [
                63.6804313659668,
                38.80344009399414
              ],
              [
                63.837432861328125,
                38.80344009399414
              ],
              [
                64.00749206542969,
                38.54513168334961
              ],
              [
                64.36690521240234,
                38.416015625
              ],
              [
                64.7397232055664,
                38.028785705566406
              ],
              [
                64.81587219238281,
                37.38381576538086
              ],
              [
                64.94068908691406,
                37.254878997802734
              ],
              [
                64.76129913330078,
                36.15959167480469
              ],
              [
                64.8388671875,
                36.15959167480469
              ],
              [
                64.81400299072266,
                35.708900451660156
              ],
              [
                64.90284729003906,
                35.065311431884766
              ],
              [
                65.16920471191406,
                34.87228775024414
              ],
              [
                65.14105987548828,
                34.743614196777344
              ],
              [
                65.45645904541016,
                34.42197799682617
              ],
              [
                65.75053405761719,
                34.3576545715332
              ],
              [
                65.86265563964844,
                34.164703369140625
              ],
              [
                66.01653289794922,
                34.164703369140625
              ],
              [
                66.2547378540039,
                33.84315490722656
              ],
              [
                66.40841674804688,
                33.84315490722656
              ],
              [
                66.52063751220703,
                33.65024948120117
              ],
              [
                66.8769302368164,
                33.52165222167969
              ],
              [
                66.98918914794922,
                33.32876968383789
              ],
              [
                67.2192611694336,
                33.32876968383789
              ],
              [
                67.1918716430664,
                33.20018768310547
              ],
              [
                67.42183685302734,
                33.20018768310547
              ],
              [
                68.11945343017578,
                32.878753662109375
              ],
              [
                68.09220123291016,
                32.75019073486328
              ],
              [
                68.01567840576172,
                32.75019073486328
              ],
              [
                67.7955322265625,
                32.428794860839844
              ],
              [
                67.42561340332031,
                30.950578689575195
              ],
              [
                67.34957885742188,
                30.950578689575195
              ],
              [
                66.55387878417969,
                28.572391510009766
              ],
              [
                66.47840118408203,
                28.572391510009766
              ],
              [
                66.39766693115234,
                26.515121459960938
              ],
              [
                65.79692077636719,
                25.357851028442383
              ],
              [
                64.8160629272461,
                25.29355812072754
              ],
              [
                64.80064392089844,
                25.164974212646484
              ],
              [
                64.2845230102539,
                25.229267120361328
              ],
              [
                64.22502136230469,
                25.357851028442383
              ],
              [
                63.62620544433594,
                25.357851028442383
              ],
              [
                63.536216735839844,
                25.229267120361328
              ],
              [
                62.563419342041016,
                25.229267120361328
              ],
              [
                62.47393035888672,
                25.100683212280273
              ],
              [
                62.18195724487305,
                25.164974212646484
              ],
              [
                62.01787185668945,
                25.03639030456543
              ],
              [
                61.71868133544922,
                25.03639030456543
              ],
              [
                61.65822219848633,
                25.164974212646484
              ],
              [
                61.12736892700195,
                25.100683212280273
              ],
              [
                60.91714859008789,
                25.229267120361328
              ],
              [
                60.617828369140625,
                25.229267120361328
              ],
              [
                60.63211441040039,
                25.357851028442383
              ],
              [
                59.060218811035156,
                25.357851028442383
              ],
              [
                58.78172302246094,
                25.55072784423828
              ],
              [
                57.957984924316406,
                25.55072784423828
              ],
              [
                57.7402229309082,
                25.615020751953125
              ],
              [
                57.67921447753906,
                25.743606567382812
              ],
              [
                57.37953567504883,
                25.743606567382812
              ],
              [
                57.175662994384766,
                25.936485290527344
              ],
              [
                57.05242156982422,
                26.836584091186523
              ],
              [
                56.714656829833984,
                27.158044815063477
              ],
              [
                56.188377380371094,
                27.158044815063477
              ],
              [
                56.098140716552734,
                27.029460906982422
              ],
              [
                56.32361602783203,
                27.029460906982422
              ],
              [
                56.30864334106445,
                26.900876998901367
              ],
              [
                56.06119155883789,
                26.70800018310547
              ],
              [
                55.28888702392578,
                26.515121459960938
              ],
              [
                55.31023025512695,
                26.70800018310547
              ],
              [
                55.542747497558594,
                26.772293090820312
              ],
              [
                55.242313385009766,
                26.772293090820312
              ],
              [
                54.9886474609375,
                26.515121459960938
              ],
              [
                54.68146514892578,
                26.450830459594727
              ],
              [
                54.25889205932617,
                26.70800018310547
              ],
              [
                53.65812301635742,
                26.70800018310547
              ],
              [
                53.46059036254883,
                26.96516990661621
              ],
              [
                52.736968994140625,
                27.222335815429688
              ],
              [
                52.478694915771484,
                27.608078002929688
              ],
              [
                52.04855728149414,
                27.800947189331055
              ],
              [
                51.45318603515625,
                27.865236282348633
              ],
              [
                51.06624984741211,
                28.44382095336914
              ],
              [
                51.028076171875,
                28.765243530273438
              ],
              [
                50.80903244018555,
                28.829526901245117
              ],
              [
                50.9150390625,
                29.08665657043457
              ],
              [
                50.620323181152344,
                29.150936126708984
              ],
              [
                50.65126037597656,
                29.40805435180664
              ],
              [
                50.23628234863281,
                29.729440689086914
              ],
              [
                50.0648078918457,
                30.179353713989258
              ],
              [
                49.585899353027344,
                29.986536026000977
              ],
              [
                48.942848205566406,
                30.307893753051758
              ],
              [
                48.987266540527344,
                30.050809860229492
              ],
              [
                48.903682708740234,
                29.986536026000977
              ],
              [
                48.36544418334961,
                29.922264099121094
              ],
              [
                48.40353012084961,
                29.600887298583984
              ],
              [
                47.8662223815918,
                29.536611557006836
              ],
              [
                47.85165023803711,
                29.40805435180664
              ],
              [
                48.078643798828125,
                29.40805435180664
              ],
              [
                48.21538543701172,
                29.279497146606445
              ],
              [
                48.19374465942383,
                29.08665657043457
              ],
              [
                48.460411071777344,
                28.765243530273438
              ],
              [
                48.562652587890625,
                28.315250396728516
              ],
              [
                48.974143981933594,
                27.92952537536621
              ],
              [
                48.87215805053711,
                27.6723690032959
              ],
              [
                49.241947174072266,
                27.608078002929688
              ],
              [
                49.35963439941406,
                27.2866268157959
              ],
              [
                50.13496398925781,
                26.772293090820312
              ],
              [
                50.11603546142578,
                26.57941436767578
              ],
              [
                50.2536735534668,
                26.450830459594727
              ],
              [
                50.22300720214844,
                26.129364013671875
              ],
              [
                50.067020416259766,
                26.06507110595703
              ],
              [
                50.21097183227539,
                26.000778198242188
              ],
              [
                50.325462341308594,
                25.615020751953125
              ],
              [
                50.60764694213867,
                25.422143936157227
              ],
              [
                50.654117584228516,
                25.100683212280273
              ],
              [
                50.72892761230469,
                25.100683212280273
              ],
              [
                50.768985748291016,
                25.55072784423828
              ],
              [
                50.92463302612305,
                25.615020751953125
              ],
              [
                50.95453643798828,
                25.936485290527344
              ],
              [
                51.12286376953125,
                26.129364013671875
              ],
              [
                51.42281723022461,
                26.129364013671875
              ],
              [
                51.697906494140625,
                25.8721923828125
              ],
              [
                51.574989318847656,
                25.357851028442383
              ],
              [
                51.71883010864258,
                25.29355812072754
              ],
              [
                51.69002151489258,
                24.97209930419922
              ],
              [
                51.52363204956055,
                24.779226303100586
              ],
              [
                51.41082000732422,
                24.329193115234375
              ],
              [
                51.85354995727539,
                24.264904022216797
              ],
              [
                51.90695571899414,
                24.00774574279785
              ],
              [
                52.28013229370117,
                24.00774574279785
              ],
              [
                52.60029602050781,
                24.264904022216797
              ],
              [
                53.11201095581055,
                24.136323928833008
              ],
              [
                54.082523345947266,
                24.136323928833008
              ],
              [
                54.099464416503906,
                24.329193115234375
              ],
              [
                54.31781005859375,
                24.264904022216797
              ],
              [
                54.55914306640625,
                24.457773208618164
              ],
              [
                54.74416732788086,
                24.843517303466797
              ],
              [
                55.14265441894531,
                25.100683212280273
              ],
              [
                55.41188049316406,
                25.55072784423828
              ],
              [
                55.9695930480957,
                25.8721923828125
              ],
              [
                56.16815948486328,
                26.32224464416504
              ],
              [
                56.47541046142578,
                26.386537551879883
              ],
              [
                56.543277740478516,
                26.32224464416504
              ],
              [
                56.38539123535156,
                25.55072784423828
              ],
              [
                56.46027374267578,
                25.55072784423828
              ],
              [
                56.42084503173828,
                25.164974212646484
              ],
              [
                56.495662689208984,
                25.164974212646484
              ],
              [
                56.401641845703125,
                24.97209930419922
              ],
              [
                56.54487228393555,
                24.907808303833008
              ],
              [
                56.78811264038086,
                24.329193115234375
              ],
              [
                57.49265670776367,
                23.879167556762695
              ],
              [
                58.811527252197266,
                23.622013092041016
              ],
              [
                59.08000183105469,
                23.30057144165039
              ],
              [
                59.0682487487793,
                23.171995162963867
              ],
              [
                59.280067443847656,
                23.043420791625977
              ],
              [
                59.2684440612793,
                22.914846420288086
              ],
              [
                58.89606857299805,
                22.914846420288086
              ],
              [
                58.90760040283203,
                23.043420791625977
              ],
              [
                58.60962677001953,
                23.043420791625977
              ],
              [
                58.33469772338867,
                23.30057144165039
              ],
              [
                57.9620475769043,
                23.30057144165039
              ],
              [
                57.9736213684082,
                23.429147720336914
              ],
              [
                57.83032989501953,
                23.493436813354492
              ],
              [
                56.809471130371094,
                23.75058937072754
              ],
              [
                56.82111358642578,
                23.879167556762695
              ],
              [
                56.54021453857422,
                24.07203483581543
              ],
              [
                56.48937225341797,
                24.329193115234375
              ],
              [
                56.27132034301758,
                24.393482208251953
              ],
              [
                56.28951644897461,
                24.586353302001953
              ],
              [
                56.0899658203125,
                24.843517303466797
              ],
              [
                55.8594856262207,
                24.779226303100586
              ],
              [
                55.84116744995117,
                24.586353302001953
              ],
              [
                55.62303161621094,
                24.650644302368164
              ],
              [
                54.812095642089844,
                23.943456649780273
              ],
              [
                54.273193359375,
                23.75058937072754
              ],
              [
                51.88096237182617,
                23.68630027770996
              ],
              [
                51.82186508178711,
                23.879167556762695
              ],
              [
                51.1657829284668,
                24.07203483581543
              ],
              [
                51.10155487060547,
                24.200613021850586
              ],
              [
                51.20280075073242,
                24.522062301635742
              ],
              [
                51.13348388671875,
                24.586353302001953
              ],
              [
                51.293853759765625,
                24.714935302734375
              ],
              [
                51.327396392822266,
                25.100683212280273
              ],
              [
                51.40220642089844,
                25.100683212280273
              ],
              [
                51.26978302001953,
                25.29355812072754
              ],
              [
                51.350433349609375,
                25.357851028442383
              ],
              [
                51.32320022583008,
                25.8721923828125
              ],
              [
                51.173316955566406,
                25.8721923828125
              ],
              [
                51.23017883300781,
                25.67931365966797
              ],
              [
                50.98196029663086,
                25.422143936157227
              ],
              [
                50.96469497680664,
                25.229267120361328
              ],
              [
                51.12009811401367,
                25.29355812072754
              ],
              [
                50.920127868652344,
                24.714935302734375
              ],
              [
                50.615760803222656,
                24.650644302368164
              ],
              [
                50.34384536743164,
                24.97209930419922
              ],
              [
                50.031654357910156,
                25.67931365966797
              ],
              [
                49.674476623535156,
                25.8721923828125
              ],
              [
                49.87843704223633,
                26.450830459594727
              ],
              [
                49.25245666503906,
                26.96516990661621
              ],
              [
                49.26514434814453,
                27.093751907348633
              ],
              [
                49.058799743652344,
                27.2866268157959
              ],
              [
                48.55152893066406,
                27.4794979095459
              ],
              [
                48.52878189086914,
                27.993812561035156
              ],
              [
                48.32282638549805,
                28.186676025390625
              ],
              [
                48.247432708740234,
                28.186676025390625
              ],
              [
                48.212955474853516,
                28.572391510009766
              ],
              [
                47.534664154052734,
                29.279497146606445
              ],
              [
                47.653751373291016,
                29.665164947509766
              ],
              [
                46.698143005371094,
                29.922264099121094
              ],
              [
                46.65902328491211,
                30.243623733520508
              ],
              [
                46.446224212646484,
                30.372163772583008
              ],
              [
                45.77046203613281,
                30.436433792114258
              ],
              [
                45.08437728881836,
                31.079113006591797
              ],
              [
                45.099334716796875,
                31.20764923095703
              ],
              [
                44.80984115600586,
                31.336183547973633
              ],
              [
                44.8553352355957,
                31.7217960357666
              ],
              [
                44.73360061645508,
                31.978878021240234
              ],
              [
                43.909324645996094,
                32.107421875
              ],
              [
                43.91693878173828,
                32.171695709228516
              ],
              [
                43.695438385009766,
                32.23596954345703
              ],
              [
                43.48906326293945,
                32.428794860839844
              ],
              [
                43.504371643066406,
                32.557350158691406
              ],
              [
                43.3514289855957,
                32.557350158691406
              ],
              [
                43.152584075927734,
                32.81447219848633
              ],
              [
                42.708534240722656,
                32.94303894042969
              ],
              [
                42.578269958496094,
                33.13589859008789
              ],
              [
                42.21029281616211,
                33.26447677612305
              ],
              [
                41.788108825683594,
                33.5859489440918
              ],
              [
                41.48860549926758,
                33.65024948120117
              ],
              [
                41.426979064941406,
                33.77885055541992
              ],
              [
                41.350154876708984,
                33.77885055541992
              ],
              [
                40.70359802246094,
                34.164703369140625
              ],
              [
                40.10289764404297,
                34.2933349609375
              ],
              [
                40.61809539794922,
                34.743614196777344
              ],
              [
                40.7723274230957,
                34.743614196777344
              ],
              [
                41.112205505371094,
                35.00096893310547
              ],
              [
                41.086280822753906,
                36.03080368041992
              ],
              [
                41.66261291503906,
                36.28839111328125
              ],
              [
                41.679588317871094,
                36.417205810546875
              ],
              [
                41.53276443481445,
                36.48161697387695
              ],
              [
                41.54981231689453,
                36.61045455932617
              ],
              [
                41.21235656738281,
                36.9970588684082
              ],
              [
                41.12816619873047,
                38.09331130981445
              ],
              [
                40.911468505859375,
                38.22237777709961
              ],
              [
                40.94788360595703,
                38.48057174682617
              ],
              [
                40.8695068359375,
                38.48057174682617
              ],
              [
                40.96629333496094,
                38.60969924926758
              ],
              [
                40.981719970703125,
                39.25570297241211
              ],
              [
                41.2565803527832,
                39.51427459716797
              ],
              [
                41.32602310180664,
                39.9670295715332
              ],
              [
                41.483924865722656,
                39.9670295715332
              ],
              [
                41.6724853515625,
                40.16116714477539
              ],
              [
                41.7035026550293,
                40.355369567871094
              ],
              [
                41.359764099121094,
                40.6791877746582
              ],
              [
                41.534793853759766,
                41.26253128051758
              ],
              [
                42.25017166137695,
                41.26253128051758
              ],
              [
                42.36305618286133,
                41.45711898803711
              ],
              [
                42.61305236816406,
                41.521995544433594
              ],
              [
                42.67000198364258,
                41.84651184082031
              ],
              [
                42.887542724609375,
                42.17123794555664
              ],
              [
                42.9345703125,
                42.43117141723633
              ],
              [
                42.71809768676758,
                42.56119155883789
              ],
              [
                42.75360870361328,
                42.75628662109375
              ],
              [
                42.60515594482422,
                42.82133865356445
              ],
              [
                42.57249069213867,
                43.08163070678711
              ],
              [
                42.4921989440918,
                43.08163070678711
              ],
              [
                42.596412658691406,
                43.211830139160156
              ],
              [
                42.67676544189453,
                43.211830139160156
              ],
              [
                42.91782760620117,
                43.211830139160156
              ],
              [
                43.20268249511719,
                43.016544342041016
              ],
              [
                43.73988342285156,
                42.88639831542969
              ],
              [
                43.78324508666992,
                42.691246032714844
              ],
              [
                44.18382263183594,
                42.691246032714844
              ],
              [
                44.36899948120117,
                42.82133865356445
              ],
              [
                45.14521026611328,
                42.691246032714844
              ],
              [
                45.22532653808594,
                42.691246032714844
              ],
              [
                45.74736785888672,
                42.496177673339844
              ],
              [
                45.68342208862305,
                42.17123794555664
              ]
            ]
          ]
        ]
      }
    }
  ]
}
