{
  "type": "FeatureCollection",
  "features": [
    {
      "type": "Feature",
      "properties": {
        "Name": "Mayan City-States",
        "FromYear": 299,
        "ToYear": 554,
        "Area": 378615.7322945538,
        "Type": "POLITY",
        "Wikipedia": "Maya civilization",
        "Wikidata": "Q28567",
        "SeshatID": "gt_tikal_early_classic",
        "Components": "",
        "MemberOf": "",
        "displayYear": 376,
        "sourceYear": 376,
        "mappedTerritoryId": "cliopatria_mayan_city_states"
      },
      "geometry": {
        "type": "Polygon",
        "coordinates": [
          [
            [
              -86.72407531738281,
              20.921964645385742
            ],
            [
              -86.74839782714844,
              21.500539779663086
            ],
            [
              -86.91922760009766,
              21.629112243652344
            ],
            [
              -87.2164306640625,
              21.629112243652344
            ],
            [
              -87.3426742553711,
              21.500539779663086
            ],
            [
              -88.47954559326172,
              21.629112243652344
            ],
            [
              -89.1771240234375,
              21.371967315673828
            ],
            [
              -89.9826889038086,
              21.307680130004883
            ],
            [
              -90.17145538330078,
              21.114822387695312
            ],
            [
              -90.3199234008789,
              21.114822387695312
            ],
            [
              -90.41940307617188,
              20.40767478942871
            ],
            [
              -90.49354553222656,
              20.40767478942871
            ],
            [
              -90.42727661132812,
              20.021955490112305
            ],
            [
              -90.74271392822266,
              19.700523376464844
            ],
            [
              -90.81432342529297,
              19.25051498413086
            ],
            [
              -91.35189819335938,
              18.929079055786133
            ],
            [
              -91.29804229736328,
              18.607641220092773
            ],
            [
              -91.44587707519531,
              18.607641220092773
            ],
            [
              -91.49837493896484,
              18.479066848754883
            ],
            [
              -91.79398345947266,
              18.479066848754883
            ],
            [
              -91.83705139160156,
              18.736217498779297
            ],
            [
              -92.50244903564453,
              18.736217498779297
            ],
            [
              -92.61772155761719,
              18.543354034423828
            ],
            [
              -93.49372100830078,
              18.479066848754883
            ],
            [
              -93.8414077758789,
              18.350492477416992
            ],
            [
              -93.56580352783203,
              18.029054641723633
            ],
            [
              -93.56534576416016,
              17.57904052734375
            ],
            [
              -93.36576080322266,
              17.257600784301758
            ],
            [
              -93.4926986694336,
              17.129026412963867
            ],
            [
              -93.39855194091797,
              17.000450134277344
            ],
            [
              -93.6429672241211,
              16.67901039123535
            ],
            [
              -93.54938507080078,
              16.550434112548828
            ],
            [
              -93.62306213378906,
              16.550434112548828
            ],
            [
              -93.5935287475586,
              16.35757064819336
            ],
            [
              -93.82059478759766,
              15.907554626464844
            ],
            [
              -92.75463104248047,
              15.136098861694336
            ],
            [
              -92.47407531738281,
              14.686083793640137
            ],
            [
              -91.3497085571289,
              13.914630889892578
            ],
            [
              -90.46885681152344,
              13.914630889892578
            ],
            [
              -89.91790008544922,
              13.593193054199219
            ],
            [
              -89.86663055419922,
              13.786055564880371
            ],
            [
              -89.56566619873047,
              13.721768379211426
            ],
            [
              -89.58800506591797,
              13.914630889892578
            ],
            [
              -89.39053344726562,
              14.107494354248047
            ],
            [
              -89.09684753417969,
              14.107494354248047
            ],
            [
              -89.1856460571289,
              14.236069679260254
            ],
            [
              -88.81847381591797,
              14.236069679260254
            ],
            [
              -88.9074478149414,
              14.364645004272461
            ],
            [
              -88.69493103027344,
              14.428933143615723
            ],
            [
              -88.6290283203125,
              15.07181167602539
            ],
            [
              -88.37730407714844,
              15.393251419067383
            ],
            [
              -88.51224517822266,
              15.843266487121582
            ],
            [
              -88.82465362548828,
              15.971842765808105
            ],
            [
              -88.64032745361328,
              16.228994369506836
            ],
            [
              -88.49304962158203,
              16.228994369506836
            ],
            [
              -88.23552703857422,
              16.486146926879883
            ],
            [
              -88.20903015136719,
              16.807586669921875
            ],
            [
              -88.13533020019531,
              16.807586669921875
            ],
            [
              -88.18842315673828,
              17.643327713012695
            ],
            [
              -88.02729034423828,
              18.029054641723633
            ],
            [
              -88.07830810546875,
              18.350492477416992
            ],
            [
              -88.22607421875,
              18.350492477416992
            ],
            [
              -88.2467041015625,
              18.479066848754883
            ],
            [
              -87.99251556396484,
              18.736217498779297
            ],
            [
              -87.96141052246094,
              18.543354034423828
            ],
            [
              -88.03532409667969,
              18.543354034423828
            ],
            [
              -87.91007232666016,
              18.2219181060791
            ],
            [
              -87.69865417480469,
              18.286205291748047
            ],
            [
              -87.7293930053711,
              18.479066848754883
            ],
            [
              -87.45301055908203,
              19.057653427124023
            ],
            [
              -87.49495697021484,
              19.314802169799805
            ],
            [
              -87.36799621582031,
              19.443374633789062
            ],
            [
              -87.38911437988281,
              19.571949005126953
            ],
            [
              -87.54778289794922,
              19.6362361907959
            ],
            [
              -87.29402160644531,
              19.893383026123047
            ],
            [
              -87.34735107421875,
              20.214815139770508
            ],
            [
              -86.71324920654297,
              20.857677459716797
            ],
            [
              -86.72407531738281,
              20.921964645385742
            ]
          ]
        ]
      }
    }
  ]
}
