{"type": "FeatureCollection", "features": [{"type": "Feature", "properties": {"name": "Kingdom of Kush", "displayYear": -1, "fromYear": -630, "toYear": 337, "wikipedia": "Kingdom of Kush", "seshatId": "", "areaKm2": 336379.15609700844, "source": "Seshat Cliopatria"}, "geometry": {"type": "Polygon", "coordinates": [[[33.84043502807617, 22.143402099609375], [33.88322067260742, 23.171995162963867], [33.80870819091797, 23.171995162963867], [33.8225212097168, 23.493436813354492], [33.67897033691406, 23.622013092041016], [33.6817741394043, 23.68630027770996], [33.38899612426758, 23.814878463745117], [32.040863037109375, 23.68630027770996], [31.670488357543945, 23.75058937072754], [30.537214279174805, 23.36486053466797], [30.534862518310547, 23.30057144165039], [30.742036819458008, 22.85055923461914], [30.72144317626953, 22.271976470947266], [30.561492919921875, 21.950544357299805], [30.63583755493164, 21.950544357299805], [30.687862396240234, 21.307680130004883], [30.762121200561523, 21.307680130004883], [30.744239807128906, 20.793392181396484], [30.81843376159668, 20.793392181396484], [30.80263328552246, 20.343387603759766], [30.876768112182617, 20.343387603759766], [31.14703941345215, 17.643327713012695], [31.220840454101562, 17.643327713012695], [31.336956024169922, 16.807586669921875], [31.47713279724121, 16.614723205566406], [31.39390754699707, 16.35757064819336], [31.536441802978516, 16.228994369506836], [31.5269718170166, 15.971842765808105], [31.733671188354492, 15.586114883422852], [32.09444808959961, 15.393251419067383], [32.533355712890625, 15.328963279724121], [32.52862548828125, 15.200387001037598], [33.86210632324219, 15.457538604736328], [34.098121643066406, 15.843266487121582], [34.68425369262695, 15.77897834777832], [34.55558776855469, 16.228994369506836], [34.71365737915039, 16.486146926879883], [35.67131805419922, 16.486146926879883], [36.05393600463867, 16.807586669921875], [36.00331497192383, 17.321889877319336], [35.50127029418945, 17.643327713012695], [35.299827575683594, 18.093341827392578], [34.93901062011719, 18.286205291748047], [34.87919235229492, 18.607641220092773], [34.597408294677734, 18.929079055786133], [34.468746185302734, 19.379087448120117], [34.25754165649414, 19.6362361907959], [33.81963348388672, 21.629112243652344], [33.74533462524414, 21.629112243652344], [33.835208892822266, 22.014829635620117], [33.76346206665039, 22.079116821289062], [33.83782196044922, 22.079116821289062], [33.84043502807617, 22.143402099609375]]]}}]}