{
  "type": "FeatureCollection",
  "features": [
    {
      "type": "Feature",
      "properties": {
        "Name": "Crimean Khanate",
        "FromYear": 1487,
        "ToYear": 1501,
        "Area": 136476.7354275064,
        "Type": "POLITY",
        "Wikipedia": "Crimean Khanate",
        "Wikidata": "Q160440",
        "SeshatID": "ru_crimean_khanate",
        "Components": "",
        "MemberOf": "",
        "displayYear": 1500,
        "sourceYear": 1500,
        "mappedTerritoryId": "cliopatria_crimean_khanate"
      },
      "geometry": {
        "type": "MultiPolygon",
        "coordinates": [
          [
            [
              [
                34.98639678955078,
                45.62776184082031
              ],
              [
                35.01994323730469,
                45.300437927246094
              ],
              [
                35.7520751953125,
                45.300437927246094
              ],
              [
                36.2602653503418,
                45.431331634521484
              ],
              [
                36.23013687133789,
                45.23500442504883
              ],
              [
                36.3826904296875,
                45.169586181640625
              ],
              [
                36.20014190673828,
                45.03877639770508
              ],
              [
                35.40727996826172,
                45.169586181640625
              ],
              [
                35.39760208129883,
                45.10417556762695
              ],
              [
                34.56639862060547,
                44.973392486572266
              ],
              [
                34.55707931518555,
                44.908016204833984
              ],
              [
                34.3947639465332,
                44.908016204833984
              ],
              [
                34.03373718261719,
                44.64661407470703
              ],
              [
                33.55644607543945,
                44.71194839477539
              ],
              [
                33.56534957885742,
                44.77729415893555
              ],
              [
                33.61005401611328,
                45.10417556762695
              ],
              [
                33.465389251708984,
                45.23500442504883
              ],
              [
                33.221439361572266,
                45.23500442504883
              ],
              [
                32.60533905029297,
                45.496795654296875
              ],
              [
                33.70957565307617,
                45.82429504394531
              ],
              [
                33.73704528808594,
                46.02093505859375
              ],
              [
                34.15492630004883,
                46.08650588989258
              ],
              [
                34.544586181640625,
                45.95537567138672
              ],
              [
                34.74187088012695,
                45.62776184082031
              ],
              [
                34.82337951660156,
                45.62776184082031
              ],
              [
                34.98639678955078,
                45.62776184082031
              ]
            ]
          ],
          [
            [
              [
                42.2284049987793,
                46.414546966552734
              ],
              [
                42.4741096496582,
                46.414546966552734
              ],
              [
                42.34128952026367,
                46.1520881652832
              ],
              [
                42.492103576660156,
                46.08650588989258
              ],
              [
                42.303382873535156,
                45.95537567138672
              ],
              [
                42.215782165527344,
                45.496795654296875
              ],
              [
                42.00357437133789,
                45.23500442504883
              ],
              [
                41.67831039428711,
                45.23500442504883
              ],
              [
                41.63347244262695,
                45.431331634521484
              ],
              [
                41.482784271240234,
                45.496795654296875
              ],
              [
                41.507118225097656,
                45.62776184082031
              ],
              [
                41.356231689453125,
                45.693260192871094
              ],
              [
                41.38056945800781,
                45.82429504394531
              ],
              [
                41.06621551513672,
                45.889827728271484
              ],
              [
                41.17213439941406,
                46.02093505859375
              ],
              [
                40.60020446777344,
                46.02093505859375
              ],
              [
                40.542354583740234,
                46.1520881652832
              ],
              [
                40.378814697265625,
                46.1520881652832
              ],
              [
                38.82844924926758,
                45.693260192871094
              ],
              [
                38.3660888671875,
                45.36587905883789
              ],
              [
                37.84580612182617,
                45.169586181640625
              ],
              [
                37.520668029785156,
                45.169586181640625
              ],
              [
                37.25600814819336,
                45.03877639770508
              ],
              [
                36.778892517089844,
                45.10417556762695
              ],
              [
                36.74873733520508,
                45.431331634521484
              ],
              [
                36.911563873291016,
                45.431331634521484
              ],
              [
                36.972293853759766,
                45.300437927246094
              ],
              [
                37.704429626464844,
                45.300437927246094
              ],
              [
                37.747013092041016,
                45.56227111816406
              ],
              [
                37.59468460083008,
                45.62776184082031
              ],
              [
                37.7577018737793,
                45.62776184082031
              ],
              [
                37.89311981201172,
                45.95537567138672
              ],
              [
                38.334564208984375,
                46.1520881652832
              ],
              [
                38.36785888671875,
                46.348915100097656
              ],
              [
                37.89856719970703,
                46.480194091796875
              ],
              [
                37.83858108520508,
                46.61152267456055
              ],
              [
                38.494598388671875,
                46.61152267456055
              ],
              [
                38.62202453613281,
                46.87434005737305
              ],
              [
                39.13813400268555,
                47.005828857421875
              ],
              [
                39.2203369140625,
                47.005828857421875
              ],
              [
                39.47877502441406,
                47.07159423828125
              ],
              [
                39.52638626098633,
                47.33478927612305
              ],
              [
                39.385501861572266,
                47.46647262573242
              ],
              [
                40.597259521484375,
                47.33478927612305
              ],
              [
                42.04615783691406,
                46.74290466308594
              ],
              [
                42.03340530395508,
                46.677207946777344
              ],
              [
                42.25389862060547,
                46.54585266113281
              ],
              [
                42.2284049987793,
                46.414546966552734
              ]
            ]
          ],
          [
            [
              [
                37.51609802246094,
                47.13737487792969
              ],
              [
                37.16523361206055,
                47.005828857421875
              ],
              [
                37.2257080078125,
                46.87434005737305
              ],
              [
                36.90787887573242,
                46.94007873535156
              ],
              [
                36.80437088012695,
                46.808616638183594
              ],
              [
                35.634639739990234,
                46.677207946777344
              ],
              [
                35.24697494506836,
                46.283294677734375
              ],
              [
                34.75596237182617,
                46.283294677734375
              ],
              [
                34.736690521240234,
                46.1520881652832
              ],
              [
                34.0825309753418,
                46.1520881652832
              ],
              [
                34.019439697265625,
                46.283294677734375
              ],
              [
                33.610260009765625,
                46.283294677734375
              ],
              [
                33.59191131591797,
                46.1520881652832
              ],
              [
                32.946651458740234,
                46.21768569946289
              ],
              [
                32.84713363647461,
                46.08650588989258
              ],
              [
                32.683658599853516,
                46.08650588989258
              ],
              [
                32.0639533996582,
                46.348915100097656
              ],
              [
                31.81834602355957,
                46.348915100097656
              ],
              [
                31.835351943969727,
                46.480194091796875
              ],
              [
                32.16309356689453,
                46.480194091796875
              ],
              [
                32.35321807861328,
                46.677207946777344
              ],
              [
                32.918460845947266,
                46.61152267456055
              ],
              [
                33.69384002685547,
                46.87434005737305
              ],
              [
                34.079959869384766,
                47.26897048950195
              ],
              [
                34.036380767822266,
                47.53233337402344
              ],
              [
                34.283817291259766,
                47.53233337402344
              ],
              [
                34.46866989135742,
                47.664100646972656
              ],
              [
                35.026123046875,
                47.53233337402344
              ],
              [
                35.19115447998047,
                48.059749603271484
              ],
              [
                35.11882400512695,
                48.1257438659668
              ],
              [
                35.4311408996582,
                48.52202224731445
              ],
              [
                35.48542785644531,
                48.852684020996094
              ],
              [
                35.496402740478516,
                48.91886520385742
              ],
              [
                35.60177230834961,
                49.051273345947266
              ],
              [
                35.94626998901367,
                49.11750411987305
              ],
              [
                36.079010009765625,
                48.91886520385742
              ],
              [
                36.328697204589844,
                48.91886520385742
              ],
              [
                36.306053161621094,
                48.786521911621094
              ],
              [
                36.85371017456055,
                48.5881233215332
              ],
              [
                37.4256477355957,
                48.059749603271484
              ],
              [
                38.44264221191406,
                47.730003356933594
              ],
              [
                38.419342041015625,
                47.598209381103516
              ],
              [
                39.220611572265625,
                47.46647262573242
              ],
              [
                39.20873260498047,
                47.4006233215332
              ],
              [
                38.6794548034668,
                47.20316696166992
              ],
              [
                37.51609802246094,
                47.13737487792969
              ]
            ]
          ]
        ]
      }
    }
  ]
}
