{"type": "FeatureCollection", "features": [{"type": "Feature", "properties": {"name": "Han Dynasty", "displayYear": 229, "fromYear": 224, "toYear": 237, "wikipedia": "Han dynasty", "seshatId": "", "areaKm2": 788998.9959483618, "source": "Seshat Cliopatria"}, "geometry": {"type": "MultiPolygon", "coordinates": [[[[111.6895980834961, 31.8503360748291], [110.8656005859375, 32.107421875], [110.61365509033203, 32.043148040771484], [110.47794342041016, 31.65752601623535], [110.16061401367188, 31.40045166015625], [109.8122787475586, 31.271915435791016], [109.12716674804688, 31.271915435791016], [108.85581970214844, 31.143381118774414], [108.78396606445312, 30.69350814819336], [108.89432525634766, 30.564971923828125], [108.6603775024414, 30.307893753051758], [109.0345687866211, 30.050809860229492], [109.03059387207031, 29.79371452331543], [109.25785827636719, 29.79371452331543], [109.36983489990234, 29.665164947509766], [109.36744689941406, 29.40805435180664], [109.53661346435547, 29.21521759033203], [109.46163940429688, 28.700960159301758], [109.63294982910156, 28.508106231689453], [109.56051635742188, 28.25096321105957], [109.83100891113281, 27.865236282348633], [109.68638610839844, 27.608078002929688], [109.53583526611328, 27.608078002929688], [109.15038299560547, 27.2866268157959], [109.0357437133789, 26.836584091186523], [109.1108627319336, 26.836584091186523], [109.04428100585938, 26.257951736450195], [109.11929321289062, 26.257951736450195], [109.22354888916016, 25.743606567382812], [109.35863494873047, 25.67931365966797], [109.31486511230469, 25.48643684387207], [109.38973999023438, 25.48643684387207], [109.34666442871094, 25.29355812072754], [109.45394134521484, 25.100683212280273], [109.40572357177734, 24.522062301635742], [109.22982788085938, 24.393482208251953], [111.43058776855469, 24.200613021850586], [111.90534210205078, 24.329193115234375], [112.71334075927734, 24.264904022216797], [113.48741912841797, 24.393482208251953], [113.99651336669922, 24.329193115234375], [114.54705810546875, 24.457773208618164], [114.58926391601562, 24.650644302368164], [115.03514099121094, 24.97209930419922], [115.09441375732422, 25.229267120361328], [114.36103057861328, 25.29355812072754], [114.37745666503906, 25.67931365966797], [114.30255126953125, 25.67931365966797], [114.4718017578125, 26.06507110595703], [114.26286315917969, 26.129364013671875], [114.3440933227539, 26.450830459594727], [113.96005249023438, 26.70800018310547], [114.171875, 27.222335815429688], [113.98125457763672, 27.35091781616211], [114.21825408935547, 27.92952537536621], [113.95369720458984, 28.058101654052734], [114.21847534179688, 28.700960159301758], [114.9259262084961, 29.279497146606445], [114.7601318359375, 29.472333908081055], [114.82205200195312, 29.665164947509766], [114.56076049804688, 29.79371452331543], [114.74217987060547, 30.115081787109375], [114.61188507080078, 30.179353713989258], [114.62235260009766, 30.436433792114258], [114.49229431152344, 30.500701904296875], [114.50425720214844, 30.757776260375977], [114.2132568359375, 31.014846801757812], [113.49735260009766, 31.143381118774414], [113.3901138305664, 31.271915435791016], [113.43539428710938, 31.40045166015625], [113.3058090209961, 31.464719772338867], [113.32134246826172, 31.7217960357666], [111.6895980834961, 31.8503360748291]]], [[[110.1794204711914, 18.479066848754883], [109.94689178466797, 18.414779663085938], [109.84064483642578, 18.2219181060791], [109.24968719482422, 18.2219181060791], [109.12333679199219, 18.350492477416992], [108.76459503173828, 18.414779663085938], [108.63818359375, 18.543354034423828], [108.70427703857422, 19.379087448120117], [109.20277404785156, 19.700523376464844], [109.2463607788086, 19.95766830444336], [110.15737915039062, 20.08624267578125], [110.59095001220703, 20.021955490112305], [110.613037109375, 20.150527954101562], [110.90947723388672, 20.150527954101562], [111.08741760253906, 19.893383026123047], [111.03193664550781, 19.571949005126953], [110.88386535644531, 19.571949005126953], [110.85066986083984, 19.379087448120117], [110.68057250976562, 19.25051498413086], [110.50775909423828, 18.67193031311035], [110.1902847290039, 18.543354034423828], [110.1794204711914, 18.479066848754883]]], [[[114.61614990234375, 22.59341049194336], [114.53111267089844, 22.143402099609375], [113.99858856201172, 22.079116821289062], [113.99634552001953, 22.46483612060547], [113.78524017333984, 22.529123306274414], [113.7474365234375, 22.72198486328125], [113.59854125976562, 22.72198486328125], [113.69869995117188, 22.46483612060547], [113.63867950439453, 22.143402099609375], [113.41557312011719, 22.143402099609375], [113.31752014160156, 22.014829635620117], [113.10626220703125, 22.079116821289062], [113.07096862792969, 21.88625717163086], [112.77362823486328, 21.88625717163086], [112.44146728515625, 21.693397521972656], [111.85850524902344, 21.7576847076416], [111.6640625, 21.500539779663086], [110.98419189453125, 21.43625259399414], [110.73885345458984, 21.307680130004883], [110.71642303466797, 21.179107666015625], [110.41944885253906, 21.179107666015625], [110.48252868652344, 21.114822387695312], [110.36384582519531, 20.857677459716797], [110.61627197265625, 20.60053253173828], [110.48687744140625, 20.279102325439453], [109.88289642333984, 20.214815139770508], [109.9267807006836, 20.471960067749023], [109.7894515991211, 20.53624725341797], [109.7702407836914, 20.857677459716797], [109.69603729248047, 20.857677459716797], [109.87005615234375, 21.43625259399414], [109.80696105957031, 21.500539779663086], [109.11621856689453, 21.371967315673828], [109.08638000488281, 21.629112243652344], [108.65169525146484, 21.693397521972656], [108.55519104003906, 21.5648250579834], [107.79033660888672, 21.43625259399414], [107.41735076904297, 20.986249923706055], [106.9613265991211, 20.921964645385742], [106.8337173461914, 20.60053253173828], [106.68537902832031, 20.60053253173828], [106.53694915771484, 20.150527954101562], [105.9654769897461, 19.8290958404541], [105.73389434814453, 18.864791870117188], [106.05134582519531, 18.543354034423828], [106.030517578125, 18.414779663085938], [106.17830657958984, 18.414779663085938], [106.29487609863281, 18.2219181060791], [106.56956481933594, 18.093341827392578], [106.57118225097656, 17.643327713012695], [106.7720947265625, 17.514753341674805], [106.75170135498047, 17.38617706298828], [106.96282958984375, 17.321889877319336], [106.95267486572266, 17.257600784301758], [106.5337142944336, 16.9361629486084], [106.54369354248047, 17.000450134277344], [106.396240234375, 17.000450134277344], [106.416259765625, 17.129026412963867], [105.143798828125, 18.414779663085938], [105.18512725830078, 18.67193031311035], [105.03726959228516, 18.67193031311035], [105.14230346679688, 18.864791870117188], [105.0151596069336, 18.993366241455078], [105.01402282714844, 19.443374633789062], [104.94000244140625, 19.443374633789062], [104.99213409423828, 19.764808654785156], [104.8648452758789, 19.893383026123047], [104.98062133789062, 20.150527954101562], [104.4395751953125, 20.471960067749023], [104.61909484863281, 20.664819717407227], [104.90534973144531, 20.60053253173828], [104.87299346923828, 20.857677459716797], [105.09559631347656, 20.857677459716797], [104.8512954711914, 21.179107666015625], [104.97850036621094, 21.500539779663086], [104.925537109375, 21.629112243652344], [105.0955810546875, 21.7576847076416], [105.1279525756836, 21.950544357299805], [104.87400817871094, 22.20768928527832], [105.23788452148438, 22.59341049194336], [105.20843505859375, 22.85055923461914], [105.50630187988281, 22.85055923461914], [105.67808532714844, 22.97913360595703], [105.6895751953125, 23.043420791625977], [106.1561279296875, 23.557723999023438], [106.4664306640625, 23.622013092041016], [107.14945220947266, 24.07203483581543], [108.90493774414062, 24.264904022216797], [109.22982788085938, 24.393482208251953], [111.43058776855469, 24.200613021850586], [111.90534210205078, 24.329193115234375], [112.71334075927734, 24.264904022216797], [113.48741912841797, 24.393482208251953], [113.99651336669922, 24.329193115234375], [114.54705810546875, 24.457773208618164], [114.50553131103516, 24.264904022216797], [114.72286224365234, 23.879167556762695], [114.70543670654297, 23.429147720336914], [114.81591796875, 23.236284255981445], [114.80213165283203, 22.786272048950195], [114.71526336669922, 22.72198486328125], [114.64081573486328, 22.72198486328125], [114.62846374511719, 22.657697677612305], [114.61614990234375, 22.59341049194336]]]]}}]}