{
  "type": "FeatureCollection",
  "features": [
    {
      "type": "Feature",
      "properties": {
        "Name": "Jingnan",
        "FromYear": 926,
        "ToYear": 935,
        "Area": 71678.0100606806,
        "Type": "POLITY",
        "Wikipedia": "Jingnan",
        "Wikidata": "Q1325075",
        "SeshatID": "cn_five_dyn",
        "Components": "",
        "MemberOf": "(Five Dynasties and Ten Kingdoms)",
        "displayYear": 926,
        "sourceYear": 926,
        "mappedTerritoryId": "cliopatria_jingnan"
      },
      "geometry": {
        "type": "Polygon",
        "coordinates": [
          [
            [
              111.92813873291016,
              32.30024337768555
            ],
            [
              111.0814437866211,
              32.493072509765625
            ],
            [
              110.84623718261719,
              32.685909271240234
            ],
            [
              110.61671447753906,
              32.685909271240234
            ],
            [
              110.51097869873047,
              32.81447219848633
            ],
            [
              109.8930892944336,
              33.00732421875
            ],
            [
              109.67528533935547,
              32.62162780761719
            ],
            [
              109.61325073242188,
              32.23596954345703
            ],
            [
              109.77403259277344,
              32.043148040771484
            ],
            [
              109.76026153564453,
              31.78606605529785
            ],
            [
              109.89041900634766,
              31.7217960357666
            ],
            [
              109.87796020507812,
              31.464719772338867
            ],
            [
              110.00830078125,
              31.40045166015625
            ],
            [
              109.99717712402344,
              31.143381118774414
            ],
            [
              110.12771606445312,
              31.079113006591797
            ],
            [
              110.11796569824219,
              30.822044372558594
            ],
            [
              110.33724975585938,
              30.564971923828125
            ],
            [
              110.3297348022461,
              30.307893753051758
            ],
            [
              110.48149871826172,
              30.307893753051758
            ],
            [
              110.51606750488281,
              30.179353713989258
            ],
            [
              110.86090087890625,
              30.307893753051758
            ],
            [
              110.81407165527344,
              30.629240036010742
            ],
            [
              111.04194641113281,
              30.629240036010742
            ],
            [
              111.16060638427734,
              30.757776260375977
            ],
            [
              111.80154418945312,
              30.629240036010742
            ],
            [
              111.91075897216797,
              30.500701904296875
            ],
            [
              113.08272552490234,
              30.372163772583008
            ],
            [
              113.11605834960938,
              30.243623733520508
            ],
            [
              113.4953842163086,
              30.243623733520508
            ],
            [
              113.68988800048828,
              30.372163772583008
            ],
            [
              113.69036102294922,
              30.822044372558594
            ],
            [
              113.38632202148438,
              30.822044372558594
            ],
            [
              113.2245101928711,
              31.014846801757812
            ],
            [
              113.31470489501953,
              31.91460609436035
            ],
            [
              112.0045394897461,
              32.30024337768555
            ],
            [
              111.92813873291016,
              32.30024337768555
            ]
          ]
        ]
      }
    }
  ]
}
