{
  "type": "FeatureCollection",
  "features": [
    {
      "type": "Feature",
      "properties": {
        "Name": "Umayyad Caliphate",
        "FromYear": 682,
        "ToYear": 691,
        "Area": 5836265.116456056,
        "Type": "POLITY",
        "Wikipedia": "Umayyad Caliphate",
        "Wikidata": "Q8575586",
        "SeshatID": "sy_umayyad_cal",
        "Components": "",
        "MemberOf": "",
        "displayYear": 690,
        "sourceYear": 690,
        "mappedTerritoryId": "cliopatria_umayyad_caliphate"
      },
      "geometry": {
        "type": "MultiPolygon",
        "coordinates": [
          [
            [
              [
                39.72534942626953,
                34.3576545715332
              ],
              [
                40.25685501098633,
                34.2933349609375
              ],
              [
                40.395843505859375,
                34.164703369140625
              ],
              [
                40.70359802246094,
                34.164703369140625
              ],
              [
                40.91171646118164,
                33.971771240234375
              ],
              [
                41.211639404296875,
                33.90746307373047
              ],
              [
                41.48860549926758,
                33.65024948120117
              ],
              [
                41.788108825683594,
                33.5859489440918
              ],
              [
                41.84962844848633,
                33.45735549926758
              ],
              [
                42.36363983154297,
                33.26447677612305
              ],
              [
                42.708534240722656,
                32.94303894042969
              ],
              [
                43.152584075927734,
                32.81447219848633
              ],
              [
                43.3514289855957,
                32.557350158691406
              ],
              [
                43.504371643066406,
                32.557350158691406
              ],
              [
                43.48906326293945,
                32.428794860839844
              ],
              [
                43.91693878173828,
                32.171695709228516
              ],
              [
                43.9017333984375,
                32.043148040771484
              ],
              [
                44.52769470214844,
                31.528987884521484
              ],
              [
                44.51272201538086,
                31.40045166015625
              ],
              [
                45.099334716796875,
                31.20764923095703
              ],
              [
                45.08437728881836,
                31.079113006591797
              ],
              [
                45.77046203613281,
                30.436433792114258
              ],
              [
                46.590572357177734,
                30.307893753051758
              ],
              [
                46.698143005371094,
                29.922264099121094
              ],
              [
                47.50962448120117,
                29.729440689086914
              ],
              [
                47.797847747802734,
                29.600887298583984
              ],
              [
                47.85165023803711,
                29.40805435180664
              ],
              [
                48.078643798828125,
                29.40805435180664
              ],
              [
                48.21538543701172,
                29.279497146606445
              ],
              [
                48.3164176940918,
                28.829526901245117
              ],
              [
                48.460411071777344,
                28.765243530273438
              ],
              [
                48.43938446044922,
                28.572391510009766
              ],
              [
                48.583370208740234,
                28.508106231689453
              ],
              [
                48.562652587890625,
                28.315250396728516
              ],
              [
                48.974143981933594,
                27.92952537536621
              ],
              [
                48.87215805053711,
                27.6723690032959
              ],
              [
                49.241947174072266,
                27.608078002929688
              ],
              [
                49.35963439941406,
                27.2866268157959
              ],
              [
                50.13496398925781,
                26.772293090820312
              ],
              [
                50.11603546142578,
                26.57941436767578
              ],
              [
                50.2536735534668,
                26.450830459594727
              ],
              [
                50.22300720214844,
                26.129364013671875
              ],
              [
                50.067020416259766,
                26.06507110595703
              ],
              [
                50.21097183227539,
                26.000778198242188
              ],
              [
                50.325462341308594,
                25.615020751953125
              ],
              [
                50.60764694213867,
                25.422143936157227
              ],
              [
                50.654117584228516,
                25.100683212280273
              ],
              [
                50.72892761230469,
                25.100683212280273
              ],
              [
                50.768985748291016,
                25.55072784423828
              ],
              [
                50.92463302612305,
                25.615020751953125
              ],
              [
                50.95453643798828,
                25.936485290527344
              ],
              [
                51.12286376953125,
                26.129364013671875
              ],
              [
                51.42281723022461,
                26.129364013671875
              ],
              [
                51.697906494140625,
                25.8721923828125
              ],
              [
                51.574989318847656,
                25.357851028442383
              ],
              [
                51.71883010864258,
                25.29355812072754
              ],
              [
                51.69002151489258,
                24.97209930419922
              ],
              [
                51.52363204956055,
                24.779226303100586
              ],
              [
                51.41082000732422,
                24.329193115234375
              ],
              [
                51.85354995727539,
                24.264904022216797
              ],
              [
                51.90695571899414,
                24.00774574279785
              ],
              [
                52.28013229370117,
                24.00774574279785
              ],
              [
                52.60029602050781,
                24.264904022216797
              ],
              [
                53.11201095581055,
                24.136323928833008
              ],
              [
                54.082523345947266,
                24.136323928833008
              ],
              [
                54.099464416503906,
                24.329193115234375
              ],
              [
                54.31781005859375,
                24.264904022216797
              ],
              [
                54.55914306640625,
                24.457773208618164
              ],
              [
                54.74416732788086,
                24.843517303466797
              ],
              [
                55.14265441894531,
                25.100683212280273
              ],
              [
                55.41188049316406,
                25.55072784423828
              ],
              [
                55.9695930480957,
                25.8721923828125
              ],
              [
                56.16815948486328,
                26.32224464416504
              ],
              [
                56.47541046142578,
                26.386537551879883
              ],
              [
                56.543277740478516,
                26.32224464416504
              ],
              [
                56.38539123535156,
                25.55072784423828
              ],
              [
                56.46027374267578,
                25.55072784423828
              ],
              [
                56.42084503173828,
                25.164974212646484
              ],
              [
                56.495662689208984,
                25.164974212646484
              ],
              [
                56.401641845703125,
                24.97209930419922
              ],
              [
                56.54487228393555,
                24.907808303833008
              ],
              [
                56.78811264038086,
                24.329193115234375
              ],
              [
                57.49265670776367,
                23.879167556762695
              ],
              [
                58.811527252197266,
                23.622013092041016
              ],
              [
                59.08000183105469,
                23.30057144165039
              ],
              [
                59.0682487487793,
                23.171995162963867
              ],
              [
                59.280067443847656,
                23.043420791625977
              ],
              [
                59.2684440612793,
                22.914846420288086
              ],
              [
                59.543212890625,
                22.657697677612305
              ],
              [
                59.903873443603516,
                22.529123306274414
              ],
              [
                59.864044189453125,
                22.079116821289062
              ],
              [
                59.436954498291016,
                21.43625259399414
              ],
              [
                58.799705505371094,
                20.921964645385742
              ],
              [
                58.608638763427734,
                20.40767478942871
              ],
              [
                58.30677032470703,
                20.343387603759766
              ],
              [
                58.24849319458008,
                20.53624725341797
              ],
              [
                58.10017395019531,
                20.53624725341797
              ],
              [
                57.93083953857422,
                20.279102325439453
              ],
              [
                57.79355239868164,
                19.507661819458008
              ],
              [
                57.867584228515625,
                19.507661819458008
              ],
              [
                57.899253845214844,
                18.993366241455078
              ],
              [
                56.99609375,
                18.800504684448242
              ],
              [
                56.75362777709961,
                18.543354034423828
              ],
              [
                56.64381790161133,
                18.093341827392578
              ],
              [
                56.40702438354492,
                17.90047836303711
              ],
              [
                55.58990478515625,
                17.836191177368164
              ],
              [
                55.348690032958984,
                17.57904052734375
              ],
              [
                55.31448745727539,
                17.129026412963867
              ],
              [
                55.15735626220703,
                17.000450134277344
              ],
              [
                54.19893264770508,
                17.000450134277344
              ],
              [
                53.58598709106445,
                16.67901039123535
              ],
              [
                53.21754837036133,
                16.67901039123535
              ],
              [
                53.13477325439453,
                16.550434112548828
              ],
              [
                52.458377838134766,
                16.35757064819336
              ],
              [
                52.29790496826172,
                16.16470718383789
              ],
              [
                52.25921630859375,
                15.586114883422852
              ],
              [
                52.10369110107422,
                15.457538604736328
              ],
              [
                51.883026123046875,
                15.457538604736328
              ],
              [
                51.27429962158203,
                15.136098861694336
              ],
              [
                50.75569152832031,
                15.07181167602539
              ],
              [
                50.22562789916992,
                14.81466007232666
              ],
              [
                49.409767150878906,
                14.686083793640137
              ],
              [
                48.7861213684082,
                14.043206214904785
              ],
              [
                47.75149917602539,
                13.914630889892578
              ],
              [
                47.668033599853516,
                13.721768379211426
              ],
              [
                46.844635009765625,
                13.40032958984375
              ],
              [
                45.81450271606445,
                13.336042404174805
              ],
              [
                45.85274887084961,
                14.107494354248047
              ],
              [
                45.59237289428711,
                14.750371932983398
              ],
              [
                45.557315826416016,
                15.457538604736328
              ],
              [
                45.41736602783203,
                15.586114883422852
              ],
              [
                45.361907958984375,
                15.907554626464844
              ],
              [
                45.01214599609375,
                16.228994369506836
              ],
              [
                44.883331298828125,
                16.550434112548828
              ],
              [
                44.66971969604492,
                16.67901039123535
              ],
              [
                44.548458099365234,
                17.129026412963867
              ],
              [
                44.338478088378906,
                17.321889877319336
              ],
              [
                44.353553771972656,
                17.57904052734375
              ],
              [
                43.88580322265625,
                18.414779663085938
              ],
              [
                43.90468978881836,
                18.736217498779297
              ],
              [
                43.6276969909668,
                19.057653427124023
              ],
              [
                43.63893508911133,
                19.25051498413086
              ],
              [
                43.498390197753906,
                19.379087448120117
              ],
              [
                43.509552001953125,
                19.571949005126953
              ],
              [
                43.30952835083008,
                19.95766830444336
              ],
              [
                42.95718765258789,
                20.279102325439453
              ],
              [
                42.80893325805664,
                20.279102325439453
              ],
              [
                42.53019714355469,
                20.60053253173828
              ],
              [
                42.08869171142578,
                20.664819717407227
              ],
              [
                42.09568786621094,
                20.793392181396484
              ],
              [
                41.880062103271484,
                20.921964645385742
              ],
              [
                41.81625747680664,
                21.114822387695312
              ],
              [
                41.09089279174805,
                21.43625259399414
              ],
              [
                40.88160705566406,
                21.693397521972656
              ],
              [
                40.15847396850586,
                22.079116821289062
              ],
              [
                40.09416198730469,
                22.271976470947266
              ],
              [
                39.877689361572266,
                22.400548934936523
              ],
              [
                39.840702056884766,
                23.107707977294922
              ],
              [
                40.271392822265625,
                24.136323928833008
              ],
              [
                40.21582794189453,
                24.457773208618164
              ],
              [
                39.93250274658203,
                24.714935302734375
              ],
              [
                39.94038772583008,
                24.843517303466797
              ],
              [
                39.79085159301758,
                24.843517303466797
              ],
              [
                39.50758743286133,
                25.100683212280273
              ],
              [
                39.46128845214844,
                25.55072784423828
              ],
              [
                39.04120635986328,
                26.000778198242188
              ],
              [
                39.049774169921875,
                26.129364013671875
              ],
              [
                37.98511505126953,
                27.029460906982422
              ],
              [
                37.2555046081543,
                27.35091781616211
              ],
              [
                37.26896286010742,
                27.54378890991211
              ],
              [
                36.976905822753906,
                27.6723690032959
              ],
              [
                36.83989715576172,
                27.865236282348633
              ],
              [
                36.68924331665039,
                27.865236282348633
              ],
              [
                36.55220031738281,
                28.058101654052734
              ],
              [
                36.401466369628906,
                28.058101654052734
              ],
              [
                36.20278549194336,
                28.44382095336914
              ],
              [
                36.0565071105957,
                28.508106231689453
              ],
              [
                35.858055114746094,
                28.893810272216797
              ],
              [
                35.86577224731445,
                29.986536026000977
              ],
              [
                36.129676818847656,
                30.436433792114258
              ],
              [
                36.15641784667969,
                30.757776260375977
              ],
              [
                36.31932067871094,
                30.886310577392578
              ],
              [
                36.2708854675293,
                31.20764923095703
              ],
              [
                36.042564392089844,
                31.20764923095703
              ],
              [
                35.76012420654297,
                31.464719772338867
              ],
              [
                35.303077697753906,
                31.464719772338867
              ],
              [
                35.063819885253906,
                31.336183547973633
              ],
              [
                34.791290283203125,
                31.7217960357666
              ],
              [
                34.56792068481445,
                31.78606605529785
              ],
              [
                34.81304168701172,
                31.978878021240234
              ],
              [
                34.76983642578125,
                32.36451721191406
              ],
              [
                35.021759033203125,
                32.62162780761719
              ],
              [
                35.05632781982422,
                33.00732421875
              ],
              [
                35.21538543701172,
                33.07160949707031
              ],
              [
                35.39840316772461,
                33.393062591552734
              ],
              [
                35.34577560424805,
                33.65024948120117
              ],
              [
                35.49934768676758,
                33.65024948120117
              ],
              [
                35.4470100402832,
                33.90746307373047
              ],
              [
                35.68381118774414,
                33.971771240234375
              ],
              [
                35.64447784423828,
                34.3576545715332
              ],
              [
                35.79212951660156,
                34.2933349609375
              ],
              [
                36.21592330932617,
                34.679283142089844
              ],
              [
                36.44062423706055,
                34.614952087402344
              ],
              [
                36.56190872192383,
                34.2933349609375
              ],
              [
                38.66157150268555,
                34.48630142211914
              ],
              [
                38.738609313964844,
                34.48630142211914
              ],
              [
                39.50897979736328,
                34.48630142211914
              ],
              [
                39.72534942626953,
                34.3576545715332
              ]
            ]
          ],
          [
            [
              [
                10.250554084777832,
                27.54378890991211
              ],
              [
                10.325814247131348,
                27.54378890991211
              ],
              [
                10.401352882385254,
                27.41520881652832
              ],
              [
                10.175472259521484,
                27.4794979095459
              ],
              [
                10.250554084777832,
                27.54378890991211
              ]
            ]
          ],
          [
            [
              [
                10.697741508483887,
                33.52165222167969
              ],
              [
                11.081541061401367,
                33.5859489440918
              ],
              [
                11.157825469970703,
                33.20018768310547
              ],
              [
                11.464441299438477,
                33.20018768310547
              ],
              [
                12.228955268859863,
                32.81447219848633
              ],
              [
                12.612099647521973,
                32.878753662109375
              ],
              [
                12.534722328186035,
                32.75019073486328
              ],
              [
                12.840824127197266,
                32.75019073486328
              ],
              [
                12.841785430908203,
                32.878753662109375
              ],
              [
                13.072009086608887,
                32.94303894042969
              ],
              [
                13.301749229431152,
                32.94303894042969
              ],
              [
                13.453653335571289,
                32.81447219848633
              ],
              [
                13.760527610778809,
                32.878753662109375
              ],
              [
                13.759129524230957,
                32.75019073486328
              ],
              [
                14.065231323242188,
                32.75019073486328
              ],
              [
                14.444439888000488,
                32.493072509765625
              ],
              [
                14.674704551696777,
                32.557350158691406
              ],
              [
                14.749334335327148,
                32.428794860839844
              ],
              [
                15.206924438476562,
                32.36451721191406
              ],
              [
                15.424593925476074,
                31.65752601623535
              ],
              [
                15.575982093811035,
                31.593257904052734
              ],
              [
                15.64897632598877,
                31.40045166015625
              ],
              [
                16.178552627563477,
                31.20764923095703
              ],
              [
                16.8635196685791,
                31.20764923095703
              ],
              [
                17.846824645996094,
                30.950578689575195
              ],
              [
                18.222288131713867,
                30.757776260375977
              ],
              [
                18.592470169067383,
                30.372163772583008
              ],
              [
                18.896053314208984,
                30.372163772583008
              ],
              [
                18.968589782714844,
                30.243623733520508
              ],
              [
                19.655010223388672,
                30.372163772583008
              ],
              [
                19.964311599731445,
                30.564971923828125
              ],
              [
                19.968164443969727,
                30.69350814819336
              ],
              [
                20.202085494995117,
                30.886310577392578
              ],
              [
                20.13410186767578,
                31.143381118774414
              ],
              [
                20.214296340942383,
                31.271915435791016
              ],
              [
                19.996076583862305,
                31.593257904052734
              ],
              [
                20.089075088500977,
                32.107421875
              ],
              [
                20.016965866088867,
                32.23596954345703
              ],
              [
                20.246112823486328,
                32.23596954345703
              ],
              [
                20.33134651184082,
                32.493072509765625
              ],
              [
                20.481992721557617,
                32.428794860839844
              ],
              [
                20.562992095947266,
                32.557350158691406
              ],
              [
                20.71593475341797,
                32.557350158691406
              ],
              [
                20.644094467163086,
                32.685909271240234
              ],
              [
                20.87124252319336,
                32.62162780761719
              ],
              [
                21.108016967773438,
                32.81447219848633
              ],
              [
                21.41167449951172,
                32.75019073486328
              ],
              [
                21.87872886657715,
                32.94303894042969
              ],
              [
                22.562345504760742,
                32.81447219848633
              ],
              [
                22.70979118347168,
                32.685909271240234
              ],
              [
                23.089431762695312,
                32.62162780761719
              ],
              [
                23.077939987182617,
                32.36451721191406
              ],
              [
                23.29851722717285,
                32.171695709228516
              ],
              [
                23.680339813232422,
                32.171695709228516
              ],
              [
                24.129365921020508,
                31.978878021240234
              ],
              [
                24.892484664916992,
                31.978878021240234
              ],
              [
                25.11168098449707,
                31.78606605529785
              ],
              [
                25.019512176513672,
                31.464719772338867
              ],
              [
                24.864051818847656,
                31.40045166015625
              ],
              [
                24.982572555541992,
                30.69350814819336
              ],
              [
                24.7429256439209,
                30.436433792114258
              ],
              [
                24.72010040283203,
                29.922264099121094
              ],
              [
                24.86323356628418,
                29.729440689086914
              ],
              [
                24.8521671295166,
                29.472333908081055
              ],
              [
                23.962236404418945,
                29.922264099121094
              ],
              [
                23.51007843017578,
                29.986536026000977
              ],
              [
                22.91602325439453,
                30.307893753051758
              ],
              [
                22.76180076599121,
                30.243623733520508
              ],
              [
                22.76673698425293,
                30.372163772583008
              ],
              [
                21.938846588134766,
                30.564971923828125
              ],
              [
                20.95157814025879,
                30.564971923828125
              ],
              [
                18.73456573486328,
                29.986536026000977
              ],
              [
                17.905044555664062,
                30.179353713989258
              ],
              [
                16.701202392578125,
                30.69350814819336
              ],
              [
                15.489551544189453,
                30.950578689575195
              ],
              [
                15.184454917907715,
                30.886310577392578
              ],
              [
                15.187263488769531,
                31.079113006591797
              ],
              [
                14.584433555603027,
                31.528987884521484
              ],
              [
                14.586112022399902,
                31.65752601623535
              ],
              [
                14.284331321716309,
                31.91460609436035
              ],
              [
                13.60022258758545,
                32.171695709228516
              ],
              [
                13.06567096710205,
                32.171695709228516
              ],
              [
                13.0667085647583,
                32.30024337768555
              ],
              [
                11.767910957336426,
                32.30024337768555
              ],
              [
                11.768352508544922,
                32.428794860839844
              ],
              [
                11.539045333862305,
                32.428794860839844
              ],
              [
                11.462910652160645,
                32.557350158691406
              ],
              [
                11.309853553771973,
                32.493072509765625
              ],
              [
                11.157184600830078,
                32.685909271240234
              ],
              [
                10.391599655151367,
                33.00732421875
              ],
              [
                10.008606910705566,
                33.00732421875
              ],
              [
                10.08484935760498,
                33.13589859008789
              ],
              [
                9.62503719329834,
                33.13589859008789
              ],
              [
                9.547471046447754,
                33.32876968383789
              ],
              [
                9.623573303222656,
                33.45735549926758
              ],
              [
                9.315913200378418,
                33.5859489440918
              ],
              [
                9.237561225891113,
                33.84315490722656
              ],
              [
                9.083436965942383,
                33.90746307373047
              ],
              [
                9.082552909851074,
                34.03607940673828
              ],
              [
                8.928751945495605,
                34.03607940673828
              ],
              [
                8.927783012390137,
                34.164703369140625
              ],
              [
                8.310981750488281,
                34.2933349609375
              ],
              [
                8.0807523727417,
                34.22901916503906
              ],
              [
                8.001612663269043,
                34.42197799682617
              ],
              [
                7.614861011505127,
                34.55062484741211
              ],
              [
                7.153473854064941,
                34.48630142211914
              ],
              [
                6.920335292816162,
                34.614952087402344
              ],
              [
                6.459011077880859,
                34.55062484741211
              ],
              [
                6.14835262298584,
                34.679283142089844
              ],
              [
                5.377389430999756,
                34.679283142089844
              ],
              [
                5.1490478515625,
                34.55062484741211
              ],
              [
                4.453888416290283,
                34.614952087402344
              ],
              [
                3.842682838439941,
                34.42197799682617
              ],
              [
                3.455702066421509,
                34.48630142211914
              ],
              [
                2.920501947402954,
                34.3576545715332
              ],
              [
                2.449900150299072,
                34.614952087402344
              ],
              [
                1.293753147125244,
                34.614952087402344
              ],
              [
                0.684976637363434,
                34.42197799682617
              ],
              [
                0.451262414455414,
                34.48630142211914
              ],
              [
                0.302583903074265,
                34.3576545715332
              ],
              [
                -1.237367868423462,
                34.3576545715332
              ],
              [
                -1.305106520652771,
                34.164703369140625
              ],
              [
                -1.539058566093445,
                34.22901916503906
              ],
              [
                -1.68663763999939,
                34.10039138793945
              ],
              [
                -1.795843720436096,
                34.743614196777344
              ],
              [
                -2.198449373245239,
                35.065311431884766
              ],
              [
                -1.358735799789429,
                35.258358001708984
              ],
              [
                -1.136477708816528,
                35.45143127441406
              ],
              [
                -1.223541498184204,
                35.644527435302734
              ],
              [
                -1.065529465675354,
                35.58015823364258
              ],
              [
                -0.917115688323975,
                35.708900451660156
              ],
              [
                -0.530006587505341,
                35.708900451660156
              ],
              [
                -0.458719998598099,
                35.837650299072266
              ],
              [
                0.083524890244007,
                35.837650299072266
              ],
              [
                0.376142233610153,
                36.2239875793457
              ],
              [
                0.683685302734375,
                36.28839111328125
              ],
              [
                0.678023815155029,
                36.417205810546875
              ],
              [
                0.755678296089172,
                36.417205810546875
              ],
              [
                0.924757122993469,
                36.09519577026367
              ],
              [
                1.157400488853455,
                36.09519577026367
              ],
              [
                1.925470948219299,
                36.28839111328125
              ],
              [
                2.468752145767212,
                36.28839111328125
              ],
              [
                2.697040319442749,
                36.417205810546875
              ],
              [
                5.880874156951904,
                36.417205810546875
              ],
              [
                6.344254493713379,
                36.5460319519043
              ],
              [
                7.664203643798828,
                36.61045455932617
              ],
              [
                7.902398109436035,
                36.2239875793457
              ],
              [
                7.911391258239746,
                35.51579284667969
              ],
              [
                7.98875093460083,
                35.51579284667969
              ],
              [
                8.07210922241211,
                35.00096893310547
              ],
              [
                8.844073295593262,
                35.00096893310547
              ],
              [
                8.916531562805176,
                35.58015823364258
              ],
              [
                9.22468376159668,
                35.77327346801758
              ],
              [
                10.076092720031738,
                35.902034759521484
              ],
              [
                10.30904769897461,
                35.708900451660156
              ],
              [
                10.233261108398438,
                35.12965774536133
              ],
              [
                9.848442077636719,
                34.80794906616211
              ],
              [
                9.773563385009766,
                34.2933349609375
              ],
              [
                9.696585655212402,
                34.2933349609375
              ],
              [
                9.774384498596191,
                34.10039138793945
              ],
              [
                10.082062721252441,
                34.10039138793945
              ],
              [
                10.082256317138672,
                34.03607940673828
              ],
              [
                10.005777359008789,
                33.90746307373047
              ],
              [
                10.23681354522705,
                33.71455001831055
              ],
              [
                10.544031143188477,
                33.71455001831055
              ],
              [
                10.697741508483887,
                33.52165222167969
              ]
            ]
          ],
          [
            [
              [
                2.531259059906006,
                34.48630142211914
              ],
              [
                2.608296155929565,
                34.48630142211914
              ],
              [
                2.610407114028931,
                34.42197799682617
              ],
              [
                2.533390045166016,
                34.42197799682617
              ],
              [
                2.531259059906006,
                34.48630142211914
              ]
            ]
          ],
          [
            [
              [
                33.95713424682617,
                35.258358001708984
              ],
              [
                34.08732223510742,
                35.00096893310547
              ],
              [
                33.69539260864258,
                34.93662643432617
              ],
              [
                33.523399353027344,
                34.743614196777344
              ],
              [
                33.1320686340332,
                34.679283142089844
              ],
              [
                33.04356002807617,
                34.55062484741211
              ],
              [
                32.36665725708008,
                34.743614196777344
              ],
              [
                32.229042053222656,
                34.93662643432617
              ],
              [
                32.24578857421875,
                35.12965774536133
              ],
              [
                32.55473709106445,
                35.12965774536133
              ],
              [
                32.875247955322266,
                35.258358001708984
              ],
              [
                32.886871337890625,
                35.38706970214844
              ],
              [
                33.73737716674805,
                35.38706970214844
              ],
              [
                34.309810638427734,
                35.708900451660156
              ],
              [
                34.38723373413086,
                35.708900451660156
              ],
              [
                34.542076110839844,
                35.708900451660156
              ],
              [
                34.5294189453125,
                35.58015823364258
              ],
              [
                33.95713424682617,
                35.258358001708984
              ]
            ]
          ],
          [
            [
              [
                58.97935485839844,
                20.40767478942871
              ],
              [
                58.81501007080078,
                20.214815139770508
              ],
              [
                58.666770935058594,
                20.214815139770508
              ],
              [
                58.76761245727539,
                20.53624725341797
              ],
              [
                58.772953033447266,
                20.60053253173828
              ],
              [
                59.00082778930664,
                20.664819717407227
              ],
              [
                58.97935485839844,
                20.40767478942871
              ]
            ]
          ],
          [
            [
              [
                50.460208892822266,
                26.257951736450195
              ],
              [
                50.68524169921875,
                26.257951736450195
              ],
              [
                50.672935485839844,
                26.129364013671875
              ],
              [
                50.666831970214844,
                26.06507110595703
              ],
              [
                50.64872360229492,
                25.8721923828125
              ],
              [
                50.42986297607422,
                25.936485290527344
              ],
              [
                50.460208892822266,
                26.257951736450195
              ]
            ]
          ],
          [
            [
              [
                49.270748138427734,
                41.00318908691406
              ],
              [
                49.2441520690918,
                40.873565673828125
              ],
              [
                49.50836181640625,
                40.614410400390625
              ],
              [
                50.04951477050781,
                40.54964065551758
              ],
              [
                50.2603759765625,
                40.42012023925781
              ],
              [
                49.6933479309082,
                40.355369567871094
              ],
              [
                49.50919723510742,
                40.225894927978516
              ],
              [
                49.26664352416992,
                39.38497543334961
              ],
              [
                49.151405334472656,
                39.19107437133789
              ],
              [
                48.994110107421875,
                39.19107437133789
              ],
              [
                48.91546630859375,
                39.19107437133789
              ],
              [
                48.673282623291016,
                39.57893371582031
              ],
              [
                48.44904327392578,
                39.64360046386719
              ],
              [
                48.23134994506836,
                39.320335388183594
              ],
              [
                48.25099563598633,
                38.997230529785156
              ],
              [
                47.99210739135742,
                38.8680305480957
              ],
              [
                47.99068832397461,
                38.416015625
              ],
              [
                48.191890716552734,
                38.22237777709961
              ],
              [
                48.39375305175781,
                37.5772590637207
              ],
              [
                48.852516174316406,
                37.06150817871094
              ],
              [
                49.14228820800781,
                36.932613372802734
              ],
              [
                49.18772506713867,
                36.73930740356445
              ],
              [
                50.27750015258789,
                36.28839111328125
              ],
              [
                50.467002868652344,
                36.03080368041992
              ],
              [
                51.087215423583984,
                36.03080368041992
              ],
              [
                51.82918167114258,
                35.837650299072266
              ],
              [
                52.02837371826172,
                35.644527435302734
              ],
              [
                52.33797836303711,
                35.644527435302734
              ],
              [
                52.70390701293945,
                35.9664192199707
              ],
              [
                53.20351791381836,
                36.15959167480469
              ],
              [
                54.30137634277344,
                36.2239875793457
              ],
              [
                54.88085174560547,
                36.417205810546875
              ],
              [
                55.15068817138672,
                36.61045455932617
              ],
              [
                55.18791198730469,
                36.80373764038086
              ],
              [
                55.446407318115234,
                36.932613372802734
              ],
              [
                55.48442459106445,
                37.12596130371094
              ],
              [
                55.562320709228516,
                37.12596130371094
              ],
              [
                55.79600524902344,
                37.12596130371094
              ],
              [
                55.84829330444336,
                36.9970588684082
              ],
              [
                56.094696044921875,
                37.06150817871094
              ],
              [
                56.61383819580078,
                36.932613372802734
              ],
              [
                57.31429672241211,
                36.932613372802734
              ],
              [
                57.807899475097656,
                37.06150817871094
              ],
              [
                58.15033721923828,
                37.5772590637207
              ],
              [
                58.5184211730957,
                37.835243225097656
              ],
              [
                58.68196487426758,
                38.22237777709961
              ],
              [
                59.55022048950195,
                38.93262481689453
              ],
              [
                60.523773193359375,
                39.38497543334961
              ],
              [
                60.650386810302734,
                39.57893371582031
              ],
              [
                60.9494514465332,
                39.51427459716797
              ],
              [
                62.50175094604492,
                40.031734466552734
              ],
              [
                62.580726623535156,
                40.031734466552734
              ],
              [
                62.65380859375,
                39.70827102661133
              ],
              [
                63.088340759277344,
                39.25570297241211
              ],
              [
                63.24568557739258,
                39.25570297241211
              ],
              [
                63.41547393798828,
                38.997230529785156
              ],
              [
                63.837432861328125,
                38.80344009399414
              ],
              [
                64.00749206542969,
                38.54513168334961
              ],
              [
                64.36690521240234,
                38.416015625
              ],
              [
                64.66151428222656,
                38.028785705566406
              ],
              [
                65.23883056640625,
                37.835243225097656
              ],
              [
                65.62744903564453,
                37.51277160644531
              ],
              [
                66.51548767089844,
                37.3193473815918
              ],
              [
                66.99945068359375,
                37.38381576538086
              ],
              [
                67.12300109863281,
                37.254878997802734
              ],
              [
                67.74652099609375,
                37.254878997802734
              ],
              [
                67.91515350341797,
                36.9970588684082
              ],
              [
                68.1487045288086,
                36.9970588684082
              ],
              [
                68.19410705566406,
                36.8681755065918
              ],
              [
                68.62843322753906,
                36.73930740356445
              ],
              [
                69.01396942138672,
                36.417205810546875
              ],
              [
                68.96593475341797,
                36.2239875793457
              ],
              [
                69.10516357421875,
                36.15959167480469
              ],
              [
                69.11929321289062,
                35.902034759521484
              ],
              [
                69.28880310058594,
                35.644527435302734
              ],
              [
                69.21112823486328,
                35.32271194458008
              ],
              [
                69.36572265625,
                35.32271194458008
              ],
              [
                69.33564758300781,
                34.87228775024414
              ],
              [
                69.4595718383789,
                34.743614196777344
              ],
              [
                69.20391082763672,
                33.971771240234375
              ],
              [
                68.7617416381836,
                33.71455001831055
              ],
              [
                68.7188720703125,
                33.52165222167969
              ],
              [
                68.34168243408203,
                33.20018768310547
              ],
              [
                67.7955322265625,
                32.428794860839844
              ],
              [
                67.47488403320312,
                31.20764923095703
              ],
              [
                67.46249389648438,
                31.143381118774414
              ],
              [
                66.98619079589844,
                29.79371452331543
              ],
              [
                66.91043853759766,
                29.79371452331543
              ],
              [
                66.55387878417969,
                28.572391510009766
              ],
              [
                66.47840118408203,
                28.572391510009766
              ],
              [
                66.39766693115234,
                26.515121459960938
              ],
              [
                65.79692077636719,
                25.357851028442383
              ],
              [
                64.8160629272461,
                25.29355812072754
              ],
              [
                64.80064392089844,
                25.164974212646484
              ],
              [
                64.57618713378906,
                25.164974212646484
              ],
              [
                64.2845230102539,
                25.229267120361328
              ],
              [
                64.22502136230469,
                25.357851028442383
              ],
              [
                63.62620544433594,
                25.357851028442383
              ],
              [
                63.536216735839844,
                25.229267120361328
              ],
              [
                62.563419342041016,
                25.229267120361328
              ],
              [
                62.47393035888672,
                25.100683212280273
              ],
              [
                62.18195724487305,
                25.164974212646484
              ],
              [
                62.01787185668945,
                25.03639030456543
              ],
              [
                61.71868133544922,
                25.03639030456543
              ],
              [
                61.65822219848633,
                25.164974212646484
              ],
              [
                61.12736892700195,
                25.100683212280273
              ],
              [
                60.91714859008789,
                25.229267120361328
              ],
              [
                60.617828369140625,
                25.229267120361328
              ],
              [
                60.63211441040039,
                25.357851028442383
              ],
              [
                59.060218811035156,
                25.357851028442383
              ],
              [
                58.78172302246094,
                25.55072784423828
              ],
              [
                57.957984924316406,
                25.55072784423828
              ],
              [
                57.7402229309082,
                25.615020751953125
              ],
              [
                57.67921447753906,
                25.743606567382812
              ],
              [
                57.37953567504883,
                25.743606567382812
              ],
              [
                57.175662994384766,
                25.936485290527344
              ],
              [
                57.05242156982422,
                26.836584091186523
              ],
              [
                56.714656829833984,
                27.158044815063477
              ],
              [
                56.188377380371094,
                27.158044815063477
              ],
              [
                56.098140716552734,
                27.029460906982422
              ],
              [
                56.32361602783203,
                27.029460906982422
              ],
              [
                56.30864334106445,
                26.900876998901367
              ],
              [
                56.06119155883789,
                26.70800018310547
              ],
              [
                55.60341262817383,
                26.643707275390625
              ],
              [
                55.439002990722656,
                26.515121459960938
              ],
              [
                55.28888702392578,
                26.515121459960938
              ],
              [
                55.31023025512695,
                26.70800018310547
              ],
              [
                55.542747497558594,
                26.772293090820312
              ],
              [
                55.242313385009766,
                26.772293090820312
              ],
              [
                54.83156204223633,
                26.450830459594727
              ],
              [
                54.463233947753906,
                26.515121459960938
              ],
              [
                54.25889205932617,
                26.70800018310547
              ],
              [
                53.65812301635742,
                26.70800018310547
              ],
              [
                53.46059036254883,
                26.96516990661621
              ],
              [
                52.736968994140625,
                27.222335815429688
              ],
              [
                52.478694915771484,
                27.608078002929688
              ],
              [
                52.04855728149414,
                27.800947189331055
              ],
              [
                51.5966796875,
                27.800947189331055
              ],
              [
                51.31684494018555,
                27.993812561035156
              ],
              [
                51.331298828125,
                28.12238883972168
              ],
              [
                51.06624984741211,
                28.44382095336914
              ],
              [
                51.028076171875,
                28.765243530273438
              ],
              [
                50.80903244018555,
                28.829526901245117
              ],
              [
                50.9150390625,
                29.08665657043457
              ],
              [
                50.620323181152344,
                29.150936126708984
              ],
              [
                50.65126037597656,
                29.40805435180664
              ],
              [
                50.23628234863281,
                29.729440689086914
              ],
              [
                50.0648078918457,
                30.179353713989258
              ],
              [
                49.585899353027344,
                29.986536026000977
              ],
              [
                48.942848205566406,
                30.307893753051758
              ],
              [
                48.987266540527344,
                30.050809860229492
              ],
              [
                48.903682708740234,
                29.986536026000977
              ],
              [
                48.52467346191406,
                29.986536026000977
              ],
              [
                48.27554702758789,
                30.436433792114258
              ],
              [
                48.04780960083008,
                30.436433792114258
              ],
              [
                48.103145599365234,
                30.886310577392578
              ],
              [
                47.738956451416016,
                31.014846801757812
              ],
              [
                47.79570007324219,
                31.464719772338867
              ],
              [
                47.97293472290039,
                31.65752601623535
              ],
              [
                47.92181396484375,
                31.8503360748291
              ],
              [
                47.70976638793945,
                31.978878021240234
              ],
              [
                47.72666931152344,
                32.107421875
              ],
              [
                47.58243942260742,
                32.171695709228516
              ],
              [
                47.463706970214844,
                32.428794860839844
              ],
              [
                46.945579528808594,
                32.557350158691406
              ],
              [
                46.682132720947266,
                32.878753662109375
              ],
              [
                46.16311264038086,
                33.00732421875
              ],
              [
                46.137794494628906,
                33.393062591552734
              ],
              [
                45.59275817871094,
                33.90746307373047
              ],
              [
                45.43903350830078,
                33.90746307373047
              ],
              [
                45.64531326293945,
                34.2933349609375
              ],
              [
                45.50016784667969,
                34.3576545715332
              ],
              [
                45.544578552246094,
                34.679283142089844
              ],
              [
                45.390384674072266,
                34.679283142089844
              ],
              [
                45.417205810546875,
                34.87228775024414
              ],
              [
                45.203617095947266,
                35.00096893310547
              ],
              [
                45.021610260009766,
                35.902034759521484
              ],
              [
                44.593360900878906,
                36.15959167480469
              ],
              [
                44.611854553222656,
                36.28839111328125
              ],
              [
                44.39749526977539,
                36.417205810546875
              ],
              [
                44.3570556640625,
                36.67487716674805
              ],
              [
                44.22026824951172,
                36.80373764038086
              ],
              [
                43.54787826538086,
                36.9970588684082
              ],
              [
                43.41068649291992,
                37.12596130371094
              ],
              [
                43.43867492675781,
                37.3193473815918
              ],
              [
                42.51225280761719,
                37.38381576538086
              ],
              [
                41.6103401184082,
                37.06150817871094
              ],
              [
                40.76225280761719,
                37.12596130371094
              ],
              [
                39.537109375,
                36.67487716674805
              ],
              [
                38.837440490722656,
                36.67487716674805
              ],
              [
                38.549774169921875,
                36.8681755065918
              ],
              [
                38.005126953125,
                36.8681755065918
              ],
              [
                37.834354400634766,
                36.73930740356445
              ],
              [
                37.197532653808594,
                36.61045455932617
              ],
              [
                36.908504486083984,
                36.80373764038086
              ],
              [
                36.27198791503906,
                36.67487716674805
              ],
              [
                36.28622817993164,
                36.80373764038086
              ],
              [
                36.13776779174805,
                36.8681755065918
              ],
              [
                36.144901275634766,
                36.932613372802734
              ],
              [
                37.22455596923828,
                37.51277160644531
              ],
              [
                37.79433059692383,
                37.706241607666016
              ],
              [
                37.94260025024414,
                37.641746520996094
              ],
              [
                38.52164840698242,
                37.89975357055664
              ],
              [
                40.04158020019531,
                38.157840728759766
              ],
              [
                40.90244674682617,
                38.157840728759766
              ],
              [
                40.981719970703125,
                39.25570297241211
              ],
              [
                41.2565803527832,
                39.51427459716797
              ],
              [
                41.32602310180664,
                39.9670295715332
              ],
              [
                41.483924865722656,
                39.9670295715332
              ],
              [
                41.6724853515625,
                40.16116714477539
              ],
              [
                41.7035026550293,
                40.355369567871094
              ],
              [
                41.359764099121094,
                40.6791877746582
              ],
              [
                41.534793853759766,
                41.26253128051758
              ],
              [
                42.25017166137695,
                41.26253128051758
              ],
              [
                42.36305618286133,
                41.45711898803711
              ],
              [
                42.62437438964844,
                41.586883544921875
              ],
              [
                42.86325454711914,
                41.586883544921875
              ],
              [
                43.340179443359375,
                41.132843017578125
              ],
              [
                43.97562789916992,
                41.132843017578125
              ],
              [
                44.237335205078125,
                41.26253128051758
              ],
              [
                44.3523063659668,
                41.45711898803711
              ],
              [
                44.86604690551758,
                41.65177917480469
              ],
              [
                45.07451629638672,
                41.911441802978516
              ],
              [
                45.313819885253906,
                41.911441802978516
              ],
              [
                45.616233825683594,
                42.236209869384766
              ],
              [
                45.75059127807617,
                42.10627746582031
              ],
              [
                46.29668426513672,
                42.041324615478516
              ],
              [
                46.350799560546875,
                41.911441802978516
              ],
              [
                46.7366943359375,
                41.84651184082031
              ],
              [
                47.27063751220703,
                41.32738494873047
              ],
              [
                47.5628776550293,
                41.19768524169922
              ],
              [
                47.89371109008789,
                41.26253128051758
              ],
              [
                48.18490982055664,
                41.521995544433594
              ],
              [
                48.1719970703125,
                41.84651184082031
              ],
              [
                48.09225845336914,
                41.84651184082031
              ],
              [
                48.19894790649414,
                41.97637939453125
              ],
              [
                48.278743743896484,
                41.97637939453125
              ],
              [
                49.08600997924805,
                41.26253128051758
              ],
              [
                49.059226989746094,
                41.132843017578125
              ],
              [
                49.270748138427734,
                41.00318908691406
              ]
            ]
          ]
        ]
      }
    }
  ]
}
