{
  "type": "FeatureCollection",
  "features": [
    {
      "type": "Feature",
      "properties": {
        "Name": "Tuyuhun",
        "FromYear": 641,
        "ToYear": 660,
        "Area": 355299.3050811436,
        "Type": "POLITY",
        "Wikipedia": "Tuyuhun",
        "Wikidata": "Q1196201",
        "SeshatID": "cn_tuyuhun",
        "Components": "",
        "MemberOf": "",
        "displayYear": 649,
        "sourceYear": 649,
        "mappedTerritoryId": "cliopatria_tuyuhun"
      },
      "geometry": {
        "type": "Polygon",
        "coordinates": [
          [
            [
              95.89147186279297,
              38.8680305480957
            ],
            [
              95.63017272949219,
              38.997230529785156
            ],
            [
              95.55278778076172,
              39.19107437133789
            ],
            [
              95.39549255371094,
              39.19107437133789
            ],
            [
              95.31853485107422,
              39.38497543334961
            ],
            [
              95.05557250976562,
              39.320335388183594
            ],
            [
              94.58486938476562,
              39.51427459716797
            ],
            [
              93.87593078613281,
              39.51427459716797
            ],
            [
              93.50794982910156,
              39.38497543334961
            ],
            [
              93.2193603515625,
              39.449623107910156
            ],
            [
              93.00947570800781,
              39.320335388183594
            ],
            [
              92.2484130859375,
              39.38497543334961
            ],
            [
              91.123291015625,
              39.1264533996582
            ],
            [
              88.7458267211914,
              38.8680305480957
            ],
            [
              87.66171264648438,
              38.48057174682617
            ],
            [
              86.44012451171875,
              38.351463317871094
            ],
            [
              86.08140563964844,
              38.22237777709961
            ],
            [
              85.81294250488281,
              37.89975357055664
            ],
            [
              85.35621643066406,
              37.706241607666016
            ],
            [
              85.1133804321289,
              37.44829177856445
            ],
            [
              86.82953643798828,
              37.44829177856445
            ],
            [
              88.24585723876953,
              37.706241607666016
            ],
            [
              91.53338623046875,
              37.51277160644531
            ],
            [
              91.61141204833984,
              37.51277160644531
            ],
            [
              92.21204376220703,
              37.44829177856445
            ],
            [
              92.18850708007812,
              37.38381576538086
            ],
            [
              94.50987243652344,
              37.12596130371094
            ],
            [
              96.39579772949219,
              36.5460319519043
            ],
            [
              98.84361267089844,
              36.03080368041992
            ],
            [
              99.30877685546875,
              36.03080368041992
            ],
            [
              99.41574096679688,
              35.902034759521484
            ],
            [
              102.27054595947266,
              35.258358001708984
            ],
            [
              102.89862060546875,
              34.87228775024414
            ],
            [
              103.5210189819336,
              34.679283142089844
            ],
            [
              103.73529052734375,
              35.45143127441406
            ],
            [
              103.63004302978516,
              35.58015823364258
            ],
            [
              103.7297592163086,
              35.837650299072266
            ],
            [
              103.65229797363281,
              35.837650299072266
            ],
            [
              103.72779083251953,
              36.03080368041992
            ],
            [
              103.59667205810547,
              36.28839111328125
            ],
            [
              103.64786529541016,
              36.417205810546875
            ],
            [
              103.38858032226562,
              36.5460319519043
            ],
            [
              103.25885772705078,
              36.80373764038086
            ],
            [
              103.10328674316406,
              36.80373764038086
            ],
            [
              102.79303741455078,
              37.1904182434082
            ],
            [
              102.55928802490234,
              37.1904182434082
            ],
            [
              102.53401184082031,
              37.3193473815918
            ],
            [
              102.24852752685547,
              37.38381576538086
            ],
            [
              102.09397888183594,
              37.5772590637207
            ],
            [
              102.09606170654297,
              37.7707405090332
            ],
            [
              101.85982513427734,
              37.5772590637207
            ],
            [
              101.5740966796875,
              37.641746520996094
            ],
            [
              101.54920959472656,
              37.7707405090332
            ],
            [
              101.26336669921875,
              37.835243225097656
            ],
            [
              101.23871612548828,
              37.96426773071289
            ],
            [
              100.8745346069336,
              38.028785705566406
            ],
            [
              100.4137954711914,
              38.60969924926758
            ],
            [
              100.2264404296875,
              38.351463317871094
            ],
            [
              99.81044006347656,
              38.48057174682617
            ],
            [
              99.19844818115234,
              39.25570297241211
            ],
            [
              98.9068374633789,
              39.1264533996582
            ],
            [
              98.3840560913086,
              39.19107437133789
            ],
            [
              98.22306060791016,
              38.997230529785156
            ],
            [
              97.90877532958984,
              38.997230529785156
            ],
            [
              97.20784759521484,
              39.38497543334961
            ],
            [
              96.76294708251953,
              39.449623107910156
            ],
            [
              96.65383911132812,
              39.19107437133789
            ],
            [
              96.73248291015625,
              39.19107437133789
            ],
            [
              96.70207977294922,
              38.738853454589844
            ],
            [
              96.36184692382812,
              38.67427444458008
            ],
            [
              95.9699935913086,
              38.8680305480957
            ],
            [
              95.89147186279297,
              38.8680305480957
            ]
          ]
        ]
      }
    }
  ]
}
