{
  "type": "FeatureCollection",
  "features": [
    {
      "type": "Feature",
      "properties": {
        "Name": "Roman Republic",
        "FromYear": -144,
        "ToYear": -127,
        "Area": 850618.6485916233,
        "Type": "POLITY",
        "Wikipedia": "Roman Republic",
        "Wikidata": "Q175881",
        "SeshatID": "it_roman_rep_2",
        "Components": "",
        "MemberOf": "",
        "displayYear": -129,
        "sourceYear": -129,
        "mappedTerritoryId": "cliopatria_roman_republic"
      },
      "geometry": {
        "type": "MultiPolygon",
        "coordinates": [
          [
            [
              [
                11.005731582641602,
                35.38706970214844
              ],
              [
                11.082771301269531,
                35.00096893310547
              ],
              [
                10.85119342803955,
                34.93662643432617
              ],
              [
                10.851213455200195,
                34.80794906616211
              ],
              [
                10.081475257873535,
                34.2933349609375
              ],
              [
                10.004497528076172,
                34.2933349609375
              ],
              [
                9.385624885559082,
                34.80794906616211
              ],
              [
                9.228297233581543,
                35.258358001708984
              ],
              [
                8.917067527770996,
                35.51579284667969
              ],
              [
                8.992356300354004,
                35.77327346801758
              ],
              [
                8.836906433105469,
                35.837650299072266
              ],
              [
                8.83520221710205,
                36.03080368041992
              ],
              [
                8.678300857543945,
                36.2239875793457
              ],
              [
                8.676435470581055,
                36.417205810546875
              ],
              [
                8.908275604248047,
                36.5460319519043
              ],
              [
                8.748600006103516,
                36.9970588684082
              ],
              [
                8.826451301574707,
                36.9970588684082
              ],
              [
                8.903155326843262,
                37.12596130371094
              ],
              [
                9.05947494506836,
                37.06150817871094
              ],
              [
                9.36964225769043,
                37.254878997802734
              ],
              [
                9.759011268615723,
                37.3193473815918
              ],
              [
                9.993423461914062,
                37.1904182434082
              ],
              [
                10.226980209350586,
                37.254878997802734
              ],
              [
                10.227567672729492,
                37.06150817871094
              ],
              [
                10.305440902709961,
                37.06150817871094
              ],
              [
                10.228352546691895,
                36.80373764038086
              ],
              [
                10.461837768554688,
                36.73930740356445
              ],
              [
                11.006271362304688,
                36.9970588684082
              ],
              [
                11.006199836730957,
                36.80373764038086
              ],
              [
                10.462488174438477,
                36.417205810546875
              ],
              [
                10.540250778198242,
                36.3527946472168
              ],
              [
                10.463515281677246,
                35.902034759521484
              ],
              [
                10.851000785827637,
                35.708900451660156
              ],
              [
                10.851019859313965,
                35.644527435302734
              ],
              [
                11.08318042755127,
                35.58015823364258
              ],
              [
                11.083049774169922,
                35.38706970214844
              ],
              [
                11.005731582641602,
                35.38706970214844
              ]
            ]
          ],
          [
            [
              [
                14.33681869506836,
                35.837650299072266
              ],
              [
                14.339592933654785,
                36.03080368041992
              ],
              [
                14.417119026184082,
                36.03080368041992
              ],
              [
                14.571182250976562,
                35.9664192199707
              ],
              [
                14.568227767944336,
                35.77327346801758
              ],
              [
                14.33681869506836,
                35.837650299072266
              ]
            ]
          ],
          [
            [
              [
                -5.712886333465576,
                38.80344009399414
              ],
              [
                -5.48242712020874,
                38.8680305480957
              ],
              [
                -5.04095983505249,
                39.25570297241211
              ],
              [
                -4.342482089996338,
                39.38497543334961
              ],
              [
                -3.810030698776245,
                39.64360046386719
              ],
              [
                -3.59208083152771,
                39.90232849121094
              ],
              [
                -3.206541776657104,
                40.031734466552734
              ],
              [
                -2.464803695678711,
                40.74397277832031
              ],
              [
                -2.306268453598022,
                40.74397277832031
              ],
              [
                -2.00639271736145,
                41.00318908691406
              ],
              [
                -2.098877191543579,
                41.19768524169922
              ],
              [
                -1.781041860580444,
                41.19768524169922
              ],
              [
                -1.731626152992249,
                41.65177917480469
              ],
              [
                -1.651971936225891,
                41.65177917480469
              ],
              [
                -1.753446459770203,
                41.97637939453125
              ],
              [
                -1.606918931007385,
                42.17123794555664
              ],
              [
                -1.628932595252991,
                42.496177673339844
              ],
              [
                -1.54890513420105,
                42.496177673339844
              ],
              [
                -1.490897059440613,
                42.82133865356445
              ],
              [
                -1.330547690391541,
                42.82133865356445
              ],
              [
                -1.259086012840271,
                42.95146560668945
              ],
              [
                -0.938149929046631,
                42.95146560668945
              ],
              [
                -0.685018658638,
                42.75628662109375
              ],
              [
                0.287992000579834,
                42.56119155883789
              ],
              [
                0.455450922250748,
                42.43117141723633
              ],
              [
                0.771893441677094,
                42.496177673339844
              ],
              [
                0.858954727649689,
                42.36617660522461
              ],
              [
                1.178831577301025,
                42.36617660522461
              ],
              [
                1.182217955589294,
                42.30118942260742
              ],
              [
                1.422038435935974,
                42.30118942260742
              ],
              [
                1.996972918510437,
                41.97637939453125
              ],
              [
                2.398856639862061,
                41.911441802978516
              ],
              [
                2.717926979064941,
                41.911441802978516
              ],
              [
                2.712342262268066,
                42.041324615478516
              ],
              [
                2.869245767593384,
                42.10627746582031
              ],
              [
                2.962613344192505,
                41.781593322753906
              ],
              [
                2.572504997253418,
                41.586883544921875
              ],
              [
                2.333626985549927,
                41.586883544921875
              ],
              [
                2.106574535369873,
                41.32738494873047
              ],
              [
                1.238392949104309,
                41.19768524169922
              ],
              [
                0.695793092250824,
                40.93837356567383
              ],
              [
                0.709256291389465,
                40.6791877746582
              ],
              [
                0.247769102454185,
                40.42012023925781
              ],
              [
                0.182543575763702,
                40.16116714477539
              ],
              [
                -0.126465529203415,
                40.031734466552734
              ],
              [
                -0.345421016216278,
                39.70827102661133
              ],
              [
                -0.313707679510117,
                39.1264533996582
              ],
              [
                0.099359586834908,
                38.738853454589844
              ],
              [
                -0.660861134529114,
                38.28691864013672
              ],
              [
                -0.803495347499847,
                38.028785705566406
              ],
              [
                -0.704753637313843,
                37.641746520996094
              ],
              [
                -1.708719491958618,
                37.44829177856445
              ],
              [
                -1.623468399047852,
                37.3193473815918
              ],
              [
                -1.857354998588562,
                37.3193473815918
              ],
              [
                -2.061630010604858,
                36.80373764038086
              ],
              [
                -2.532132625579834,
                36.8681755065918
              ],
              [
                -2.680080890655518,
                36.73930740356445
              ],
              [
                -4.468626022338867,
                36.73930740356445
              ],
              [
                -4.688807487487793,
                36.5460319519043
              ],
              [
                -5.22819709777832,
                36.48161697387695
              ],
              [
                -5.287947177886963,
                36.2239875793457
              ],
              [
                -5.662277221679688,
                36.03080368041992
              ],
              [
                -5.831079006195068,
                36.2239875793457
              ],
              [
                -6.063849925994873,
                36.2239875793457
              ],
              [
                -6.330093860626221,
                36.67487716674805
              ],
              [
                -6.349542140960693,
                36.932613372802734
              ],
              [
                -6.587993621826172,
                36.9970588684082
              ],
              [
                -6.84182596206665,
                37.254878997802734
              ],
              [
                -7.465344429016113,
                37.254878997802734
              ],
              [
                -7.454815864562988,
                37.12596130371094
              ],
              [
                -7.677903652191162,
                36.9970588684082
              ],
              [
                -8.70113754272461,
                37.12596130371094
              ],
              [
                -9.00136661529541,
                36.9970588684082
              ],
              [
                -8.896896362304688,
                37.5772590637207
              ],
              [
                -8.818843841552734,
                37.5772590637207
              ],
              [
                -8.822718620300293,
                38.48057174682617
              ],
              [
                -9.20852279663086,
                38.416015625
              ],
              [
                -9.23299789428711,
                38.67427444458008
              ],
              [
                -9.38370418548584,
                38.60969924926758
              ],
              [
                -9.553065299987793,
                38.738853454589844
              ],
              [
                -9.571974754333496,
                38.93262481689453
              ],
              [
                -9.42748737335205,
                39.06184005737305
              ],
              [
                -9.387048721313477,
                39.449623107910156
              ],
              [
                -9.2295560836792,
                39.449623107910156
              ],
              [
                -9.16353988647461,
                39.57893371582031
              ],
              [
                -9.072063446044922,
                39.449623107910156
              ],
              [
                -8.835824012756348,
                39.449623107910156
              ],
              [
                -8.82337474822998,
                39.320335388183594
              ],
              [
                -8.665982246398926,
                39.320335388183594
              ],
              [
                -8.575064659118652,
                39.19107437133789
              ],
              [
                -8.254496574401855,
                39.1264533996582
              ],
              [
                -8.158111572265625,
                38.93262481689453
              ],
              [
                -7.765371799468994,
                38.93262481689453
              ],
              [
                -7.675366878509521,
                38.80344009399414
              ],
              [
                -7.445516109466553,
                38.8680305480957
              ],
              [
                -7.434240341186523,
                38.738853454589844
              ],
              [
                -7.355765342712402,
                38.738853454589844
              ],
              [
                -7.361370086669922,
                38.80344009399414
              ],
              [
                -7.282870769500732,
                38.80344009399414
              ],
              [
                -7.277290344238281,
                38.738853454589844
              ],
              [
                -7.19881534576416,
                38.738853454589844
              ],
              [
                -7.10932731628418,
                38.60969924926758
              ],
              [
                -5.712886333465576,
                38.80344009399414
              ]
            ]
          ],
          [
            [
              [
                9.665326118469238,
                40.29063034057617
              ],
              [
                9.74737548828125,
                39.64360046386719
              ],
              [
                9.668553352355957,
                39.64360046386719
              ],
              [
                9.592622756958008,
                39.1264533996582
              ],
              [
                9.120378494262695,
                39.19107437133789
              ],
              [
                8.96590518951416,
                38.8680305480957
              ],
              [
                8.730334281921387,
                38.8680305480957
              ],
              [
                8.336196899414062,
                38.997230529785156
              ],
              [
                8.411824226379395,
                39.25570297241211
              ],
              [
                8.333152770996094,
                39.25570297241211
              ],
              [
                8.330102920532227,
                39.51427459716797
              ],
              [
                8.40887451171875,
                39.51427459716797
              ],
              [
                8.48337459564209,
                39.90232849121094
              ],
              [
                8.324762344360352,
                39.9670295715332
              ],
              [
                8.400031089782715,
                40.29063034057617
              ],
              [
                8.32094955444336,
                40.29063034057617
              ],
              [
                8.318660736083984,
                40.4848747253418
              ],
              [
                8.159523010253906,
                40.54964065551758
              ],
              [
                8.154606819152832,
                40.93837356567383
              ],
              [
                8.552037239074707,
                40.873565673828125
              ],
              [
                9.024832725524902,
                41.26253128051758
              ],
              [
                9.10431957244873,
                41.26253128051758
              ],
              [
                9.50210952758789,
                41.19768524169922
              ],
              [
                9.821690559387207,
                40.74397277832031
              ],
              [
                9.823226928710938,
                40.355369567871094
              ],
              [
                9.665326118469238,
                40.29063034057617
              ]
            ]
          ],
          [
            [
              [
                15.819802284240723,
                45.23500442504883
              ],
              [
                15.805839538574219,
                44.77729415893555
              ],
              [
                16.125972747802734,
                44.64661407470703
              ],
              [
                16.517484664916992,
                44.25482940673828
              ],
              [
                16.679170608520508,
                44.25482940673828
              ],
              [
                16.912017822265625,
                43.99384307861328
              ],
              [
                17.073455810546875,
                43.99384307861328
              ],
              [
                17.1491641998291,
                43.86341094970703
              ],
              [
                17.313045501708984,
                43.92862319946289
              ],
              [
                17.385955810546875,
                43.73301696777344
              ],
              [
                17.861238479614258,
                43.53750228881836
              ],
              [
                18.344266891479492,
                43.53750228881836
              ],
              [
                18.573694229125977,
                43.276947021484375
              ],
              [
                18.73753547668457,
                43.342071533203125
              ],
              [
                18.81536025566707,
                43.287738306107826
              ],
              [
                18.817949295043945,
                43.342071533203125
              ],
              [
                18.89836311340332,
                43.342071533203125
              ],
              [
                18.89522933959961,
                43.276947021484375
              ],
              [
                18.83081726762192,
                43.276947021484375
              ],
              [
                19.203807830810547,
                43.016544342041016
              ],
              [
                19.605127334594727,
                43.016544342041016
              ],
              [
                19.521520614624023,
                42.95146560668945
              ],
              [
                19.595033645629883,
                42.82133865356445
              ],
              [
                20.236431121826172,
                42.82133865356445
              ],
              [
                20.149150848388672,
                42.691246032714844
              ],
              [
                20.309383392333984,
                42.691246032714844
              ],
              [
                20.38224983215332,
                42.56119155883789
              ],
              [
                20.626129150390625,
                42.62621307373047
              ],
              [
                20.618722915649414,
                42.496177673339844
              ],
              [
                21.07966423034668,
                42.17123794555664
              ],
              [
                22.454994201660156,
                42.43117141723633
              ],
              [
                22.441980361938477,
                42.236209869384766
              ],
              [
                22.593067169189453,
                42.10627746582031
              ],
              [
                22.752775192260742,
                42.10627746582031
              ],
              [
                23.054180145263672,
                41.84651184082031
              ],
              [
                23.44826316833496,
                41.781593322753906
              ],
              [
                23.668750762939453,
                41.521995544433594
              ],
              [
                24.718584060668945,
                41.71668243408203
              ],
              [
                25.03216552734375,
                41.65177917480469
              ],
              [
                25.201900482177734,
                41.781593322753906
              ],
              [
                26.31785011291504,
                41.781593322753906
              ],
              [
                26.82530403137207,
                42.10627746582031
              ],
              [
                27.384279251098633,
                42.10627746582031
              ],
              [
                27.46413230895996,
                42.10627746582031
              ],
              [
                27.611539840698242,
                41.97637939453125
              ],
              [
                27.93072509765625,
                41.97637939453125
              ],
              [
                27.92448616027832,
                41.911441802978516
              ],
              [
                28.004253387451172,
                41.911441802978516
              ],
              [
                28.052820205688477,
                41.586883544921875
              ],
              [
                28.21833038330078,
                41.65177917480469
              ],
              [
                28.352495193481445,
                41.39224624633789
              ],
              [
                28.975934982299805,
                41.26253128051758
              ],
              [
                29.036151885986328,
                41.06801223754883
              ],
              [
                27.527481079101562,
                41.06801223754883
              ],
              [
                27.181316375732422,
                40.74397277832031
              ],
              [
                26.779464721679688,
                40.6791877746582
              ],
              [
                26.071569442749023,
                40.74397277832031
              ],
              [
                26.082168579101562,
                40.873565673828125
              ],
              [
                25.37845802307129,
                41.00318908691406
              ],
              [
                24.34656524658203,
                41.00318908691406
              ],
              [
                24.010608673095703,
                40.74397277832031
              ],
              [
                23.698017120361328,
                40.80876541137695
              ],
              [
                23.684629440307617,
                40.614410400390625
              ],
              [
                23.83857536315918,
                40.54964065551758
              ],
              [
                23.73737335205078,
                40.225894927978516
              ],
              [
                22.959190368652344,
                40.42012023925781
              ],
              [
                22.89249038696289,
                40.614410400390625
              ],
              [
                22.57158088684082,
                40.54964065551758
              ],
              [
                22.543659210205078,
                40.0964469909668
              ],
              [
                22.701663970947266,
                40.0964469909668
              ],
              [
                22.610868453979492,
                39.90232849121094
              ],
              [
                23.135168075561523,
                39.449623107910156
              ],
              [
                22.816326141357422,
                39.38497543334961
              ],
              [
                22.797286987304688,
                39.06184005737305
              ],
              [
                22.95830535888672,
                39.1264533996582
              ],
              [
                23.492761611938477,
                38.8680305480957
              ],
              [
                23.331829071044922,
                38.80344009399414
              ],
              [
                23.025423049926758,
                38.93262481689453
              ],
              [
                22.935583114624023,
                38.738853454589844
              ],
              [
                23.16720199584961,
                38.67427444458008
              ],
              [
                23.312631607055664,
                38.48057174682617
              ],
              [
                23.626148223876953,
                38.48057174682617
              ],
              [
                23.563383102416992,
                38.738853454589844
              ],
              [
                24.030162811279297,
                38.67427444458008
              ],
              [
                24.178871154785156,
                38.54513168334961
              ],
              [
                24.158668518066406,
                38.22237777709961
              ],
              [
                23.935678482055664,
                38.416015625
              ],
              [
                23.857322692871094,
                38.416015625
              ],
              [
                23.305057525634766,
                38.351463317871094
              ],
              [
                23.36458969116211,
                38.028785705566406
              ],
              [
                23.286375045776367,
                38.028785705566406
              ],
              [
                23.20083236694336,
                37.89975357055664
              ],
              [
                23.044498443603516,
                37.89975357055664
              ],
              [
                23.037315368652344,
                37.7707405090332
              ],
              [
                23.108261108398438,
                37.641746520996094
              ],
              [
                23.342487335205078,
                37.641746520996094
              ],
              [
                23.402393341064453,
                37.3193473815918
              ],
              [
                23.168506622314453,
                37.3193473815918
              ],
              [
                23.175601959228516,
                37.44829177856445
              ],
              [
                22.94858741760254,
                37.5772590637207
              ],
              [
                22.71442985534668,
                37.5772590637207
              ],
              [
                22.700735092163086,
                37.3193473815918
              ],
              [
                22.853219985961914,
                37.254878997802734
              ],
              [
                23.056013107299805,
                36.67487716674805
              ],
              [
                22.83283233642578,
                36.8681755065918
              ],
              [
                22.59941291809082,
                36.8681755065918
              ],
              [
                22.51182746887207,
                36.67487716674805
              ],
              [
                22.35634422302246,
                36.67487716674805
              ],
              [
                22.21999168395996,
                37.06150817871094
              ],
              [
                21.90850067138672,
                37.06150817871094
              ],
              [
                21.899152755737305,
                36.8681755065918
              ],
              [
                21.743539810180664,
                36.8681755065918
              ],
              [
                21.681032180786133,
                37.1904182434082
              ],
              [
                21.60311508178711,
                37.1904182434082
              ],
              [
                21.696598052978516,
                37.51277160644531
              ],
              [
                21.243581771850586,
                37.835243225097656
              ],
              [
                21.415550231933594,
                38.157840728759766
              ],
              [
                21.728593826293945,
                38.157840728759766
              ],
              [
                21.738431930541992,
                38.351463317871094
              ],
              [
                21.19325065612793,
                38.416015625
              ],
              [
                20.973709106445312,
                38.738853454589844
              ],
              [
                20.74135398864746,
                38.80344009399414
              ],
              [
                20.91095733642578,
                39.06184005737305
              ],
              [
                20.29724884033203,
                39.38497543334961
              ],
              [
                20.15495491027832,
                39.70827102661133
              ],
              [
                19.918411254882812,
                39.70827102661133
              ],
              [
                19.912464141845703,
                39.57893371582031
              ],
              [
                19.75778579711914,
                39.64360046386719
              ],
              [
                19.76365852355957,
                39.77294921875
              ],
              [
                20.00027847290039,
                39.77294921875
              ],
              [
                20.009418487548828,
                39.9670295715332
              ],
              [
                19.62952995300293,
                40.29063034057617
              ],
              [
                19.47136878967285,
                40.29063034057617
              ],
              [
                19.48629379272461,
                40.614410400390625
              ],
              [
                19.2486515045166,
                40.614410400390625
              ],
              [
                19.254547119140625,
                40.74397277832031
              ],
              [
                19.498455047607422,
                40.873565673828125
              ],
              [
                19.437559127807617,
                41.26253128051758
              ],
              [
                19.523332595825195,
                41.39224624633789
              ],
              [
                19.443790435791016,
                41.39224624633789
              ],
              [
                19.529659271240234,
                41.521995544433594
              ],
              [
                19.450061798095703,
                41.521995544433594
              ],
              [
                19.54244041442871,
                41.781593322753906
              ],
              [
                18.85202980041504,
                42.36617660522461
              ],
              [
                18.143457412719727,
                42.62621307373047
              ],
              [
                17.991540908813477,
                42.82133865356445
              ],
              [
                17.593284606933594,
                42.88639831542969
              ],
              [
                17.50791358947754,
                42.75628662109375
              ],
              [
                17.515670776367188,
                42.95146560668945
              ],
              [
                17.35520362854004,
                42.95146560668945
              ],
              [
                17.36538314819336,
                43.211830139160156
              ],
              [
                17.12186050415039,
                43.146724700927734
              ],
              [
                17.05129051208496,
                43.407203674316406
              ],
              [
                16.727190017700195,
                43.342071533203125
              ],
              [
                16.734172821044922,
                43.53750228881836
              ],
              [
                16.575437545776367,
                43.6026611328125
              ],
              [
                15.927099227905273,
                43.472347259521484
              ],
              [
                16.01169204711914,
                43.6026611328125
              ],
              [
                15.856636047363281,
                43.79821014404297
              ],
              [
                15.695383071899414,
                43.79821014404297
              ],
              [
                15.618592262268066,
                43.92862319946289
              ],
              [
                15.374701499938965,
                43.86341094970703
              ],
              [
                15.459075927734375,
                43.99384307861328
              ],
              [
                15.218687057495117,
                44.05907440185547
              ],
              [
                15.146636962890625,
                44.38538360595703
              ],
              [
                14.908865928649902,
                44.58129119873047
              ],
              [
                14.91874885559082,
                44.973392486572266
              ],
              [
                14.515777587890625,
                45.10417556762695
              ],
              [
                14.603090286254883,
                45.36587905883789
              ],
              [
                14.196189880371094,
                45.36587905883789
              ],
              [
                14.189410209655762,
                45.03877639770508
              ],
              [
                13.945749282836914,
                45.03877639770508
              ],
              [
                13.943220138549805,
                44.908016204833984
              ],
              [
                13.780906677246094,
                44.908016204833984
              ],
              [
                13.705584526062012,
                45.23500442504883
              ],
              [
                13.544051170349121,
                45.300437927246094
              ],
              [
                13.547340393066406,
                45.496795654296875
              ],
              [
                13.710229873657227,
                45.496795654296875
              ],
              [
                13.714865684509277,
                45.75876998901367
              ],
              [
                13.144780158996582,
                45.82429504394531
              ],
              [
                13.060476303100586,
                45.62776184082031
              ],
              [
                12.816752433776855,
                45.693260192871094
              ],
              [
                12.652192115783691,
                45.56227111816406
              ],
              [
                12.162785530090332,
                45.496795654296875
              ],
              [
                12.160021781921387,
                45.169586181640625
              ],
              [
                12.40256118774414,
                45.03877639770508
              ],
              [
                12.399906158447266,
                44.77729415893555
              ],
              [
                12.157197952270508,
                44.842647552490234
              ],
              [
                12.153728485107422,
                44.45067596435547
              ],
              [
                12.312999725341797,
                44.18956756591797
              ],
              [
                12.873446464538574,
                43.79821014404297
              ],
              [
                13.035634994506836,
                43.86341094970703
              ],
              [
                13.033763885498047,
                43.73301696777344
              ],
              [
                13.355091094970703,
                43.6678352355957
              ],
              [
                13.672640800476074,
                43.407203674316406
              ],
              [
                13.747068405151367,
                43.08163070678711
              ],
              [
                13.98537540435791,
                42.95146560668945
              ],
              [
                13.901384353637695,
                42.75628662109375
              ],
              [
                14.056464195251465,
                42.496177673339844
              ],
              [
                14.370945930480957,
                42.236209869384766
              ],
              [
                14.530768394470215,
                42.236209869384766
              ],
              [
                14.607714653015137,
                42.10627746582031
              ],
              [
                14.768959999084473,
                42.17123794555664
              ],
              [
                14.765887260437012,
                42.041324615478516
              ],
              [
                14.9239501953125,
                41.97637939453125
              ],
              [
                15.165011405944824,
                42.041324615478516
              ],
              [
                15.241438865661621,
                41.911441802978516
              ],
              [
                16.11888313293457,
                41.911441802978516
              ],
              [
                16.114879608154297,
                41.781593322753906
              ],
              [
                15.87384033203125,
                41.71668243408203
              ],
              [
                15.943941116333008,
                41.39224624633789
              ],
              [
                16.732860565185547,
                41.19768524169922
              ],
              [
                17.436086654663086,
                40.873565673828125
              ],
              [
                17.510658264160156,
                40.74397277832031
              ],
              [
                17.981229782104492,
                40.614410400390625
              ],
              [
                18.364234924316406,
                40.29063034057617
              ],
              [
                18.435537338256836,
                40.0964469909668
              ],
              [
                18.356534957885742,
                40.0964469909668
              ],
              [
                18.34894371032715,
                39.90232849121094
              ],
              [
                18.11216926574707,
                39.90232849121094
              ],
              [
                17.813072204589844,
                40.355369567871094
              ],
              [
                17.41753578186035,
                40.355369567871094
              ],
              [
                17.345230102539062,
                40.54964065551758
              ],
              [
                17.02848243713379,
                40.54964065551758
              ],
              [
                16.867990493774414,
                40.4848747253418
              ],
              [
                16.945016860961914,
                40.42012023925781
              ],
              [
                16.861696243286133,
                40.29063034057617
              ],
              [
                16.624452590942383,
                40.29063034057617
              ],
              [
                16.697484970092773,
                40.0964469909668
              ],
              [
                16.45665168762207,
                39.9670295715332
              ],
              [
                16.44725799560547,
                39.64360046386719
              ],
              [
                16.916194915771484,
                39.51427459716797
              ],
              [
                17.069679260253906,
                39.38497543334961
              ],
              [
                17.138301849365234,
                39.06184005737305
              ],
              [
                16.502395629882812,
                38.80344009399414
              ],
              [
                16.491945266723633,
                38.416015625
              ],
              [
                15.932764053344727,
                37.96426773071289
              ],
              [
                15.698192596435547,
                37.96426773071289
              ],
              [
                15.62426471710205,
                38.157840728759766
              ],
              [
                15.389483451843262,
                38.157840728759766
              ],
              [
                15.066489219665527,
                37.641746520996094
              ],
              [
                15.059245109558105,
                37.254878997802734
              ],
              [
                15.213889122009277,
                37.1904182434082
              ],
              [
                15.049844741821289,
                36.73930740356445
              ],
              [
                14.661029815673828,
                36.73930740356445
              ],
              [
                14.27791690826416,
                37.12596130371094
              ],
              [
                13.578389167785645,
                37.254878997802734
              ],
              [
                13.192005157470703,
                37.5772590637207
              ],
              [
                12.490468978881836,
                37.706241607666016
              ],
              [
                12.49189567565918,
                37.89975357055664
              ],
              [
                12.649824142456055,
                38.09331130981445
              ],
              [
                13.040358543395996,
                38.028785705566406
              ],
              [
                13.119925498962402,
                38.157840728759766
              ],
              [
                13.354706764221191,
                38.157840728759766
              ],
              [
                13.665236473083496,
                37.96426773071289
              ],
              [
                14.05618953704834,
                37.96426773071289
              ],
              [
                15.862062454223633,
                38.28691864013672
              ],
              [
                15.949724197387695,
                38.67427444458008
              ],
              [
                16.265209197998047,
                38.738853454589844
              ],
              [
                16.270299911499023,
                38.93262481689453
              ],
              [
                16.116540908813477,
                39.06184005737305
              ],
              [
                15.898874282836914,
                39.77294921875
              ],
              [
                15.665508270263672,
                39.90232849121094
              ],
              [
                15.747773170471191,
                40.031734466552734
              ],
              [
                15.431868553161621,
                40.031734466552734
              ],
              [
                15.199469566345215,
                40.225894927978516
              ],
              [
                15.041359901428223,
                40.225894927978516
              ],
              [
                14.893351554870605,
                40.6791877746582
              ],
              [
                14.417906761169434,
                40.6791877746582
              ],
              [
                14.421854972839355,
                40.873565673828125
              ],
              [
                14.104567527770996,
                40.873565673828125
              ],
              [
                13.950616836547852,
                41.132843017578125
              ],
              [
                13.791753768920898,
                41.132843017578125
              ],
              [
                13.714534759521484,
                41.26253128051758
              ],
              [
                13.000019073486328,
                41.32738494873047
              ],
              [
                12.130502700805664,
                41.911441802978516
              ],
              [
                12.131669044494629,
                42.041324615478516
              ],
              [
                11.812841415405273,
                42.10627746582031
              ],
              [
                11.654799461364746,
                42.36617660522461
              ],
              [
                11.494501113891602,
                42.30118942260742
              ],
              [
                11.415224075317383,
                42.43117141723633
              ],
              [
                11.255227088928223,
                42.43117141723633
              ],
              [
                11.175962448120117,
                42.62621307373047
              ],
              [
                11.015789985656738,
                42.62621307373047
              ],
              [
                11.01634693145752,
                42.82133865356445
              ],
              [
                10.535322189331055,
                43.08163070678711
              ],
              [
                10.374164581298828,
                43.6678352355957
              ],
              [
                10.13144302368164,
                44.05907440185547
              ],
              [
                9.889463424682617,
                43.99384307861328
              ],
              [
                9.969700813293457,
                44.12431716918945
              ],
              [
                9.7273588180542,
                44.12431716918945
              ],
              [
                9.159077644348145,
                44.45067596435547
              ],
              [
                8.592522621154785,
                44.45067596435547
              ],
              [
                8.112695693969727,
                44.05907440185547
              ],
              [
                8.02596664428711,
                44.45067596435547
              ],
              [
                8.343392372131348,
                44.908016204833984
              ],
              [
                8.419122695922852,
                45.300437927246094
              ],
              [
                8.580960273742676,
                45.36587905883789
              ],
              [
                8.579230308532715,
                45.496795654296875
              ],
              [
                8.903517723083496,
                45.62776184082031
              ],
              [
                10.533697128295898,
                45.62776184082031
              ],
              [
                10.859674453735352,
                45.496795654296875
              ],
              [
                11.511229515075684,
                45.496795654296875
              ],
              [
                12.082368850708008,
                45.62776184082031
              ],
              [
                12.410323143005371,
                45.82429504394531
              ],
              [
                12.411598205566406,
                45.95537567138672
              ],
              [
                12.574941635131836,
                45.95537567138672
              ],
              [
                12.90495777130127,
                46.21768569946289
              ],
              [
                13.641183853149414,
                46.21768569946289
              ],
              [
                13.802400588989258,
                46.08650588989258
              ],
              [
                14.948372840881348,
                46.1520881652832
              ],
              [
                14.945066452026367,
                46.02093505859375
              ],
              [
                15.270102500915527,
                45.95537567138672
              ],
              [
                15.268322944641113,
                45.889827728271484
              ],
              [
                15.990674018859863,
                45.496795654296875
              ],
              [
                15.907200813293457,
                45.431331634521484
              ],
              [
                15.982434272766113,
                45.23500442504883
              ],
              [
                15.819802284240723,
                45.23500442504883
              ]
            ]
          ],
          [
            [
              [
                9.5735502243042,
                42.75628662109375
              ],
              [
                9.577608108520508,
                41.97637939453125
              ],
              [
                9.497812271118164,
                41.97637939453125
              ],
              [
                9.49889087677002,
                41.781593322753906
              ],
              [
                9.262411117553711,
                41.39224624633789
              ],
              [
                9.1038236618042,
                41.32738494873047
              ],
              [
                8.783942222595215,
                41.521995544433594
              ],
              [
                8.782108306884766,
                41.71668243408203
              ],
              [
                8.622743606567383,
                41.71668243408203
              ],
              [
                8.700496673583984,
                41.911441802978516
              ],
              [
                8.538846015930176,
                42.10627746582031
              ],
              [
                8.534564018249512,
                42.496177673339844
              ],
              [
                8.772740364074707,
                42.691246032714844
              ],
              [
                9.17282485961914,
                42.75628662109375
              ],
              [
                9.251097679138184,
                43.016544342041016
              ],
              [
                9.331360816955566,
                43.016544342041016
              ],
              [
                9.491888999938965,
                43.016544342041016
              ],
              [
                9.49340534210205,
                42.75628662109375
              ],
              [
                9.5735502243042,
                42.75628662109375
              ]
            ]
          ],
          [
            [
              [
                -1.691208958625793,
                42.236209869384766
              ],
              [
                -1.686801195144653,
                42.17123794555664
              ],
              [
                -1.766683578491211,
                42.17123794555664
              ],
              [
                -1.771120190620422,
                42.236209869384766
              ],
              [
                -1.691208958625793,
                42.236209869384766
              ]
            ]
          ],
          [
            [
              [
                10.134284973144531,
                42.88639831542969
              ],
              [
                10.214488983154297,
                42.88639831542969
              ],
              [
                10.45510196685791,
                42.88639831542969
              ],
              [
                10.455166816711426,
                42.691246032714844
              ],
              [
                10.21481990814209,
                42.691246032714844
              ],
              [
                10.134284973144531,
                42.88639831542969
              ]
            ]
          ],
          [
            [
              [
                -0.857915937900543,
                42.95146560668945
              ],
              [
                -0.938149929046631,
                42.95146560668945
              ],
              [
                -0.942404747009277,
                43.016544342041016
              ],
              [
                -0.862140953540802,
                43.016544342041016
              ],
              [
                -0.857915937900543,
                42.95146560668945
              ]
            ]
          ],
          [
            [
              [
                14.260871887207031,
                44.58129119873047
              ],
              [
                14.269240379333496,
                44.973392486572266
              ],
              [
                14.350428581237793,
                44.973392486572266
              ],
              [
                14.51131820678711,
                44.908016204833984
              ],
              [
                14.502378463745117,
                44.5159797668457
              ],
              [
                14.260871887207031,
                44.58129119873047
              ]
            ]
          ],
          [
            [
              [
                27.742563247680664,
                35.902034759521484
              ],
              [
                27.692523956298828,
                36.28839111328125
              ],
              [
                28.01713752746582,
                36.48161697387695
              ],
              [
                28.09481430053711,
                36.48161697387695
              ],
              [
                28.250165939331055,
                36.48161697387695
              ],
              [
                28.139331817626953,
                36.03080368041992
              ],
              [
                27.742563247680664,
                35.902034759521484
              ]
            ]
          ],
          [
            [
              [
                22.87404441833496,
                36.15959167480469
              ],
              [
                22.887205123901367,
                36.417205810546875
              ],
              [
                22.964859008789062,
                36.417205810546875
              ],
              [
                23.116798400878906,
                36.3527946472168
              ],
              [
                23.10675048828125,
                36.15959167480469
              ],
              [
                22.87404441833496,
                36.15959167480469
              ]
            ]
          ],
          [
            [
              [
                27.116777420043945,
                36.932613372802734
              ],
              [
                27.18541717529297,
                36.80373764038086
              ],
              [
                26.865324020385742,
                36.67487716674805
              ],
              [
                27.038949966430664,
                36.932613372802734
              ],
              [
                27.116777420043945,
                36.932613372802734
              ]
            ]
          ],
          [
            [
              [
                30.508214950561523,
                36.5460319519043
              ],
              [
                30.49193572998047,
                36.3527946472168
              ],
              [
                30.02613639831543,
                36.3527946472168
              ],
              [
                29.938032150268555,
                36.2239875793457
              ],
              [
                29.239721298217773,
                36.2239875793457
              ],
              [
                29.124916076660156,
                36.73930740356445
              ],
              [
                28.357105255126953,
                36.8681755065918
              ],
              [
                28.186922073364258,
                36.67487716674805
              ],
              [
                28.03143882751465,
                36.67487716674805
              ],
              [
                28.138330459594727,
                37.06150817871094
              ],
              [
                27.597978591918945,
                37.12596130371094
              ],
              [
                27.53919219970703,
                37.38381576538086
              ],
              [
                27.22254180908203,
                37.3193473815918
              ],
              [
                27.309988021850586,
                37.44829177856445
              ],
              [
                27.16343116760254,
                37.5772590637207
              ],
              [
                27.2558650970459,
                37.7707405090332
              ],
              [
                27.177743911743164,
                37.7707405090332
              ],
              [
                27.18254852294922,
                37.835243225097656
              ],
              [
                27.72955894470215,
                37.835243225097656
              ],
              [
                27.969045639038086,
                37.89975357055664
              ],
              [
                28.140790939331055,
                38.09331130981445
              ],
              [
                28.453739166259766,
                38.09331130981445
              ],
              [
                28.677833557128906,
                37.96426773071289
              ],
              [
                28.724483489990234,
                37.5772590637207
              ],
              [
                29.260168075561523,
                37.44829177856445
              ],
              [
                29.40015983581543,
                37.254878997802734
              ],
              [
                29.701147079467773,
                37.12596130371094
              ],
              [
                29.60201072692871,
                36.8681755065918
              ],
              [
                29.596742630004883,
                36.80373764038086
              ],
              [
                29.570659637451172,
                36.48161697387695
              ],
              [
                29.720800399780273,
                36.417205810546875
              ],
              [
                30.513673782348633,
                36.61045455932617
              ],
              [
                30.508214950561523,
                36.5460319519043
              ]
            ]
          ],
          [
            [
              [
                20.612695693969727,
                37.706241607666016
              ],
              [
                20.621307373046875,
                37.89975357055664
              ],
              [
                20.69947624206543,
                37.89975357055664
              ],
              [
                20.933977127075195,
                37.89975357055664
              ],
              [
                20.922147750854492,
                37.641746520996094
              ],
              [
                20.612695693969727,
                37.706241607666016
              ]
            ]
          ],
          [
            [
              [
                20.328466415405273,
                38.351463317871094
              ],
              [
                20.488054275512695,
                38.416015625
              ],
              [
                20.566410064697266,
                38.416015625
              ],
              [
                20.795446395874023,
                38.28691864013672
              ],
              [
                20.7864933013916,
                38.09331130981445
              ],
              [
                20.319902420043945,
                38.157840728759766
              ],
              [
                20.328466415405273,
                38.351463317871094
              ]
            ]
          ],
          [
            [
              [
                23.56732749938965,
                38.80344009399414
              ],
              [
                23.563383102416992,
                38.738853454589844
              ],
              [
                23.484909057617188,
                38.738853454589844
              ],
              [
                23.488826751708984,
                38.80344009399414
              ],
              [
                23.56732749938965,
                38.80344009399414
              ]
            ]
          ],
          [
            [
              [
                20.073074340820312,
                39.64360046386719
              ],
              [
                20.151897430419922,
                39.64360046386719
              ],
              [
                20.148855209350586,
                39.57893371582031
              ],
              [
                20.070056915283203,
                39.57893371582031
              ],
              [
                20.073074340820312,
                39.64360046386719
              ]
            ]
          ],
          [
            [
              [
                25.066978454589844,
                40.031734466552734
              ],
              [
                25.145954132080078,
                40.031734466552734
              ],
              [
                25.46186065673828,
                40.031734466552734
              ],
              [
                25.447328567504883,
                39.8376350402832
              ],
              [
                24.973936080932617,
                39.8376350402832
              ],
              [
                25.066978454589844,
                40.031734466552734
              ]
            ]
          ]
        ]
      }
    }
  ]
}
