{
  "type": "FeatureCollection",
  "features": [
    {
      "type": "Feature",
      "properties": {
        "Name": "Sasanian Empire",
        "FromYear": 617,
        "ToYear": 622,
        "Area": 4363039.028506941,
        "Type": "POLITY",
        "Wikipedia": "Sasanian Empire",
        "Wikidata": "Q1661685",
        "SeshatID": "ir_sassanid_emp_2",
        "Components": "",
        "MemberOf": "",
        "displayYear": 617,
        "sourceYear": 617,
        "mappedTerritoryId": "cliopatria_sasanian_empire"
      },
      "geometry": {
        "type": "MultiPolygon",
        "coordinates": [
          [
            [
              [
                45.21470260620117,
                15.907554626464844
              ],
              [
                45.365570068359375,
                15.971842765808105
              ],
              [
                45.579044342041016,
                15.843266487121582
              ],
              [
                46.0206184387207,
                15.843266487121582
              ],
              [
                46.17527389526367,
                15.971842765808105
              ],
              [
                46.46971130371094,
                15.971842765808105
              ],
              [
                46.55471420288086,
                16.16470718383789
              ],
              [
                46.698150634765625,
                16.100418090820312
              ],
              [
                47.670997619628906,
                16.35757064819336
              ],
              [
                49.59426498413086,
                16.486146926879883
              ],
              [
                50.11839294433594,
                16.614723205566406
              ],
              [
                50.48252487182617,
                16.550434112548828
              ],
              [
                51.080589294433594,
                16.67901039123535
              ],
              [
                51.88673400878906,
                16.614723205566406
              ],
              [
                52.380313873291016,
                16.293283462524414
              ],
              [
                52.25921630859375,
                15.586114883422852
              ],
              [
                52.10369110107422,
                15.457538604736328
              ],
              [
                51.883026123046875,
                15.457538604736328
              ],
              [
                51.27429962158203,
                15.136098861694336
              ],
              [
                50.75569152832031,
                15.07181167602539
              ],
              [
                50.22562789916992,
                14.81466007232666
              ],
              [
                49.409767150878906,
                14.686083793640137
              ],
              [
                48.7861213684082,
                14.043206214904785
              ],
              [
                47.75149917602539,
                13.914630889892578
              ],
              [
                47.668033599853516,
                13.721768379211426
              ],
              [
                46.844635009765625,
                13.40032958984375
              ],
              [
                45.74114990234375,
                13.336042404174805
              ],
              [
                45.05411911010742,
                12.757453918457031
              ],
              [
                44.614288330078125,
                12.757453918457031
              ],
              [
                44.38864517211914,
                12.628878593444824
              ],
              [
                43.438602447509766,
                12.69316577911377
              ],
              [
                43.44704818725586,
                12.886029243469238
              ],
              [
                43.23561477661133,
                13.07889175415039
              ],
              [
                43.26481628417969,
                13.721768379211426
              ],
              [
                43.056640625,
                13.97891902923584
              ],
              [
                42.95337677001953,
                14.878947257995605
              ],
              [
                42.88957214355469,
                15.07181167602539
              ],
              [
                42.74578857421875,
                15.136098861694336
              ],
              [
                42.70881652832031,
                15.843266487121582
              ],
              [
                42.78240966796875,
                15.843266487121582
              ],
              [
                42.8239860534668,
                16.614723205566406
              ],
              [
                42.476654052734375,
                17.000450134277344
              ],
              [
                42.48728942871094,
                17.193313598632812
              ],
              [
                42.63478469848633,
                17.193313598632812
              ],
              [
                43.02164077758789,
                17.514753341674805
              ],
              [
                43.03257751464844,
                17.707616806030273
              ],
              [
                43.250328063964844,
                17.643327713012695
              ],
              [
                43.552940368652344,
                17.77190399169922
              ],
              [
                43.89961624145508,
                17.38617706298828
              ],
              [
                43.81843948364258,
                17.257600784301758
              ],
              [
                43.95853805541992,
                17.129026412963867
              ],
              [
                43.94747543334961,
                16.9361629486084
              ],
              [
                44.087547302246094,
                16.807586669921875
              ],
              [
                44.312355041503906,
                16.87187385559082
              ],
              [
                44.304962158203125,
                16.743297576904297
              ],
              [
                44.81336975097656,
                16.614723205566406
              ],
              [
                44.809654235839844,
                16.550434112548828
              ],
              [
                45.22568130493164,
                16.100418090820312
              ],
              [
                45.21470260620117,
                15.907554626464844
              ]
            ]
          ],
          [
            [
              [
                46.63217544555664,
                16.228994369506836
              ],
              [
                46.705814361572266,
                16.228994369506836
              ],
              [
                46.70197677612305,
                16.16470718383789
              ],
              [
                46.62834548950195,
                16.16470718383789
              ],
              [
                46.63217544555664,
                16.228994369506836
              ]
            ]
          ],
          [
            [
              [
                50.42986297607422,
                25.936485290527344
              ],
              [
                50.460208892822266,
                26.257951736450195
              ],
              [
                50.68524169921875,
                26.257951736450195
              ],
              [
                50.672935485839844,
                26.129364013671875
              ],
              [
                50.666831970214844,
                26.06507110595703
              ],
              [
                50.64872360229492,
                25.8721923828125
              ],
              [
                50.42986297607422,
                25.936485290527344
              ]
            ]
          ],
          [
            [
              [
                42.78452682495117,
                28.636676788330078
              ],
              [
                42.86001968383789,
                28.636676788330078
              ],
              [
                42.85408401489258,
                28.572391510009766
              ],
              [
                42.77860641479492,
                28.572391510009766
              ],
              [
                42.78452682495117,
                28.636676788330078
              ]
            ]
          ],
          [
            [
              [
                41.90779113769531,
                28.958093643188477
              ],
              [
                41.98335266113281,
                28.958093643188477
              ],
              [
                41.977455139160156,
                28.893810272216797
              ],
              [
                41.90190505981445,
                28.893810272216797
              ],
              [
                41.90779113769531,
                28.958093643188477
              ]
            ]
          ],
          [
            [
              [
                41.762550354003906,
                29.022375106811523
              ],
              [
                41.83812713623047,
                29.022375106811523
              ],
              [
                41.83222961425781,
                28.958093643188477
              ],
              [
                41.75666809082031,
                28.958093643188477
              ],
              [
                41.762550354003906,
                29.022375106811523
              ]
            ]
          ],
          [
            [
              [
                37.547245025634766,
                31.014846801757812
              ],
              [
                37.6233024597168,
                31.014846801757812
              ],
              [
                37.61750793457031,
                30.950578689575195
              ],
              [
                37.54146957397461,
                30.950578689575195
              ],
              [
                37.547245025634766,
                31.014846801757812
              ]
            ]
          ],
          [
            [
              [
                44.744632720947266,
                42.691246032714844
              ],
              [
                45.157962799072266,
                42.75628662109375
              ],
              [
                45.44002914428711,
                42.56119155883789
              ],
              [
                45.68020248413086,
                42.56119155883789
              ],
              [
                45.68342208862305,
                42.17123794555664
              ],
              [
                46.229713439941406,
                42.10627746582031
              ],
              [
                46.43056869506836,
                41.911441802978516
              ],
              [
                46.81643295288086,
                41.84651184082031
              ],
              [
                47.496280670166016,
                41.26253128051758
              ],
              [
                47.98626708984375,
                41.32738494873047
              ],
              [
                48.1719970703125,
                41.84651184082031
              ],
              [
                48.09225845336914,
                41.84651184082031
              ],
              [
                48.1191520690918,
                41.97637939453125
              ],
              [
                48.55713653564453,
                41.781593322753906
              ],
              [
                49.08600997924805,
                41.26253128051758
              ],
              [
                49.059226989746094,
                41.132843017578125
              ],
              [
                49.270748138427734,
                41.00318908691406
              ],
              [
                49.2441520690918,
                40.873565673828125
              ],
              [
                49.50836181640625,
                40.614410400390625
              ],
              [
                50.04951477050781,
                40.54964065551758
              ],
              [
                50.2603759765625,
                40.42012023925781
              ],
              [
                49.6933479309082,
                40.355369567871094
              ],
              [
                49.50919723510742,
                40.225894927978516
              ],
              [
                49.26664352416992,
                39.38497543334961
              ],
              [
                49.151405334472656,
                39.19107437133789
              ],
              [
                48.91546630859375,
                39.19107437133789
              ],
              [
                48.801002502441406,
                38.997230529785156
              ],
              [
                48.76274490356445,
                38.351463317871094
              ],
              [
                48.8410758972168,
                38.351463317871094
              ],
              [
                48.88429260253906,
                37.706241607666016
              ],
              [
                49.08510208129883,
                37.51277160644531
              ],
              [
                49.998783111572266,
                37.38381576538086
              ],
              [
                50.320892333984375,
                36.9970588684082
              ],
              [
                50.56571960449219,
                37.06150817871094
              ],
              [
                50.632293701171875,
                36.9970588684082
              ],
              [
                50.53199768066406,
                36.8681755065918
              ],
              [
                50.82074737548828,
                36.73930740356445
              ],
              [
                51.6419677734375,
                36.5460319519043
              ],
              [
                52.58595275878906,
                36.61045455932617
              ],
              [
                53.488651275634766,
                36.8681755065918
              ],
              [
                54.033294677734375,
                36.8681755065918
              ],
              [
                54.09466552734375,
                37.1904182434082
              ],
              [
                53.91046905517578,
                37.44829177856445
              ],
              [
                53.90790557861328,
                37.835243225097656
              ],
              [
                53.82976150512695,
                37.835243225097656
              ],
              [
                53.98678207397461,
                38.997230529785156
              ],
              [
                53.5175895690918,
                39.38497543334961
              ],
              [
                53.13750457763672,
                39.449623107910156
              ],
              [
                53.54492950439453,
                39.51427459716797
              ],
              [
                53.498451232910156,
                40.031734466552734
              ],
              [
                52.72255325317383,
                40.0964469909668
              ],
              [
                52.71352767944336,
                40.42012023925781
              ],
              [
                52.792659759521484,
                40.42012023925781
              ],
              [
                52.89295959472656,
                40.873565673828125
              ],
              [
                52.97228240966797,
                40.873565673828125
              ],
              [
                52.943321228027344,
                40.74397277832031
              ],
              [
                53.33966064453125,
                40.74397277832031
              ],
              [
                53.448211669921875,
                40.873565673828125
              ],
              [
                53.40435791015625,
                40.6791877746582
              ],
              [
                54.543670654296875,
                40.80876541137695
              ],
              [
                56.6547966003418,
                40.355369567871094
              ],
              [
                56.98675537109375,
                40.42012023925781
              ],
              [
                56.955753326416016,
                40.29063034057617
              ],
              [
                57.113914489746094,
                40.29063034057617
              ],
              [
                57.16206359863281,
                40.16116714477539
              ],
              [
                57.351158142089844,
                40.29063034057617
              ],
              [
                58.33203125,
                40.42012023925781
              ],
              [
                58.53737258911133,
                40.29063034057617
              ],
              [
                58.85369873046875,
                40.29063034057617
              ],
              [
                58.97971725463867,
                40.16116714477539
              ],
              [
                59.77000427246094,
                40.16116714477539
              ],
              [
                59.768306732177734,
                39.8376350402832
              ],
              [
                60.08390426635742,
                39.8376350402832
              ],
              [
                60.05183792114258,
                39.70827102661133
              ],
              [
                60.6826171875,
                39.70827102661133
              ],
              [
                60.713134765625,
                39.51427459716797
              ],
              [
                62.4057731628418,
                39.9670295715332
              ],
              [
                62.48472595214844,
                39.9670295715332
              ],
              [
                62.687564849853516,
                39.8376350402832
              ],
              [
                62.65380859375,
                39.70827102661133
              ],
              [
                63.088340759277344,
                39.25570297241211
              ],
              [
                63.24568557739258,
                39.25570297241211
              ],
              [
                63.41547393798828,
                38.997230529785156
              ],
              [
                63.5726203918457,
                38.997230529785156
              ],
              [
                63.6804313659668,
                38.80344009399414
              ],
              [
                63.837432861328125,
                38.80344009399414
              ],
              [
                64.00749206542969,
                38.54513168334961
              ],
              [
                64.36690521240234,
                38.416015625
              ],
              [
                64.7397232055664,
                38.028785705566406
              ],
              [
                64.81587219238281,
                37.38381576538086
              ],
              [
                64.94068908691406,
                37.254878997802734
              ],
              [
                64.76129913330078,
                36.15959167480469
              ],
              [
                64.8388671875,
                36.15959167480469
              ],
              [
                64.81400299072266,
                35.708900451660156
              ],
              [
                64.90284729003906,
                35.065311431884766
              ],
              [
                65.16920471191406,
                34.87228775024414
              ],
              [
                65.14105987548828,
                34.743614196777344
              ],
              [
                65.45645904541016,
                34.42197799682617
              ],
              [
                65.75053405761719,
                34.3576545715332
              ],
              [
                65.86265563964844,
                34.164703369140625
              ],
              [
                66.01653289794922,
                34.164703369140625
              ],
              [
                66.2547378540039,
                33.84315490722656
              ],
              [
                66.40841674804688,
                33.84315490722656
              ],
              [
                66.52063751220703,
                33.65024948120117
              ],
              [
                66.8769302368164,
                33.52165222167969
              ],
              [
                66.98918914794922,
                33.32876968383789
              ],
              [
                67.2192611694336,
                33.32876968383789
              ],
              [
                67.1918716430664,
                33.20018768310547
              ],
              [
                67.42183685302734,
                33.20018768310547
              ],
              [
                68.11945343017578,
                32.878753662109375
              ],
              [
                68.09220123291016,
                32.75019073486328
              ],
              [
                68.01567840576172,
                32.75019073486328
              ],
              [
                67.7955322265625,
                32.428794860839844
              ],
              [
                67.42561340332031,
                30.950578689575195
              ],
              [
                67.34957885742188,
                30.950578689575195
              ],
              [
                66.55387878417969,
                28.572391510009766
              ],
              [
                66.47840118408203,
                28.572391510009766
              ],
              [
                66.39766693115234,
                26.515121459960938
              ],
              [
                65.79692077636719,
                25.357851028442383
              ],
              [
                64.8160629272461,
                25.29355812072754
              ],
              [
                64.80064392089844,
                25.164974212646484
              ],
              [
                64.2845230102539,
                25.229267120361328
              ],
              [
                64.22502136230469,
                25.357851028442383
              ],
              [
                63.62620544433594,
                25.357851028442383
              ],
              [
                63.536216735839844,
                25.229267120361328
              ],
              [
                62.563419342041016,
                25.229267120361328
              ],
              [
                62.47393035888672,
                25.100683212280273
              ],
              [
                62.18195724487305,
                25.164974212646484
              ],
              [
                62.01787185668945,
                25.03639030456543
              ],
              [
                61.71868133544922,
                25.03639030456543
              ],
              [
                61.65822219848633,
                25.164974212646484
              ],
              [
                61.12736892700195,
                25.100683212280273
              ],
              [
                60.91714859008789,
                25.229267120361328
              ],
              [
                60.617828369140625,
                25.229267120361328
              ],
              [
                60.63211441040039,
                25.357851028442383
              ],
              [
                59.060218811035156,
                25.357851028442383
              ],
              [
                58.78172302246094,
                25.55072784423828
              ],
              [
                57.957984924316406,
                25.55072784423828
              ],
              [
                57.7402229309082,
                25.615020751953125
              ],
              [
                57.67921447753906,
                25.743606567382812
              ],
              [
                57.37953567504883,
                25.743606567382812
              ],
              [
                57.175662994384766,
                25.936485290527344
              ],
              [
                57.05242156982422,
                26.836584091186523
              ],
              [
                56.714656829833984,
                27.158044815063477
              ],
              [
                56.188377380371094,
                27.158044815063477
              ],
              [
                56.098140716552734,
                27.029460906982422
              ],
              [
                56.32361602783203,
                27.029460906982422
              ],
              [
                56.30864334106445,
                26.900876998901367
              ],
              [
                56.06119155883789,
                26.70800018310547
              ],
              [
                55.28888702392578,
                26.515121459960938
              ],
              [
                55.31023025512695,
                26.70800018310547
              ],
              [
                55.542747497558594,
                26.772293090820312
              ],
              [
                55.242313385009766,
                26.772293090820312
              ],
              [
                54.9886474609375,
                26.515121459960938
              ],
              [
                54.68146514892578,
                26.450830459594727
              ],
              [
                54.25889205932617,
                26.70800018310547
              ],
              [
                53.65812301635742,
                26.70800018310547
              ],
              [
                53.46059036254883,
                26.96516990661621
              ],
              [
                52.736968994140625,
                27.222335815429688
              ],
              [
                52.478694915771484,
                27.608078002929688
              ],
              [
                52.04855728149414,
                27.800947189331055
              ],
              [
                51.45318603515625,
                27.865236282348633
              ],
              [
                51.06624984741211,
                28.44382095336914
              ],
              [
                51.028076171875,
                28.765243530273438
              ],
              [
                50.80903244018555,
                28.829526901245117
              ],
              [
                50.9150390625,
                29.08665657043457
              ],
              [
                50.620323181152344,
                29.150936126708984
              ],
              [
                50.65126037597656,
                29.40805435180664
              ],
              [
                50.23628234863281,
                29.729440689086914
              ],
              [
                50.0648078918457,
                30.179353713989258
              ],
              [
                49.585899353027344,
                29.986536026000977
              ],
              [
                48.942848205566406,
                30.307893753051758
              ],
              [
                48.987266540527344,
                30.050809860229492
              ],
              [
                48.903682708740234,
                29.986536026000977
              ],
              [
                48.36544418334961,
                29.922264099121094
              ],
              [
                48.40353012084961,
                29.600887298583984
              ],
              [
                47.8662223815918,
                29.536611557006836
              ],
              [
                47.85165023803711,
                29.40805435180664
              ],
              [
                48.078643798828125,
                29.40805435180664
              ],
              [
                48.21538543701172,
                29.279497146606445
              ],
              [
                48.19374465942383,
                29.08665657043457
              ],
              [
                48.460411071777344,
                28.765243530273438
              ],
              [
                48.562652587890625,
                28.315250396728516
              ],
              [
                48.974143981933594,
                27.92952537536621
              ],
              [
                48.87215805053711,
                27.6723690032959
              ],
              [
                49.241947174072266,
                27.608078002929688
              ],
              [
                49.35963439941406,
                27.2866268157959
              ],
              [
                50.13496398925781,
                26.772293090820312
              ],
              [
                50.11603546142578,
                26.57941436767578
              ],
              [
                50.2536735534668,
                26.450830459594727
              ],
              [
                50.22300720214844,
                26.129364013671875
              ],
              [
                50.067020416259766,
                26.06507110595703
              ],
              [
                50.21097183227539,
                26.000778198242188
              ],
              [
                50.325462341308594,
                25.615020751953125
              ],
              [
                50.60764694213867,
                25.422143936157227
              ],
              [
                50.654117584228516,
                25.100683212280273
              ],
              [
                50.72892761230469,
                25.100683212280273
              ],
              [
                50.768985748291016,
                25.55072784423828
              ],
              [
                50.92463302612305,
                25.615020751953125
              ],
              [
                50.95453643798828,
                25.936485290527344
              ],
              [
                51.12286376953125,
                26.129364013671875
              ],
              [
                51.42281723022461,
                26.129364013671875
              ],
              [
                51.697906494140625,
                25.8721923828125
              ],
              [
                51.574989318847656,
                25.357851028442383
              ],
              [
                51.71883010864258,
                25.29355812072754
              ],
              [
                51.69002151489258,
                24.97209930419922
              ],
              [
                51.52363204956055,
                24.779226303100586
              ],
              [
                51.41082000732422,
                24.329193115234375
              ],
              [
                51.85354995727539,
                24.264904022216797
              ],
              [
                51.90695571899414,
                24.00774574279785
              ],
              [
                52.28013229370117,
                24.00774574279785
              ],
              [
                52.60029602050781,
                24.264904022216797
              ],
              [
                53.11201095581055,
                24.136323928833008
              ],
              [
                54.082523345947266,
                24.136323928833008
              ],
              [
                54.099464416503906,
                24.329193115234375
              ],
              [
                54.31781005859375,
                24.264904022216797
              ],
              [
                54.55914306640625,
                24.457773208618164
              ],
              [
                54.74416732788086,
                24.843517303466797
              ],
              [
                55.14265441894531,
                25.100683212280273
              ],
              [
                55.41188049316406,
                25.55072784423828
              ],
              [
                55.9695930480957,
                25.8721923828125
              ],
              [
                56.16815948486328,
                26.32224464416504
              ],
              [
                56.47541046142578,
                26.386537551879883
              ],
              [
                56.543277740478516,
                26.32224464416504
              ],
              [
                56.38539123535156,
                25.55072784423828
              ],
              [
                56.46027374267578,
                25.55072784423828
              ],
              [
                56.42084503173828,
                25.164974212646484
              ],
              [
                56.495662689208984,
                25.164974212646484
              ],
              [
                56.401641845703125,
                24.97209930419922
              ],
              [
                56.54487228393555,
                24.907808303833008
              ],
              [
                56.78811264038086,
                24.329193115234375
              ],
              [
                57.49265670776367,
                23.879167556762695
              ],
              [
                58.811527252197266,
                23.622013092041016
              ],
              [
                59.08000183105469,
                23.30057144165039
              ],
              [
                59.0682487487793,
                23.171995162963867
              ],
              [
                59.280067443847656,
                23.043420791625977
              ],
              [
                59.2684440612793,
                22.914846420288086
              ],
              [
                58.89606857299805,
                22.914846420288086
              ],
              [
                58.90760040283203,
                23.043420791625977
              ],
              [
                58.60962677001953,
                23.043420791625977
              ],
              [
                58.33469772338867,
                23.30057144165039
              ],
              [
                57.9620475769043,
                23.30057144165039
              ],
              [
                57.9736213684082,
                23.429147720336914
              ],
              [
                57.83032989501953,
                23.493436813354492
              ],
              [
                56.809471130371094,
                23.75058937072754
              ],
              [
                56.82111358642578,
                23.879167556762695
              ],
              [
                56.54021453857422,
                24.07203483581543
              ],
              [
                56.48937225341797,
                24.329193115234375
              ],
              [
                56.27132034301758,
                24.393482208251953
              ],
              [
                56.28951644897461,
                24.586353302001953
              ],
              [
                56.0899658203125,
                24.843517303466797
              ],
              [
                55.8594856262207,
                24.779226303100586
              ],
              [
                55.84116744995117,
                24.586353302001953
              ],
              [
                55.62303161621094,
                24.650644302368164
              ],
              [
                54.812095642089844,
                23.943456649780273
              ],
              [
                54.273193359375,
                23.75058937072754
              ],
              [
                51.88096237182617,
                23.68630027770996
              ],
              [
                51.82186508178711,
                23.879167556762695
              ],
              [
                51.1657829284668,
                24.07203483581543
              ],
              [
                50.61040496826172,
                24.586353302001953
              ],
              [
                50.16416549682617,
                25.48643684387207
              ],
              [
                50.0201301574707,
                25.55072784423828
              ],
              [
                50.031654357910156,
                25.67931365966797
              ],
              [
                49.674476623535156,
                25.8721923828125
              ],
              [
                49.50320053100586,
                26.450830459594727
              ],
              [
                49.296390533447266,
                26.643707275390625
              ],
              [
                49.14622497558594,
                26.643707275390625
              ],
              [
                48.87672805786133,
                26.96516990661621
              ],
              [
                46.845680236816406,
                27.736658096313477
              ],
              [
                46.243282318115234,
                27.736658096313477
              ],
              [
                45.43318176269531,
                27.92952537536621
              ],
              [
                45.12578201293945,
                27.865236282348633
              ],
              [
                45.13789367675781,
                27.993812561035156
              ],
              [
                44.91789245605469,
                28.058101654052734
              ],
              [
                44.0313606262207,
                28.25096321105957
              ],
              [
                43.7991943359375,
                28.186676025390625
              ],
              [
                43.73569107055664,
                28.315250396728516
              ],
              [
                43.43993377685547,
                28.379535675048828
              ],
              [
                43.28316116333008,
                28.315250396728516
              ],
              [
                43.225494384765625,
                28.508106231689453
              ],
              [
                42.993202209472656,
                28.44382095336914
              ],
              [
                43.08051681518555,
                28.572391510009766
              ],
              [
                42.929561614990234,
                28.572391510009766
              ],
              [
                42.8659782409668,
                28.700960159301758
              ],
              [
                42.70903396606445,
                28.636676788330078
              ],
              [
                42.424781799316406,
                28.829526901245117
              ],
              [
                42.19818115234375,
                28.829526901245117
              ],
              [
                42.13447952270508,
                28.958093643188477
              ],
              [
                41.83812713623047,
                29.022375106811523
              ],
              [
                41.7744026184082,
                29.150936126708984
              ],
              [
                41.26877975463867,
                29.40805435180664
              ],
              [
                41.111534118652344,
                29.34377670288086
              ],
              [
                41.05964660644531,
                29.600887298583984
              ],
              [
                40.332088470458984,
                29.922264099121094
              ],
              [
                40.05280685424805,
                30.179353713989258
              ],
              [
                39.463809967041016,
                30.372163772583008
              ],
              [
                39.39986801147461,
                30.500701904296875
              ],
              [
                38.4480094909668,
                30.886310577392578
              ],
              [
                37.62911605834961,
                31.079113006591797
              ],
              [
                37.471187591552734,
                31.014846801757812
              ],
              [
                37.40668487548828,
                31.143381118774414
              ],
              [
                36.49920654296875,
                31.20764923095703
              ],
              [
                36.58663558959961,
                31.336183547973633
              ],
              [
                36.43435287475586,
                31.336183547973633
              ],
              [
                36.358211517333984,
                31.336183547973633
              ],
              [
                35.76012420654297,
                31.464719772338867
              ],
              [
                35.303077697753906,
                31.464719772338867
              ],
              [
                35.063819885253906,
                31.336183547973633
              ],
              [
                34.791290283203125,
                31.7217960357666
              ],
              [
                34.56792068481445,
                31.78606605529785
              ],
              [
                34.57329559326172,
                31.8503360748291
              ],
              [
                34.81304168701172,
                31.978878021240234
              ],
              [
                34.76983642578125,
                32.36451721191406
              ],
              [
                35.021759033203125,
                32.62162780761719
              ],
              [
                35.05632781982422,
                33.00732421875
              ],
              [
                35.21538543701172,
                33.07160949707031
              ],
              [
                35.39840316772461,
                33.393062591552734
              ],
              [
                35.34577560424805,
                33.65024948120117
              ],
              [
                35.49934768676758,
                33.65024948120117
              ],
              [
                35.4470100402832,
                33.90746307373047
              ],
              [
                35.68381118774414,
                33.971771240234375
              ],
              [
                35.64447784423828,
                34.3576545715332
              ],
              [
                35.79212951660156,
                34.2933349609375
              ],
              [
                36.048770904541016,
                34.55062484741211
              ],
              [
                36.0682373046875,
                34.743614196777344
              ],
              [
                35.92698669433594,
                34.87228775024414
              ],
              [
                35.959747314453125,
                35.194007873535156
              ],
              [
                35.88248825073242,
                35.194007873535156
              ],
              [
                35.99294662475586,
                35.51579284667969
              ],
              [
                35.84488296508789,
                35.58015823364258
              ],
              [
                35.990074157714844,
                36.2239875793457
              ],
              [
                35.84174346923828,
                36.28839111328125
              ],
              [
                36.26490020751953,
                36.61045455932617
              ],
              [
                36.28622817993164,
                36.80373764038086
              ],
              [
                36.144901275634766,
                36.932613372802734
              ],
              [
                35.833587646484375,
                36.932613372802734
              ],
              [
                35.487709045410156,
                36.61045455932617
              ],
              [
                35.332271575927734,
                36.61045455932617
              ],
              [
                35.11265563964844,
                36.73930740356445
              ],
              [
                34.95038986206055,
                36.67487716674805
              ],
              [
                34.81505584716797,
                36.8681755065918
              ],
              [
                34.737247467041016,
                36.8681755065918
              ],
              [
                34.9547004699707,
                37.44829177856445
              ],
              [
                35.39495086669922,
                37.89975357055664
              ],
              [
                35.36808395385742,
                38.351463317871094
              ],
              [
                35.211421966552734,
                38.351463317871094
              ],
              [
                35.14784622192383,
                38.48057174682617
              ],
              [
                34.44243621826172,
                38.48057174682617
              ],
              [
                34.378440856933594,
                38.60969924926758
              ],
              [
                33.98630905151367,
                38.60969924926758
              ],
              [
                33.6866569519043,
                38.738853454589844
              ],
              [
                31.659210205078125,
                38.8680305480957
              ],
              [
                31.593637466430664,
                38.997230529785156
              ],
              [
                30.228574752807617,
                39.51427459716797
              ],
              [
                29.944561004638672,
                39.8376350402832
              ],
              [
                29.786762237548828,
                39.8376350402832
              ],
              [
                29.495864868164062,
                40.0964469909668
              ],
              [
                29.435571670532227,
                40.29063034057617
              ],
              [
                29.052499771118164,
                40.42012023925781
              ],
              [
                28.973365783691406,
                40.42012023925781
              ],
              [
                28.91274642944336,
                40.614410400390625
              ],
              [
                29.480079650878906,
                40.74397277832031
              ],
              [
                29.493009567260742,
                40.873565673828125
              ],
              [
                29.24864959716797,
                40.80876541137695
              ],
              [
                29.10276222229004,
                40.93837356567383
              ],
              [
                29.042552947998047,
                41.132843017578125
              ],
              [
                29.20789337158203,
                41.19768524169922
              ],
              [
                30.47923469543457,
                41.19768524169922
              ],
              [
                30.62422752380371,
                41.06801223754883
              ],
              [
                31.100648880004883,
                41.06801223754883
              ],
              [
                31.1800537109375,
                41.06801223754883
              ],
              [
                31.670995712280273,
                40.4848747253418
              ],
              [
                32.72768020629883,
                40.031734466552734
              ],
              [
                34.678489685058594,
                39.8376350402832
              ],
              [
                35.750614166259766,
                39.57893371582031
              ],
              [
                36.92414855957031,
                39.51427459716797
              ],
              [
                38.15900421142578,
                39.90232849121094
              ],
              [
                39.263946533203125,
                39.90232849121094
              ],
              [
                40.39818572998047,
                40.0964469909668
              ],
              [
                40.9532585144043,
                40.614410400390625
              ],
              [
                41.44950485229492,
                40.74397277832031
              ],
              [
                41.487789154052734,
                41.45711898803711
              ],
              [
                41.567359924316406,
                41.45711898803711
              ],
              [
                41.81525421142578,
                41.97637939453125
              ],
              [
                41.73545837402344,
                41.97637939453125
              ],
              [
                41.75791549682617,
                42.10627746582031
              ],
              [
                41.598209381103516,
                42.10627746582031
              ],
              [
                41.700584411621094,
                42.236209869384766
              ],
              [
                41.48331832885742,
                42.36617660522461
              ],
              [
                41.608699798583984,
                42.62621307373047
              ],
              [
                41.11582565307617,
                43.016544342041016
              ],
              [
                40.81732177734375,
                43.146724700927734
              ],
              [
                40.41570281982422,
                43.146724700927734
              ],
              [
                40.219173431396484,
                43.407203674316406
              ],
              [
                39.988922119140625,
                43.472347259521484
              ],
              [
                40.17222213745117,
                43.6026611328125
              ],
              [
                40.735965728759766,
                43.6026611328125
              ],
              [
                41.6438102722168,
                43.276947021484375
              ],
              [
                42.52803039550781,
                43.276947021484375
              ],
              [
                42.91782760620117,
                43.211830139160156
              ],
              [
                43.05425262451172,
                43.08163070678711
              ],
              [
                43.13454818725586,
                43.08163070678711
              ],
              [
                43.73988342285156,
                42.88639831542969
              ],
              [
                43.78324508666992,
                42.691246032714844
              ],
              [
                44.689697265625,
                42.82133865356445
              ],
              [
                44.744632720947266,
                42.691246032714844
              ]
            ]
          ]
        ]
      }
    }
  ]
}
