{"type": "FeatureCollection", "features": [{"type": "Feature", "properties": {"name": "Kingdom of Italy", "displayYear": 600, "fromYear": 587, "toYear": 601, "wikipedia": "Kingdom of Italy", "seshatId": "", "areaKm2": 147748.10319437154, "source": "Seshat Cliopatria"}, "geometry": {"type": "MultiPolygon", "coordinates": [[[[16.784677505493164, 40.355369567871094], [16.863784790039062, 40.355369567871094], [16.861696243286133, 40.29063034057617], [16.782615661621094, 40.29063034057617], [16.784677505493164, 40.355369567871094]]], [[[14.292407989501953, 42.30118942260742], [14.293784141540527, 42.36617660522461], [14.213814735412598, 42.36617660522461], [14.215165138244629, 42.43117141723633], [14.135167121887207, 42.43117141723633], [14.136491775512695, 42.496177673339844], [14.056464195251465, 42.496177673339844], [13.816381454467773, 42.496177673339844], [13.818805694580078, 42.62621307373047], [13.6597900390625, 42.691246032714844], [13.588763236999512, 43.211830139160156], [13.112428665161133, 43.6026611328125], [12.709753036499023, 43.6026611328125], [12.5471773147583, 43.472347259521484], [12.54491901397705, 43.276947021484375], [12.382767677307129, 43.146724700927734], [12.535941123962402, 42.496177673339844], [13.00974178314209, 42.041324615478516], [13.328027725219727, 41.97637939453125], [13.40574836730957, 41.84651184082031], [13.804443359375, 41.84651184082031], [13.96146297454834, 41.71668243408203], [14.03740406036377, 41.521995544433594], [13.792884826660156, 41.19768524169922], [13.791753768920898, 41.132843017578125], [13.871185302734375, 41.132843017578125], [13.950616836547852, 41.132843017578125], [13.949435234069824, 41.06801223754883], [13.948259353637695, 41.00318908691406], [14.02763557434082, 41.00318908691406], [14.503893852233887, 41.00318908691406], [14.579122543334961, 40.80876541137695], [14.97559642791748, 40.80876541137695], [15.202528953552246, 40.355369567871094], [15.986464500427246, 40.0964469909668], [15.977746963500977, 39.77294921875], [15.976031303405762, 39.70827102661133], [16.44911766052246, 39.70827102661133], [16.450986862182617, 39.77294921875], [16.45665168762207, 39.9670295715332], [16.697484970092773, 40.0964469909668], [16.624452590942383, 40.29063034057617], [16.705570220947266, 40.355369567871094], [16.784677505493164, 40.355369567871094], [16.79092025756836, 40.54964065551758], [16.482196807861328, 40.80876541137695], [16.244312286376953, 40.80876541137695], [16.248212814331055, 40.93837356567383], [16.091421127319336, 41.00318908691406], [16.093338012695312, 41.06801223754883], [16.254121780395508, 41.132843017578125], [16.260101318359375, 41.32738494873047], [15.707134246826172, 41.45711898803711], [15.631166458129883, 41.586883544921875], [15.632976531982422, 41.65177917480469], [15.716325759887695, 41.781593322753906], [15.953522682189941, 41.71668243408203], [16.033205032348633, 41.71668243408203], [16.11888313293457, 41.911441802978516], [15.241438865661621, 41.911441802978516], [15.165011405944824, 42.041324615478516], [15.00374698638916, 41.97637939453125], [14.9239501953125, 41.97637939453125], [14.604765892028809, 41.97637939453125], [14.529313087463379, 42.17123794555664], [14.530768394470215, 42.236209869384766], [14.450857162475586, 42.236209869384766], [14.370945930480957, 42.236209869384766], [14.372347831726074, 42.30118942260742], [14.292407989501953, 42.30118942260742]]], [[[9.969943046569824, 44.05907440185547], [10.13144302368164, 44.05907440185547], [10.293281555175781, 43.86341094970703], [10.535322189331055, 43.08163070678711], [11.01634693145752, 42.82133865356445], [11.015789985656738, 42.62621307373047], [11.175962448120117, 42.62621307373047], [11.255227088928223, 42.43117141723633], [11.494861602783203, 42.36617660522461], [11.574831008911133, 42.36617660522461], [11.978443145751953, 42.82133865356445], [11.5795316696167, 43.146724700927734], [11.662796974182129, 43.6026611328125], [11.260910987854004, 43.79821014404297], [11.261941909790039, 44.05907440185547], [10.454326629638672, 44.18956756591797], [9.968442916870117, 44.45067596435547], [9.644696235656738, 44.45067596435547], [9.64546012878418, 44.32010269165039], [9.969700813293457, 44.12431716918945], [9.969943046569824, 44.05907440185547]]], [[[14.128024101257324, 46.02093505859375], [14.042449951171875, 45.82429504394531], [13.635544776916504, 45.889827728271484], [13.633292198181152, 45.75876998901367], [13.551718711853027, 45.75876998901367], [13.144780158996582, 45.82429504394531], [13.14291763305664, 45.693260192871094], [13.061376571655273, 45.693260192871094], [12.982433319091797, 45.889827728271484], [12.083389282226562, 45.75876998901367], [11.755949020385742, 45.56227111816406], [11.67304515838623, 45.300437927246094], [11.347417831420898, 45.23500442504883], [11.265475273132324, 45.03877639770508], [11.102883338928223, 44.973392486572266], [10.128390312194824, 45.03877639770508], [9.965350151062012, 45.169586181640625], [9.31507682800293, 45.169586181640625], [9.23611831665039, 44.908016204833984], [9.562063217163086, 44.71194839477539], [9.48237419128418, 44.5159797668457], [8.75218677520752, 44.64661407470703], [8.429792404174805, 44.5159797668457], [8.185933113098145, 44.58129119873047], [8.030961036682129, 44.12431716918945], [7.707837581634521, 44.12431716918945], [7.629331111907959, 43.99384307861328], [7.227019786834717, 43.92862319946289], [7.139705181121826, 44.25482940673828], [6.895741939544678, 44.32010269165039], [6.965181350708008, 44.842647552490234], [6.637507915496826, 44.973392486572266], [6.713985443115234, 45.169586181640625], [7.117553234100342, 45.300437927246094], [7.113230228424072, 45.496795654296875], [6.782690525054932, 45.693260192871094], [6.779487133026123, 45.82429504394531], [6.939604759216309, 45.95537567138672], [7.837991714477539, 45.95537567138672], [8.243240356445312, 46.1520881652832], [9.142709732055664, 46.1520881652832], [9.385076522827148, 46.480194091796875], [9.549999237060547, 46.348915100097656], [10.041536331176758, 46.283294677734375], [10.122788429260254, 46.414546966552734], [10.040886878967285, 46.414546966552734], [10.039896965026855, 46.61152267456055], [10.367905616760254, 46.61152267456055], [10.532299041748047, 46.414546966552734], [11.515124320983887, 46.414546966552734], [11.925070762634277, 46.480194091796875], [12.09045124053955, 46.677207946777344], [13.72764778137207, 46.480194091796875], [13.725314140319824, 46.348915100097656], [14.128024101257324, 46.02093505859375]]]]}}]}