{
  "type": "FeatureCollection",
  "features": [
    {
      "type": "Feature",
      "properties": {
        "Name": "Dzungar Khanate",
        "FromYear": 1687,
        "ToYear": 1690,
        "Area": 3653443.308920744,
        "Type": "POLITY",
        "Wikipedia": "Dzungar Khanate",
        "Wikidata": "Q1923401",
        "SeshatID": "mn_zungharian_emp",
        "Components": "",
        "MemberOf": "",
        "displayYear": 1689,
        "sourceYear": 1689,
        "mappedTerritoryId": "cliopatria_dzungar_khanate"
      },
      "geometry": {
        "type": "Polygon",
        "coordinates": [
          [
            [
              108.28913879394531,
              43.146724700927734
            ],
            [
              108.16494750976562,
              43.211830139160156
            ],
            [
              108.27482604980469,
              43.407203674316406
            ],
            [
              108.19438171386719,
              43.407203674316406
            ],
            [
              108.29208374023438,
              43.86341094970703
            ],
            [
              108.12450408935547,
              43.99384307861328
            ],
            [
              108.15005493164062,
              44.32010269165039
            ],
            [
              107.9825439453125,
              44.45067596435547
            ],
            [
              108.09571838378906,
              44.64661407470703
            ],
            [
              108.00932312011719,
              44.77729415893555
            ],
            [
              108.24264526367188,
              45.03877639770508
            ],
            [
              108.16142272949219,
              45.03877639770508
            ],
            [
              108.31011199951172,
              45.431331634521484
            ],
            [
              108.59300231933594,
              45.496795654296875
            ],
            [
              108.90814208984375,
              45.889827728271484
            ],
            [
              108.73845672607422,
              46.1520881652832
            ],
            [
              108.8147964477539,
              46.414546966552734
            ],
            [
              108.73289489746094,
              46.414546966552734
            ],
            [
              108.97115325927734,
              46.94007873535156
            ],
            [
              108.76284790039062,
              47.26897048950195
            ],
            [
              108.5981674194336,
              47.26897048950195
            ],
            [
              108.55590057373047,
              47.46647262573242
            ],
            [
              108.3910140991211,
              47.46647262573242
            ],
            [
              108.43169403076172,
              47.664100646972656
            ],
            [
              108.59698486328125,
              47.79592514038086
            ],
            [
              108.51436614990234,
              47.79592514038086
            ],
            [
              108.59752655029297,
              47.92780685424805
            ],
            [
              108.51483917236328,
              47.92780685424805
            ],
            [
              108.8481674194336,
              48.191749572753906
            ],
            [
              108.76533508300781,
              48.191749572753906
            ],
            [
              108.85002136230469,
              48.323814392089844
            ],
            [
              108.76712036132812,
              48.323814392089844
            ],
            [
              108.85226440429688,
              48.455936431884766
            ],
            [
              108.72901916503906,
              48.52202224731445
            ],
            [
              108.8148422241211,
              48.654239654541016
            ],
            [
              108.61186981201172,
              48.852684020996094
            ],
            [
              108.61557006835938,
              48.98506164550781
            ],
            [
              108.44903564453125,
              48.98506164550781
            ],
            [
              108.62938690185547,
              49.38258361816406
            ],
            [
              108.46240997314453,
              49.38258361816406
            ],
            [
              108.5068130493164,
              49.44889450073242
            ],
            [
              108.2562255859375,
              49.44889450073242
            ],
            [
              108.26168823242188,
              49.58156967163086
            ],
            [
              107.97184753417969,
              49.64793395996094
            ],
            [
              107.90045166015625,
              49.91355895996094
            ],
            [
              107.73284912109375,
              49.91355895996094
            ],
            [
              107.778076171875,
              49.98000717163086
            ],
            [
              107.27505493164062,
              49.98000717163086
            ],
            [
              107.32022094726562,
              50.04647445678711
            ],
            [
              106.78478240966797,
              50.2459831237793
            ],
            [
              106.83031463623047,
              50.312522888183594
            ],
            [
              106.41014099121094,
              50.312522888183594
            ],
            [
              106.45564270019531,
              50.37908172607422
            ],
            [
              104.90313720703125,
              50.445655822753906
            ],
            [
              104.05284118652344,
              50.17946243286133
            ],
            [
              103.2972412109375,
              50.17946243286133
            ],
            [
              103.34098052978516,
              50.2459831237793
            ],
            [
              103.1729965209961,
              50.2459831237793
            ],
            [
              103.2168197631836,
              50.312522888183594
            ],
            [
              102.88067626953125,
              50.312522888183594
            ],
            [
              102.92450714111328,
              50.37908172607422
            ],
            [
              102.75635528564453,
              50.37908172607422
            ],
            [
              102.8002700805664,
              50.445655822753906
            ],
            [
              102.2992172241211,
              50.578861236572266
            ],
            [
              102.30332946777344,
              50.71213912963867
            ],
            [
              102.21905517578125,
              50.71213912963867
            ],
            [
              102.30792999267578,
              50.84549331665039
            ],
            [
              102.06499481201172,
              51.112430572509766
            ],
            [
              102.15538024902344,
              51.24601745605469
            ],
            [
              101.99232482910156,
              51.37968063354492
            ],
            [
              102.03794860839844,
              51.44654083251953
            ],
            [
              101.86848449707031,
              51.44654083251953
            ],
            [
              101.91417694091797,
              51.51342010498047
            ],
            [
              101.27536010742188,
              51.44654083251953
            ],
            [
              101.32075500488281,
              51.51342010498047
            ],
            [
              100.94223022460938,
              51.580322265625
            ],
            [
              100.98772430419922,
              51.64724349975586
            ],
            [
              100.73314666748047,
              51.64724349975586
            ],
            [
              100.77867889404297,
              51.71418380737305
            ],
            [
              100.09945678710938,
              51.71418380737305
            ],
            [
              100.1447982788086,
              51.78114318847656
            ],
            [
              99.68035888671875,
              51.84812545776367
            ],
            [
              99.72575378417969,
              51.91512680053711
            ],
            [
              99.38562774658203,
              51.91512680053711
            ],
            [
              99.43099212646484,
              51.98215103149414
            ],
            [
              99.2608413696289,
              51.98215103149414
            ],
            [
              99.3062744140625,
              52.0491943359375
            ],
            [
              98.80116271972656,
              52.18334197998047
            ],
            [
              98.76768493652344,
              52.38472366333008
            ],
            [
              98.68234252929688,
              52.38472366333008
            ],
            [
              98.78131866455078,
              52.653533935546875
            ],
            [
              98.69580841064453,
              52.653533935546875
            ],
            [
              98.8354721069336,
              52.85536575317383
            ],
            [
              98.71092987060547,
              52.92268753051758
            ],
            [
              98.75784301757812,
              52.99003219604492
            ],
            [
              97.81468963623047,
              52.99003219604492
            ],
            [
              97.86124420166016,
              53.057395935058594
            ],
            [
              97.39295196533203,
              53.124786376953125
            ],
            [
              97.43952178955078,
              53.192195892333984
            ],
            [
              97.01728057861328,
              53.32708740234375
            ],
            [
              97.06401062011719,
              53.39456558227539
            ],
            [
              96.80596160888672,
              53.39456558227539
            ],
            [
              96.85269165039062,
              53.462066650390625
            ],
            [
              96.55513000488281,
              53.52959060668945
            ],
            [
              96.60196685791016,
              53.597137451171875
            ],
            [
              96.29680633544922,
              53.52959060668945
            ],
            [
              96.25025177001953,
              53.462066650390625
            ],
            [
              96.33631896972656,
              53.462066650390625
            ],
            [
              96.24354553222656,
              53.32708740234375
            ],
            [
              96.02552795410156,
              53.25962829589844
            ],
            [
              95.64175415039062,
              53.32708740234375
            ],
            [
              95.33296966552734,
              53.124786376953125
            ],
            [
              94.86317443847656,
              53.192195892333984
            ],
            [
              94.42977905273438,
              53.057395935058594
            ],
            [
              93.90345001220703,
              52.38472366333008
            ],
            [
              92.83951568603516,
              51.78114318847656
            ],
            [
              91.05915832519531,
              51.64724349975586
            ],
            [
              91.09981536865234,
              51.71418380737305
            ],
            [
              90.67530822753906,
              51.71418380737305
            ],
            [
              90.67161560058594,
              51.84812545776367
            ],
            [
              90.24667358398438,
              51.84812545776367
            ],
            [
              90.00083923339844,
              51.580322265625
            ],
            [
              89.08036804199219,
              51.31283950805664
            ],
            [
              89.13301086425781,
              51.112430572509766
            ],
            [
              89.43231964111328,
              51.04566955566406
            ],
            [
              89.43958282470703,
              50.912200927734375
            ],
            [
              89.60838317871094,
              50.912200927734375
            ],
            [
              89.56990051269531,
              50.84549331665039
            ],
            [
              89.73861694335938,
              50.84549331665039
            ],
            [
              89.70018768310547,
              50.77880859375
            ],
            [
              89.86882019042969,
              50.77880859375
            ],
            [
              89.83045196533203,
              50.71213912963867
            ],
            [
              89.99900817871094,
              50.71213912963867
            ],
            [
              90.09091186523438,
              50.578861236572266
            ],
            [
              90.01483154296875,
              50.445655822753906
            ],
            [
              89.48179626464844,
              50.2459831237793
            ],
            [
              89.40752410888672,
              50.11296081542969
            ],
            [
              89.5853271484375,
              49.98000717163086
            ],
            [
              89.5119400024414,
              49.84712600708008
            ],
            [
              89.60647583007812,
              49.71431350708008
            ],
            [
              88.74590301513672,
              49.51522445678711
            ],
            [
              88.44715881347656,
              49.58156967163086
            ],
            [
              87.53441619873047,
              49.11750411987305
            ],
            [
              87.28439331054688,
              49.11750411987305
            ],
            [
              87.2209243774414,
              49.316287994384766
            ],
            [
              86.83811950683594,
              49.38258361816406
            ],
            [
              86.7750473022461,
              49.58156967163086
            ],
            [
              86.23887634277344,
              49.51522445678711
            ],
            [
              86.2734146118164,
              49.58156967163086
            ],
            [
              85.9389877319336,
              49.58156967163086
            ],
            [
              85.97349548339844,
              49.64793395996094
            ],
            [
              85.220703125,
              49.64793395996094
            ],
            [
              84.58384704589844,
              49.38258361816406
            ],
            [
              84.50035858154297,
              49.38258361816406
            ],
            [
              84.18576049804688,
              48.91886520385742
            ],
            [
              83.83905029296875,
              48.72037124633789
            ],
            [
              82.39451599121094,
              48.654239654541016
            ],
            [
              81.93778228759766,
              48.38986587524414
            ],
            [
              80.55032348632812,
              48.257774353027344
            ],
            [
              80.09963989257812,
              47.993770599365234
            ],
            [
              79.9234848022461,
              47.598209381103516
            ],
            [
              79.39262390136719,
              47.13737487792969
            ],
            [
              79.27954864501953,
              46.87434005737305
            ],
            [
              79.25145721435547,
              46.808616638183594
            ],
            [
              79.33355712890625,
              46.808616638183594
            ],
            [
              79.24960327148438,
              46.61152267456055
            ],
            [
              79.0855941772461,
              46.61152267456055
            ],
            [
              78.97484588623047,
              46.348915100097656
            ],
            [
              78.456298828125,
              46.283294677734375
            ],
            [
              77.8016128540039,
              46.283294677734375
            ],
            [
              77.82868194580078,
              46.348915100097656
            ],
            [
              77.36439514160156,
              46.414546966552734
            ],
            [
              77.39138793945312,
              46.480194091796875
            ],
            [
              75.4511947631836,
              46.54585266113281
            ],
            [
              75.31684112548828,
              46.414546966552734
            ],
            [
              75.07113647460938,
              46.414546966552734
            ],
            [
              74.88140106201172,
              46.348915100097656
            ],
            [
              74.7525863647461,
              46.02093505859375
            ],
            [
              74.3186264038086,
              45.95537567138672
            ],
            [
              74.1169662475586,
              45.431331634521484
            ],
            [
              74.25473022460938,
              45.36587905883789
            ],
            [
              74.13007354736328,
              45.03877639770508
            ],
            [
              74.0488510131836,
              45.03877639770508
            ],
            [
              74.00643920898438,
              44.71194839477539
            ],
            [
              74.0875015258789,
              44.71194839477539
            ],
            [
              74.10208129882812,
              44.32010269165039
            ],
            [
              74.18295288085938,
              44.32010269165039
            ],
            [
              74.1661148071289,
              44.05907440185547
            ],
            [
              74.24686431884766,
              44.05907440185547
            ],
            [
              74.19822692871094,
              43.92862319946289
            ],
            [
              74.27891540527344,
              43.92862319946289
            ],
            [
              74.23040771484375,
              43.79821014404297
            ],
            [
              74.3432388305664,
              43.6678352355957
            ],
            [
              74.24700164794922,
              43.407203674316406
            ],
            [
              74.32744598388672,
              43.407203674316406
            ],
            [
              74.03361511230469,
              42.82133865356445
            ],
            [
              73.37991333007812,
              42.10627746582031
            ],
            [
              73.60877227783203,
              41.84651184082031
            ],
            [
              73.63404083251953,
              41.45711898803711
            ],
            [
              73.71360778808594,
              41.45711898803711
            ],
            [
              73.66934967041016,
              41.32738494873047
            ],
            [
              73.81987762451172,
              41.06801223754883
            ],
            [
              73.73299407958984,
              40.80876541137695
            ],
            [
              73.84847259521484,
              40.6791877746582
            ],
            [
              73.39533996582031,
              39.51427459716797
            ],
            [
              73.6902847290039,
              39.449623107910156
            ],
            [
              73.61043548583984,
              39.19107437133789
            ],
            [
              73.78703308105469,
              38.997230529785156
            ],
            [
              73.63423156738281,
              38.22237777709961
            ],
            [
              73.71251678466797,
              38.22237777709961
            ],
            [
              73.61882019042969,
              37.89975357055664
            ],
            [
              73.69699096679688,
              37.89975357055664
            ],
            [
              73.6645278930664,
              37.51277160644531
            ],
            [
              73.78411865234375,
              37.38381576538086
            ],
            [
              73.69396209716797,
              37.06150817871094
            ],
            [
              73.79618072509766,
              36.8681755065918
            ],
            [
              74.10740661621094,
              36.8681755065918
            ],
            [
              74.55056762695312,
              37.06150817871094
            ],
            [
              75.31097412109375,
              36.9970588684082
            ],
            [
              75.41193389892578,
              36.80373764038086
            ],
            [
              75.7826156616211,
              36.73930740356445
            ],
            [
              75.96131896972656,
              36.5460319519043
            ],
            [
              75.97325897216797,
              36.03080368041992
            ],
            [
              76.09290313720703,
              35.902034759521484
            ],
            [
              76.55780792236328,
              35.902034759521484
            ],
            [
              76.71930694580078,
              35.644527435302734
            ],
            [
              77.07093048095703,
              35.51579284667969
            ],
            [
              77.14828491210938,
              35.51579284667969
            ],
            [
              77.98138427734375,
              35.45143127441406
            ],
            [
              78.09453582763672,
              35.58015823364258
            ],
            [
              78.32667541503906,
              35.58015823364258
            ],
            [
              78.47664642333984,
              35.837650299072266
            ],
            [
              78.64988708496094,
              35.902034759521484
            ],
            [
              79.44332122802734,
              35.9664192199707
            ],
            [
              79.73794555664062,
              35.644527435302734
            ],
            [
              80.1468734741211,
              35.45143127441406
            ],
            [
              80.22421264648438,
              35.45143127441406
            ],
            [
              81.48043060302734,
              35.51579284667969
            ],
            [
              81.67485809326172,
              35.38706970214844
            ],
            [
              82.0219497680664,
              35.51579284667969
            ],
            [
              82.34982299804688,
              35.837650299072266
            ],
            [
              82.73713684082031,
              35.837650299072266
            ],
            [
              82.81473541259766,
              35.58015823364258
            ],
            [
              83.27902221679688,
              35.58015823364258
            ],
            [
              83.87940216064453,
              35.77327346801758
            ],
            [
              84.63399505615234,
              35.708900451660156
            ],
            [
              85.00362396240234,
              35.902034759521484
            ],
            [
              85.70098114013672,
              35.902034759521484
            ],
            [
              85.89291381835938,
              35.77327346801758
            ],
            [
              86.24337005615234,
              35.902034759521484
            ],
            [
              86.5221176147461,
              36.28839111328125
            ],
            [
              86.79684448242188,
              36.417205810546875
            ],
            [
              87.24166870117188,
              36.3527946472168
            ],
            [
              88.66944122314453,
              36.67487716674805
            ],
            [
              89.71379852294922,
              36.5460319519043
            ],
            [
              89.82537078857422,
              36.417205810546875
            ],
            [
              90.25768280029297,
              36.5460319519043
            ],
            [
              91.24541473388672,
              36.48161697387695
            ],
            [
              91.39037322998047,
              36.67487716674805
            ],
            [
              91.31263732910156,
              36.67487716674805
            ],
            [
              91.35779571533203,
              36.80373764038086
            ],
            [
              90.93627166748047,
              36.932613372802734
            ],
            [
              91.00459289550781,
              37.12596130371094
            ],
            [
              91.46338653564453,
              37.3193473815918
            ],
            [
              91.53338623046875,
              37.51277160644531
            ],
            [
              91.40076446533203,
              37.5772590637207
            ],
            [
              91.44788360595703,
              37.706241607666016
            ],
            [
              91.28466033935547,
              37.89975357055664
            ],
            [
              90.94136810302734,
              38.028785705566406
            ],
            [
              91.03744506835938,
              38.28691864013672
            ],
            [
              90.875244140625,
              38.48057174682617
            ],
            [
              90.94873809814453,
              38.67427444458008
            ],
            [
              92.5900650024414,
              39.25570297241211
            ],
            [
              92.74707794189453,
              39.64360046386719
            ],
            [
              93.19642639160156,
              39.9670295715332
            ],
            [
              93.92472076416016,
              40.74397277832031
            ],
            [
              94.2928237915039,
              41.39224624633789
            ],
            [
              94.48135375976562,
              41.45711898803711
            ],
            [
              95.76094818115234,
              42.82133865356445
            ],
            [
              96.51627349853516,
              42.56119155883789
            ],
            [
              96.51968383789062,
              42.236209869384766
            ],
            [
              96.64835357666016,
              42.17123794555664
            ],
            [
              96.58631134033203,
              42.041324615478516
            ],
            [
              96.95439910888672,
              41.97637939453125
            ],
            [
              96.92345428466797,
              41.911441802978516
            ],
            [
              97.2603759765625,
              41.781593322753906
            ],
            [
              97.340087890625,
              41.781593322753906
            ],
            [
              98.96837615966797,
              41.521995544433594
            ],
            [
              98.93727111816406,
              41.45711898803711
            ],
            [
              99.25555419921875,
              41.45711898803711
            ],
            [
              99.22443389892578,
              41.39224624633789
            ],
            [
              99.7812271118164,
              41.39224624633789
            ],
            [
              99.75000762939453,
              41.32738494873047
            ],
            [
              101.07238006591797,
              40.93837356567383
            ],
            [
              101.0280532836914,
              40.6791877746582
            ],
            [
              101.10729217529297,
              40.6791877746582
            ],
            [
              100.98519134521484,
              40.42012023925781
            ],
            [
              101.06432342529297,
              40.42012023925781
            ],
            [
              100.608642578125,
              39.77294921875
            ],
            [
              101.18104553222656,
              39.64360046386719
            ],
            [
              101.16522979736328,
              39.25570297241211
            ],
            [
              101.55858612060547,
              39.25570297241211
            ],
            [
              101.63008880615234,
              39.06184005737305
            ],
            [
              102.12320709228516,
              38.93262481689453
            ],
            [
              102.09483337402344,
              38.8680305480957
            ],
            [
              102.35884857177734,
              38.93262481689453
            ],
            [
              102.55232238769531,
              39.19107437133789
            ],
            [
              103.12342834472656,
              39.06184005737305
            ],
            [
              102.88006591796875,
              38.8680305480957
            ],
            [
              103.08704376220703,
              38.80344009399414
            ],
            [
              103.1086196899414,
              38.67427444458008
            ],
            [
              102.84502410888672,
              38.60969924926758
            ],
            [
              102.7888412475586,
              38.48057174682617
            ],
            [
              102.99595642089844,
              38.416015625
            ],
            [
              103.01852416992188,
              38.28691864013672
            ],
            [
              103.30390930175781,
              38.22237777709961
            ],
            [
              103.32674407958984,
              38.09331130981445
            ],
            [
              103.61201477050781,
              38.028785705566406
            ],
            [
              103.76398468017578,
              37.835243225097656
            ],
            [
              104.36157989501953,
              37.7707405090332
            ],
            [
              104.54096221923828,
              37.641746520996094
            ],
            [
              105.4329605102539,
              37.89975357055664
            ],
            [
              106.16472625732422,
              37.96426773071289
            ],
            [
              106.51355743408203,
              38.22237777709961
            ],
            [
              106.66840362548828,
              38.738853454589844
            ],
            [
              106.58993530273438,
              38.738853454589844
            ],
            [
              106.79922485351562,
              39.19107437133789
            ],
            [
              106.92121887207031,
              39.449623107910156
            ],
            [
              107.14047241210938,
              39.57893371582031
            ],
            [
              107.39217376708984,
              40.0964469909668
            ],
            [
              107.31317138671875,
              40.0964469909668
            ],
            [
              107.91768646240234,
              41.586883544921875
            ],
            [
              107.83805847167969,
              41.586883544921875
            ],
            [
              108.10680389404297,
              42.236209869384766
            ],
            [
              108.02689361572266,
              42.236209869384766
            ],
            [
              108.24887084960938,
              42.496177673339844
            ],
            [
              108.28913879394531,
              43.146724700927734
            ]
          ]
        ]
      }
    }
  ]
}
