{
  "type": "FeatureCollection",
  "features": [
    {
      "type": "Feature",
      "properties": {
        "Name": "Min",
        "FromYear": 911,
        "ToYear": 935,
        "Area": 121944.13772317977,
        "Type": "POLITY",
        "Wikipedia": "Min",
        "Wikidata": "Q224634",
        "SeshatID": "cn_five_dyn",
        "Components": "",
        "MemberOf": "(Five Dynasties and Ten Kingdoms)",
        "displayYear": 926,
        "sourceYear": 926,
        "mappedTerritoryId": "cliopatria_min"
      },
      "geometry": {
        "type": "Polygon",
        "coordinates": [
          [
            [
              120.67628479003906,
              27.608078002929688
            ],
            [
              120.16839599609375,
              27.6723690032959
            ],
            [
              119.75413513183594,
              27.54378890991211
            ],
            [
              119.5289077758789,
              27.800947189331055
            ],
            [
              119.3778305053711,
              27.54378890991211
            ],
            [
              119.13337707519531,
              27.4794979095459
            ],
            [
              119.00153350830078,
              27.54378890991211
            ],
            [
              119.03910064697266,
              27.6723690032959
            ],
            [
              118.8510971069336,
              27.800947189331055
            ],
            [
              118.88931274414062,
              27.92952537536621
            ],
            [
              118.72118377685547,
              28.12238883972168
            ],
            [
              118.89495086669922,
              28.44382095336914
            ],
            [
              118.78398895263672,
              28.572391510009766
            ],
            [
              118.31119537353516,
              28.508106231689453
            ],
            [
              118.1181411743164,
              28.12238883972168
            ],
            [
              117.74026489257812,
              27.865236282348633
            ],
            [
              117.3873519897461,
              27.158044815063477
            ],
            [
              117.0736312866211,
              26.836584091186523
            ],
            [
              116.65647888183594,
              25.807899475097656
            ],
            [
              116.4906997680664,
              25.743606567382812
            ],
            [
              116.42792510986328,
              25.48643684387207
            ],
            [
              116.24735260009766,
              25.357851028442383
            ],
            [
              116.03816223144531,
              24.779226303100586
            ],
            [
              116.2624282836914,
              24.779226303100586
            ],
            [
              116.38291931152344,
              24.650644302368164
            ],
            [
              116.35420989990234,
              24.522062301635742
            ],
            [
              116.727783203125,
              24.522062301635742
            ],
            [
              116.84867858886719,
              24.393482208251953
            ],
            [
              116.82575988769531,
              23.943456649780273
            ],
            [
              116.96846008300781,
              23.557723999023438
            ],
            [
              117.04302978515625,
              23.557723999023438
            ],
            [
              117.1788330078125,
              23.493436813354492
            ],
            [
              117.46995544433594,
              23.814878463745117
            ],
            [
              117.69377136230469,
              23.814878463745117
            ],
            [
              117.72126770019531,
              23.943456649780273
            ],
            [
              118.07573699951172,
              24.200613021850586
            ],
            [
              118.14736938476562,
              24.522062301635742
            ],
            [
              118.75972747802734,
              24.586353302001953
            ],
            [
              118.8191146850586,
              24.843517303466797
            ],
            [
              119.07367706298828,
              24.97209930419922
            ],
            [
              119.02947998046875,
              25.100683212280273
            ],
            [
              119.34419250488281,
              25.164974212646484
            ],
            [
              119.39114379882812,
              25.357851028442383
            ],
            [
              119.27314758300781,
              25.48643684387207
            ],
            [
              119.42289733886719,
              25.48643684387207
            ],
            [
              119.46599578857422,
              25.357851028442383
            ],
            [
              119.87213897705078,
              25.48643684387207
            ],
            [
              119.90438079833984,
              25.615020751953125
            ],
            [
              119.52989959716797,
              25.615020751953125
            ],
            [
              119.77836608886719,
              26.000778198242188
            ],
            [
              119.5870132446289,
              26.129364013671875
            ],
            [
              119.93810272216797,
              26.32224464416504
            ],
            [
              119.83992767333984,
              26.515121459960938
            ],
            [
              120.1576919555664,
              26.57941436767578
            ],
            [
              120.21080017089844,
              26.772293090820312
            ],
            [
              120.06058502197266,
              26.772293090820312
            ],
            [
              120.09639739990234,
              26.900876998901367
            ],
            [
              120.24666595458984,
              26.900876998901367
            ],
            [
              120.39466857910156,
              27.158044815063477
            ],
            [
              120.54503631591797,
              27.158044815063477
            ],
            [
              120.73251342773438,
              27.54378890991211
            ],
            [
              120.65725708007812,
              27.54378890991211
            ],
            [
              120.67628479003906,
              27.608078002929688
            ]
          ]
        ]
      }
    }
  ]
}
