{
  "type": "FeatureCollection",
  "features": [
    {
      "type": "Feature",
      "properties": {
        "Name": "Paramara Dynasty",
        "FromYear": 1056,
        "ToYear": 1110,
        "Area": 203198.09667343646,
        "Type": "POLITY",
        "Wikipedia": "Paramara dynasty",
        "Wikidata": "Q7135130",
        "SeshatID": "in_paramara_dyn",
        "Components": "",
        "MemberOf": "",
        "displayYear": 1100,
        "sourceYear": 1100,
        "mappedTerritoryId": "cliopatria_paramara_dynasty"
      },
      "geometry": {
        "type": "Polygon",
        "coordinates": [
          [
            [
              74.3973325667961,
              24.0059961492743
            ],
            [
              73.23649062773137,
              24.23267584700359
            ],
            [
              73.15596499122752,
              24.27211750439032
            ],
            [
              73.15890532128533,
              24.88896379960811
            ],
            [
              73.8451521168712,
              25.44462537413002
            ],
            [
              73.89302085960593,
              25.552011826353947
            ],
            [
              74.65622367652493,
              25.775107191062627
            ],
            [
              74.8221078797418,
              25.70338313324067
            ],
            [
              74.92163840167257,
              25.392642263679242
            ],
            [
              76.00983877477445,
              25.918425231415654
            ],
            [
              76.16947748980185,
              26.019318072721777
            ],
            [
              76.46855877717523,
              25.90546756836747
            ],
            [
              77.9078446554201,
              26.83538070791674
            ],
            [
              78.26108119524608,
              26.77469197757367
            ],
            [
              78.28649161130961,
              26.64627672485452
            ],
            [
              78.74040753374808,
              26.31900100292861
            ],
            [
              78.72442254532174,
              26.11264135280833
            ],
            [
              78.84248227693377,
              25.98327438600048
            ],
            [
              78.70910900124647,
              25.66471101746081
            ],
            [
              78.84042198050986,
              25.33320228298928
            ],
            [
              78.98016294502524,
              25.25690512896071
            ],
            [
              78.80072158514116,
              25.04016666852191
            ],
            [
              78.7879744106607,
              24.43962501337694
            ],
            [
              79.22760619606812,
              23.35285742272034
            ],
            [
              79.30077122071394,
              22.85166814902347
            ],
            [
              77.7567303464772,
              22.69278326205001
            ],
            [
              77.2488033159477,
              22.47581306775653
            ],
            [
              76.19353604012709,
              22.44438423625684
            ],
            [
              74.16150064850818,
              22.12512205061072
            ],
            [
              74.41652100287708,
              23.005251342110963
            ],
            [
              74.46371970956417,
              23.8649806769179
            ],
            [
              74.3973325667961,
              24.0059961492743
            ]
          ]
        ]
      }
    }
  ]
}
