{
  "type": "FeatureCollection",
  "features": [
    {
      "type": "Feature",
      "properties": {
        "Name": "Golden Horde",
        "FromYear": 1552,
        "ToYear": 1581,
        "Area": 1966981.7246926317,
        "Type": "POLITY",
        "Wikipedia": "Golden Horde",
        "Wikidata": "Q79965",
        "SeshatID": "",
        "Components": "",
        "MemberOf": "",
        "displayYear": 1581,
        "sourceYear": 1581,
        "mappedTerritoryId": "cliopatria_golden_horde"
      },
      "geometry": {
        "type": "MultiPolygon",
        "coordinates": [
          [
            [
              [
                113.1112289428711,
                55.498252868652344
              ],
              [
                114.04141235351562,
                55.36180877685547
              ],
              [
                113.98163604736328,
                55.29362487792969
              ],
              [
                114.53324890136719,
                55.225467681884766
              ],
              [
                114.47345733642578,
                55.15733337402344
              ],
              [
                116.84801483154297,
                54.88506317138672
              ],
              [
                116.78756713867188,
                54.817054748535156
              ],
              [
                117.1356430053711,
                54.817054748535156
              ],
              [
                117.0751724243164,
                54.74907684326172
              ],
              [
                117.48372650146484,
                54.817054748535156
              ],
              [
                117.362548828125,
                54.681121826171875
              ],
              [
                118.94352722167969,
                54.4095458984375
              ],
              [
                118.88286590576172,
                54.341712951660156
              ],
              [
                119.14289855957031,
                54.341712951660156
              ],
              [
                119.08226776123047,
                54.27390670776367
              ],
              [
                119.25553131103516,
                54.27390670776367
              ],
              [
                119.19497680664062,
                54.20612335205078
              ],
              [
                119.9652099609375,
                54.00291442871094
              ],
              [
                119.90484619140625,
                53.93522644042969
              ],
              [
                120.41481018066406,
                53.732303619384766
              ],
              [
                120.35478210449219,
                53.664710998535156
              ],
              [
                120.92413330078125,
                53.52959060668945
              ],
              [
                120.86427307128906,
                53.462066650390625
              ],
              [
                121.1486587524414,
                53.39456558227539
              ],
              [
                121.08898162841797,
                53.32708740234375
              ],
              [
                121.57874298095703,
                53.39456558227539
              ],
              [
                121.45909881591797,
                53.25962829589844
              ],
              [
                121.63095092773438,
                53.25962829589844
              ],
              [
                121.59769439697266,
                53.124786376953125
              ],
              [
                122.13888549804688,
                53.057395935058594
              ],
              [
                122.07943725585938,
                52.99003219604492
              ],
              [
                122.53434753417969,
                52.92268753051758
              ],
              [
                122.4749984741211,
                52.85536575317383
              ],
              [
                122.81759643554688,
                52.85536575317383
              ],
              [
                122.75825500488281,
                52.78806686401367
              ],
              [
                123.01506805419922,
                52.78806686401367
              ],
              [
                122.95578002929688,
                52.720787048339844
              ],
              [
                123.12689971923828,
                52.720787048339844
              ],
              [
                123.06771087646484,
                52.653533935546875
              ],
              [
                123.52153778076172,
                52.586299896240234
              ],
              [
                123.46245574951172,
                52.51908493041992
              ],
              [
                123.63330841064453,
                52.51908493041992
              ],
              [
                123.57432556152344,
                52.4518928527832
              ],
              [
                124.42152404785156,
                52.250450134277344
              ],
              [
                124.36278533935547,
                52.18334197998047
              ],
              [
                124.87401580810547,
                52.18334197998047
              ],
              [
                124.81520080566406,
                52.11625671386719
              ],
              [
                125.07068634033203,
                52.11625671386719
              ],
              [
                125.0119400024414,
                52.0491943359375
              ],
              [
                125.26729583740234,
                52.0491943359375
              ],
              [
                125.20861053466797,
                51.98215103149414
              ],
              [
                125.60175323486328,
                51.84812545776367
              ],
              [
                125.57014465332031,
                51.71418380737305
              ],
              [
                125.73994445800781,
                51.71418380737305
              ],
              [
                125.81759643554688,
                51.31283950805664
              ],
              [
                125.9022445678711,
                51.31283950805664
              ],
              [
                125.90042114257812,
                51.112430572509766
              ],
              [
                126.06868743896484,
                50.912200927734375
              ],
              [
                125.95647430419922,
                50.77880859375
              ],
              [
                126.0977783203125,
                50.64549255371094
              ],
              [
                125.98693084716797,
                50.51224899291992
              ],
              [
                126.12911987304688,
                50.37908172607422
              ],
              [
                126.0196533203125,
                50.2459831237793
              ],
              [
                126.13313293457031,
                50.17946243286133
              ],
              [
                126.00093841552734,
                49.91355895996094
              ],
              [
                126.11492919921875,
                49.84712600708008
              ],
              [
                125.9644546508789,
                49.44889450073242
              ],
              [
                126.04798126220703,
                49.44889450073242
              ],
              [
                125.90312957763672,
                49.051273345947266
              ],
              [
                125.98643493652344,
                49.051273345947266
              ],
              [
                125.71331787109375,
                48.5881233215332
              ],
              [
                125.7963638305664,
                48.5881233215332
              ],
              [
                125.46593475341797,
                47.92780685424805
              ],
              [
                125.54862213134766,
                47.92780685424805
              ],
              [
                125.40247344970703,
                47.730003356933594
              ],
              [
                125.48505401611328,
                47.730003356933594
              ],
              [
                124.66806030273438,
                46.480194091796875
              ],
              [
                124.75,
                46.480194091796875
              ],
              [
                124.23033905029297,
                45.496795654296875
              ],
              [
                124.18550109863281,
                45.431331634521484
              ],
              [
                122.92005157470703,
                45.36587905883789
              ],
              [
                122.96431732177734,
                45.431331634521484
              ],
              [
                122.56424713134766,
                45.56227111816406
              ],
              [
                122.57144165039062,
                45.693260192871094
              ],
              [
                121.81423950195312,
                46.02093505859375
              ],
              [
                121.82164001464844,
                46.1520881652832
              ],
              [
                121.06291198730469,
                46.480194091796875
              ],
              [
                121.10771942138672,
                46.54585266113281
              ],
              [
                120.77984619140625,
                46.54585266113281
              ],
              [
                120.82462310791016,
                46.61152267456055
              ],
              [
                119.26658630371094,
                46.61152267456055
              ],
              [
                119.31083679199219,
                46.677207946777344
              ],
              [
                119.06473541259766,
                46.677207946777344
              ],
              [
                119.10899353027344,
                46.74290466308594
              ],
              [
                118.08030700683594,
                46.677207946777344
              ],
              [
                117.41912841796875,
                46.54585266113281
              ],
              [
                117.12576293945312,
                46.348915100097656
              ],
              [
                116.71641540527344,
                46.348915100097656
              ],
              [
                116.46734619140625,
                46.21768569946289
              ],
              [
                116.12967681884766,
                45.693260192871094
              ],
              [
                115.8831558227539,
                45.56227111816406
              ],
              [
                115.18893432617188,
                45.36587905883789
              ],
              [
                114.7416763305664,
                45.431331634521484
              ],
              [
                113.68588256835938,
                44.77729415893555
              ],
              [
                113.11822509765625,
                44.77729415893555
              ],
              [
                113.15814208984375,
                44.842647552490234
              ],
              [
                112.9147720336914,
                44.842647552490234
              ],
              [
                112.95466613769531,
                44.908016204833984
              ],
              [
                112.3848876953125,
                45.03877639770508
              ],
              [
                112.42472839355469,
                45.10417556762695
              ],
              [
                112.01846313476562,
                45.10417556762695
              ],
              [
                111.77679443359375,
                44.973392486572266
              ],
              [
                111.38501739501953,
                44.32010269165039
              ],
              [
                111.54676055908203,
                44.32010269165039
              ],
              [
                111.59200286865234,
                44.12431716918945
              ],
              [
                111.7535629272461,
                44.12431716918945
              ],
              [
                111.96373748779297,
                43.79821014404297
              ],
              [
                111.88680267333984,
                43.6678352355957
              ],
              [
                110.81661987304688,
                43.211830139160156
              ],
              [
                110.55005645751953,
                42.88639831542969
              ],
              [
                103.767333984375,
                42.496177673339844
              ],
              [
                101.52655792236328,
                42.496177673339844
              ],
              [
                101.55985260009766,
                42.56119155883789
              ],
              [
                100.07159423828125,
                42.62621307373047
              ],
              [
                99.93002319335938,
                42.82133865356445
              ],
              [
                99.32144927978516,
                42.88639831542969
              ],
              [
                99.22681427001953,
                43.016544342041016
              ],
              [
                99.0662841796875,
                43.016544342041016
              ],
              [
                99.09922790527344,
                43.08163070678711
              ],
              [
                98.93864440917969,
                43.08163070678711
              ],
              [
                98.99053192138672,
                43.342071533203125
              ],
              [
                98.4853744506836,
                43.92862319946289
              ],
              [
                98.53924560546875,
                44.18956756591797
              ],
              [
                98.41136169433594,
                44.25482940673828
              ],
              [
                98.44026947021484,
                44.77729415893555
              ],
              [
                98.35917663574219,
                44.77729415893555
              ],
              [
                98.43692779541016,
                45.23500442504883
              ],
              [
                98.27429962158203,
                45.23500442504883
              ],
              [
                98.563720703125,
                46.08650588989258
              ],
              [
                98.4707260131836,
                46.21768569946289
              ],
              [
                98.54151916503906,
                46.348915100097656
              ],
              [
                98.45964813232422,
                46.348915100097656
              ],
              [
                98.53070068359375,
                46.480194091796875
              ],
              [
                98.34552764892578,
                46.74290466308594
              ],
              [
                97.92451477050781,
                46.87434005737305
              ],
              [
                97.91407012939453,
                47.005828857421875
              ],
              [
                97.7496566772461,
                47.005828857421875
              ],
              [
                97.65704345703125,
                47.13737487792969
              ],
              [
                97.91136169433594,
                47.598209381103516
              ],
              [
                97.82884979248047,
                47.598209381103516
              ],
              [
                98.013427734375,
                47.92780685424805
              ],
              [
                98.37387084960938,
                48.1257438659668
              ],
              [
                98.23858642578125,
                48.323814392089844
              ],
              [
                98.3527603149414,
                48.52202224731445
              ],
              [
                98.8836441040039,
                48.72037124633789
              ],
              [
                99.28550720214844,
                49.11750411987305
              ],
              [
                99.77474212646484,
                49.64793395996094
              ],
              [
                100.27682495117188,
                50.445655822753906
              ],
              [
                101.05549621582031,
                51.24601745605469
              ],
              [
                101.49030303955078,
                51.51342010498047
              ],
              [
                103.11788177490234,
                51.78114318847656
              ],
              [
                103.30683135986328,
                52.0491943359375
              ],
              [
                103.3919448852539,
                52.0491943359375
              ],
              [
                103.84477996826172,
                51.84812545776367
              ],
              [
                103.5715560913086,
                51.580322265625
              ],
              [
                104.11831665039062,
                51.51342010498047
              ],
              [
                104.07151794433594,
                51.44654083251953
              ],
              [
                104.8341064453125,
                51.44654083251953
              ],
              [
                106.00601196289062,
                51.78114318847656
              ],
              [
                106.39828491210938,
                52.31757736206055
              ],
              [
                106.82475280761719,
                52.31757736206055
              ],
              [
                107.33287048339844,
                52.653533935546875
              ],
              [
                108.03414154052734,
                52.78806686401367
              ],
              [
                108.43193817138672,
                53.192195892333984
              ],
              [
                108.82823944091797,
                53.25962829589844
              ],
              [
                109.6395263671875,
                54.27390670776367
              ],
              [
                109.55289459228516,
                54.27390670776367
              ],
              [
                109.66371154785156,
                54.4095458984375
              ],
              [
                109.54580688476562,
                54.47740173339844
              ],
              [
                109.60151672363281,
                54.545284271240234
              ],
              [
                109.51469421386719,
                54.545284271240234
              ],
              [
                109.73892974853516,
                54.817054748535156
              ],
              [
                109.65190887451172,
                54.817054748535156
              ],
              [
                109.76487731933594,
                54.95309066772461
              ],
              [
                109.6777572631836,
                54.95309066772461
              ],
              [
                109.84825134277344,
                55.15733337402344
              ],
              [
                109.76097869873047,
                55.15733337402344
              ],
              [
                109.98802185058594,
                55.83982467651367
              ],
              [
                110.72030639648438,
                55.97663879394531
              ],
              [
                110.66129302978516,
                55.90821838378906
              ],
              [
                111.10041809082031,
                55.90821838378906
              ],
              [
                111.04131317138672,
                55.83982467651367
              ],
              [
                113.0237045288086,
                55.498252868652344
              ],
              [
                113.1112289428711,
                55.498252868652344
              ]
            ]
          ],
          [
            [
              [
                109.01948547363281,
                53.93522644042969
              ],
              [
                109.10588073730469,
                53.93522644042969
              ],
              [
                108.8687973022461,
                53.52959060668945
              ],
              [
                108.52436065673828,
                53.52959060668945
              ],
              [
                108.59855651855469,
                53.732303619384766
              ],
              [
                108.93309783935547,
                53.93522644042969
              ],
              [
                109.01948547363281,
                53.93522644042969
              ]
            ]
          ]
        ]
      }
    }
  ]
}
