{
  "type": "FeatureCollection",
  "features": [
    {
      "type": "Feature",
      "properties": {
        "Name": "Kingdom of Spain",
        "FromYear": 1718,
        "ToYear": 1733,
        "Area": 543074.4159792297,
        "Type": "POLITY",
        "Wikipedia": "Spain",
        "Wikidata": "Q29",
        "SeshatID": "es_spanish_emp_2",
        "Components": "",
        "MemberOf": "(Spanish Empire)",
        "displayYear": 1720,
        "sourceYear": 1720,
        "mappedTerritoryId": "cliopatria_kingdom_of_spain"
      },
      "geometry": {
        "type": "MultiPolygon",
        "coordinates": [
          [
            [
              [
                15.213889122009277,
                37.1904182434082
              ],
              [
                15.049844741821289,
                36.73930740356445
              ],
              [
                14.661029815673828,
                36.73930740356445
              ],
              [
                14.27791690826416,
                37.12596130371094
              ],
              [
                13.578389167785645,
                37.254878997802734
              ],
              [
                13.192005157470703,
                37.5772590637207
              ],
              [
                12.490468978881836,
                37.706241607666016
              ],
              [
                12.49189567565918,
                37.89975357055664
              ],
              [
                12.649824142456055,
                38.09331130981445
              ],
              [
                13.040358543395996,
                38.028785705566406
              ],
              [
                13.119925498962402,
                38.157840728759766
              ],
              [
                13.354706764221191,
                38.157840728759766
              ],
              [
                13.665236473083496,
                37.96426773071289
              ],
              [
                14.05618953704834,
                37.96426773071289
              ],
              [
                15.076440811157227,
                38.157840728759766
              ],
              [
                15.152132987976074,
                38.028785705566406
              ],
              [
                15.308561325073242,
                38.028785705566406
              ],
              [
                15.066489219665527,
                37.641746520996094
              ],
              [
                15.061639785766602,
                37.38381576538086
              ],
              [
                15.060440063476562,
                37.3193473815918
              ],
              [
                15.213889122009277,
                37.1904182434082
              ]
            ]
          ],
          [
            [
              [
                15.30988883972168,
                38.09331130981445
              ],
              [
                15.388126373291016,
                38.09331130981445
              ],
              [
                15.386775016784668,
                38.028785705566406
              ],
              [
                15.308561325073242,
                38.028785705566406
              ],
              [
                15.30988883972168,
                38.09331130981445
              ]
            ]
          ],
          [
            [
              [
                15.467743873596191,
                38.157840728759766
              ],
              [
                15.470523834228516,
                38.28691864013672
              ],
              [
                15.54883098602295,
                38.28691864013672
              ],
              [
                15.62426471710205,
                38.157840728759766
              ],
              [
                15.467743873596191,
                38.157840728759766
              ]
            ]
          ],
          [
            [
              [
                1.657540321350098,
                38.997230529785156
              ],
              [
                1.430543661117554,
                38.80344009399414
              ],
              [
                1.273545265197754,
                38.80344009399414
              ],
              [
                1.183109045028687,
                39.06184005737305
              ],
              [
                1.258725643157959,
                39.1264533996582
              ],
              [
                1.337347388267517,
                39.1264533996582
              ],
              [
                1.651834011077881,
                39.1264533996582
              ],
              [
                1.657540321350098,
                38.997230529785156
              ]
            ]
          ],
          [
            [
              [
                3.197866439819336,
                39.8376350402832
              ],
              [
                3.515789270401001,
                39.77294921875
              ],
              [
                3.295835733413696,
                39.320335388183594
              ],
              [
                2.82365870475769,
                39.320335388183594
              ],
              [
                2.658556938171387,
                39.51427459716797
              ],
              [
                2.346148252487183,
                39.449623107910156
              ],
              [
                2.338095426559448,
                39.64360046386719
              ],
              [
                2.877186298370361,
                39.9670295715332
              ],
              [
                2.956136703491211,
                39.9670295715332
              ],
              [
                3.19298791885376,
                39.9670295715332
              ],
              [
                3.197866439819336,
                39.8376350402832
              ]
            ]
          ],
          [
            [
              [
                -3.467212915420532,
                43.472347259521484
              ],
              [
                -3.295851230621338,
                43.342071533203125
              ],
              [
                -1.767988562583923,
                43.342071533203125
              ],
              [
                -1.687574744224548,
                43.342071533203125
              ],
              [
                -1.441840410232544,
                43.276947021484375
              ],
              [
                -1.428432941436768,
                43.08163070678711
              ],
              [
                -1.026964664459229,
                43.08163070678711
              ],
              [
                -0.528801321983337,
                42.82133865356445
              ],
              [
                -0.208102732896805,
                42.82133865356445
              ],
              [
                0.040142297744751,
                42.691246032714844
              ],
              [
                1.074691534042358,
                42.82133865356445
              ],
              [
                1.485537886619568,
                42.62621307373047
              ],
              [
                1.488844156265259,
                42.56119155883789
              ],
              [
                1.575427651405334,
                42.43117141723633
              ],
              [
                1.80907130241394,
                42.56119155883789
              ],
              [
                2.458339214324951,
                42.36617660522461
              ],
              [
                3.092691898345947,
                42.496177673339844
              ],
              [
                3.095396280288696,
                42.43117141723633
              ],
              [
                3.178062200546265,
                42.36617660522461
              ],
              [
                3.116764783859253,
                41.911441802978516
              ],
              [
                2.885612010955811,
                41.71668243408203
              ],
              [
                2.333626985549927,
                41.586883544921875
              ],
              [
                2.106574535369873,
                41.32738494873047
              ],
              [
                1.238392949104309,
                41.19768524169922
              ],
              [
                0.695793092250824,
                40.93837356567383
              ],
              [
                0.709256291389465,
                40.6791877746582
              ],
              [
                0.474957317113876,
                40.614410400390625
              ],
              [
                0.247769102454185,
                40.42012023925781
              ],
              [
                0.182543575763702,
                40.16116714477539
              ],
              [
                -0.201878547668457,
                39.9670295715332
              ],
              [
                -0.345421016216278,
                39.70827102661133
              ],
              [
                -0.313707679510117,
                39.1264533996582
              ],
              [
                0.099359586834908,
                38.738853454589844
              ],
              [
                -0.660861134529114,
                38.28691864013672
              ],
              [
                -0.803495347499847,
                38.028785705566406
              ],
              [
                -0.704753637313843,
                37.641746520996094
              ],
              [
                -1.708719491958618,
                37.44829177856445
              ],
              [
                -1.623468399047852,
                37.3193473815918
              ],
              [
                -1.857354998588562,
                37.3193473815918
              ],
              [
                -2.061630010604858,
                36.80373764038086
              ],
              [
                -2.532132625579834,
                36.8681755065918
              ],
              [
                -2.680080890655518,
                36.73930740356445
              ],
              [
                -4.468626022338867,
                36.73930740356445
              ],
              [
                -4.688807487487793,
                36.5460319519043
              ],
              [
                -5.22819709777832,
                36.48161697387695
              ],
              [
                -5.219250202178955,
                36.3527946472168
              ],
              [
                -5.374516010284424,
                36.3527946472168
              ],
              [
                -5.662277221679688,
                36.03080368041992
              ],
              [
                -5.831079006195068,
                36.2239875793457
              ],
              [
                -6.063849925994873,
                36.2239875793457
              ],
              [
                -6.432291984558105,
                36.9970588684082
              ],
              [
                -6.587993621826172,
                36.9970588684082
              ],
              [
                -6.84182596206665,
                37.254878997802734
              ],
              [
                -7.309464931488037,
                37.254878997802734
              ],
              [
                -7.387404441833496,
                37.254878997802734
              ],
              [
                -7.502705097198486,
                37.706241607666016
              ],
              [
                -7.27909517288208,
                37.835243225097656
              ],
              [
                -7.14418888092041,
                38.09331130981445
              ],
              [
                -6.987714290618896,
                38.09331130981445
              ],
              [
                -6.998411178588867,
                38.22237777709961
              ],
              [
                -7.244168281555176,
                38.351463317871094
              ],
              [
                -7.271727085113525,
                38.67427444458008
              ],
              [
                -7.120340347290039,
                38.738853454589844
              ],
              [
                -6.985427379608154,
                38.997230529785156
              ],
              [
                -7.255166053771973,
                39.38497543334961
              ],
              [
                -7.418391227722168,
                39.449623107910156
              ],
              [
                -7.435848712921143,
                39.64360046386719
              ],
              [
                -6.895466804504395,
                39.77294921875
              ],
              [
                -6.839452266693115,
                40.031734466552734
              ],
              [
                -7.00321626663208,
                40.0964469909668
              ],
              [
                -7.014894485473633,
                40.225894927978516
              ],
              [
                -6.868430137634277,
                40.355369567871094
              ],
              [
                -6.927728176116943,
                41.00318908691406
              ],
              [
                -6.254164218902588,
                41.45711898803711
              ],
              [
                -6.271912097930908,
                41.65177917480469
              ],
              [
                -6.516909122467041,
                41.71668243408203
              ],
              [
                -6.700808048248291,
                41.97637939453125
              ],
              [
                -8.11717414855957,
                41.781593322753906
              ],
              [
                -8.216935157775879,
                41.97637939453125
              ],
              [
                -8.137139320373535,
                41.97637939453125
              ],
              [
                -8.150541305541992,
                42.10627746582031
              ],
              [
                -8.469955444335938,
                42.10627746582031
              ],
              [
                -8.928141593933105,
                41.911441802978516
              ],
              [
                -8.935100555419922,
                41.97637939453125
              ],
              [
                -8.956093788146973,
                42.17123794555664
              ],
              [
                -8.65738296508789,
                42.36617660522461
              ],
              [
                -9.078654289245605,
                42.56119155883789
              ],
              [
                -9.30460262298584,
                43.146724700927734
              ],
              [
                -8.851689338684082,
                43.407203674316406
              ],
              [
                -8.369025230407715,
                43.407203674316406
              ],
              [
                -8.39044189453125,
                43.6026611328125
              ],
              [
                -8.243616104125977,
                43.73301696777344
              ],
              [
                -7.276463031768799,
                43.73301696777344
              ],
              [
                -7.343485832214355,
                43.6026611328125
              ],
              [
                -7.175715446472168,
                43.53750228881836
              ],
              [
                -5.726631164550781,
                43.53750228881836
              ],
              [
                -5.646126270294189,
                43.53750228881836
              ],
              [
                -4.990375518798828,
                43.407203674316406
              ],
              [
                -3.467212915420532,
                43.472347259521484
              ]
            ]
          ],
          [
            [
              [
                9.821690559387207,
                40.74397277832031
              ],
              [
                9.823226928710938,
                40.355369567871094
              ],
              [
                9.665326118469238,
                40.29063034057617
              ],
              [
                9.74737548828125,
                39.64360046386719
              ],
              [
                9.668553352355957,
                39.64360046386719
              ],
              [
                9.592622756958008,
                39.1264533996582
              ],
              [
                9.120378494262695,
                39.19107437133789
              ],
              [
                8.96590518951416,
                38.8680305480957
              ],
              [
                8.730334281921387,
                38.8680305480957
              ],
              [
                8.336196899414062,
                38.997230529785156
              ],
              [
                8.411824226379395,
                39.25570297241211
              ],
              [
                8.333152770996094,
                39.25570297241211
              ],
              [
                8.330102920532227,
                39.51427459716797
              ],
              [
                8.40887451171875,
                39.51427459716797
              ],
              [
                8.48337459564209,
                39.90232849121094
              ],
              [
                8.324762344360352,
                39.9670295715332
              ],
              [
                8.400031089782715,
                40.29063034057617
              ],
              [
                8.32094955444336,
                40.29063034057617
              ],
              [
                8.318660736083984,
                40.4848747253418
              ],
              [
                8.159523010253906,
                40.54964065551758
              ],
              [
                8.154606819152832,
                40.93837356567383
              ],
              [
                8.552037239074707,
                40.873565673828125
              ],
              [
                9.024832725524902,
                41.26253128051758
              ],
              [
                9.10431957244873,
                41.26253128051758
              ],
              [
                9.50210952758789,
                41.19768524169922
              ],
              [
                9.821690559387207,
                40.74397277832031
              ]
            ]
          ]
        ]
      }
    }
  ]
}
