{
  "type": "FeatureCollection",
  "features": [
    {
      "type": "Feature",
      "properties": {
        "Name": "Khanate of Bukhara",
        "FromYear": 1521,
        "ToYear": 1525,
        "Area": 384352.7865983053,
        "Type": "POLITY",
        "Wikipedia": "Khanate of Bukhara",
        "Wikidata": "Q577668",
        "SeshatID": "",
        "Components": "",
        "MemberOf": "",
        "displayYear": 1521,
        "sourceYear": 1521,
        "mappedTerritoryId": "cliopatria_khanate_of_bukhara"
      },
      "geometry": {
        "type": "Polygon",
        "coordinates": [
          [
            [
              73.6902847290039,
              39.449623107910156
            ],
            [
              73.88824462890625,
              39.57893371582031
            ],
            [
              73.95331573486328,
              40.031734466552734
            ],
            [
              73.80000305175781,
              40.29063034057617
            ],
            [
              73.84847259521484,
              40.6791877746582
            ],
            [
              73.73299407958984,
              40.80876541137695
            ],
            [
              73.81987762451172,
              41.06801223754883
            ],
            [
              73.66934967041016,
              41.32738494873047
            ],
            [
              73.71360778808594,
              41.45711898803711
            ],
            [
              73.63404083251953,
              41.45711898803711
            ],
            [
              73.60877227783203,
              41.84651184082031
            ],
            [
              73.37991333007812,
              42.10627746582031
            ],
            [
              72.74108123779297,
              42.10627746582031
            ],
            [
              72.30657958984375,
              42.236209869384766
            ],
            [
              70.81197357177734,
              41.586883544921875
            ],
            [
              70.7483901977539,
              41.39224624633789
            ],
            [
              70.54735565185547,
              41.26253128051758
            ],
            [
              69.3732681274414,
              41.06801223754883
            ],
            [
              68.71808624267578,
              40.4848747253418
            ],
            [
              68.28358459472656,
              40.355369567871094
            ],
            [
              63.73413848876953,
              42.43117141723633
            ],
            [
              63.22390365600586,
              41.781593322753906
            ],
            [
              62.378334045410156,
              41.32738494873047
            ],
            [
              62.36785125732422,
              41.00318908691406
            ],
            [
              62.447227478027344,
              41.00318908691406
            ],
            [
              62.29690933227539,
              40.74397277832031
            ],
            [
              62.4027099609375,
              40.54964065551758
            ],
            [
              62.31605529785156,
              40.225894927978516
            ],
            [
              62.687564849853516,
              39.8376350402832
            ],
            [
              62.65380859375,
              39.70827102661133
            ],
            [
              63.088340759277344,
              39.25570297241211
            ],
            [
              63.24568557739258,
              39.25570297241211
            ],
            [
              63.41547393798828,
              38.997230529785156
            ],
            [
              63.837432861328125,
              38.80344009399414
            ],
            [
              64.00749206542969,
              38.54513168334961
            ],
            [
              64.36690521240234,
              38.416015625
            ],
            [
              64.66151428222656,
              38.028785705566406
            ],
            [
              65.23883056640625,
              37.835243225097656
            ],
            [
              65.62744903564453,
              37.51277160644531
            ],
            [
              65.93956756591797,
              37.51277160644531
            ],
            [
              65.90766143798828,
              37.38381576538086
            ],
            [
              66.17185974121094,
              37.1904182434082
            ],
            [
              66.21778869628906,
              36.73930740356445
            ],
            [
              66.3577651977539,
              36.67487716674805
            ],
            [
              66.32786560058594,
              36.2239875793457
            ],
            [
              66.96399688720703,
              36.28839111328125
            ],
            [
              67.3832015991211,
              36.09519577026367
            ],
            [
              68.42280578613281,
              36.2239875793457
            ],
            [
              68.62396240234375,
              36.09519577026367
            ],
            [
              68.87802124023438,
              36.80373764038086
            ],
            [
              68.67727661132812,
              36.932613372802734
            ],
            [
              68.71009826660156,
              37.06150817871094
            ],
            [
              68.47648620605469,
              37.06150817871094
            ],
            [
              68.50938415527344,
              37.1904182434082
            ],
            [
              69.0102767944336,
              37.3193473815918
            ],
            [
              69.1160659790039,
              37.12596130371094
            ],
            [
              69.3497543334961,
              37.12596130371094
            ],
            [
              69.5460205078125,
              37.5772590637207
            ],
            [
              70.17044830322266,
              37.5772590637207
            ],
            [
              70.1877670288086,
              37.641746520996094
            ],
            [
              70.28324127197266,
              37.706241607666016
            ],
            [
              70.16192626953125,
              37.835243225097656
            ],
            [
              70.2146987915039,
              38.028785705566406
            ],
            [
              70.38887786865234,
              38.09331130981445
            ],
            [
              70.4245834350586,
              38.22237777709961
            ],
            [
              70.71366119384766,
              38.416015625
            ],
            [
              71.26215362548828,
              38.416015625
            ],
            [
              71.61256408691406,
              38.54513168334961
            ],
            [
              72.48939514160156,
              39.38497543334961
            ],
            [
              73.0993423461914,
              39.320335388183594
            ],
            [
              73.29655456542969,
              39.449623107910156
            ],
            [
              73.61153411865234,
              39.449623107910156
            ],
            [
              73.6902847290039,
              39.449623107910156
            ]
          ]
        ]
      }
    }
  ]
}
