{
  "type": "FeatureCollection",
  "features": [
    {
      "type": "Feature",
      "properties": {
        "Name": "British Empire",
        "FromYear": 1792,
        "ToYear": 1793,
        "Area": 562976.5817722754,
        "Type": "POLITY",
        "Wikipedia": "British Empire",
        "Wikidata": "Q8680",
        "SeshatID": "gb_british_emp_1",
        "Components": "",
        "MemberOf": "(British Empire)",
        "displayYear": 1793,
        "sourceYear": 1793,
        "mappedTerritoryId": "cliopatria_british_empire"
      },
      "geometry": {
        "type": "MultiPolygon",
        "coordinates": [
          [
            [
              [
                -93.59281158447266,
                48.91886520385742
              ],
              [
                -93.24249267578125,
                48.654239654541016
              ],
              [
                -93.56648254394531,
                48.52202224731445
              ],
              [
                -93.64949798583984,
                48.52202224731445
              ],
              [
                -93.87932586669922,
                48.852684020996094
              ],
              [
                -93.71293640136719,
                48.852684020996094
              ],
              [
                -93.75926971435547,
                48.91886520385742
              ],
              [
                -93.59281158447266,
                48.91886520385742
              ]
            ]
          ],
          [
            [
              [
                -99.71991729736328,
                49.98000717163086
              ],
              [
                -99.63607788085938,
                49.98000717163086
              ],
              [
                -99.34831237792969,
                49.71431350708008
              ],
              [
                -99.63235473632812,
                49.64793395996094
              ],
              [
                -99.91998291015625,
                49.91355895996094
              ],
              [
                -99.71991729736328,
                49.98000717163086
              ]
            ]
          ],
          [
            [
              [
                -96.08287048339844,
                50.71213912963867
              ],
              [
                -95.99859619140625,
                50.71213912963867
              ],
              [
                -95.71041107177734,
                50.445655822753906
              ],
              [
                -95.99617767333984,
                50.37908172607422
              ],
              [
                -96.28425598144531,
                50.64549255371094
              ],
              [
                -96.08287048339844,
                50.71213912963867
              ]
            ]
          ],
          [
            [
              [
                -96.33570098876953,
                50.71213912963867
              ],
              [
                -96.28425598144531,
                50.64549255371094
              ],
              [
                -96.36849212646484,
                50.64549255371094
              ],
              [
                -96.41997528076172,
                50.71213912963867
              ],
              [
                -96.33570098876953,
                50.71213912963867
              ]
            ]
          ],
          [
            [
              [
                -102.22657775878906,
                51.112430572509766
              ],
              [
                -102.14205169677734,
                51.112430572509766
              ],
              [
                -101.83802032470703,
                50.84549331665039
              ],
              [
                -102.1208724975586,
                50.77880859375
              ],
              [
                -102.4247817993164,
                51.04566955566406
              ],
              [
                -102.22657775878906,
                51.112430572509766
              ]
            ]
          ],
          [
            [
              [
                -106.93484497070312,
                52.0491943359375
              ],
              [
                -106.84972381591797,
                52.0491943359375
              ],
              [
                -106.52677154541016,
                51.78114318847656
              ],
              [
                -106.8073959350586,
                51.71418380737305
              ],
              [
                -107.13023376464844,
                51.98215103149414
              ],
              [
                -106.93484497070312,
                52.0491943359375
              ]
            ]
          ],
          [
            [
              [
                -100.94820404052734,
                51.91512680053711
              ],
              [
                -101.288330078125,
                51.91512680053711
              ],
              [
                -101.34516143798828,
                51.98215103149414
              ],
              [
                -101.51531219482422,
                51.98215103149414
              ],
              [
                -101.60194396972656,
                52.18334197998047
              ],
              [
                -101.26111602783203,
                52.18334197998047
              ],
              [
                -100.94820404052734,
                51.91512680053711
              ]
            ]
          ],
          [
            [
              [
                -105.72611236572266,
                52.31757736206055
              ],
              [
                -105.64081573486328,
                52.31757736206055
              ],
              [
                -105.3176040649414,
                52.0491943359375
              ],
              [
                -105.59889221191406,
                51.98215103149414
              ],
              [
                -105.92200469970703,
                52.250450134277344
              ],
              [
                -105.72611236572266,
                52.31757736206055
              ]
            ]
          ],
          [
            [
              [
                -103.3796157836914,
                53.32708740234375
              ],
              [
                -103.29364013671875,
                53.32708740234375
              ],
              [
                -102.96544647216797,
                53.057395935058594
              ],
              [
                -103.24830627441406,
                52.99003219604492
              ],
              [
                -103.57646179199219,
                53.25962829589844
              ],
              [
                -103.3796157836914,
                53.32708740234375
              ]
            ]
          ],
          [
            [
              [
                -108.7320556640625,
                54.07062530517578
              ],
              [
                -108.64556884765625,
                54.07062530517578
              ],
              [
                -108.29861450195312,
                53.799922943115234
              ],
              [
                -108.57896423339844,
                53.732303619384766
              ],
              [
                -108.92587280273438,
                54.00291442871094
              ],
              [
                -108.7320556640625,
                54.07062530517578
              ]
            ]
          ],
          [
            [
              [
                -109.96315002441406,
                54.00291442871094
              ],
              [
                -110.02935791015625,
                54.07062530517578
              ],
              [
                -110.24893188476562,
                54.20612335205078
              ],
              [
                -109.96923828125,
                54.27390670776367
              ],
              [
                -109.46517181396484,
                53.93522644042969
              ],
              [
                -109.96315002441406,
                54.00291442871094
              ]
            ]
          ],
          [
            [
              [
                -111.34774780273438,
                54.613189697265625
              ],
              [
                -111.26087188720703,
                54.613189697265625
              ],
              [
                -110.9028549194336,
                54.341712951660156
              ],
              [
                -111.18206787109375,
                54.27390670776367
              ],
              [
                -111.54004669189453,
                54.545284271240234
              ],
              [
                -111.34774780273438,
                54.613189697265625
              ]
            ]
          ],
          [
            [
              [
                -111.36199951171875,
                55.90821838378906
              ],
              [
                -111.27417755126953,
                55.90821838378906
              ],
              [
                -110.9036865234375,
                55.63479995727539
              ],
              [
                -111.18378448486328,
                55.56651306152344
              ],
              [
                -111.55426788330078,
                55.83982467651367
              ],
              [
                -111.36199951171875,
                55.90821838378906
              ]
            ]
          ],
          [
            [
              [
                -116.88961791992188,
                58.66725540161133
              ],
              [
                -116.79961395263672,
                58.66725540161133
              ],
              [
                -116.38792419433594,
                58.38920593261719
              ],
              [
                -116.66690826416016,
                58.31977081298828
              ],
              [
                -117.07858276367188,
                58.59769821166992
              ],
              [
                -116.88961791992188,
                58.66725540161133
              ]
            ]
          ],
          [
            [
              [
                -110.87437438964844,
                59.08528518676758
              ],
              [
                -110.78402709960938,
                59.08528518676758
              ],
              [
                -110.38339233398438,
                58.80647277832031
              ],
              [
                -110.66658782958984,
                58.73685073852539
              ],
              [
                -111.0672378540039,
                59.015533447265625
              ],
              [
                -110.87437438964844,
                59.08528518676758
              ]
            ]
          ],
          [
            [
              [
                -114.3260726928711,
                62.4027214050293
              ],
              [
                -114.50367736816406,
                62.54574966430664
              ],
              [
                -114.59285736083984,
                62.61732482910156
              ],
              [
                -114.68228912353516,
                62.68894577026367
              ],
              [
                -114.39751434326172,
                62.76060485839844
              ],
              [
                -113.94802856445312,
                62.474212646484375
              ],
              [
                -114.3260726928711,
                62.4027214050293
              ]
            ]
          ],
          [
            [
              [
                76.65999603271484,
                9.86451530456543
              ],
              [
                76.5868911743164,
                9.86451530456543
              ],
              [
                76.448974609375,
                9.993090629577637
              ],
              [
                76.22550964355469,
                9.928803443908691
              ],
              [
                76.22964477539062,
                9.993090629577637
              ],
              [
                75.97093200683594,
                10.507390975952148
              ],
              [
                75.9752426147461,
                10.571678161621094
              ],
              [
                75.90209197998047,
                10.571678161621094
              ],
              [
                75.8552017211914,
                10.957403182983398
              ],
              [
                75.52082824707031,
                11.407415390014648
              ],
              [
                75.68109893798828,
                11.6002779006958
              ],
              [
                75.45681762695312,
                11.535990715026855
              ],
              [
                75.3384780883789,
                11.92171573638916
              ],
              [
                75.0010986328125,
                12.307440757751465
              ],
              [
                75.0158462524414,
                12.500303268432617
              ],
              [
                75.2356948852539,
                12.500303268432617
              ],
              [
                75.50908660888672,
                12.24315357208252
              ],
              [
                75.44563293457031,
                12.37172794342041
              ],
              [
                75.67540740966797,
                12.500303268432617
              ],
              [
                75.68545532226562,
                12.628878593444824
              ],
              [
                75.97863006591797,
                12.628878593444824
              ],
              [
                76.04182434082031,
                12.500303268432617
              ],
              [
                75.93888854980469,
                12.114578247070312
              ],
              [
                76.08539581298828,
                12.114578247070312
              ],
              [
                76.21736145019531,
                11.92171573638916
              ],
              [
                76.2077865600586,
                11.793140411376953
              ],
              [
                76.05658721923828,
                11.728853225708008
              ],
              [
                75.98336029052734,
                11.728853225708008
              ],
              [
                75.97865295410156,
                11.664566040039062
              ],
              [
                75.96466064453125,
                11.47170352935791
              ],
              [
                76.45865631103516,
                11.214552879333496
              ],
              [
                76.4541015625,
                11.15026569366455
              ],
              [
                76.5959243774414,
                11.085978507995605
              ],
              [
                76.58243560791016,
                10.893115997314453
              ],
              [
                76.72431182861328,
                10.828827857971191
              ],
              [
                76.7754898071289,
                10.507390975952148
              ],
              [
                76.77115631103516,
                10.443102836608887
              ],
              [
                76.76683807373047,
                10.378815650939941
              ],
              [
                76.90453338623047,
                10.250240325927734
              ],
              [
                77.20132446289062,
                10.314528465270996
              ],
              [
                77.24266351172908,
                10.058248869017767
              ],
              [
                77.41560513022637,
                10.238251752875298
              ],
              [
                77.43132246691994,
                9.671652793884277
              ],
              [
                77.37857818603516,
                9.671652793884277
              ],
              [
                77.15522003173828,
                9.607365608215332
              ],
              [
                77.17179008792908,
                9.86465822442554
              ],
              [
                77.17169952392578,
                9.86451530456543
              ],
              [
                76.73309326171875,
                9.86451530456543
              ],
              [
                76.65999603271484,
                9.86451530456543
              ]
            ]
          ],
          [
            [
              [
                92.3810806274414,
                10.828827857971191
              ],
              [
                92.38646697998047,
                10.893115997314453
              ],
              [
                92.60596466064453,
                10.893115997314453
              ],
              [
                92.5739974975586,
                10.507390975952148
              ],
              [
                92.28667449951172,
                10.571678161621094
              ],
              [
                92.3810806274414,
                10.828827857971191
              ]
            ]
          ],
          [
            [
              [
                79.85357760383523,
                10.893115997314453
              ],
              [
                79.87494659423828,
                10.893115997314453
              ],
              [
                79.87030029296875,
                10.828827857971191
              ],
              [
                79.86567687988281,
                10.764540672302246
              ],
              [
                79.86107635498047,
                10.7002534866333
              ],
              [
                79.85989855582608,
                10.683712524384095
              ],
              [
                79.85357760383523,
                10.893115997314453
              ]
            ]
          ],
          [
            [
              [
                78.50806427001953,
                13.07889175415039
              ],
              [
                78.45563688211543,
                12.19393874275314
              ],
              [
                78.02569544020811,
                11.62268733386708
              ],
              [
                78.0288314819336,
                11.664566040039062
              ],
              [
                77.81400299072266,
                11.728853225708008
              ],
              [
                77.9018783569336,
                11.92171573638916
              ],
              [
                77.62374114990234,
                12.114578247070312
              ],
              [
                78.11467742919922,
                12.757453918457031
              ],
              [
                78.50806427001953,
                13.07889175415039
              ]
            ]
          ],
          [
            [
              [
                92.72016143798828,
                12.178865432739258
              ],
              [
                92.71507263183594,
                12.886029243469238
              ],
              [
                92.85403442382812,
                13.528904914855957
              ],
              [
                93.08092498779297,
                13.593193054199219
              ],
              [
                93.10103607177734,
                13.07889175415039
              ],
              [
                92.92863464355469,
                12.821741104125977
              ],
              [
                93.06257629394531,
                12.69316577911377
              ],
              [
                93.0376205444336,
                12.436016082763672
              ],
              [
                92.78740692138672,
                12.114578247070312
              ],
              [
                92.83106994628906,
                11.793140411376953
              ],
              [
                92.82524871826172,
                11.728853225708008
              ],
              [
                92.73475646972656,
                11.535990715026855
              ],
              [
                92.52082824707031,
                11.6002779006958
              ],
              [
                92.5676498413086,
                12.114578247070312
              ],
              [
                92.72016143798828,
                12.178865432739258
              ]
            ]
          ],
          [
            [
              [
                79.99918365478516,
                12.500303268432617
              ],
              [
                80.14045715332031,
                12.436016082763672
              ],
              [
                80.13518524169922,
                12.37172794342041
              ],
              [
                80.12995147705078,
                12.307440757751465
              ],
              [
                80.09347160587478,
                12.307440757751465
              ],
              [
                80.11556222649337,
                12.338386164224
              ],
              [
                79.94115730876081,
                12.4906841331566
              ],
              [
                80.08180500833093,
                13.207467079162598
              ],
              [
                80.1325454711914,
                13.207467079162598
              ],
              [
                80.3469467163086,
                13.143178939819336
              ],
              [
                80.31927490234375,
                12.821741104125977
              ],
              [
                80.31382751464844,
                12.757453918457031
              ],
              [
                80.01520538330078,
                12.69316577911377
              ],
              [
                79.99918365478516,
                12.500303268432617
              ]
            ]
          ],
          [
            [
              [
                81.07219696044922,
                17.321889877319336
              ],
              [
                81.39757537841797,
                17.57904052734375
              ],
              [
                81.50199127197266,
                17.836191177368164
              ],
              [
                82.302734375,
                18.350492477416992
              ],
              [
                82.31847381591797,
                18.479066848754883
              ],
              [
                82.85167694091797,
                18.607641220092773
              ],
              [
                82.88355255126953,
                18.864791870117188
              ],
              [
                83.19538879394531,
                18.993366241455078
              ],
              [
                83.21145629882812,
                19.12194061279297
              ],
              [
                83.51544952392578,
                19.186227798461914
              ],
              [
                83.70391845703125,
                19.507661819458008
              ],
              [
                84.6742935180664,
                20.150527954101562
              ],
              [
                85.0530776977539,
                20.214815139770508
              ],
              [
                85.0942153930664,
                19.95766830444336
              ],
              [
                85.37399291992188,
                19.8290958404541
              ],
              [
                85.36570739746094,
                19.764808654785156
              ],
              [
                85.4148941040039,
                19.571949005126953
              ],
              [
                84.74866485595703,
                18.993366241455078
              ],
              [
                84.37962341308594,
                18.414779663085938
              ],
              [
                84.0519027709961,
                18.157629013061523
              ],
              [
                83.66666412353516,
                18.029054641723633
              ],
              [
                83.5611572265625,
                17.77190399169922
              ],
              [
                83.15304565429688,
                17.450464248657227
              ],
              [
                82.4507827758789,
                17.129026412963867
              ],
              [
                82.27310943603516,
                16.87187385559082
              ],
              [
                82.25813293457031,
                16.743297576904297
              ],
              [
                82.40552520751953,
                16.743297576904297
              ],
              [
                82.3832015991211,
                16.550434112548828
              ],
              [
                82.22111511230469,
                16.421857833862305
              ],
              [
                81.32273864746094,
                16.293283462524414
              ],
              [
                81.11875915527344,
                15.77897834777832
              ],
              [
                80.91600283928231,
                15.77897834777832
              ],
              [
                80.84223540507331,
                16.18010208376665
              ],
              [
                80.4242363774348,
                16.59833694291968
              ],
              [
                80.23398276762921,
                16.614723205566406
              ],
              [
                80.40123748779297,
                16.614723205566406
              ],
              [
                80.49674224853516,
                16.807586669921875
              ],
              [
                80.94631958007812,
                16.87187385559082
              ],
              [
                81.07219696044922,
                17.321889877319336
              ]
            ]
          ],
          [
            [
              [
                72.85407257080078,
                19.12194061279297
              ],
              [
                72.8609848022461,
                19.186227798461914
              ],
              [
                72.86790466308594,
                19.25051498413086
              ],
              [
                73.08989715576172,
                19.25051498413086
              ],
              [
                72.91421508789062,
                18.993366241455078
              ],
              [
                72.84024810791016,
                18.993366241455078
              ],
              [
                72.84716033935547,
                19.057653427124023
              ],
              [
                72.85407257080078,
                19.12194061279297
              ]
            ]
          ],
          [
            [
              [
                72.63021087646484,
                21.179107666015625
              ],
              [
                72.94112396240234,
                21.307680130004883
              ],
              [
                72.98750305175781,
                21.050535202026367
              ],
              [
                72.83212280273438,
                20.986249923706055
              ],
              [
                72.83905029296875,
                21.050535202026367
              ],
              [
                72.76482391357422,
                21.050535202026367
              ],
              [
                72.77175903320312,
                21.114822387695312
              ],
              [
                72.69752502441406,
                21.114822387695312
              ],
              [
                72.623291015625,
                21.114822387695312
              ],
              [
                72.63021087646484,
                21.179107666015625
              ]
            ]
          ],
          [
            [
              [
                91.0583724975586,
                22.33626365661621
              ],
              [
                91.0677490234375,
                22.400548934936523
              ],
              [
                91.21656036376953,
                22.400548934936523
              ],
              [
                91.2628402709961,
                22.20768928527832
              ],
              [
                91.0304183959961,
                22.143402099609375
              ],
              [
                91.0583724975586,
                22.33626365661621
              ]
            ]
          ],
          [
            [
              [
                89.89125061035156,
                26.515121459960938
              ],
              [
                89.96630859375,
                26.515121459960938
              ],
              [
                90.76657104492188,
                26.386537551879883
              ],
              [
                90.62928771972656,
                26.06507110595703
              ],
              [
                90.7669677734375,
                26.000778198242188
              ],
              [
                91.29171752929688,
                26.000778198242188
              ],
              [
                91.18012237548828,
                25.807899475097656
              ],
              [
                90.94329071044922,
                25.743606567382812
              ],
              [
                90.11917877197266,
                25.743606567382812
              ],
              [
                89.96275329589844,
                25.29355812072754
              ],
              [
                90.31415557861328,
                25.164974212646484
              ],
              [
                92.18464660644531,
                25.164974212646484
              ],
              [
                92.44927978515625,
                24.97209930419922
              ],
              [
                92.11392211914062,
                24.329193115234375
              ],
              [
                92.25250244140625,
                24.264904022216797
              ],
              [
                92.22047424316406,
                24.07203483581543
              ],
              [
                92.29512023925781,
                24.07203483581543
              ],
              [
                92.15785217285156,
                23.68630027770996
              ],
              [
                92.36107635498047,
                23.557723999023438
              ],
              [
                92.38506317138672,
                23.236284255981445
              ],
              [
                92.3005599975586,
                23.171995162963867
              ],
              [
                92.43962860107422,
                23.107707977294922
              ],
              [
                92.33553314208984,
                22.914846420288086
              ],
              [
                92.4100112915039,
                22.914846420288086
              ],
              [
                92.36138916015625,
                22.59341049194336
              ],
              [
                92.47188568115234,
                22.33626365661621
              ],
              [
                92.37796020507812,
                21.693397521972656
              ],
              [
                92.19247436523438,
                21.43625259399414
              ],
              [
                91.83023834228516,
                21.500539779663086
              ],
              [
                91.89482116699219,
                21.950544357299805
              ],
              [
                91.76476287841797,
                22.079116821289062
              ],
              [
                91.79289245605469,
                22.271976470947266
              ],
              [
                91.6724624633789,
                22.46483612060547
              ],
              [
                91.37480926513672,
                22.46483612060547
              ],
              [
                91.49696350097656,
                22.786272048950195
              ],
              [
                91.4225082397461,
                22.786272048950195
              ],
              [
                91.24492645263672,
                22.59341049194336
              ],
              [
                90.93775177001953,
                22.529123306274414
              ],
              [
                90.86321258544922,
                22.014829635620117
              ],
              [
                90.6309814453125,
                21.950544357299805
              ],
              [
                90.64935302734375,
                22.079116821289062
              ],
              [
                90.42626953125,
                22.079116821289062
              ],
              [
                90.23202514648438,
                21.7576847076416
              ],
              [
                89.89663696289062,
                22.014829635620117
              ],
              [
                89.86945343017578,
                21.821969985961914
              ],
              [
                89.71179962158203,
                21.7576847076416
              ],
              [
                89.11725616455078,
                21.7576847076416
              ],
              [
                89.09945678710938,
                21.629112243652344
              ],
              [
                88.72795104980469,
                21.629112243652344
              ],
              [
                88.71597290039062,
                22.079116821289062
              ],
              [
                88.64161682128906,
                22.079116821289062
              ],
              [
                88.51387023925781,
                21.693397521972656
              ],
              [
                88.3652572631836,
                21.693397521972656
              ],
              [
                88.34766387939453,
                21.5648250579834
              ],
              [
                88.133544921875,
                21.629112243652344
              ],
              [
                88.17765045166016,
                21.950544357299805
              ],
              [
                87.53044891357422,
                21.5648250579834
              ],
              [
                87.4561538696289,
                21.5648250579834
              ],
              [
                87.25931549072266,
                21.7576847076416
              ],
              [
                87.03636169433594,
                21.7576847076416
              ],
              [
                86.9881591796875,
                21.950544357299805
              ],
              [
                86.83946990966797,
                21.950544357299805
              ],
              [
                86.81784057617188,
                22.33626365661621
              ],
              [
                86.54686737060547,
                22.529123306274414
              ],
              [
                86.59183502197266,
                22.85055923461914
              ],
              [
                86.2939682006836,
                22.85055923461914
              ],
              [
                85.81802368164062,
                23.171995162963867
              ],
              [
                85.1948471069336,
                22.97913360595703
              ],
              [
                84.51158142089844,
                22.33626365661621
              ],
              [
                84.0652084350586,
                22.33626365661621
              ],
              [
                84.02515411376953,
                22.59341049194336
              ],
              [
                84.20014190673828,
                22.786272048950195
              ],
              [
                84.34905242919922,
                22.786272048950195
              ],
              [
                84.45890808105469,
                23.043420791625977
              ],
              [
                84.3099136352539,
                23.043420791625977
              ],
              [
                84.21771240234375,
                22.914846420288086
              ],
              [
                84.00309753417969,
                22.97913360595703
              ],
              [
                83.9912338256836,
                23.429147720336914
              ],
              [
                83.65495300292969,
                23.68630027770996
              ],
              [
                83.6734390258789,
                23.814878463745117
              ],
              [
                83.28201293945312,
                24.200613021850586
              ],
              [
                83.22645568847656,
                24.329193115234375
              ],
              [
                82.93730926513672,
                24.393482208251953
              ],
              [
                82.86260986328125,
                24.393482208251953
              ],
              [
                82.90145874023438,
                24.650644302368164
              ],
              [
                82.44331359863281,
                24.586353302001953
              ],
              [
                82.3880844116211,
                24.714935302734375
              ],
              [
                82.1638412475586,
                24.714935302734375
              ],
              [
                81.84944152832031,
                25.100683212280273
              ],
              [
                81.69982147216797,
                25.100683212280273
              ],
              [
                81.65536499023438,
                25.29355812072754
              ],
              [
                81.92131042480469,
                25.55072784423828
              ],
              [
                82.04936218261719,
                25.8721923828125
              ],
              [
                82.45684814453125,
                26.06507110595703
              ],
              [
                82.78791809082031,
                25.807899475097656
              ],
              [
                83.17349243164062,
                25.8721923828125
              ],
              [
                83.2815933227539,
                26.06507110595703
              ],
              [
                83.61534118652344,
                26.257951736450195
              ],
              [
                84.18131256103516,
                26.06507110595703
              ],
              [
                84.38424682617188,
                26.772293090820312
              ],
              [
                84.10778045654297,
                26.900876998901367
              ],
              [
                83.98041534423828,
                27.41520881652832
              ],
              [
                84.56971740722656,
                27.35091781616211
              ],
              [
                84.75791931152344,
                27.158044815063477
              ],
              [
                84.73326110839844,
                27.029460906982422
              ],
              [
                84.88357543945312,
                27.029460906982422
              ],
              [
                84.9972152709961,
                26.836584091186523
              ],
              [
                85.2734603881836,
                26.70800018310547
              ],
              [
                85.73619079589844,
                26.772293090820312
              ],
              [
                85.78701782226562,
                26.643707275390625
              ],
              [
                86.3125991821289,
                26.643707275390625
              ],
              [
                86.65162658691406,
                26.450830459594727
              ],
              [
                87.11405181884766,
                26.515121459960938
              ],
              [
                87.23990631103516,
                26.386537551879883
              ],
              [
                87.99026489257812,
                26.386537551879883
              ],
              [
                88.16487884521484,
                26.515121459960938
              ],
              [
                88.16495513916016,
                26.900876998901367
              ],
              [
                89.05371856689453,
                26.836584091186523
              ],
              [
                89.04094696044922,
                26.772293090820312
              ],
              [
                89.11605834960938,
                26.772293090820312
              ],
              [
                89.10334014892578,
                26.70800018310547
              ],
              [
                89.17843627929688,
                26.70800018310547
              ],
              [
                89.8161849975586,
                26.515121459960938
              ],
              [
                89.89125061035156,
                26.515121459960938
              ]
            ]
          ],
          [
            [
              [
                -89.81464385986328,
                47.993770599365234
              ],
              [
                -89.98009490966797,
                47.993770599365234
              ],
              [
                -89.93704986572266,
                47.92780685424805
              ],
              [
                -90.01973724365234,
                47.92780685424805
              ],
              [
                -90.2677993774414,
                47.92780685424805
              ],
              [
                -90.52413940429688,
                48.191749572753906
              ],
              [
                -90.02715301513672,
                48.191749572753906
              ],
              [
                -89.81464385986328,
                47.993770599365234
              ]
            ]
          ]
        ]
      }
    }
  ]
}
