{
  "type": "FeatureCollection",
  "features": [
    {
      "type": "Feature",
      "properties": {
        "Name": "Portuguese Colonies",
        "FromYear": 1640,
        "ToYear": 1647,
        "Area": 101958.27978578935,
        "Type": "POLITY",
        "Wikipedia": "Portuguese Empire",
        "Wikidata": "Q200464",
        "SeshatID": "pt_portuguese_emp_2",
        "Components": "",
        "MemberOf": "(Portuguese Empire)",
        "displayYear": 1644,
        "sourceYear": 1644,
        "mappedTerritoryId": "cliopatria_portuguese_colonies"
      },
      "geometry": {
        "type": "MultiPolygon",
        "coordinates": [
          [
            [
              [
                80.37479400634766,
                8.514476776123047
              ],
              [
                80.47172546386719,
                7.678738594055176
              ],
              [
                80.61042022705078,
                7.550163269042969
              ],
              [
                80.52313995361328,
                7.293012619018555
              ],
              [
                80.37368774414062,
                7.228724956512451
              ],
              [
                80.36324310302734,
                7.035862445831299
              ],
              [
                80.50569152832031,
                6.971574783325195
              ],
              [
                80.49884796142578,
                6.842999458312988
              ],
              [
                80.71427917480469,
                6.778711795806885
              ],
              [
                80.69425201416016,
                6.392985820770264
              ],
              [
                80.83682250976562,
                6.328698635101318
              ],
              [
                80.89362335205078,
                6.007260322570801
              ],
              [
                80.89044952392578,
                5.942972660064697
              ],
              [
                80.23114776611328,
                5.878684997558594
              ],
              [
                79.95211029052734,
                6.135835647583008
              ],
              [
                79.75935363769531,
                6.650136470794678
              ],
              [
                79.74190521240234,
                7.678738594055176
              ],
              [
                79.61796569824219,
                8.06446361541748
              ],
              [
                79.76396942138672,
                8.06446361541748
              ],
              [
                79.8062515258789,
                8.771627426147461
              ],
              [
                80.04952239990234,
                9.157352447509766
              ],
              [
                79.99295806884766,
                9.41450309753418
              ],
              [
                80.0786361694336,
                9.607365608215332
              ],
              [
                79.86360931396484,
                9.671652793884277
              ],
              [
                79.87643432617188,
                9.86451530456543
              ],
              [
                80.45260620117188,
                9.735940933227539
              ],
              [
                80.52141571044922,
                9.671652793884277
              ],
              [
                80.4398193359375,
                9.543078422546387
              ],
              [
                80.72791290283203,
                9.478790283203125
              ],
              [
                80.7195053100586,
                9.350214958190918
              ],
              [
                81.06002807617188,
                8.964489936828613
              ],
              [
                81.05596923828125,
                8.900202751159668
              ],
              [
                80.75175476074219,
                8.707340240478516
              ],
              [
                80.74778747558594,
                8.643052101135254
              ],
              [
                80.52869415283203,
                8.643052101135254
              ],
              [
                80.37479400634766,
                8.514476776123047
              ]
            ]
          ],
          [
            [
              [
                76.20915222167969,
                9.671652793884277
              ],
              [
                76.3553237915039,
                9.671652793884277
              ],
              [
                76.36347961425781,
                9.800228118896484
              ],
              [
                76.22550964355469,
                9.928803443908691
              ],
              [
                76.448974609375,
                9.993090629577637
              ],
              [
                76.58277130126953,
                9.800228118896484
              ],
              [
                76.57867431640625,
                9.735940933227539
              ],
              [
                76.5584716796875,
                9.41450309753418
              ],
              [
                76.26221466064453,
                9.350214958190918
              ],
              [
                76.20915222167969,
                9.671652793884277
              ]
            ]
          ],
          [
            [
              [
                79.85142885692666,
                10.828827857971191
              ],
              [
                79.87030029296875,
                10.828827857971191
              ],
              [
                79.86567687988281,
                10.764540672302246
              ],
              [
                79.86319166784804,
                10.72981261607007
              ],
              [
                79.85049699795815,
                10.82023413956879
              ],
              [
                79.85142885692666,
                10.828827857971191
              ]
            ]
          ],
          [
            [
              [
                75.94633483886719,
                11.214552879333496
              ],
              [
                75.92837524414062,
                10.957403182983398
              ],
              [
                75.78202819824219,
                10.957403182983398
              ],
              [
                75.72225189208984,
                11.15026569366455
              ],
              [
                75.72676849365234,
                11.214552879333496
              ],
              [
                75.58946228027344,
                11.343128204345703
              ],
              [
                75.81363677978516,
                11.407415390014648
              ],
              [
                75.94633483886719,
                11.214552879333496
              ]
            ]
          ],
          [
            [
              [
                75.4117202758789,
                11.92171573638916
              ],
              [
                75.26524353027344,
                11.92171573638916
              ],
              [
                75.20634460449219,
                12.114578247070312
              ],
              [
                75.06465148925781,
                12.178865432739258
              ],
              [
                75.06949615478516,
                12.24315357208252
              ],
              [
                75.29417419433594,
                12.307440757751465
              ],
              [
                75.43094635009766,
                12.178865432739258
              ],
              [
                75.4117202758789,
                11.92171573638916
              ]
            ]
          ],
          [
            [
              [
                73.86363220214844,
                15.328963279724121
              ],
              [
                73.79009246826172,
                15.328963279724121
              ],
              [
                73.79620361328125,
                15.393251419067383
              ],
              [
                73.8023452758789,
                15.457538604736328
              ],
              [
                74.10276794433594,
                15.52182674407959
              ],
              [
                74.51935577392578,
                15.26467514038086
              ],
              [
                74.55064392089844,
                14.81466007232666
              ],
              [
                74.3125991821289,
                14.621796607971191
              ],
              [
                74.23912811279297,
                14.621796607971191
              ],
              [
                73.9189682006836,
                15.136098861694336
              ],
              [
                73.92501068115234,
                15.200387001037598
              ],
              [
                73.93107604980469,
                15.26467514038086
              ],
              [
                73.8575439453125,
                15.26467514038086
              ],
              [
                73.86363220214844,
                15.328963279724121
              ]
            ]
          ],
          [
            [
              [
                72.86790466308594,
                19.25051498413086
              ],
              [
                72.87482452392578,
                19.314802169799805
              ],
              [
                73.10379028320312,
                19.379087448120117
              ],
              [
                73.08295440673828,
                19.186227798461914
              ],
              [
                73.07601165771484,
                19.12194061279297
              ],
              [
                72.98817443847656,
                18.993366241455078
              ],
              [
                72.84024810791016,
                18.993366241455078
              ],
              [
                72.86790466308594,
                19.25051498413086
              ]
            ]
          ],
          [
            [
              [
                73.1940689086914,
                20.214815139770508
              ],
              [
                73.1801986694336,
                20.08624267578125
              ],
              [
                72.89068603515625,
                20.150527954101562
              ],
              [
                73.11994934082031,
                20.214815139770508
              ],
              [
                73.1940689086914,
                20.214815139770508
              ]
            ]
          ],
          [
            [
              [
                124.86688995361328,
                -9.743202209472656
              ],
              [
                124.59284210205078,
                -9.936064720153809
              ],
              [
                124.60526275634766,
                -10.064640045166016
              ],
              [
                124.45903015136719,
                -10.064640045166016
              ],
              [
                124.39846801757812,
                -10.193214416503906
              ],
              [
                124.10598754882812,
                -10.193214416503906
              ],
              [
                123.83252716064453,
                -10.386076927185059
              ],
              [
                123.32059478759766,
                -10.386076927185059
              ],
              [
                123.30165100097656,
                -10.193214416503906
              ],
              [
                123.5147705078125,
                -10.128927230834961
              ],
              [
                123.41707611083984,
                -9.871777534484863
              ],
              [
                123.67955780029297,
                -9.550339698791504
              ],
              [
                123.66786193847656,
                -9.421764373779297
              ],
              [
                123.94285583496094,
                -9.228901863098145
              ],
              [
                124.51596069335938,
                -9.100326538085938
              ],
              [
                124.98307037353516,
                -8.586026191711426
              ],
              [
                126.50582885742188,
                -8.457450866699219
              ],
              [
                126.64117431640625,
                -8.328875541687012
              ],
              [
                127.23064422607422,
                -8.393163681030273
              ],
              [
                127.17391204833984,
                -8.586026191711426
              ],
              [
                126.89839172363281,
                -8.778888702392578
              ],
              [
                126.67927551269531,
                -8.778888702392578
              ],
              [
                126.61746215820312,
                -8.907464027404785
              ],
              [
                125.83672332763672,
                -9.1646146774292
              ],
              [
                125.76366424560547,
                -9.1646146774292
              ],
              [
                125.05628204345703,
                -9.421764373779297
              ],
              [
                124.85484313964844,
                -9.61462688446045
              ],
              [
                124.86688995361328,
                -9.743202209472656
              ]
            ]
          ],
          [
            [
              [
                122.79222869873047,
                -8.586026191711426
              ],
              [
                122.7087173461914,
                -8.457450866699219
              ],
              [
                122.65679168701172,
                -8.714601516723633
              ],
              [
                122.36465454101562,
                -8.714601516723633
              ],
              [
                122.27579498291016,
                -8.52173900604248
              ],
              [
                122.47933959960938,
                -8.328875541687012
              ],
              [
                122.6253662109375,
                -8.328875541687012
              ],
              [
                122.60514831542969,
                -8.071725845336914
              ],
              [
                122.82415008544922,
                -8.071725845336914
              ],
              [
                122.91230010986328,
                -8.264588356018066
              ],
              [
                123.204345703125,
                -8.264588356018066
              ],
              [
                123.21465301513672,
                -8.393163681030273
              ],
              [
                123.27735900878906,
                -8.264588356018066
              ],
              [
                123.78330993652344,
                -8.200301170349121
              ],
              [
                123.72578430175781,
                -8.393163681030273
              ],
              [
                123.51195526123047,
                -8.457450866699219
              ],
              [
                123.52250671386719,
                -8.586026191711426
              ],
              [
                123.1573715209961,
                -8.586026191711426
              ],
              [
                123.15208435058594,
                -8.52173900604248
              ],
              [
                123.00080108642578,
                -8.457450866699219
              ],
              [
                122.93828582763672,
                -8.586026191711426
              ],
              [
                122.79222869873047,
                -8.586026191711426
              ]
            ]
          ],
          [
            [
              [
                124.36225891113281,
                -8.13601303100586
              ],
              [
                125.02445220947266,
                -8.200301170349121
              ],
              [
                124.97238159179688,
                -8.457450866699219
              ],
              [
                124.2474594116211,
                -8.52173900604248
              ],
              [
                124.15867614746094,
                -8.328875541687012
              ],
              [
                124.17443084716797,
                -8.52173900604248
              ],
              [
                123.96067810058594,
                -8.586026191711426
              ],
              [
                123.80403900146484,
                -8.457450866699219
              ],
              [
                123.79879760742188,
                -8.393163681030273
              ],
              [
                124.00233459472656,
                -8.200301170349121
              ],
              [
                124.37252807617188,
                -8.264588356018066
              ],
              [
                124.36225891113281,
                -8.13601303100586
              ]
            ]
          ],
          [
            [
              [
                101.71080780029297,
                2.407152891159058
              ],
              [
                101.71343231201172,
                2.471440553665161
              ],
              [
                101.71607971191406,
                2.535728216171265
              ],
              [
                102.01812744140625,
                2.7928786277771
              ],
              [
                102.10211181640625,
                3.050029039382935
              ],
              [
                102.39056396484375,
                2.985741376876831
              ],
              [
                102.67071533203125,
                2.728590965270996
              ],
              [
                102.58448791503906,
                2.407152891159058
              ],
              [
                102.43366241455078,
                2.27857780456543
              ],
              [
                102.50389099121094,
                2.214290142059326
              ],
              [
                102.42349243164062,
                2.021427392959595
              ],
              [
                102.35069274902344,
                2.021427392959595
              ],
              [
                101.85122680664062,
                2.27857780456543
              ],
              [
                101.85381317138672,
                2.342865228652954
              ],
              [
                101.781005859375,
                2.342865228652954
              ],
              [
                101.78361511230469,
                2.407152891159058
              ],
              [
                101.71080780029297,
                2.407152891159058
              ]
            ]
          ],
          [
            [
              [
                81.91669464111328,
                7.421587944030762
              ],
              [
                81.91307067871094,
                7.357300281524658
              ],
              [
                81.90946960449219,
                7.293012619018555
              ],
              [
                81.6905746459961,
                7.293012619018555
              ],
              [
                81.41681671142578,
                7.614450931549072
              ],
              [
                81.42791748046875,
                7.807313442230225
              ],
              [
                81.650634765625,
                7.871601104736328
              ],
              [
                81.64688110351562,
                7.807313442230225
              ],
              [
                81.64315795898438,
                7.743025779724121
              ],
              [
                81.71614074707031,
                7.743025779724121
              ],
              [
                81.71243286132812,
                7.678738594055176
              ],
              [
                81.78540802001953,
                7.678738594055176
              ],
              [
                81.7817153930664,
                7.614450931549072
              ],
              [
                81.77803802490234,
                7.550163269042969
              ],
              [
                81.77438354492188,
                7.485875606536865
              ],
              [
                81.84735870361328,
                7.485875606536865
              ],
              [
                81.84371948242188,
                7.421587944030762
              ],
              [
                81.91669464111328,
                7.421587944030762
              ]
            ]
          ],
          [
            [
              [
                81.32410430908203,
                8.514476776123047
              ],
              [
                81.39713287353516,
                8.514476776123047
              ],
              [
                81.39319610595703,
                8.450189590454102
              ],
              [
                81.38927459716797,
                8.385902404785156
              ],
              [
                81.09332275390625,
                8.321614265441895
              ],
              [
                81.03594970703125,
                8.578764915466309
              ],
              [
                81.10897827148438,
                8.578764915466309
              ],
              [
                81.11294555664062,
                8.643052101135254
              ],
              [
                81.18597412109375,
                8.643052101135254
              ],
              [
                81.2590103149414,
                8.643052101135254
              ],
              [
                81.25503540039062,
                8.578764915466309
              ],
              [
                81.25108337402344,
                8.514476776123047
              ],
              [
                81.32410430908203,
                8.514476776123047
              ]
            ]
          ],
          [
            [
              [
                113.56431579589844,
                22.143402099609375
              ],
              [
                113.48994445800781,
                22.143402099609375
              ],
              [
                113.41557312011719,
                22.143402099609375
              ],
              [
                113.4513931274414,
                22.33626365661621
              ],
              [
                113.68661499023438,
                22.400548934936523
              ],
              [
                113.67457580566406,
                22.33626365661621
              ],
              [
                113.6625747680664,
                22.271976470947266
              ],
              [
                113.6506118774414,
                22.20768928527832
              ],
              [
                113.63867950439453,
                22.143402099609375
              ],
              [
                113.56431579589844,
                22.143402099609375
              ]
            ]
          ]
        ]
      }
    }
  ]
}
