{
  "type": "FeatureCollection",
  "features": [
    {
      "type": "Feature",
      "properties": {
        "Name": "Chola Empire",
        "FromYear": 1040,
        "ToYear": 1055,
        "Area": 512426.580641265,
        "Type": "POLITY",
        "Wikipedia": "Chola Empire",
        "Wikidata": "Q6806806",
        "SeshatID": "in_chola_emp",
        "Components": "",
        "MemberOf": "",
        "displayYear": 1044,
        "sourceYear": 1044,
        "mappedTerritoryId": "cliopatria_chola_empire"
      },
      "geometry": {
        "type": "MultiPolygon",
        "coordinates": [
          [
            [
              [
                81.25503540039062,
                8.578764915466309
              ],
              [
                81.39713287353516,
                8.514476776123047
              ],
              [
                81.44681549072266,
                8.128751754760742
              ],
              [
                81.65440368652344,
                7.935888767242432
              ],
              [
                81.77438354492188,
                7.485875606536865
              ],
              [
                81.91669464111328,
                7.421587944030762
              ],
              [
                81.87792205810547,
                6.714424133300781
              ],
              [
                81.33750915527344,
                6.135835647583008
              ],
              [
                80.6685791015625,
                5.878684997558594
              ],
              [
                80.23114776611328,
                5.878684997558594
              ],
              [
                79.95211029052734,
                6.135835647583008
              ],
              [
                79.75935363769531,
                6.650136470794678
              ],
              [
                79.74190521240234,
                7.678738594055176
              ],
              [
                79.60686492919922,
                7.871601104736328
              ],
              [
                79.61796569824219,
                8.06446361541748
              ],
              [
                79.76396942138672,
                8.06446361541748
              ],
              [
                79.8062515258789,
                8.771627426147461
              ],
              [
                80.04952239990234,
                9.157352447509766
              ],
              [
                79.99295806884766,
                9.41450309753418
              ],
              [
                80.0786361694336,
                9.607365608215332
              ],
              [
                79.86360931396484,
                9.671652793884277
              ],
              [
                79.87643432617188,
                9.86451530456543
              ],
              [
                80.45260620117188,
                9.735940933227539
              ],
              [
                80.52141571044922,
                9.671652793884277
              ],
              [
                80.4398193359375,
                9.543078422546387
              ],
              [
                80.72791290283203,
                9.478790283203125
              ],
              [
                80.7195053100586,
                9.350214958190918
              ],
              [
                80.86146545410156,
                9.285927772521973
              ],
              [
                80.8531723022461,
                9.157352447509766
              ],
              [
                80.99517059326172,
                9.09306526184082
              ],
              [
                80.98698425292969,
                8.964489936828613
              ],
              [
                81.2590103149414,
                8.643052101135254
              ],
              [
                81.25503540039062,
                8.578764915466309
              ]
            ]
          ],
          [
            [
              [
                82.61354064941406,
                17.257600784301758
              ],
              [
                82.36188507080078,
                17.000450134277344
              ],
              [
                82.3832015991211,
                16.550434112548828
              ],
              [
                82.22111511230469,
                16.421857833862305
              ],
              [
                81.32273864746094,
                16.293283462524414
              ],
              [
                81.11875915527344,
                15.77897834777832
              ],
              [
                80.61058044433594,
                15.843266487121582
              ],
              [
                80.20161437988281,
                15.457538604736328
              ],
              [
                80.0882339477539,
                15.07181167602539
              ],
              [
                80.21576690673828,
                14.878947257995605
              ],
              [
                80.20819854736328,
                14.043206214904785
              ],
              [
                80.2816162109375,
                14.043206214904785
              ],
              [
                80.16102600097656,
                13.528904914855957
              ],
              [
                80.3077621459961,
                13.528904914855957
              ],
              [
                80.43157196044922,
                13.271754264831543
              ],
              [
                80.30301666259766,
                12.628878593444824
              ],
              [
                79.8844223022461,
                11.986002922058105
              ],
              [
                79.90264892578125,
                10.250240325927734
              ],
              [
                79.3176498413086,
                10.250240325927734
              ],
              [
                79.29590606689453,
                9.928803443908691
              ],
              [
                78.98654174804688,
                9.671652793884277
              ],
              [
                78.95767211914062,
                9.221640586853027
              ],
              [
                78.58833312988281,
                9.157352447509766
              ],
              [
                78.28418731689453,
                8.964489936828613
              ],
              [
                78.1802749633789,
                8.450189590454102
              ],
              [
                77.87327575683594,
                8.193038940429688
              ],
              [
                77.57392883300781,
                8.06446361541748
              ],
              [
                77.1395492553711,
                8.128751754760742
              ],
              [
                76.72357177734375,
                8.514476776123047
              ],
              [
                76.53102111816406,
                8.964489936828613
              ],
              [
                76.38877868652344,
                9.028778076171875
              ],
              [
                76.33528137207031,
                9.350214958190918
              ],
              [
                76.19708251953125,
                9.478790283203125
              ],
              [
                76.20915222167969,
                9.671652793884277
              ],
              [
                76.3553237915039,
                9.671652793884277
              ],
              [
                76.36347961425781,
                9.800228118896484
              ],
              [
                76.22138977050781,
                9.86451530456543
              ],
              [
                76.23381042480469,
                10.057377815246582
              ],
              [
                75.90209197998047,
                10.571678161621094
              ],
              [
                75.72676849365234,
                11.214552879333496
              ],
              [
                75.58491516113281,
                11.278841018676758
              ],
              [
                75.3384780883789,
                11.92171573638916
              ],
              [
                75.06465148925781,
                12.178865432739258
              ],
              [
                74.74769592285156,
                12.821741104125977
              ],
              [
                74.59564971923828,
                13.657480239868164
              ],
              [
                74.60106658935547,
                13.721768379211426
              ],
              [
                75.19917297363281,
                13.850343704223633
              ],
              [
                75.69088745117188,
                14.428933143615723
              ],
              [
                76.13748931884766,
                14.493220329284668
              ],
              [
                76.52273559570312,
                14.686083793640137
              ],
              [
                76.547119140625,
                14.943235397338867
              ],
              [
                77.00688171386719,
                15.136098861694336
              ],
              [
                77.20539855957031,
                15.650403022766113
              ],
              [
                77.77410125732422,
                16.16470718383789
              ],
              [
                78.16292572021484,
                16.35757064819336
              ],
              [
                78.38388061523438,
                16.35757064819336
              ],
              [
                78.37003326416016,
                16.228994369506836
              ],
              [
                78.5173110961914,
                16.228994369506836
              ],
              [
                78.70657348632812,
                16.614723205566406
              ],
              [
                79.33192443847656,
                16.9361629486084
              ],
              [
                79.66334533691406,
                17.257600784301758
              ],
              [
                80.03952026367188,
                17.321889877319336
              ],
              [
                81.05905151367188,
                17.836191177368164
              ],
              [
                81.13287353515625,
                17.836191177368164
              ],
              [
                81.22203063964844,
                17.964767456054688
              ],
              [
                82.14712524414062,
                18.286205291748047
              ],
              [
                82.95186614990234,
                18.2219181060791
              ],
              [
                83.09169006347656,
                18.157629013061523
              ],
              [
                83.31619262695312,
                17.57904052734375
              ],
              [
                82.68729400634766,
                17.257600784301758
              ],
              [
                82.61354064941406,
                17.257600784301758
              ]
            ]
          ]
        ]
      }
    }
  ]
}
