{
  "type": "FeatureCollection",
  "features": [
    {
      "type": "Feature",
      "properties": {
        "Name": "Pala Empire",
        "FromYear": 962,
        "ToYear": 979,
        "Area": 193369.2836996056,
        "Type": "POLITY",
        "Wikipedia": "Pala Empire",
        "Wikidata": "Q668412",
        "SeshatID": "in_pala_emp",
        "Components": "",
        "MemberOf": "",
        "displayYear": 975,
        "sourceYear": 975,
        "mappedTerritoryId": "cliopatria_pala_empire"
      },
      "geometry": {
        "type": "MultiPolygon",
        "coordinates": [
          [
            [
              [
                91.0677490234375,
                22.400548934936523
              ],
              [
                91.21656036376953,
                22.400548934936523
              ],
              [
                91.2628402709961,
                22.20768928527832
              ],
              [
                91.0304183959961,
                22.143402099609375
              ],
              [
                91.0583724975586,
                22.33626365661621
              ],
              [
                91.0677490234375,
                22.400548934936523
              ]
            ]
          ],
          [
            [
              [
                87.59009552001953,
                25.422143936157227
              ],
              [
                88.46592712402344,
                25.29355812072754
              ],
              [
                88.59330749511719,
                25.164974212646484
              ],
              [
                89.27790069580078,
                25.229267120361328
              ],
              [
                90.37499237060547,
                24.650644302368164
              ],
              [
                90.53498840332031,
                24.264904022216797
              ],
              [
                90.50364685058594,
                24.07203483581543
              ],
              [
                90.57828521728516,
                24.07203483581543
              ],
              [
                90.57144927978516,
                23.557723999023438
              ],
              [
                90.64601135253906,
                23.557723999023438
              ],
              [
                90.64187622070312,
                23.043420791625977
              ],
              [
                90.5385513305664,
                22.85055923461914
              ],
              [
                90.68748474121094,
                22.85055923461914
              ],
              [
                90.79834747314453,
                22.59341049194336
              ],
              [
                90.93775177001953,
                22.529123306274414
              ],
              [
                90.86321258544922,
                22.014829635620117
              ],
              [
                90.6309814453125,
                21.950544357299805
              ],
              [
                90.64935302734375,
                22.079116821289062
              ],
              [
                90.42626953125,
                22.079116821289062
              ],
              [
                90.3154067993164,
                21.821969985961914
              ],
              [
                90.15770721435547,
                21.7576847076416
              ],
              [
                89.89663696289062,
                22.014829635620117
              ],
              [
                89.86945343017578,
                21.821969985961914
              ],
              [
                89.71179962158203,
                21.7576847076416
              ],
              [
                89.11725616455078,
                21.7576847076416
              ],
              [
                89.09945678710938,
                21.629112243652344
              ],
              [
                88.72795104980469,
                21.629112243652344
              ],
              [
                88.71597290039062,
                22.079116821289062
              ],
              [
                88.64161682128906,
                22.079116821289062
              ],
              [
                88.51387023925781,
                21.693397521972656
              ],
              [
                88.19908142089844,
                21.5648250579834
              ],
              [
                88.20438385009766,
                22.143402099609375
              ],
              [
                87.99917602539062,
                22.271976470947266
              ],
              [
                87.88645935058594,
                22.529123306274414
              ],
              [
                85.92020416259766,
                23.36486053466797
              ],
              [
                85.86429595947266,
                23.493436813354492
              ],
              [
                84.8861083984375,
                23.943456649780273
              ],
              [
                84.16838836669922,
                24.136323928833008
              ],
              [
                84.04798889160156,
                24.329193115234375
              ],
              [
                84.09371185302734,
                25.100683212280273
              ],
              [
                84.38172149658203,
                25.48643684387207
              ],
              [
                84.70298767089844,
                25.615020751953125
              ],
              [
                86.42561340332031,
                25.615020751953125
              ],
              [
                87.51522827148438,
                25.422143936157227
              ],
              [
                87.59009552001953,
                25.422143936157227
              ]
            ]
          ]
        ]
      }
    }
  ]
}
