{
  "type": "FeatureCollection",
  "features": [
    {
      "type": "Feature",
      "properties": {
        "Name": "Kingdom of León",
        "FromYear": 961,
        "ToYear": 989,
        "Area": 144144.22881810894,
        "Type": "POLITY",
        "Wikipedia": "Kingdom of León",
        "Wikidata": "Q175276",
        "SeshatID": "es_leon_k",
        "Components": "",
        "MemberOf": "",
        "displayYear": 979,
        "sourceYear": 979,
        "mappedTerritoryId": "cliopatria_kingdom_of_le_n"
      },
      "geometry": {
        "type": "Polygon",
        "coordinates": [
          [
            [
              -5.726631164550781,
              43.53750228881836
            ],
            [
              -7.175715446472168,
              43.53750228881836
            ],
            [
              -7.343485832214355,
              43.6026611328125
            ],
            [
              -7.276463031768799,
              43.73301696777344
            ],
            [
              -8.243616104125977,
              43.73301696777344
            ],
            [
              -8.39044189453125,
              43.6026611328125
            ],
            [
              -8.369025230407715,
              43.407203674316406
            ],
            [
              -8.851689338684082,
              43.407203674316406
            ],
            [
              -9.30460262298584,
              43.146724700927734
            ],
            [
              -9.078654289245605,
              42.56119155883789
            ],
            [
              -8.918540954589844,
              42.56119155883789
            ],
            [
              -8.9043550491333,
              42.43117141723633
            ],
            [
              -8.65042495727539,
              42.30118942260742
            ],
            [
              -8.956093788146973,
              42.17123794555664
            ],
            [
              -8.72695255279541,
              40.74397277832031
            ],
            [
              -8.872282981872559,
              40.614410400390625
            ],
            [
              -8.846114158630371,
              40.355369567871094
            ],
            [
              -8.925222396850586,
              40.355369567871094
            ],
            [
              -8.899272918701172,
              40.0964469909668
            ],
            [
              -8.978275299072266,
              40.0964469909668
            ],
            [
              -8.97181224822998,
              40.031734466552734
            ],
            [
              -8.327553749084473,
              39.90232849121094
            ],
            [
              -8.182049751281738,
              40.031734466552734
            ],
            [
              -8.194473266601562,
              40.16116714477539
            ],
            [
              -7.799330711364746,
              40.16116714477539
            ],
            [
              -7.507350444793701,
              40.42012023925781
            ],
            [
              -6.721826076507568,
              40.4848747253418
            ],
            [
              -6.631107807159424,
              40.355369567871094
            ],
            [
              -6.472893238067627,
              40.355369567871094
            ],
            [
              -6.405184268951416,
              40.4848747253418
            ],
            [
              -6.094161033630371,
              40.54964065551758
            ],
            [
              -5.913626670837402,
              40.29063034057617
            ],
            [
              -5.602712154388428,
              40.355369567871094
            ],
            [
              -5.333653450012207,
              39.9670295715332
            ],
            [
              -5.017851829528809,
              39.9670295715332
            ],
            [
              -4.707091808319092,
              40.031734466552734
            ],
            [
              -4.717220783233643,
              40.16116714477539
            ],
            [
              -4.480135440826416,
              40.16116714477539
            ],
            [
              -4.035295486450195,
              40.54964065551758
            ],
            [
              -3.8769211769104,
              40.54964065551758
            ],
            [
              -3.728225946426392,
              40.6791877746582
            ],
            [
              -3.742851734161377,
              40.873565673828125
            ],
            [
              -4.508909225463867,
              41.521995544433594
            ],
            [
              -4.455811977386475,
              41.84651184082031
            ],
            [
              -4.157865047454834,
              42.10627746582031
            ],
            [
              -4.20598316192627,
              42.691246032714844
            ],
            [
              -4.286098957061768,
              42.691246032714844
            ],
            [
              -4.427267551422119,
              43.407203674316406
            ],
            [
              -4.507711410522461,
              43.407203674316406
            ],
            [
              -5.646126270294189,
              43.53750228881836
            ],
            [
              -5.726631164550781,
              43.53750228881836
            ]
          ]
        ]
      }
    }
  ]
}
