{
  "type": "FeatureCollection",
  "features": [
    {
      "type": "Feature",
      "properties": {
        "Name": "Halych-Volhynia occupation",
        "FromYear": 1206,
        "ToYear": 1235,
        "Area": 333047.44746528944,
        "Type": "POLITY",
        "Wikipedia": "Kingdom of Galicia-Volhynia",
        "Wikidata": "Q239502",
        "SeshatID": "",
        "Components": "",
        "MemberOf": "",
        "displayYear": 1215,
        "sourceYear": 1215,
        "mappedTerritoryId": "cliopatria_halych_volhynia_occupation"
      },
      "geometry": {
        "type": "MultiPolygon",
        "coordinates": [
          [
            [
              [
                34.82337951660156,
                45.62776184082031
              ],
              [
                34.98639678955078,
                45.62776184082031
              ],
              [
                35.01994323730469,
                45.300437927246094
              ],
              [
                36.42308807373047,
                45.431331634521484
              ],
              [
                36.37263107299805,
                45.10417556762695
              ],
              [
                36.20014190673828,
                45.03877639770508
              ],
              [
                35.40727996826172,
                45.169586181640625
              ],
              [
                35.39760208129883,
                45.10417556762695
              ],
              [
                34.56639862060547,
                44.973392486572266
              ],
              [
                34.3947639465332,
                44.908016204833984
              ],
              [
                34.376285552978516,
                44.77729415893555
              ],
              [
                34.03373718261719,
                44.64661407470703
              ],
              [
                33.55644607543945,
                44.71194839477539
              ],
              [
                33.56534957885742,
                44.77729415893555
              ],
              [
                33.61005401611328,
                45.10417556762695
              ],
              [
                33.465389251708984,
                45.23500442504883
              ],
              [
                33.221439361572266,
                45.23500442504883
              ],
              [
                32.60533905029297,
                45.496795654296875
              ],
              [
                33.70957565307617,
                45.82429504394531
              ],
              [
                33.73704528808594,
                46.02093505859375
              ],
              [
                34.15492630004883,
                46.08650588989258
              ],
              [
                34.544586181640625,
                45.95537567138672
              ],
              [
                34.74187088012695,
                45.62776184082031
              ],
              [
                34.82337951660156,
                45.62776184082031
              ]
            ]
          ],
          [
            [
              [
                29.58445930480957,
                45.431331634521484
              ],
              [
                29.66587257385254,
                45.431331634521484
              ],
              [
                29.658414840698242,
                45.36587905883789
              ],
              [
                29.57703399658203,
                45.36587905883789
              ],
              [
                29.58445930480957,
                45.431331634521484
              ]
            ]
          ],
          [
            [
              [
                38.6794548034668,
                47.20316696166992
              ],
              [
                37.51609802246094,
                47.13737487792969
              ],
              [
                37.16523361206055,
                47.005828857421875
              ],
              [
                37.2257080078125,
                46.87434005737305
              ],
              [
                36.90787887573242,
                46.94007873535156
              ],
              [
                36.80437088012695,
                46.808616638183594
              ],
              [
                35.634639739990234,
                46.677207946777344
              ],
              [
                35.24697494506836,
                46.283294677734375
              ],
              [
                34.75596237182617,
                46.283294677734375
              ],
              [
                34.736690521240234,
                46.1520881652832
              ],
              [
                34.0825309753418,
                46.1520881652832
              ],
              [
                34.019439697265625,
                46.283294677734375
              ],
              [
                33.610260009765625,
                46.283294677734375
              ],
              [
                33.59191131591797,
                46.1520881652832
              ],
              [
                32.946651458740234,
                46.21768569946289
              ],
              [
                32.84713363647461,
                46.08650588989258
              ],
              [
                32.683658599853516,
                46.08650588989258
              ],
              [
                32.0639533996582,
                46.348915100097656
              ],
              [
                31.81834602355957,
                46.348915100097656
              ],
              [
                31.835351943969727,
                46.480194091796875
              ],
              [
                32.16309356689453,
                46.480194091796875
              ],
              [
                32.18914794921875,
                46.677207946777344
              ],
              [
                32.03373336791992,
                46.74290466308594
              ],
              [
                31.787527084350586,
                46.74290466308594
              ],
              [
                31.606428146362305,
                46.61152267456055
              ],
              [
                30.87657928466797,
                46.677207946777344
              ],
              [
                30.297666549682617,
                45.95537567138672
              ],
              [
                30.044963836669922,
                45.889827728271484
              ],
              [
                29.85890007019043,
                45.693260192871094
              ],
              [
                29.614274978637695,
                45.693260192871094
              ],
              [
                29.591896057128906,
                45.496795654296875
              ],
              [
                29.58445930480957,
                45.431331634521484
              ],
              [
                29.095985412597656,
                45.431331634521484
              ],
              [
                28.667741775512695,
                45.23500442504883
              ],
              [
                28.34939956665039,
                45.300437927246094
              ],
              [
                28.281864166259766,
                45.431331634521484
              ],
              [
                27.77996253967285,
                45.300437927246094
              ],
              [
                27.630565643310547,
                45.431331634521484
              ],
              [
                26.979267120361328,
                45.431331634521484
              ],
              [
                26.434162139892578,
                45.693260192871094
              ],
              [
                26.02040672302246,
                45.62776184082031
              ],
              [
                25.950939178466797,
                45.75876998901367
              ],
              [
                25.712154388427734,
                45.82429504394531
              ],
              [
                25.905540466308594,
                46.1520881652832
              ],
              [
                25.748003005981445,
                46.21768569946289
              ],
              [
                25.708343505859375,
                46.677207946777344
              ],
              [
                25.416061401367188,
                47.07159423828125
              ],
              [
                25.75118064880371,
                47.13737487792969
              ],
              [
                26.105649948120117,
                47.4006233215332
              ],
              [
                26.435287475585938,
                47.4006233215332
              ],
              [
                27.142614364624023,
                47.86185836791992
              ],
              [
                28.578052520751953,
                48.1257438659668
              ],
              [
                29.031408309936523,
                48.455936431884766
              ],
              [
                29.162776947021484,
                48.852684020996094
              ],
              [
                29.353984832763672,
                49.051273345947266
              ],
              [
                29.387527465820312,
                49.316287994384766
              ],
              [
                31.5667724609375,
                49.38258361816406
              ],
              [
                35.407379150390625,
                49.38258361816406
              ],
              [
                37.2090950012207,
                49.64793395996094
              ],
              [
                37.59345626831055,
                49.91355895996094
              ],
              [
                37.60602951049805,
                49.98000717163086
              ],
              [
                37.786407470703125,
                50.04647445678711
              ],
              [
                38.018856048583984,
                50.37908172607422
              ],
              [
                37.992820739746094,
                50.2459831237793
              ],
              [
                38.289669036865234,
                50.04647445678711
              ],
              [
                38.26384353637695,
                49.91355895996094
              ],
              [
                38.3476448059082,
                49.91355895996094
              ],
              [
                38.49656295776367,
                49.38258361816406
              ],
              [
                38.65088653564453,
                49.316287994384766
              ],
              [
                38.68401336669922,
                49.051273345947266
              ],
              [
                38.908817291259766,
                48.91886520385742
              ],
              [
                38.883888244628906,
                48.786521911621094
              ],
              [
                39.166595458984375,
                48.52202224731445
              ],
              [
                39.105133056640625,
                48.191749572753906
              ],
              [
                39.23418045043945,
                47.993770599365234
              ],
              [
                39.03213882446289,
                47.33478927612305
              ],
              [
                38.949764251708984,
                47.33478927612305
              ],
              [
                38.6794548034668,
                47.20316696166992
              ]
            ]
          ]
        ]
      }
    }
  ]
}
