{
  "type": "FeatureCollection",
  "features": [
    {
      "type": "Feature",
      "properties": {
        "Name": "Kingdom of Khotan",
        "FromYear": 900,
        "ToYear": 999,
        "Area": 298344.4441180728,
        "Type": "POLITY",
        "Wikipedia": "Kingdom of Khotan",
        "Wikidata": "Q914898",
        "SeshatID": "cn_khotan_k",
        "Components": "",
        "MemberOf": "",
        "displayYear": 904,
        "sourceYear": 904,
        "mappedTerritoryId": "cliopatria_kingdom_of_khotan"
      },
      "geometry": {
        "type": "Polygon",
        "coordinates": [
          [
            [
              86.44012451171875,
              38.351463317871094
            ],
            [
              86.62569427490234,
              38.8680305480957
            ],
            [
              86.2963638305664,
              39.25570297241211
            ],
            [
              85.98167419433594,
              39.25570297241211
            ],
            [
              84.77388000488281,
              38.738853454589844
            ],
            [
              83.92180633544922,
              38.54513168334961
            ],
            [
              82.4321517944336,
              38.54513168334961
            ],
            [
              80.85855865478516,
              38.997230529785156
            ],
            [
              80.46246337890625,
              39.449623107910156
            ],
            [
              80.50717163085938,
              39.57893371582031
            ],
            [
              80.315673828125,
              39.70827102661133
            ],
            [
              80.36089324951172,
              39.8376350402832
            ],
            [
              80.22578430175781,
              39.90232849121094
            ],
            [
              80.23837280273438,
              40.16116714477539
            ],
            [
              80.15934753417969,
              40.16116714477539
            ],
            [
              80.25211334228516,
              40.42012023925781
            ],
            [
              80.17298126220703,
              40.42012023925781
            ],
            [
              80.61160278320312,
              41.39224624633789
            ],
            [
              81.13371276855469,
              41.71668243408203
            ],
            [
              81.18399047851562,
              41.84651184082031
            ],
            [
              81.97583770751953,
              42.236209869384766
            ],
            [
              80.13379669189453,
              42.43117141723633
            ],
            [
              80.00323486328125,
              42.30118942260742
            ],
            [
              77.42991638183594,
              41.39224624633789
            ],
            [
              74.35368347167969,
              41.00318908691406
            ],
            [
              73.92140197753906,
              40.42012023925781
            ],
            [
              73.74198913574219,
              40.355369567871094
            ],
            [
              73.80000305175781,
              40.29063034057617
            ],
            [
              73.57305908203125,
              39.57893371582031
            ],
            [
              73.39533996582031,
              39.51427459716797
            ],
            [
              73.6902847290039,
              39.449623107910156
            ],
            [
              73.76902770996094,
              39.449623107910156
            ],
            [
              75.79206848144531,
              39.1264533996582
            ],
            [
              77.02529907226562,
              38.80344009399414
            ],
            [
              77.257568359375,
              38.54513168334961
            ],
            [
              77.41437530517578,
              38.54513168334961
            ],
            [
              77.5103530883789,
              38.351463317871094
            ],
            [
              77.6670150756836,
              38.351463317871094
            ],
            [
              77.84146118164062,
              38.157840728759766
            ],
            [
              77.80143737792969,
              38.028785705566406
            ],
            [
              78.09307098388672,
              37.706241607666016
            ],
            [
              78.38568878173828,
              37.641746520996094
            ],
            [
              78.42435455322266,
              37.51277160644531
            ],
            [
              79.14535522460938,
              37.3193473815918
            ],
            [
              79.39822387695312,
              37.12596130371094
            ],
            [
              80.37127685546875,
              36.9970588684082
            ],
            [
              81.05081939697266,
              36.67487716674805
            ],
            [
              81.03121185302734,
              36.61045455932617
            ],
            [
              85.1133804321289,
              37.44829177856445
            ],
            [
              85.13493347167969,
              37.51277160644531
            ],
            [
              85.81294250488281,
              37.89975357055664
            ],
            [
              86.08140563964844,
              38.22237777709961
            ],
            [
              86.41729736328125,
              38.28691864013672
            ],
            [
              86.44012451171875,
              38.351463317871094
            ]
          ]
        ]
      }
    }
  ]
}
