{
  "type": "FeatureCollection",
  "features": [
    {
      "type": "Feature",
      "properties": {
        "Name": "Haudenosaunee",
        "FromYear": 1683,
        "ToYear": 1686,
        "Area": 570382.5428536882,
        "Type": "POLITY",
        "Wikipedia": "Iroquois",
        "Wikidata": "Q68518",
        "SeshatID": "us_haudenosaunee_1",
        "Components": "",
        "MemberOf": "",
        "displayYear": 1683,
        "sourceYear": 1683,
        "mappedTerritoryId": "cliopatria_haudenosaunee"
      },
      "geometry": {
        "type": "MultiPolygon",
        "coordinates": [
          [
            [
              [
                -79.33931732177734,
                44.5159797668457
              ],
              [
                -79.42028045654297,
                44.5159797668457
              ],
              [
                -79.36222076416016,
                44.25482940673828
              ],
              [
                -79.5239028930664,
                44.25482940673828
              ],
              [
                -79.48926544189453,
                44.18956756591797
              ],
              [
                -79.65088653564453,
                44.18956756591797
              ],
              [
                -79.74319458007812,
                44.05907440185547
              ],
              [
                -79.4906005859375,
                43.73301696777344
              ],
              [
                -79.65179443359375,
                43.73301696777344
              ],
              [
                -79.7104263305664,
                43.53750228881836
              ],
              [
                -79.8714370727539,
                43.53750228881836
              ],
              [
                -79.70176696777344,
                43.211830139160156
              ],
              [
                -78.6905517578125,
                43.276947021484375
              ],
              [
                -78.72401428222656,
                43.342071533203125
              ],
              [
                -78.48277282714844,
                43.342071533203125
              ],
              [
                -78.51622772216797,
                43.407203674316406
              ],
              [
                -78.11400604248047,
                43.407203674316406
              ],
              [
                -77.80633544921875,
                43.276947021484375
              ],
              [
                -76.76134490966797,
                43.276947021484375
              ],
              [
                -76.666015625,
                43.407203674316406
              ],
              [
                -76.505126953125,
                43.407203674316406
              ],
              [
                -76.53789520263672,
                43.472347259521484
              ],
              [
                -76.16822052001953,
                43.53750228881836
              ],
              [
                -76.18616485595703,
                43.73301696777344
              ],
              [
                -76.01018524169922,
                43.86341094970703
              ],
              [
                -76.10945129394531,
                44.05907440185547
              ],
              [
                -76.1426773071289,
                44.12431716918945
              ],
              [
                -75.77191925048828,
                44.18956756591797
              ],
              [
                -75.48622131347656,
                44.58129119873047
              ],
              [
                -75.55314636230469,
                44.71194839477539
              ],
              [
                -75.45808410644531,
                44.842647552490234
              ],
              [
                -74.95706939697266,
                44.973392486572266
              ],
              [
                -74.89527893066406,
                45.169586181640625
              ],
              [
                -74.47456359863281,
                45.300437927246094
              ],
              [
                -74.5081558227539,
                45.36587905883789
              ],
              [
                -74.2640151977539,
                45.36587905883789
              ],
              [
                -74.19709014892578,
                45.23500442504883
              ],
              [
                -74.03445434570312,
                45.23500442504883
              ],
              [
                -74.0198745727539,
                45.36587905883789
              ],
              [
                -73.69435119628906,
                45.36587905883789
              ],
              [
                -73.46524047851562,
                45.23500442504883
              ],
              [
                -73.43215942382812,
                45.169586181640625
              ],
              [
                -73.5134506225586,
                45.169586181640625
              ],
              [
                -73.33329772949219,
                44.973392486572266
              ],
              [
                -73.57686614990234,
                44.973392486572266
              ],
              [
                -73.57492065429688,
                44.64661407470703
              ],
              [
                -73.71989440917969,
                44.45067596435547
              ],
              [
                -73.55769348144531,
                44.12431716918945
              ],
              [
                -73.65471649169922,
                43.99384307861328
              ],
              [
                -73.5264892578125,
                43.73301696777344
              ],
              [
                -73.71969604492188,
                43.79821014404297
              ],
              [
                -73.67257690429688,
                43.53750228881836
              ],
              [
                -73.96509552001953,
                43.146724700927734
              ],
              [
                -74.04541778564453,
                43.146724700927734
              ],
              [
                -74.28639221191406,
                43.146724700927734
              ],
              [
                -74.40103149414062,
                42.88639831542969
              ],
              [
                -74.48123931884766,
                42.88639831542969
              ],
              [
                -74.8192138671875,
                42.75628662109375
              ],
              [
                -74.83656311035156,
                42.62621307373047
              ],
              [
                -74.99673461914062,
                42.62621307373047
              ],
              [
                -75.06298065185547,
                42.43117141723633
              ],
              [
                -75.22297668457031,
                42.43117141723633
              ],
              [
                -75.3205337524414,
                42.30118942260742
              ],
              [
                -75.30735778808594,
                42.10627746582031
              ],
              [
                -75.4670639038086,
                42.10627746582031
              ],
              [
                -74.84343719482422,
                41.45711898803711
              ],
              [
                -74.76387023925781,
                41.45711898803711
              ],
              [
                -75.21185302734375,
                40.873565673828125
              ],
              [
                -75.17431640625,
                40.614410400390625
              ],
              [
                -75.3327407836914,
                40.614410400390625
              ],
              [
                -75.65625,
                40.0964469909668
              ],
              [
                -75.81425476074219,
                40.0964469909668
              ],
              [
                -75.90947723388672,
                39.77294921875
              ],
              [
                -76.22496795654297,
                39.77294921875
              ],
              [
                -76.45597076416016,
                39.57893371582031
              ],
              [
                -76.6923599243164,
                39.57893371582031
              ],
              [
                -76.71512603759766,
                39.449623107910156
              ],
              [
                -77.13165283203125,
                39.320335388183594
              ],
              [
                -77.22918701171875,
                38.997230529785156
              ],
              [
                -77.30775451660156,
                38.997230529785156
              ],
              [
                -77.36294555664062,
                39.1264533996582
              ],
              [
                -77.52018737792969,
                39.1264533996582
              ],
              [
                -77.48263549804688,
                38.48057174682617
              ],
              [
                -78.45411682128906,
                38.738853454589844
              ],
              [
                -78.6072006225586,
                38.54513168334961
              ],
              [
                -78.55277252197266,
                38.416015625
              ],
              [
                -78.7066650390625,
                38.22237777709961
              ],
              [
                -78.86322784423828,
                38.22237777709961
              ],
              [
                -78.93914794921875,
                38.028785705566406
              ],
              [
                -79.88092803955078,
                38.22237777709961
              ],
              [
                -79.85369110107422,
                38.157840728759766
              ],
              [
                -80.0884780883789,
                38.157840728759766
              ],
              [
                -80.11235809326172,
                38.028785705566406
              ],
              [
                -80.60892486572266,
                38.09331130981445
              ],
              [
                -80.63263702392578,
                37.96426773071289
              ],
              [
                -81.23084259033203,
                37.89975357055664
              ],
              [
                -81.57542419433594,
                38.157840728759766
              ],
              [
                -82.12893676757812,
                38.351463317871094
              ],
              [
                -82.39904022216797,
                38.60969924926758
              ],
              [
                -82.55589294433594,
                38.60969924926758
              ],
              [
                -82.54888153076172,
                38.416015625
              ],
              [
                -82.78395080566406,
                38.416015625
              ],
              [
                -83.05524444580078,
                38.67427444458008
              ],
              [
                -83.54657745361328,
                38.54513168334961
              ],
              [
                -83.99665832519531,
                38.67427444458008
              ],
              [
                -84.33043670654297,
                39.06184005737305
              ],
              [
                -84.80201721191406,
                39.06184005737305
              ],
              [
                -84.87425231933594,
                39.38497543334961
              ],
              [
                -84.6077880859375,
                39.320335388183594
              ],
              [
                -84.51100158691406,
                39.449623107910156
              ],
              [
                -84.353515625,
                39.449623107910156
              ],
              [
                -84.36624908447266,
                39.64360046386719
              ],
              [
                -84.23926544189453,
                39.70827102661133
              ],
              [
                -84.3009033203125,
                39.8376350402832
              ],
              [
                -84.06179809570312,
                40.16116714477539
              ],
              [
                -84.10894012451172,
                40.42012023925781
              ],
              [
                -84.33104705810547,
                40.54964065551758
              ],
              [
                -84.75920104980469,
                40.614410400390625
              ],
              [
                -85.01506805419922,
                40.80876541137695
              ],
              [
                -86.25076293945312,
                40.74397277832031
              ],
              [
                -86.21784973144531,
                40.6791877746582
              ],
              [
                -86.50190734863281,
                40.614410400390625
              ],
              [
                -86.62161254882812,
                41.00318908691406
              ],
              [
                -86.3252182006836,
                41.19768524169922
              ],
              [
                -86.38107299804688,
                41.45711898803711
              ],
              [
                -86.30150604248047,
                41.45711898803711
              ],
              [
                -86.52896881103516,
                41.586883544921875
              ],
              [
                -86.98342895507812,
                41.39224624633789
              ],
              [
                -86.94932556152344,
                41.32738494873047
              ],
              [
                -87.58544158935547,
                41.32738494873047
              ],
              [
                -87.5887451171875,
                41.781593322753906
              ],
              [
                -87.47420501708984,
                41.71668243408203
              ],
              [
                -87.48448181152344,
                41.586883544921875
              ],
              [
                -87.00672912597656,
                41.586883544921875
              ],
              [
                -87.04121398925781,
                41.65177917480469
              ],
              [
                -86.71192932128906,
                41.781593322753906
              ],
              [
                -86.78131103515625,
                41.911441802978516
              ],
              [
                -86.58708953857422,
                41.84651184082031
              ],
              [
                -86.18275451660156,
                42.43117141723633
              ],
              [
                -86.2354965209961,
                42.82133865356445
              ],
              [
                -86.15531921386719,
                42.82133865356445
              ],
              [
                -86.47281646728516,
                43.53750228881836
              ],
              [
                -86.38510131835938,
                43.6678352355957
              ],
              [
                -86.45872497558594,
                43.79821014404297
              ],
              [
                -86.37809753417969,
                43.79821014404297
              ],
              [
                -86.48904418945312,
                43.99384307861328
              ],
              [
                -86.2338638305664,
                44.25482940673828
              ],
              [
                -86.25911712646484,
                44.58129119873047
              ],
              [
                -86.04210662841797,
                44.908016204833984
              ],
              [
                -85.75516510009766,
                44.973392486572266
              ],
              [
                -85.79291534423828,
                45.03877639770508
              ],
              [
                -85.3492202758789,
                44.973392486572266
              ],
              [
                -85.37520599365234,
                45.300437927246094
              ],
              [
                -85.00619506835938,
                45.36587905883789
              ],
              [
                -85.03289794921875,
                45.693260192871094
              ],
              [
                -84.7447280883789,
                45.75876998901367
              ],
              [
                -84.66881561279297,
                45.62776184082031
              ],
              [
                -84.63097381591797,
                45.56227111816406
              ],
              [
                -84.3927001953125,
                45.431331634521484
              ],
              [
                -84.10454559326172,
                45.496795654296875
              ],
              [
                -84.02310180664062,
                45.496795654296875
              ],
              [
                -83.50419616699219,
                45.300437927246094
              ],
              [
                -83.43010711669922,
                45.169586181640625
              ],
              [
                -83.55567932128906,
                45.10417556762695
              ],
              [
                -83.33511352539062,
                44.71194839477539
              ],
              [
                -83.41617584228516,
                44.71194839477539
              ],
              [
                -83.39595031738281,
                44.38538360595703
              ],
              [
                -83.5577621459961,
                44.38538360595703
              ],
              [
                -83.6552963256836,
                44.12431716918945
              ],
              [
                -83.94218444824219,
                44.05907440185547
              ],
              [
                -84.07593536376953,
                43.86341094970703
              ],
              [
                -83.93236541748047,
                43.6026611328125
              ],
              [
                -83.5296859741211,
                43.6026611328125
              ],
              [
                -83.43981170654297,
                43.73301696777344
              ],
              [
                -83.27862548828125,
                43.73301696777344
              ],
              [
                -83.1795654296875,
                43.99384307861328
              ],
              [
                -82.89244079589844,
                44.05907440185547
              ],
              [
                -82.66926574707031,
                43.79821014404297
              ],
              [
                -82.74989318847656,
                43.79821014404297
              ],
              [
                -82.60859680175781,
                43.53750228881836
              ],
              [
                -82.68910217285156,
                43.53750228881836
              ],
              [
                -82.58387756347656,
                43.342071533203125
              ],
              [
                -82.66429138183594,
                43.342071533203125
              ],
              [
                -82.49042510986328,
                43.016544342041016
              ],
              [
                -82.16936492919922,
                43.016544342041016
              ],
              [
                -82.203857421875,
                43.08163070678711
              ],
              [
                -81.91712951660156,
                43.146724700927734
              ],
              [
                -81.90589904785156,
                43.276947021484375
              ],
              [
                -81.69932556152344,
                43.342071533203125
              ],
              [
                -81.72662353515625,
                43.99384307861328
              ],
              [
                -81.23716735839844,
                44.58129119873047
              ],
              [
                -81.47929382324219,
                45.169586181640625
              ],
              [
                -81.13684844970703,
                44.842647552490234
              ],
              [
                -80.356689453125,
                44.45067596435547
              ],
              [
                -80.03294372558594,
                44.45067596435547
              ],
              [
                -79.94117736816406,
                44.58129119873047
              ],
              [
                -80.01156616210938,
                44.71194839477539
              ],
              [
                -79.93050384521484,
                44.71194839477539
              ],
              [
                -80.0010986328125,
                44.842647552490234
              ],
              [
                -79.8388442993164,
                44.842647552490234
              ],
              [
                -80.05184173583984,
                45.23500442504883
              ],
              [
                -79.73682403564453,
                45.10417556762695
              ],
              [
                -79.51434326171875,
                44.842647552490234
              ],
              [
                -79.47920227050781,
                44.77729415893555
              ],
              [
                -79.33931732177734,
                44.5159797668457
              ]
            ]
          ],
          [
            [
              [
                -83.26345825195312,
                46.02093505859375
              ],
              [
                -82.6167221069336,
                45.889827728271484
              ],
              [
                -82.52811431884766,
                46.02093505859375
              ],
              [
                -81.95618438720703,
                46.02093505859375
              ],
              [
                -81.67401885986328,
                45.95537567138672
              ],
              [
                -81.5633544921875,
                45.75876998901367
              ],
              [
                -81.69781494140625,
                45.56227111816406
              ],
              [
                -82.18667602539062,
                45.56227111816406
              ],
              [
                -83.15068054199219,
                45.82429504394531
              ],
              [
                -83.34516143798828,
                46.02093505859375
              ],
              [
                -83.26345825195312,
                46.02093505859375
              ]
            ]
          ]
        ]
      }
    }
  ]
}
