{
  "type": "FeatureCollection",
  "features": [
    {
      "type": "Feature",
      "properties": {
        "Name": "Visigothic Kingdom",
        "FromYear": 577,
        "ToYear": 586,
        "Area": 438415.55410908215,
        "Type": "POLITY",
        "Wikipedia": "Visigothic Kingdom",
        "Wikidata": "Q126936",
        "SeshatID": "es_visigothic_k",
        "Components": "",
        "MemberOf": "",
        "displayYear": 577,
        "sourceYear": 577,
        "mappedTerritoryId": "cliopatria_visigothic_kingdom"
      },
      "geometry": {
        "type": "Polygon",
        "coordinates": [
          [
            [
              3.536692380905151,
              43.407203674316406
            ],
            [
              4.011962413787842,
              43.6026611328125
            ],
            [
              4.092497825622559,
              43.6026611328125
            ],
            [
              4.236700534820557,
              44.05907440185547
            ],
            [
              4.633574962615967,
              44.25482940673828
            ],
            [
              4.057530879974365,
              44.5159797668457
            ],
            [
              3.814627170562744,
              44.5159797668457
            ],
            [
              3.429201602935791,
              44.05907440185547
            ],
            [
              3.025451898574829,
              44.05907440185547
            ],
            [
              2.017845392227173,
              43.211830139160156
            ],
            [
              1.950274229049683,
              42.95146560668945
            ],
            [
              1.789806246757507,
              42.95146560668945
            ],
            [
              1.485537886619568,
              42.62621307373047
            ],
            [
              1.238463044166565,
              42.75628662109375
            ],
            [
              0.830587804317474,
              42.88639831542969
            ],
            [
              0.520835757255554,
              42.691246032714844
            ],
            [
              0.040142297744751,
              42.691246032714844
            ],
            [
              -0.942404747009277,
              43.016544342041016
            ],
            [
              -0.938149929046631,
              42.95146560668945
            ],
            [
              -1.259086012840271,
              42.95146560668945
            ],
            [
              -1.330547690391541,
              42.82133865356445
            ],
            [
              -1.807049632072449,
              42.75628662109375
            ],
            [
              -2.132294178009033,
              42.82133865356445
            ],
            [
              -2.27851128578186,
              42.62621307373047
            ],
            [
              -2.528355360031128,
              42.75628662109375
            ],
            [
              -2.678941965103149,
              42.62621307373047
            ],
            [
              -5.654013156890869,
              42.75628662109375
            ],
            [
              -5.734158039093018,
              42.75628662109375
            ],
            [
              -5.704421520233154,
              42.43117141723633
            ],
            [
              -5.784419536590576,
              42.43117141723633
            ],
            [
              -5.902846813201904,
              41.97637939453125
            ],
            [
              -6.130332946777344,
              41.84651184082031
            ],
            [
              -6.254164218902588,
              41.45711898803711
            ],
            [
              -6.854352474212646,
              41.06801223754883
            ],
            [
              -6.862598419189453,
              40.29063034057617
            ],
            [
              -7.926864624023438,
              39.8376350402832
            ],
            [
              -8.472929954528809,
              39.77294921875
            ],
            [
              -8.757078170776367,
              39.449623107910156
            ],
            [
              -8.914570808410645,
              39.449623107910156
            ],
            [
              -8.974522590637207,
              39.25570297241211
            ],
            [
              -9.367877960205078,
              39.25570297241211
            ],
            [
              -9.446549415588379,
              39.25570297241211
            ],
            [
              -9.553065299987793,
              38.738853454589844
            ],
            [
              -9.38370418548584,
              38.60969924926758
            ],
            [
              -9.23299789428711,
              38.67427444458008
            ],
            [
              -9.20852279663086,
              38.416015625
            ],
            [
              -8.822718620300293,
              38.48057174682617
            ],
            [
              -8.818843841552734,
              37.5772590637207
            ],
            [
              -8.896896362304688,
              37.5772590637207
            ],
            [
              -9.00136661529541,
              36.9970588684082
            ],
            [
              -8.70113754272461,
              37.12596130371094
            ],
            [
              -7.677903652191162,
              36.9970588684082
            ],
            [
              -7.454815864562988,
              37.12596130371094
            ],
            [
              -7.465344429016113,
              37.254878997802734
            ],
            [
              -6.84182596206665,
              37.254878997802734
            ],
            [
              -6.587993621826172,
              36.9970588684082
            ],
            [
              -6.349542140960693,
              36.932613372802734
            ],
            [
              -6.150846004486084,
              36.3527946472168
            ],
            [
              -6.07321310043335,
              36.3527946472168
            ],
            [
              -5.712831020355225,
              36.73930740356445
            ],
            [
              -5.516850471496582,
              37.254878997802734
            ],
            [
              -2.484916687011719,
              37.38381576538086
            ],
            [
              -2.344338178634644,
              37.641746520996094
            ],
            [
              -2.043425798416138,
              37.835243225097656
            ],
            [
              -1.906114101409912,
              38.157840728759766
            ],
            [
              -1.361954689025879,
              38.22237777709961
            ],
            [
              -1.234715342521667,
              38.738853454589844
            ],
            [
              -0.999290406703949,
              38.738853454589844
            ],
            [
              -0.549572706222534,
              39.1264533996582
            ],
            [
              -0.317191183567047,
              39.19107437133789
            ],
            [
              -0.3206847012043,
              39.25570297241211
            ],
            [
              -0.345421016216278,
              39.70827102661133
            ],
            [
              -0.201878547668457,
              39.9670295715332
            ],
            [
              0.182543575763702,
              40.16116714477539
            ],
            [
              0.247769102454185,
              40.42012023925781
            ],
            [
              0.474957317113876,
              40.614410400390625
            ],
            [
              0.709256291389465,
              40.6791877746582
            ],
            [
              0.695793092250824,
              40.93837356567383
            ],
            [
              1.238392949104309,
              41.19768524169922
            ],
            [
              2.106574535369873,
              41.32738494873047
            ],
            [
              2.333626985549927,
              41.586883544921875
            ],
            [
              2.572504997253418,
              41.586883544921875
            ],
            [
              3.116764783859253,
              41.911441802978516
            ],
            [
              3.178062200546265,
              42.36617660522461
            ],
            [
              3.009923458099365,
              42.56119155883789
            ],
            [
              2.984907388687134,
              43.146724700927734
            ],
            [
              3.45624828338623,
              43.407203674316406
            ],
            [
              3.536692380905151,
              43.407203674316406
            ]
          ]
        ]
      }
    }
  ]
}
