{
  "type": "FeatureCollection",
  "features": [
    {
      "type": "Feature",
      "properties": {
        "Name": "Kingdom of Spain",
        "FromYear": 1642,
        "ToYear": 1644,
        "Area": 679136.6935854006,
        "Type": "POLITY",
        "Wikipedia": "Spain",
        "Wikidata": "Q29",
        "SeshatID": "es_spanish_emp_1",
        "Components": "",
        "MemberOf": "(Spanish Empire)",
        "displayYear": 1644,
        "sourceYear": 1644,
        "mappedTerritoryId": "cliopatria_kingdom_of_spain"
      },
      "geometry": {
        "type": "MultiPolygon",
        "coordinates": [
          [
            [
              [
                1.430543661117554,
                38.80344009399414
              ],
              [
                1.273545265197754,
                38.80344009399414
              ],
              [
                1.183109045028687,
                39.06184005737305
              ],
              [
                1.258725643157959,
                39.1264533996582
              ],
              [
                1.337347388267517,
                39.1264533996582
              ],
              [
                1.651834011077881,
                39.1264533996582
              ],
              [
                1.657540321350098,
                38.997230529785156
              ],
              [
                1.430543661117554,
                38.80344009399414
              ]
            ]
          ],
          [
            [
              [
                3.515789270401001,
                39.77294921875
              ],
              [
                3.295835733413696,
                39.320335388183594
              ],
              [
                2.82365870475769,
                39.320335388183594
              ],
              [
                2.658556938171387,
                39.51427459716797
              ],
              [
                2.346148252487183,
                39.449623107910156
              ],
              [
                2.338095426559448,
                39.64360046386719
              ],
              [
                2.877186298370361,
                39.9670295715332
              ],
              [
                2.956136703491211,
                39.9670295715332
              ],
              [
                3.19298791885376,
                39.9670295715332
              ],
              [
                3.197866439819336,
                39.8376350402832
              ],
              [
                3.515789270401001,
                39.77294921875
              ]
            ]
          ],
          [
            [
              [
                -3.295851230621338,
                43.342071533203125
              ],
              [
                -1.767988562583923,
                43.342071533203125
              ],
              [
                -1.687574744224548,
                43.342071533203125
              ],
              [
                -1.441840410232544,
                43.276947021484375
              ],
              [
                -1.428432941436768,
                43.08163070678711
              ],
              [
                -1.026964664459229,
                43.08163070678711
              ],
              [
                -0.528801321983337,
                42.82133865356445
              ],
              [
                -0.208102732896805,
                42.82133865356445
              ],
              [
                0.040142297744751,
                42.691246032714844
              ],
              [
                1.074691534042358,
                42.82133865356445
              ],
              [
                1.485537886619568,
                42.62621307373047
              ],
              [
                1.575427651405334,
                42.43117141723633
              ],
              [
                1.80907130241394,
                42.56119155883789
              ],
              [
                2.618277549743652,
                42.36617660522461
              ],
              [
                2.484349250793457,
                41.781593322753906
              ],
              [
                2.324927806854248,
                41.781593322753906
              ],
              [
                2.094748973846436,
                41.586883544921875
              ],
              [
                1.7762451171875,
                41.586883544921875
              ],
              [
                1.285403966903687,
                41.84651184082031
              ],
              [
                0.966447472572327,
                41.84651184082031
              ],
              [
                0.820733308792114,
                41.586883544921875
              ],
              [
                1.387751936912537,
                41.39224624633789
              ],
              [
                0.758241295814514,
                41.26253128051758
              ],
              [
                0.454274982213974,
                41.00318908691406
              ],
              [
                0.399184077978134,
                40.54964065551758
              ],
              [
                0.402615189552307,
                40.4848747253418
              ],
              [
                0.247769102454185,
                40.42012023925781
              ],
              [
                0.106994137167931,
                40.0964469909668
              ],
              [
                -0.201878547668457,
                39.9670295715332
              ],
              [
                -0.345421016216278,
                39.70827102661133
              ],
              [
                -0.313707679510117,
                39.1264533996582
              ],
              [
                0.099359586834908,
                38.738853454589844
              ],
              [
                -0.660861134529114,
                38.28691864013672
              ],
              [
                -0.803495347499847,
                38.028785705566406
              ],
              [
                -0.704753637313843,
                37.641746520996094
              ],
              [
                -1.708719491958618,
                37.44829177856445
              ],
              [
                -1.623468399047852,
                37.3193473815918
              ],
              [
                -1.857354998588562,
                37.3193473815918
              ],
              [
                -2.061630010604858,
                36.80373764038086
              ],
              [
                -2.532132625579834,
                36.8681755065918
              ],
              [
                -2.680080890655518,
                36.73930740356445
              ],
              [
                -4.468626022338867,
                36.73930740356445
              ],
              [
                -4.688807487487793,
                36.5460319519043
              ],
              [
                -5.22819709777832,
                36.48161697387695
              ],
              [
                -5.287947177886963,
                36.2239875793457
              ],
              [
                -5.662277221679688,
                36.03080368041992
              ],
              [
                -5.831079006195068,
                36.2239875793457
              ],
              [
                -6.063849925994873,
                36.2239875793457
              ],
              [
                -6.432291984558105,
                36.9970588684082
              ],
              [
                -6.587993621826172,
                36.9970588684082
              ],
              [
                -6.84182596206665,
                37.254878997802734
              ],
              [
                -7.309464931488037,
                37.254878997802734
              ],
              [
                -7.387404441833496,
                37.254878997802734
              ],
              [
                -7.502705097198486,
                37.706241607666016
              ],
              [
                -7.27909517288208,
                37.835243225097656
              ],
              [
                -7.14418888092041,
                38.09331130981445
              ],
              [
                -6.987714290618896,
                38.09331130981445
              ],
              [
                -6.998411178588867,
                38.22237777709961
              ],
              [
                -7.244168281555176,
                38.351463317871094
              ],
              [
                -7.271727085113525,
                38.67427444458008
              ],
              [
                -7.120340347290039,
                38.738853454589844
              ],
              [
                -6.985427379608154,
                38.997230529785156
              ],
              [
                -7.255166053771973,
                39.38497543334961
              ],
              [
                -7.418391227722168,
                39.449623107910156
              ],
              [
                -7.435848712921143,
                39.64360046386719
              ],
              [
                -6.895466804504395,
                39.77294921875
              ],
              [
                -6.839452266693115,
                40.031734466552734
              ],
              [
                -7.00321626663208,
                40.0964469909668
              ],
              [
                -7.014894485473633,
                40.225894927978516
              ],
              [
                -6.868430137634277,
                40.355369567871094
              ],
              [
                -6.927728176116943,
                41.00318908691406
              ],
              [
                -6.254164218902588,
                41.45711898803711
              ],
              [
                -6.271912097930908,
                41.65177917480469
              ],
              [
                -6.516909122467041,
                41.71668243408203
              ],
              [
                -6.700808048248291,
                41.97637939453125
              ],
              [
                -8.11717414855957,
                41.781593322753906
              ],
              [
                -8.216935157775879,
                41.97637939453125
              ],
              [
                -8.137139320373535,
                41.97637939453125
              ],
              [
                -8.150541305541992,
                42.10627746582031
              ],
              [
                -8.469955444335938,
                42.10627746582031
              ],
              [
                -8.928141593933105,
                41.911441802978516
              ],
              [
                -8.935100555419922,
                41.97637939453125
              ],
              [
                -8.956093788146973,
                42.17123794555664
              ],
              [
                -8.65738296508789,
                42.36617660522461
              ],
              [
                -9.078654289245605,
                42.56119155883789
              ],
              [
                -9.30460262298584,
                43.146724700927734
              ],
              [
                -8.851689338684082,
                43.407203674316406
              ],
              [
                -8.369025230407715,
                43.407203674316406
              ],
              [
                -8.39044189453125,
                43.6026611328125
              ],
              [
                -8.243616104125977,
                43.73301696777344
              ],
              [
                -7.276463031768799,
                43.73301696777344
              ],
              [
                -7.343485832214355,
                43.6026611328125
              ],
              [
                -7.175715446472168,
                43.53750228881836
              ],
              [
                -5.726631164550781,
                43.53750228881836
              ],
              [
                -5.646126270294189,
                43.53750228881836
              ],
              [
                -4.990375518798828,
                43.407203674316406
              ],
              [
                -3.467212915420532,
                43.472347259521484
              ],
              [
                -3.295851230621338,
                43.342071533203125
              ]
            ]
          ],
          [
            [
              [
                3.826826572418213,
                39.90232849121094
              ],
              [
                3.741101741790771,
                40.0964469909668
              ],
              [
                3.820104122161865,
                40.0964469909668
              ],
              [
                4.215116024017334,
                40.0964469909668
              ],
              [
                4.302449703216553,
                39.8376350402832
              ],
              [
                3.826826572418213,
                39.90232849121094
              ]
            ]
          ],
          [
            [
              [
                0.471534013748169,
                40.6791877746582
              ],
              [
                0.468101233243942,
                40.74397277832031
              ],
              [
                0.547368943691254,
                40.74397277832031
              ],
              [
                0.543953716754913,
                40.80876541137695
              ],
              [
                0.62324845790863,
                40.80876541137695
              ],
              [
                0.626636624336243,
                40.74397277832031
              ],
              [
                0.630015552043915,
                40.6791877746582
              ],
              [
                0.550774753093719,
                40.6791877746582
              ],
              [
                0.471534013748169,
                40.6791877746582
              ]
            ]
          ],
          [
            [
              [
                1.12926721572876,
                41.781593322753906
              ],
              [
                1.132599592208862,
                41.71668243408203
              ],
              [
                1.215577125549316,
                41.65177917480469
              ],
              [
                1.056268811225891,
                41.65177917480469
              ],
              [
                1.12926721572876,
                41.781593322753906
              ]
            ]
          ],
          [
            [
              [
                4.081100463867188,
                45.95537567138672
              ],
              [
                3.985684394836426,
                46.283294677734375
              ],
              [
                4.067520141601562,
                46.283294677734375
              ],
              [
                4.313027858734131,
                46.283294677734375
              ],
              [
                4.405217170715332,
                46.02093505859375
              ],
              [
                4.081100463867188,
                45.95537567138672
              ]
            ]
          ],
          [
            [
              [
                5.857953548431396,
                49.18375015258789
              ],
              [
                5.85359001159668,
                49.316287994384766
              ],
              [
                6.018386363983154,
                49.38258361816406
              ],
              [
                5.928430557250977,
                49.58156967163086
              ],
              [
                5.596318244934082,
                49.51522445678711
              ],
              [
                5.68668270111084,
                49.316287994384766
              ],
              [
                5.35286808013916,
                49.316287994384766
              ],
              [
                5.254647731781006,
                49.71431350708008
              ],
              [
                4.830895900726318,
                49.84712600708008
              ],
              [
                4.822853088378906,
                50.04647445678711
              ],
              [
                5.479565620422363,
                50.445655822753906
              ],
              [
                5.902330875396729,
                50.37908172607422
              ],
              [
                5.727356910705566,
                50.578861236572266
              ],
              [
                5.720504760742188,
                50.77880859375
              ],
              [
                5.804821491241455,
                50.77880859375
              ],
              [
                5.802571773529053,
                50.84549331665039
              ],
              [
                5.800319194793701,
                50.912200927734375
              ],
              [
                5.798063278198242,
                50.97892379760742
              ],
              [
                5.882503509521484,
                50.97892379760742
              ],
              [
                6.057772636413574,
                50.77880859375
              ],
              [
                6.068368434906006,
                50.445655822753906
              ],
              [
                6.402873992919922,
                50.51224899291992
              ],
              [
                6.07469654083252,
                50.2459831237793
              ],
              [
                6.582399845123291,
                50.11296081542969
              ],
              [
                6.586127281188965,
                49.98000717163086
              ],
              [
                6.340545177459717,
                49.78071212768555
              ],
              [
                6.346458435058594,
                49.58156967163086
              ],
              [
                6.264857769012451,
                49.51522445678711
              ],
              [
                6.356269359588623,
                49.2500114440918
              ],
              [
                6.19146728515625,
                49.18375015258789
              ],
              [
                5.857953548431396,
                49.18375015258789
              ]
            ]
          ],
          [
            [
              [
                2.700060129165649,
                50.51224899291992
              ],
              [
                2.359550476074219,
                50.578861236572266
              ],
              [
                2.074539184570312,
                51.112430572509766
              ],
              [
                2.159061908721924,
                51.112430572509766
              ],
              [
                3.324945688247681,
                51.44654083251953
              ],
              [
                3.409677743911743,
                51.44654083251953
              ],
              [
                3.504641532897949,
                51.24601745605469
              ],
              [
                4.01227855682373,
                51.24601745605469
              ],
              [
                4.341732025146484,
                51.44654083251953
              ],
              [
                5.019589424133301,
                51.44654083251953
              ],
              [
                5.365976333618164,
                51.24601745605469
              ],
              [
                5.291423320770264,
                50.97892379760742
              ],
              [
                5.206983089447021,
                50.97892379760742
              ],
              [
                5.217134952545166,
                50.71213912963867
              ],
              [
                5.048582077026367,
                50.71213912963867
              ],
              [
                5.058992385864258,
                50.445655822753906
              ],
              [
                4.809360027313232,
                50.37908172607422
              ],
              [
                4.646780490875244,
                50.2459831237793
              ],
              [
                4.652331352233887,
                50.11296081542969
              ],
              [
                4.490188121795654,
                49.98000717163086
              ],
              [
                3.145318269729614,
                50.04647445678711
              ],
              [
                2.974010467529297,
                50.11296081542969
              ],
              [
                2.700060129165649,
                50.51224899291992
              ]
            ]
          ],
          [
            [
              [
                15.87384033203125,
                41.71668243408203
              ],
              [
                15.943941116333008,
                41.39224624633789
              ],
              [
                16.732860565185547,
                41.19768524169922
              ],
              [
                17.436086654663086,
                40.873565673828125
              ],
              [
                17.510658264160156,
                40.74397277832031
              ],
              [
                17.981229782104492,
                40.614410400390625
              ],
              [
                18.364234924316406,
                40.29063034057617
              ],
              [
                18.435537338256836,
                40.0964469909668
              ],
              [
                18.356534957885742,
                40.0964469909668
              ],
              [
                18.34894371032715,
                39.90232849121094
              ],
              [
                18.11216926574707,
                39.90232849121094
              ],
              [
                17.813072204589844,
                40.355369567871094
              ],
              [
                17.41753578186035,
                40.355369567871094
              ],
              [
                17.345230102539062,
                40.54964065551758
              ],
              [
                17.02848243713379,
                40.54964065551758
              ],
              [
                16.867990493774414,
                40.4848747253418
              ],
              [
                16.945016860961914,
                40.42012023925781
              ],
              [
                16.861696243286133,
                40.29063034057617
              ],
              [
                16.624452590942383,
                40.29063034057617
              ],
              [
                16.697484970092773,
                40.0964469909668
              ],
              [
                16.45665168762207,
                39.9670295715332
              ],
              [
                16.44725799560547,
                39.64360046386719
              ],
              [
                16.916194915771484,
                39.51427459716797
              ],
              [
                17.069679260253906,
                39.38497543334961
              ],
              [
                17.138301849365234,
                39.06184005737305
              ],
              [
                16.502395629882812,
                38.80344009399414
              ],
              [
                16.491945266723633,
                38.416015625
              ],
              [
                15.932764053344727,
                37.96426773071289
              ],
              [
                15.698192596435547,
                37.96426773071289
              ],
              [
                15.62426471710205,
                38.157840728759766
              ],
              [
                15.389483451843262,
                38.157840728759766
              ],
              [
                15.066489219665527,
                37.641746520996094
              ],
              [
                15.059245109558105,
                37.254878997802734
              ],
              [
                15.213889122009277,
                37.1904182434082
              ],
              [
                15.049844741821289,
                36.73930740356445
              ],
              [
                14.661029815673828,
                36.73930740356445
              ],
              [
                14.27791690826416,
                37.12596130371094
              ],
              [
                13.578389167785645,
                37.254878997802734
              ],
              [
                13.192005157470703,
                37.5772590637207
              ],
              [
                12.490468978881836,
                37.706241607666016
              ],
              [
                12.49189567565918,
                37.89975357055664
              ],
              [
                12.649824142456055,
                38.09331130981445
              ],
              [
                13.040358543395996,
                38.028785705566406
              ],
              [
                13.119925498962402,
                38.157840728759766
              ],
              [
                13.354706764221191,
                38.157840728759766
              ],
              [
                13.665236473083496,
                37.96426773071289
              ],
              [
                14.604636192321777,
                38.028785705566406
              ],
              [
                14.763398170471191,
                38.157840728759766
              ],
              [
                15.862062454223633,
                38.28691864013672
              ],
              [
                15.949724197387695,
                38.67427444458008
              ],
              [
                16.265209197998047,
                38.738853454589844
              ],
              [
                15.898874282836914,
                39.77294921875
              ],
              [
                15.665508270263672,
                39.90232849121094
              ],
              [
                15.747773170471191,
                40.031734466552734
              ],
              [
                15.431868553161621,
                40.031734466552734
              ],
              [
                15.199469566345215,
                40.225894927978516
              ],
              [
                15.041359901428223,
                40.225894927978516
              ],
              [
                14.893351554870605,
                40.6791877746582
              ],
              [
                14.417906761169434,
                40.6791877746582
              ],
              [
                14.421854972839355,
                40.873565673828125
              ],
              [
                14.104567527770996,
                40.873565673828125
              ],
              [
                13.950616836547852,
                41.132843017578125
              ],
              [
                13.791753768920898,
                41.132843017578125
              ],
              [
                13.792884826660156,
                41.19768524169922
              ],
              [
                14.03740406036377,
                41.521995544433594
              ],
              [
                13.96146297454834,
                41.71668243408203
              ],
              [
                13.804443359375,
                41.84651184082031
              ],
              [
                13.40574836730957,
                41.84651184082031
              ],
              [
                13.328027725219727,
                41.97637939453125
              ],
              [
                13.00974178314209,
                42.041324615478516
              ],
              [
                12.856051445007324,
                42.496177673339844
              ],
              [
                13.098980903625488,
                42.691246032714844
              ],
              [
                13.339327812194824,
                42.691246032714844
              ],
              [
                13.583069801330566,
                42.88639831542969
              ],
              [
                13.90514087677002,
                42.95146560668945
              ],
              [
                13.98537540435791,
                42.95146560668945
              ],
              [
                13.901384353637695,
                42.75628662109375
              ],
              [
                14.370945930480957,
                42.236209869384766
              ],
              [
                14.530768394470215,
                42.236209869384766
              ],
              [
                14.607714653015137,
                42.10627746582031
              ],
              [
                14.768959999084473,
                42.17123794555664
              ],
              [
                14.765887260437012,
                42.041324615478516
              ],
              [
                14.9239501953125,
                41.97637939453125
              ],
              [
                15.165011405944824,
                42.041324615478516
              ],
              [
                15.241438865661621,
                41.911441802978516
              ],
              [
                15.640276908874512,
                41.911441802978516
              ],
              [
                15.720044136047363,
                41.911441802978516
              ],
              [
                16.11888313293457,
                41.911441802978516
              ],
              [
                16.114879608154297,
                41.781593322753906
              ],
              [
                15.87384033203125,
                41.71668243408203
              ]
            ]
          ],
          [
            [
              [
                9.823226928710938,
                40.355369567871094
              ],
              [
                9.665326118469238,
                40.29063034057617
              ],
              [
                9.74737548828125,
                39.64360046386719
              ],
              [
                9.668553352355957,
                39.64360046386719
              ],
              [
                9.592622756958008,
                39.1264533996582
              ],
              [
                9.120378494262695,
                39.19107437133789
              ],
              [
                8.96590518951416,
                38.8680305480957
              ],
              [
                8.730334281921387,
                38.8680305480957
              ],
              [
                8.336196899414062,
                38.997230529785156
              ],
              [
                8.411824226379395,
                39.25570297241211
              ],
              [
                8.333152770996094,
                39.25570297241211
              ],
              [
                8.330102920532227,
                39.51427459716797
              ],
              [
                8.40887451171875,
                39.51427459716797
              ],
              [
                8.48337459564209,
                39.90232849121094
              ],
              [
                8.324762344360352,
                39.9670295715332
              ],
              [
                8.400031089782715,
                40.29063034057617
              ],
              [
                8.32094955444336,
                40.29063034057617
              ],
              [
                8.318660736083984,
                40.4848747253418
              ],
              [
                8.159523010253906,
                40.54964065551758
              ],
              [
                8.154606819152832,
                40.93837356567383
              ],
              [
                8.552037239074707,
                40.873565673828125
              ],
              [
                9.024832725524902,
                41.26253128051758
              ],
              [
                9.10431957244873,
                41.26253128051758
              ],
              [
                9.50210952758789,
                41.19768524169922
              ],
              [
                9.821690559387207,
                40.74397277832031
              ],
              [
                9.823226928710938,
                40.355369567871094
              ]
            ]
          ],
          [
            [
              [
                11.1754732131958,
                42.496177673339844
              ],
              [
                11.1757173538208,
                42.56119155883789
              ],
              [
                11.336134910583496,
                42.62621307373047
              ],
              [
                11.335225105285645,
                42.43117141723633
              ],
              [
                11.1754732131958,
                42.496177673339844
              ]
            ]
          ],
          [
            [
              [
                10.21481990814209,
                42.691246032714844
              ],
              [
                10.134284973144531,
                42.88639831542969
              ],
              [
                10.214488983154297,
                42.88639831542969
              ],
              [
                10.45510196685791,
                42.88639831542969
              ],
              [
                10.455166816711426,
                42.691246032714844
              ],
              [
                10.21481990814209,
                42.691246032714844
              ]
            ]
          ],
          [
            [
              [
                10.695845603942871,
                43.016544342041016
              ],
              [
                10.615581512451172,
                43.016544342041016
              ],
              [
                10.615615844726562,
                43.08163070678711
              ],
              [
                10.856496810913086,
                43.08163070678711
              ],
              [
                10.936327934265137,
                42.88639831542969
              ],
              [
                10.856123924255371,
                42.88639831542969
              ],
              [
                10.85624885559082,
                42.95146560668945
              ],
              [
                10.776015281677246,
                42.95146560668945
              ],
              [
                10.695780754089355,
                42.95146560668945
              ],
              [
                10.695845603942871,
                43.016544342041016
              ]
            ]
          ],
          [
            [
              [
                10.453271865844727,
                45.03877639770508
              ],
              [
                10.128390312194824,
                45.03877639770508
              ],
              [
                9.965350151062012,
                45.169586181640625
              ],
              [
                9.31507682800293,
                45.169586181640625
              ],
              [
                9.23611831665039,
                44.908016204833984
              ],
              [
                9.317276000976562,
                44.908016204833984
              ],
              [
                9.401886940002441,
                44.45067596435547
              ],
              [
                8.832504272460938,
                44.71194839477539
              ],
              [
                8.831785202026367,
                44.77729415893555
              ],
              [
                8.748412132263184,
                44.973392486572266
              ],
              [
                8.58520221710205,
                45.03877639770508
              ],
              [
                8.503981590270996,
                45.03877639770508
              ],
              [
                8.340606689453125,
                45.10417556762695
              ],
              [
                8.337774276733398,
                45.300437927246094
              ],
              [
                8.581818580627441,
                45.300437927246094
              ],
              [
                8.578357696533203,
                45.56227111816406
              ],
              [
                8.330994606018066,
                45.75876998901367
              ],
              [
                8.005810737609863,
                45.693260192871094
              ],
              [
                7.919662952423096,
                45.95537567138672
              ],
              [
                8.320942878723145,
                46.414546966552734
              ],
              [
                8.485703468322754,
                46.348915100097656
              ],
              [
                8.488550186157227,
                46.1520881652832
              ],
              [
                8.652090072631836,
                46.1520881652832
              ],
              [
                8.90048885345459,
                45.889827728271484
              ],
              [
                9.223830223083496,
                46.21768569946289
              ],
              [
                9.387435913085938,
                46.21768569946289
              ],
              [
                9.470881462097168,
                46.02093505859375
              ],
              [
                9.308683395385742,
                45.889827728271484
              ],
              [
                9.310473442077637,
                45.693260192871094
              ],
              [
                9.474601745605469,
                45.56227111816406
              ],
              [
                9.55607795715332,
                45.56227111816406
              ],
              [
                9.71903133392334,
                45.56227111816406
              ],
              [
                9.883387565612793,
                45.300437927246094
              ],
              [
                10.453055381774902,
                45.169586181640625
              ],
              [
                10.453271865844727,
                45.03877639770508
              ]
            ]
          ],
          [
            [
              [
                6.025728225708008,
                46.480194091796875
              ],
              [
                6.027684688568115,
                46.414546966552734
              ],
              [
                5.945782661437988,
                46.414546966552734
              ],
              [
                5.947766780853271,
                46.348915100097656
              ],
              [
                5.376893997192383,
                46.283294677734375
              ],
              [
                5.432206630706787,
                47.07159423828125
              ],
              [
                5.594502449035645,
                47.13737487792969
              ],
              [
                5.576864242553711,
                47.664100646972656
              ],
              [
                5.822384834289551,
                47.730003356933594
              ],
              [
                5.818123817443848,
                47.86185836791992
              ],
              [
                6.310186386108398,
                47.993770599365234
              ],
              [
                6.80824613571167,
                47.92780685424805
              ],
              [
                6.983439445495605,
                47.53233337402344
              ],
              [
                6.989914417266846,
                47.26897048950195
              ],
              [
                6.828584671020508,
                47.13737487792969
              ],
              [
                6.830254077911377,
                47.07159423828125
              ],
              [
                6.748015880584717,
                47.07159423828125
              ],
              [
                6.665778160095215,
                47.07159423828125
              ],
              [
                6.667511463165283,
                47.005828857421875
              ],
              [
                6.585307121276855,
                47.005828857421875
              ],
              [
                6.587069988250732,
                46.94007873535156
              ],
              [
                6.504899501800537,
                46.94007873535156
              ],
              [
                6.506691455841064,
                46.87434005737305
              ],
              [
                6.185802459716797,
                46.61152267456055
              ],
              [
                6.103800296783447,
                46.61152267456055
              ],
              [
                6.105734825134277,
                46.54585266113281
              ],
              [
                6.107663631439209,
                46.480194091796875
              ],
              [
                6.025728225708008,
                46.480194091796875
              ]
            ]
          ],
          [
            [
              [
                7.600542545318604,
                49.58156967163086
              ],
              [
                7.509773254394531,
                49.91355895996094
              ],
              [
                7.761168956756592,
                49.91355895996094
              ],
              [
                7.848801136016846,
                49.71431350708008
              ],
              [
                8.267212867736816,
                49.71431350708008
              ],
              [
                8.355094909667969,
                49.44889450073242
              ],
              [
                8.605683326721191,
                49.44889450073242
              ],
              [
                8.774468421936035,
                49.316287994384766
              ],
              [
                8.2748384475708,
                49.2500114440918
              ],
              [
                8.112674713134766,
                48.98506164550781
              ],
              [
                8.029407501220703,
                48.98506164550781
              ],
              [
                7.946140766143799,
                48.98506164550781
              ],
              [
                7.944899559020996,
                49.051273345947266
              ],
              [
                7.861595630645752,
                49.051273345947266
              ],
              [
                7.860316753387451,
                49.11750411987305
              ],
              [
                7.688215255737305,
                49.38258361816406
              ],
              [
                7.357261657714844,
                49.2500114440918
              ],
              [
                7.015303134918213,
                49.58156967163086
              ],
              [
                7.600542545318604,
                49.58156967163086
              ]
            ]
          ],
          [
            [
              [
                5.960404872894287,
                51.17921447753906
              ],
              [
                5.875840187072754,
                51.17921447753906
              ],
              [
                5.873612880706787,
                51.24601745605469
              ],
              [
                5.951643466949463,
                51.44654083251953
              ],
              [
                6.118994235992432,
                51.51342010498047
              ],
              [
                6.125326633453369,
                51.31283950805664
              ],
              [
                5.960404872894287,
                51.17921447753906
              ]
            ]
          ]
        ]
      }
    }
  ]
}
