{
  "type": "FeatureCollection",
  "features": [
    {
      "type": "Feature",
      "properties": {
        "Name": "Eastern Ganga Kingdom",
        "FromYear": 1326,
        "ToYear": 1343,
        "Area": 205596.99563242454,
        "Type": "POLITY",
        "Wikipedia": "Eastern Ganga dynasty",
        "Wikidata": "Q250515",
        "SeshatID": "in_ganga_k",
        "Components": "",
        "MemberOf": "",
        "displayYear": 1333,
        "sourceYear": 1333,
        "mappedTerritoryId": "cliopatria_eastern_ganga_kingdom"
      },
      "geometry": {
        "type": "Polygon",
        "coordinates": [
          [
            [
              87.09780893908193,
              21.498126132921925
            ],
            [
              86.89536916508176,
              21.631483644212715
            ],
            [
              86.64156633415999,
              22.019546744546265
            ],
            [
              86.21856161595704,
              22.470946200007123
            ],
            [
              86.00954751990382,
              22.7052795773096
            ],
            [
              85.0540545093748,
              22.90712799260763
            ],
            [
              83.29734079730844,
              22.608837661331755
            ],
            [
              83.13255751395064,
              22.457264066442217
            ],
            [
              82.87571593457882,
              21.693397521972656
            ],
            [
              82.72420925523126,
              21.27153921528862
            ],
            [
              82.42561768944094,
              20.443776654770584
            ],
            [
              81.549749096456,
              20.17308084180464
            ],
            [
              81.12176785215654,
              19.705261559251266
            ],
            [
              80.97247206926139,
              19.330016931507377
            ],
            [
              81.63186177704833,
              18.89506413539715
            ],
            [
              82.56744868319136,
              17.794481746064566
            ],
            [
              83.15061061351122,
              17.57728021476663
            ],
            [
              83.65429687499999,
              18.069873046875003
            ],
            [
              84.10410156250005,
              18.29267578125
            ],
            [
              84.77099609375001,
              19.125390624999984
            ],
            [
              85.44160156249998,
              19.626562499999984
            ],
            [
              85.18076171875002,
              19.594873046874987
            ],
            [
              85.24863281250005,
              19.757666015624984
            ],
            [
              85.5041015625,
              19.887695312499986
            ],
            [
              85.496875,
              19.696923828124984
            ],
            [
              85.575,
              19.692919921874996
            ],
            [
              86.21621093750005,
              19.895800781249996
            ],
            [
              86.31191406250004,
              19.987792968749986
            ],
            [
              86.24521484375005,
              20.053027343749996
            ],
            [
              86.3765625,
              20.00673828124999
            ],
            [
              86.750390625,
              20.313232421874996
            ],
            [
              86.97548828125004,
              20.700146484374983
            ],
            [
              86.84228515625001,
              21.106347656249998
            ],
            [
              86.9541015625,
              21.365332031249977
            ],
            [
              87.09780893908193,
              21.498126132921925
            ]
          ]
        ]
      }
    }
  ]
}
