{
  "type": "FeatureCollection",
  "features": [
    {
      "type": "Feature",
      "properties": {
        "Name": "United Kingdoms of Sweden and Norway",
        "FromYear": 1820,
        "ToYear": 1899,
        "Area": 804281.592463806,
        "Type": "POLITY",
        "Wikipedia": "Union between Sweden and Norway",
        "Wikidata": "Q62589",
        "SeshatID": "sv_united_k_sweden_and_norway",
        "Components": "",
        "MemberOf": "",
        "displayYear": 1864,
        "sourceYear": 1864,
        "mappedTerritoryId": "cliopatria_united_kingdoms_of_sweden_and_norway"
      },
      "geometry": {
        "type": "MultiPolygon",
        "coordinates": [
          [
            [
              [
                18.230064392089844,
                57.8345832824707
              ],
              [
                18.598026275634766,
                57.97305679321289
              ],
              [
                19.04520034790039,
                57.97305679321289
              ],
              [
                19.03397560119629,
                57.8345832824707
              ],
              [
                18.844388961791992,
                57.696231842041016
              ],
              [
                18.911693572998047,
                57.41988754272461
              ],
              [
                18.45128059387207,
                57.21294021606445
              ],
              [
                18.342275619506836,
                56.937416076660156
              ],
              [
                18.076435089111328,
                56.937416076660156
              ],
              [
                18.02667236328125,
                57.488929748535156
              ],
              [
                18.031593322753906,
                57.55800247192383
              ],
              [
                18.230064392089844,
                57.8345832824707
              ]
            ]
          ],
          [
            [
              [
                28.455373764038086,
                70.87539672851562
              ],
              [
                28.25069236755371,
                70.87539672851562
              ],
              [
                28.21521759033203,
                70.7200698852539
              ],
              [
                28.317365646362305,
                70.7200698852539
              ],
              [
                28.18010711669922,
                70.5650405883789
              ],
              [
                28.384017944335938,
                70.5650405883789
              ],
              [
                28.437397003173828,
                70.79769897460938
              ],
              [
                28.678319931030273,
                70.95317840576172
              ],
              [
                29.292943954467773,
                70.95317840576172
              ],
              [
                29.357587814331055,
                70.79769897460938
              ],
              [
                30.073293685913086,
                70.79769897460938
              ],
              [
                30.238649368286133,
                70.64251708984375
              ],
              [
                31.034881591796875,
                70.5650405883789
              ],
              [
                31.014799118041992,
                70.48763275146484
              ],
              [
                31.11665916442871,
                70.48763275146484
              ],
              [
                30.955127716064453,
                70.2558364868164
              ],
              [
                29.699098587036133,
                70.10164642333984
              ],
              [
                29.662349700927734,
                69.9477310180664
              ],
              [
                29.864765167236328,
                69.9477310180664
              ],
              [
                29.827972412109375,
                69.79407501220703
              ],
              [
                30.03002166748047,
                69.79407501220703
              ],
              [
                30.067180633544922,
                69.9477310180664
              ],
              [
                30.857486724853516,
                69.8708724975586
              ],
              [
                30.958600997924805,
                69.8708724975586
              ],
              [
                30.919960021972656,
                69.71734619140625
              ],
              [
                30.68014907836914,
                69.5640869140625
              ],
              [
                30.194869995117188,
                69.64068603515625
              ],
              [
                29.938522338867188,
                69.41107940673828
              ],
              [
                29.317562103271484,
                69.33467864990234
              ],
              [
                29.165199279785156,
                69.10584259033203
              ],
              [
                28.76433563232422,
                69.10584259033203
              ],
              [
                28.798139572143555,
                69.25833129882812
              ],
              [
                29.269622802734375,
                69.5640869140625
              ],
              [
                29.204097747802734,
                69.71734619140625
              ],
              [
                28.514657974243164,
                69.79407501220703
              ],
              [
                28.531824111938477,
                69.8708724975586
              ],
              [
                28.144235610961914,
                69.9477310180664
              ],
              [
                28.161184310913086,
                70.024658203125
              ],
              [
                26.524911880493164,
                69.9477310180664
              ],
              [
                25.858652114868164,
                69.64068603515625
              ],
              [
                25.757848739624023,
                69.10584259033203
              ],
              [
                25.657630920410156,
                69.10584259033203
              ],
              [
                25.629560470581055,
                68.95359802246094
              ],
              [
                25.429479598999023,
                68.95359802246094
              ],
              [
                24.863161087036133,
                68.57408905029297
              ],
              [
                24.390546798706055,
                68.7257080078125
              ],
              [
                24.403335571289062,
                68.8016128540039
              ],
              [
                22.782730102539062,
                68.64987182617188
              ],
              [
                22.79408073425293,
                68.7257080078125
              ],
              [
                22.406017303466797,
                68.8016128540039
              ],
              [
                22.417118072509766,
                68.87757110595703
              ],
              [
                22.217212677001953,
                68.87757110595703
              ],
              [
                21.770601272583008,
                69.25833129882812
              ],
              [
                20.95743751525879,
                69.18205261230469
              ],
              [
                20.937543869018555,
                69.0296859741211
              ],
              [
                21.11773109436035,
                68.87757110595703
              ],
              [
                21.507225036621094,
                68.8016128540039
              ],
              [
                21.874967575073242,
                68.57408905029297
              ],
              [
                23.035846710205078,
                68.34712219238281
              ],
              [
                23.02447509765625,
                68.27159118652344
              ],
              [
                23.223005294799805,
                68.27159118652344
              ],
              [
                23.211511611938477,
                68.19611358642578
              ],
              [
                23.40987205505371,
                68.19611358642578
              ],
              [
                23.58470916748047,
                68.04534912109375
              ],
              [
                23.4054012298584,
                67.51952362060547
              ],
              [
                23.689157485961914,
                67.44463348388672
              ],
              [
                23.545406341552734,
                67.14566802978516
              ],
              [
                23.902938842773438,
                66.92203521728516
              ],
              [
                23.70433235168457,
                66.25411987304688
              ],
              [
                24.05880355834961,
                66.0324478149414
              ],
              [
                24.025293350219727,
                65.8112564086914
              ],
              [
                23.928674697875977,
                65.8112564086914
              ],
              [
                23.82111167907715,
                65.73763275146484
              ],
              [
                22.382781982421875,
                65.8112564086914
              ],
              [
                22.4400577545166,
                65.51705932617188
              ],
              [
                21.75661277770996,
                65.44363403320312
              ],
              [
                21.651241302490234,
                65.3702621459961
              ],
              [
                21.615007400512695,
                65.07727813720703
              ],
              [
                21.21416473388672,
                64.93107604980469
              ],
              [
                21.301170349121094,
                64.8580551147461
              ],
              [
                21.27517318725586,
                64.63926696777344
              ],
              [
                21.466033935546875,
                64.63926696777344
              ],
              [
                21.53504753112793,
                64.4209213256836
              ],
              [
                21.137287139892578,
                64.27558898925781
              ],
              [
                20.811307907104492,
                63.91307830810547
              ],
              [
                20.621877670288086,
                63.91307830810547
              ],
              [
                20.409116744995117,
                63.69612503051758
              ],
              [
                19.83477783203125,
                63.623897552490234
              ],
              [
                19.725921630859375,
                63.479576110839844
              ],
              [
                19.348739624023438,
                63.479576110839844
              ],
              [
                19.139917373657227,
                63.263427734375
              ],
              [
                18.75072479248047,
                63.11954879760742
              ],
              [
                18.468870162963867,
                63.11954879760742
              ],
              [
                18.350555419921875,
                62.83230972290039
              ],
              [
                17.9758358001709,
                62.83230972290039
              ],
              [
                17.958559036254883,
                62.61732482910156
              ],
              [
                17.76043701171875,
                62.474212646484375
              ],
              [
                17.387060165405273,
                62.474212646484375
              ],
              [
                17.56291389465332,
                62.331268310546875
              ],
              [
                17.552143096923828,
                62.18848419189453
              ],
              [
                17.355539321899414,
                62.045867919921875
              ],
              [
                17.514938354492188,
                61.69001388549805
              ],
              [
                17.237071990966797,
                61.69001388549805
              ],
              [
                17.18714141845703,
                60.9812126159668
              ],
              [
                17.279125213623047,
                60.9812126159668
              ],
              [
                17.264240264892578,
                60.76930236816406
              ],
              [
                18.612024307250977,
                60.416839599609375
              ],
              [
                18.503421783447266,
                60.20578384399414
              ],
              [
                18.777332305908203,
                60.20578384399414
              ],
              [
                19.033178329467773,
                59.99503707885742
              ],
              [
                19.00933265686035,
                59.714515686035156
              ],
              [
                18.827571868896484,
                59.714515686035156
              ],
              [
                18.628820419311523,
                59.504478454589844
              ],
              [
                18.351261138916016,
                59.434532165527344
              ],
              [
                18.414575576782227,
                59.08528518676758
              ],
              [
                18.143529891967773,
                59.08528518676758
              ],
              [
                17.947494506835938,
                58.876129150390625
              ],
              [
                17.496623992919922,
                58.876129150390625
              ],
              [
                17.487049102783203,
                58.73685073852539
              ],
              [
                17.126813888549805,
                58.73685073852539
              ],
              [
                17.02781105041504,
                58.59769821166992
              ],
              [
                16.847923278808594,
                58.59769821166992
              ],
              [
                16.83926010131836,
                58.45867156982422
              ],
              [
                16.65959930419922,
                58.45867156982422
              ],
              [
                16.830646514892578,
                58.31977081298828
              ],
              [
                16.813568115234375,
                58.042335510253906
              ],
              [
                16.626346588134766,
                57.903804779052734
              ],
              [
                16.71156883239746,
                57.8345832824707
              ],
              [
                16.703289031982422,
                57.696231842041016
              ],
              [
                16.614076614379883,
                57.696231842041016
              ],
              [
                16.68687629699707,
                57.41988754272461
              ],
              [
                16.500974655151367,
                57.28189468383789
              ],
              [
                16.477506637573242,
                56.86860656738281
              ],
              [
                16.755352020263672,
                57.07511901855469
              ],
              [
                16.860679626464844,
                57.35087585449219
              ],
              [
                17.131839752197266,
                57.41988754272461
              ],
              [
                17.12316131591797,
                57.28189468383789
              ],
              [
                16.936981201171875,
                57.14401626586914
              ],
              [
                16.924457550048828,
                56.937416076660156
              ],
              [
                16.739154815673828,
                56.799827575683594
              ],
              [
                16.62702751159668,
                56.387733459472656
              ],
              [
                16.266908645629883,
                56.25059127807617
              ],
              [
                16.28167724609375,
                56.524986267089844
              ],
              [
                16.193382263183594,
                56.524986267089844
              ],
              [
                16.090740203857422,
                56.25059127807617
              ],
              [
                15.819687843322754,
                56.11355972290039
              ],
              [
                14.76668930053711,
                56.182064056396484
              ],
              [
                14.758404731750488,
                55.97663879394531
              ],
              [
                14.228706359863281,
                55.90821838378906
              ],
              [
                14.296913146972656,
                55.36180877685547
              ],
              [
                12.724898338317871,
                55.430015563964844
              ],
              [
                12.903090476989746,
                55.56651306152344
              ],
              [
                12.908012390136719,
                55.77145767211914
              ],
              [
                12.561474800109863,
                55.97663879394531
              ],
              [
                12.480693817138672,
                56.319149017333984
              ],
              [
                12.656968116760254,
                56.319149017333984
              ],
              [
                12.573304176330566,
                56.524986267089844
              ],
              [
                12.749893188476562,
                56.524986267089844
              ],
              [
                12.75311279296875,
                56.662349700927734
              ],
              [
                12.402325630187988,
                56.799827575683594
              ],
              [
                12.405158996582031,
                56.937416076660156
              ],
              [
                12.14184856414795,
                57.07511901855469
              ],
              [
                12.058022499084473,
                57.35087585449219
              ],
              [
                11.792279243469238,
                57.41988754272461
              ],
              [
                11.713647842407227,
                58.11164855957031
              ],
              [
                11.44500732421875,
                58.11164855957031
              ],
              [
                11.44767951965332,
                58.31977081298828
              ],
              [
                11.179258346557617,
                58.38920593261719
              ],
              [
                11.09703254699707,
                59.15507125854492
              ],
              [
                10.825811386108398,
                59.15507125854492
              ],
              [
                10.555644989013672,
                59.36461639404297
              ],
              [
                10.557076454162598,
                59.64447021484375
              ],
              [
                10.374953269958496,
                59.504478454589844
              ],
              [
                10.465357780456543,
                59.434532165527344
              ],
              [
                10.373775482177734,
                59.15507125854492
              ],
              [
                10.192960739135742,
                59.15507125854492
              ],
              [
                10.012155532836914,
                58.94581604003906
              ],
              [
                9.65099048614502,
                59.015533447265625
              ],
              [
                9.561288833618164,
                58.876129150390625
              ],
              [
                9.380940437316895,
                58.876129150390625
              ],
              [
                9.381759643554688,
                58.73685073852539
              ],
              [
                9.111583709716797,
                58.73685073852539
              ],
              [
                9.112746238708496,
                58.59769821166992
              ],
              [
                8.932857513427734,
                58.59769821166992
              ],
              [
                8.66648006439209,
                58.31977081298828
              ],
              [
                7.597545146942139,
                57.97305679321289
              ],
              [
                6.611622333526611,
                58.042335510253906
              ],
              [
                6.515511512756348,
                58.2503662109375
              ],
              [
                5.974997520446777,
                58.31977081298828
              ],
              [
                5.514988899230957,
                58.59769821166992
              ],
              [
                5.497633457183838,
                59.015533447265625
              ],
              [
                5.949085235595703,
                59.015533447265625
              ],
              [
                6.026472091674805,
                59.36461639404297
              ],
              [
                5.842586994171143,
                59.434532165527344
              ],
              [
                5.848016262054443,
                59.294734954833984
              ],
              [
                5.214344501495361,
                59.294734954833984
              ],
              [
                5.283252716064453,
                59.78459548950195
              ],
              [
                5.192312240600586,
                59.78459548950195
              ],
              [
                5.18274974822998,
                59.99503707885742
              ],
              [
                5.450062274932861,
                60.135501861572266
              ],
              [
                5.261251449584961,
                60.276100158691406
              ],
              [
                4.899204254150391,
                60.20578384399414
              ],
              [
                4.888944625854492,
                60.416839599609375
              ],
              [
                5.160153865814209,
                60.48725891113281
              ],
              [
                4.949739456176758,
                61.05192565917969
              ],
              [
                5.127170562744141,
                61.193458557128906
              ],
              [
                5.034996509552002,
                61.193458557128906
              ],
              [
                4.928883075714111,
                61.47697448730469
              ],
              [
                5.199532508850098,
                61.618961334228516
              ],
              [
                4.921859741210938,
                61.618961334228516
              ],
              [
                4.91480016708374,
                61.7611083984375
              ],
              [
                5.186155319213867,
                61.90340805053711
              ],
              [
                5.076096057891846,
                62.259857177734375
              ],
              [
                5.451878070831299,
                62.18848419189453
              ],
              [
                5.44224739074707,
                62.4027214050293
              ],
              [
                5.722079753875732,
                62.4027214050293
              ],
              [
                5.731114864349365,
                62.18848419189453
              ],
              [
                5.917273044586182,
                62.18848419189453
              ],
              [
                5.908635139465332,
                62.4027214050293
              ],
              [
                6.559149742126465,
                62.474212646484375
              ],
              [
                6.642990112304688,
                62.76060485839844
              ],
              [
                7.395575523376465,
                62.61732482910156
              ],
              [
                7.391887664794922,
                62.76060485839844
              ],
              [
                6.921638965606689,
                62.83230972290039
              ],
              [
                6.915043354034424,
                63.047672271728516
              ],
              [
                7.94775915145874,
                63.047672271728516
              ],
              [
                7.944839000701904,
                63.191463470458984
              ],
              [
                8.226899147033691,
                63.191463470458984
              ],
              [
                8.22437858581543,
                63.33543014526367
              ],
              [
                7.753591537475586,
                63.33543014526367
              ],
              [
                7.843117713928223,
                63.55171203613281
              ],
              [
                8.221847534179688,
                63.479576110839844
              ],
              [
                8.501543998718262,
                63.69612503051758
              ],
              [
                9.068572044372559,
                63.69612503051758
              ],
              [
                8.976213455200195,
                63.479576110839844
              ],
              [
                9.259605407714844,
                63.4074821472168
              ],
              [
                9.352522850036621,
                63.623897552490234
              ],
              [
                9.54139232635498,
                63.623897552490234
              ],
              [
                9.540202140808105,
                63.91307830810547
              ],
              [
                9.919048309326172,
                63.98548889160156
              ],
              [
                9.919021606445312,
                64.13044738769531
              ],
              [
                10.29927921295166,
                64.27558898925781
              ],
              [
                10.299833297729492,
                64.4209213256836
              ],
              [
                10.873260498046875,
                64.63926696777344
              ],
              [
                11.159551620483398,
                64.63926696777344
              ],
              [
                11.34825611114502,
                64.49365234375
              ],
              [
                11.444689750671387,
                64.56643676757812
              ],
              [
                11.353676795959473,
                64.8580551147461
              ],
              [
                11.449325561523438,
                64.8580551147461
              ],
              [
                11.451669692993164,
                65.004150390625
              ],
              [
                11.740456581115723,
                65.07727813720703
              ],
              [
                11.839288711547852,
                65.22367095947266
              ],
              [
                12.12563419342041,
                65.15044403076172
              ],
              [
                12.03625774383545,
                65.44363403320312
              ],
              [
                12.132498741149902,
                65.44363403320312
              ],
              [
                12.135971069335938,
                65.59053039550781
              ],
              [
                12.525640487670898,
                65.73763275146484
              ],
              [
                12.529778480529785,
                65.88493347167969
              ],
              [
                12.336389541625977,
                65.88493347167969
              ],
              [
                12.439126968383789,
                66.10628509521484
              ],
              [
                12.342202186584473,
                66.10628509521484
              ],
              [
                12.346120834350586,
                66.25411987304688
              ],
              [
                12.637356758117676,
                66.25411987304688
              ],
              [
                12.632975578308105,
                66.10628509521484
              ],
              [
                12.824494361877441,
                66.0324478149414
              ],
              [
                12.928592681884766,
                66.25411987304688
              ],
              [
                13.122750282287598,
                66.25411987304688
              ],
              [
                12.940890312194824,
                66.6246337890625
              ],
              [
                13.233297348022461,
                66.6246337890625
              ],
              [
                13.238768577575684,
                66.77322387695312
              ],
              [
                13.629276275634766,
                66.77322387695312
              ],
              [
                13.540666580200195,
                66.99652099609375
              ],
              [
                13.641645431518555,
                67.0710678100586
              ],
              [
                14.13137435913086,
                67.0710678100586
              ],
              [
                14.436574935913086,
                67.29503631591797
              ],
              [
                14.546525001525879,
                67.51952362060547
              ],
              [
                14.94884204864502,
                67.66946411132812
              ],
              [
                15.065190315246582,
                67.97005462646484
              ],
              [
                15.36197566986084,
                67.97005462646484
              ],
              [
                15.579607009887695,
                68.27159118652344
              ],
              [
                15.877401351928711,
                68.27159118652344
              ],
              [
                15.882658958435059,
                68.34712219238281
              ],
              [
                15.092460632324219,
                68.42272186279297
              ],
              [
                14.984017372131348,
                68.27159118652344
              ],
              [
                14.186103820800781,
                68.19611358642578
              ],
              [
                14.193711280822754,
                68.34712219238281
              ],
              [
                14.400439262390137,
                68.49837493896484
              ],
              [
                14.902517318725586,
                68.57408905029297
              ],
              [
                14.911535263061523,
                68.7257080078125
              ],
              [
                14.408551216125488,
                68.64987182617188
              ],
              [
                14.520834922790527,
                68.87757110595703
              ],
              [
                15.134926795959473,
                69.10584259033203
              ],
              [
                15.130109786987305,
                69.0296859741211
              ],
              [
                15.330366134643555,
                69.0296859741211
              ],
              [
                15.315542221069336,
                68.8016128540039
              ],
              [
                15.515274047851562,
                68.8016128540039
              ],
              [
                15.440682411193848,
                69.18205261230469
              ],
              [
                15.752424240112305,
                69.33467864990234
              ],
              [
                16.154354095458984,
                69.33467864990234
              ],
              [
                16.14281463623047,
                69.18205261230469
              ],
              [
                15.93665599822998,
                69.10584259033203
              ],
              [
                15.92017650604248,
                68.87757110595703
              ],
              [
                16.61984634399414,
                68.87757110595703
              ],
              [
                16.607778549194336,
                68.7257080078125
              ],
              [
                17.212993621826172,
                68.8016128540039
              ],
              [
                17.23280143737793,
                69.0296859741211
              ],
              [
                17.332929611206055,
                69.0296859741211
              ],
              [
                17.319517135620117,
                68.87757110595703
              ],
              [
                17.519424438476562,
                68.87757110595703
              ],
              [
                17.647384643554688,
                69.18205261230469
              ],
              [
                17.03903579711914,
                69.10584259033203
              ],
              [
                16.958213806152344,
                69.33467864990234
              ],
              [
                16.85773277282715,
                69.33467864990234
              ],
              [
                16.87064552307129,
                69.487548828125
              ],
              [
                17.273292541503906,
                69.487548828125
              ],
              [
                17.58958625793457,
                69.64068603515625
              ],
              [
                17.892112731933594,
                69.64068603515625
              ],
              [
                17.977924346923828,
                69.487548828125
              ],
              [
                18.581893920898438,
                69.487548828125
              ],
              [
                18.58993148803711,
                69.5640869140625
              ],
              [
                18.18692398071289,
                69.5640869140625
              ],
              [
                18.202392578125,
                69.71734619140625
              ],
              [
                18.816329956054688,
                69.79407501220703
              ],
              [
                18.72359275817871,
                69.8708724975586
              ],
              [
                18.748706817626953,
                70.10164642333984
              ],
              [
                18.85865020751953,
                70.17870330810547
              ],
              [
                19.661239624023438,
                70.10164642333984
              ],
              [
                19.58759307861328,
                70.3330307006836
              ],
              [
                19.883031845092773,
                70.2558364868164
              ],
              [
                19.835866928100586,
                69.8708724975586
              ],
              [
                20.36109161376953,
                70.024658203125
              ],
              [
                20.289348602294922,
                70.2558364868164
              ],
              [
                20.50264549255371,
                70.3330307006836
              ],
              [
                20.807662963867188,
                70.3330307006836
              ],
              [
                20.766292572021484,
                70.024658203125
              ],
              [
                20.968891143798828,
                70.024658203125
              ],
              [
                20.958492279052734,
                69.9477310180664
              ],
              [
                21.171491622924805,
                70.024658203125
              ],
              [
                21.768152236938477,
                69.9477310180664
              ],
              [
                21.790483474731445,
                70.10164642333984
              ],
              [
                21.384912490844727,
                70.10164642333984
              ],
              [
                21.428739547729492,
                70.41029357910156
              ],
              [
                22.027734756469727,
                70.3330307006836
              ],
              [
                22.01618766784668,
                70.2558364868164
              ],
              [
                22.332752227783203,
                70.3330307006836
              ],
              [
                22.470558166503906,
                70.5650405883789
              ],
              [
                22.368600845336914,
                70.5650405883789
              ],
              [
                22.405025482177734,
                70.79769897460938
              ],
              [
                23.440704345703125,
                70.87539672851562
              ],
              [
                23.29914093017578,
                70.64251708984375
              ],
              [
                23.503244400024414,
                70.64251708984375
              ],
              [
                23.631948471069336,
                70.79769897460938
              ],
              [
                24.3336181640625,
                70.7200698852539
              ],
              [
                24.273517608642578,
                70.95317840576172
              ],
              [
                24.580829620361328,
                70.95317840576172
              ],
              [
                24.595294952392578,
                71.0310287475586
              ],
              [
                25.29789161682129,
                70.95317840576172
              ],
              [
                25.34358787536621,
                71.18696594238281
              ],
              [
                25.873144149780273,
                71.26505279541016
              ],
              [
                25.85724449157715,
                71.18696594238281
              ],
              [
                26.062705993652344,
                71.18696594238281
              ],
              [
                25.88130760192871,
                70.79769897460938
              ],
              [
                26.440919876098633,
                71.0310287475586
              ],
              [
                26.748523712158203,
                71.0310287475586
              ],
              [
                26.683008193969727,
                70.7200698852539
              ],
              [
                26.56479263305664,
                70.64251708984375
              ],
              [
                26.95663070678711,
                70.5650405883789
              ],
              [
                27.091596603393555,
                70.7200698852539
              ],
              [
                27.0059871673584,
                70.79769897460938
              ],
              [
                27.244199752807617,
                70.95317840576172
              ],
              [
                27.261198043823242,
                71.0310287475586
              ],
              [
                27.706403732299805,
                71.18696594238281
              ],
              [
                28.407251358032227,
                71.10896301269531
              ],
              [
                28.455373764038086,
                70.87539672851562
              ]
            ]
          ],
          [
            [
              [
                13.185554504394531,
                67.97005462646484
              ],
              [
                12.787290573120117,
                67.89481353759766
              ],
              [
                12.79240608215332,
                68.04534912109375
              ],
              [
                12.891417503356934,
                68.04534912109375
              ],
              [
                12.894081115722656,
                68.1207046508789
              ],
              [
                13.19136905670166,
                68.1207046508789
              ],
              [
                13.185554504394531,
                67.97005462646484
              ]
            ]
          ],
          [
            [
              [
                14.098109245300293,
                68.42272186279297
              ],
              [
                14.086923599243164,
                68.19611358642578
              ],
              [
                13.587753295898438,
                68.1207046508789
              ],
              [
                13.584501266479492,
                68.04534912109375
              ],
              [
                13.38647747039795,
                68.04534912109375
              ],
              [
                13.38956069946289,
                68.1207046508789
              ],
              [
                13.392661094665527,
                68.19611358642578
              ],
              [
                13.700368881225586,
                68.42272186279297
              ],
              [
                14.098109245300293,
                68.42272186279297
              ]
            ]
          ],
          [
            [
              [
                24.08262062072754,
                71.0310287475586
              ],
              [
                24.06864356994629,
                70.95317840576172
              ],
              [
                23.96620750427246,
                70.95317840576172
              ],
              [
                23.980085372924805,
                71.0310287475586
              ],
              [
                23.994043350219727,
                71.10896301269531
              ],
              [
                24.096675872802734,
                71.10896301269531
              ],
              [
                24.08262062072754,
                71.0310287475586
              ]
            ]
          ]
        ]
      }
    }
  ]
}
