{
  "type": "FeatureCollection",
  "features": [
    {
      "type": "Feature",
      "properties": {
        "Name": "Morocco",
        "FromYear": 1905,
        "ToYear": 1911,
        "Area": 358049.28145619284,
        "Type": "POLITY",
        "Wikipedia": "Morocco",
        "Wikidata": "Q1028",
        "SeshatID": "",
        "Components": "",
        "MemberOf": "",
        "displayYear": 1911,
        "sourceYear": 1911,
        "mappedTerritoryId": "cliopatria_morocco"
      },
      "geometry": {
        "type": "Polygon",
        "coordinates": [
          [
            [
              -3.441448211669922,
              35.194007873535156
            ],
            [
              -4.754821300506592,
              35.194007873535156
            ],
            [
              -5.239750862121582,
              35.51579284667969
            ],
            [
              -5.330159187316895,
              35.708900451660156
            ],
            [
              -5.876633644104004,
              35.77327346801758
            ],
            [
              -5.999861240386963,
              35.32271194458008
            ],
            [
              -6.14545202255249,
              35.194007873535156
            ],
            [
              -6.132044315338135,
              35.00096893310547
            ],
            [
              -6.290933609008789,
              35.065311431884766
            ],
            [
              -6.200328826904297,
              34.87228775024414
            ],
            [
              -6.277484893798828,
              34.87228775024414
            ],
            [
              -6.332395076751709,
              34.55062484741211
            ],
            [
              -6.482059955596924,
              34.48630142211914
            ],
            [
              -6.473203659057617,
              34.3576545715332
            ],
            [
              -6.699729919433594,
              34.2933349609375
            ],
            [
              -6.613898754119873,
              34.164703369140625
            ],
            [
              -6.90380334854126,
              33.90746307373047
            ],
            [
              -7.062007427215576,
              33.971771240234375
            ],
            [
              -7.129902839660645,
              33.84315490722656
            ],
            [
              -8.551655769348145,
              33.32876968383789
            ],
            [
              -9.198505401611328,
              32.75019073486328
            ],
            [
              -9.332544326782227,
              32.493072509765625
            ],
            [
              -9.309136390686035,
              32.171695709228516
            ],
            [
              -9.52421760559082,
              31.978878021240234
            ],
            [
              -9.5149564743042,
              31.8503360748291
            ],
            [
              -9.734487533569336,
              31.7217960357666
            ],
            [
              -9.783116340637207,
              31.336183547973633
            ],
            [
              -9.859257698059082,
              31.336183547973633
            ],
            [
              -9.881543159484863,
              30.564971923828125
            ],
            [
              -9.649378776550293,
              30.500701904296875
            ],
            [
              -9.636479377746582,
              30.307893753051758
            ],
            [
              -9.63221263885498,
              30.243623733520508
            ],
            [
              -9.404620170593262,
              30.243623733520508
            ],
            [
              -9.38790225982666,
              29.986536026000977
            ],
            [
              -9.83426570892334,
              29.857990264892578
            ],
            [
              -9.83006763458252,
              29.79371452331543
            ],
            [
              -10.048895835876465,
              29.665164947509766
            ],
            [
              -10.040523529052734,
              29.536611557006836
            ],
            [
              -10.33069133758545,
              29.34377670288086
            ],
            [
              -10.465293884277344,
              29.08665657043457
            ],
            [
              -10.616477012634277,
              29.08665657043457
            ],
            [
              -11.334264755249023,
              28.508106231689453
            ],
            [
              -11.330116271972656,
              28.44382095336914
            ],
            [
              -10.781972885131836,
              28.12238883972168
            ],
            [
              -10.103551864624023,
              28.12238883972168
            ],
            [
              -9.134653091430664,
              28.315250396728516
            ],
            [
              -9.142093658447266,
              28.44382095336914
            ],
            [
              -8.696734428405762,
              28.572391510009766
            ],
            [
              -8.269428253173828,
              29.022375106811523
            ],
            [
              -7.970772743225098,
              29.08665657043457
            ],
            [
              -7.758580207824707,
              29.34377670288086
            ],
            [
              -7.167716026306152,
              29.600887298583984
            ],
            [
              -6.634244441986084,
              29.536611557006836
            ],
            [
              -6.486324787139893,
              29.600887298583984
            ],
            [
              -6.421061992645264,
              29.79371452331543
            ],
            [
              -5.370406627655029,
              29.986536026000977
            ],
            [
              -4.793318271636963,
              30.564971923828125
            ],
            [
              -4.641430854797363,
              30.564971923828125
            ],
            [
              -4.648018360137939,
              30.69350814819336
            ],
            [
              -4.208353042602539,
              31.014846801757812
            ],
            [
              -4.214911460876465,
              31.143381118774414
            ],
            [
              -3.774466514587402,
              31.464719772338867
            ],
            [
              -3.638331174850464,
              31.78606605529785
            ],
            [
              -2.834011793136597,
              32.493072509765625
            ],
            [
              -2.840430974960327,
              32.62162780761719
            ],
            [
              -1.578816890716553,
              33.45735549926758
            ],
            [
              -1.715473294258118,
              34.679283142089844
            ],
            [
              -2.114432096481323,
              34.93662643432617
            ],
            [
              -2.121232748031616,
              35.065311431884766
            ],
            [
              -2.198449373245239,
              35.065311431884766
            ],
            [
              -2.661749362945557,
              35.065311431884766
            ],
            [
              -2.819781064987183,
              35.12965774536133
            ],
            [
              -2.8270103931427,
              35.258358001708984
            ],
            [
              -3.364191055297852,
              35.194007873535156
            ],
            [
              -3.441448211669922,
              35.194007873535156
            ]
          ]
        ]
      }
    }
  ]
}
