{
  "type": "FeatureCollection",
  "features": [
    {
      "type": "Feature",
      "properties": {
        "Name": "Abbasid Caliphate",
        "FromYear": 1206,
        "ToYear": 1215,
        "Area": 168095.1525959711,
        "Type": "POLITY",
        "Wikipedia": "Abbasid Caliphate",
        "Wikidata": "Q12536",
        "SeshatID": "iq_abbasid_cal_2",
        "Components": "",
        "MemberOf": "",
        "displayYear": 1206,
        "sourceYear": 1206,
        "mappedTerritoryId": "abbasid_caliphate"
      },
      "geometry": {
        "type": "Polygon",
        "coordinates": [
          [
            [
              45.535648345947266,
              34.614952087402344
            ],
            [
              45.68980026245117,
              34.614952087402344
            ],
            [
              45.793922424316406,
              34.80794906616211
            ],
            [
              45.753108978271484,
              35.065311431884766
            ],
            [
              45.589599609375,
              35.00096893310547
            ],
            [
              45.57151794433594,
              34.87228775024414
            ],
            [
              45.340049743652344,
              34.87228775024414
            ],
            [
              45.203617095947266,
              35.00096893310547
            ],
            [
              45.180519104003906,
              35.38706970214844
            ],
            [
              44.9349250793457,
              35.837650299072266
            ],
            [
              44.898380279541016,
              35.58015823364258
            ],
            [
              44.40733337402344,
              35.38706970214844
            ],
            [
              44.1740608215332,
              34.80794906616211
            ],
            [
              43.92555618286133,
              34.679283142089844
            ],
            [
              43.81462097167969,
              34.42197799682617
            ],
            [
              43.660587310791016,
              34.42197799682617
            ],
            [
              43.39646530151367,
              34.164703369140625
            ],
            [
              43.242584228515625,
              34.164703369140625
            ],
            [
              42.89459991455078,
              33.84315490722656
            ],
            [
              42.57145309448242,
              33.71455001831055
            ],
            [
              42.36363983154297,
              33.26447677612305
            ],
            [
              42.355987548828125,
              33.20018768310547
            ],
            [
              42.578269958496094,
              33.13589859008789
            ],
            [
              42.708534240722656,
              32.94303894042969
            ],
            [
              43.152584075927734,
              32.81447219848633
            ],
            [
              44.459014892578125,
              31.593257904052734
            ],
            [
              44.44402313232422,
              31.464719772338867
            ],
            [
              44.657562255859375,
              31.336183547973633
            ],
            [
              44.63529586791992,
              31.143381118774414
            ],
            [
              44.79490280151367,
              31.20764923095703
            ],
            [
              45.39815139770508,
              30.500701904296875
            ],
            [
              45.55000686645508,
              30.500701904296875
            ],
            [
              46.09901428222656,
              29.986536026000977
            ],
            [
              46.53215789794922,
              29.79371452331543
            ],
            [
              46.58648681640625,
              29.600887298583984
            ],
            [
              46.74504852294922,
              29.665164947509766
            ],
            [
              46.868003845214844,
              29.40805435180664
            ],
            [
              47.10211944580078,
              29.472333908081055
            ],
            [
              47.383392333984375,
              29.279497146606445
            ],
            [
              47.45903015136719,
              29.279497146606445
            ],
            [
              47.570716857910156,
              29.600887298583984
            ],
            [
              48.069862365722656,
              29.986536026000977
            ],
            [
              48.14566421508789,
              29.986536026000977
            ],
            [
              48.592803955078125,
              29.922264099121094
            ],
            [
              48.6004753112793,
              29.986536026000977
            ],
            [
              48.38842010498047,
              30.115081787109375
            ],
            [
              48.41168975830078,
              30.307893753051758
            ],
            [
              48.27554702758789,
              30.436433792114258
            ],
            [
              48.04780960083008,
              30.436433792114258
            ],
            [
              48.103145599365234,
              30.886310577392578
            ],
            [
              47.738956451416016,
              31.014846801757812
            ],
            [
              47.79570007324219,
              31.464719772338867
            ],
            [
              47.97293472290039,
              31.65752601623535
            ],
            [
              47.92181396484375,
              31.8503360748291
            ],
            [
              47.70976638793945,
              31.978878021240234
            ],
            [
              47.72666931152344,
              32.107421875
            ],
            [
              47.58243942260742,
              32.171695709228516
            ],
            [
              47.463706970214844,
              32.428794860839844
            ],
            [
              46.945579528808594,
              32.557350158691406
            ],
            [
              46.682132720947266,
              32.878753662109375
            ],
            [
              46.16311264038086,
              33.00732421875
            ],
            [
              46.137794494628906,
              33.393062591552734
            ],
            [
              45.59275817871094,
              33.90746307373047
            ],
            [
              45.43903350830078,
              33.90746307373047
            ],
            [
              45.64531326293945,
              34.2933349609375
            ],
            [
              45.50016784667969,
              34.3576545715332
            ],
            [
              45.52674102783203,
              34.55062484741211
            ],
            [
              45.535648345947266,
              34.614952087402344
            ]
          ]
        ]
      }
    }
  ]
}
