{
  "type": "FeatureCollection",
  "features": [
    {
      "type": "Feature",
      "properties": {
        "Name": "Balhae",
        "FromYear": 705,
        "ToYear": 740,
        "Area": 125329.96770626398,
        "Type": "POLITY",
        "Wikipedia": "Balhae",
        "Wikidata": "Q28322",
        "SeshatID": "kr_balhae_k",
        "Components": "",
        "MemberOf": "",
        "displayYear": 713,
        "sourceYear": 713,
        "mappedTerritoryId": "cliopatria_balhae"
      },
      "geometry": {
        "type": "Polygon",
        "coordinates": [
          [
            [
              130.40203857421875,
              42.236209869384766
            ],
            [
              130.60537719726562,
              42.30118942260742
            ],
            [
              130.90475463867188,
              42.62621307373047
            ],
            [
              131.22511291503906,
              42.62621307373047
            ],
            [
              131.75390625,
              43.276947021484375
            ],
            [
              131.9146728515625,
              43.276947021484375
            ],
            [
              131.9253692626953,
              43.407203674316406
            ],
            [
              131.21182250976562,
              43.53750228881836
            ],
            [
              131.12094116210938,
              43.407203674316406
            ],
            [
              130.146240234375,
              43.276947021484375
            ],
            [
              128.7564239501953,
              42.88639831542969
            ],
            [
              127.2854995727539,
              42.236209869384766
            ],
            [
              124.99581909179688,
              41.00318908691406
            ],
            [
              124.56256103515625,
              40.6791877746582
            ],
            [
              124.26568603515625,
              39.90232849121094
            ],
            [
              124.34945678710938,
              39.77294921875
            ],
            [
              124.50720977783203,
              39.77294921875
            ],
            [
              124.51239776611328,
              39.64360046386719
            ],
            [
              124.86456298828125,
              39.70827102661133
            ],
            [
              124.99066162109375,
              39.51427459716797
            ],
            [
              125.30574798583984,
              39.51427459716797
            ],
            [
              125.39002990722656,
              39.38497543334961
            ],
            [
              125.03155517578125,
              38.738853454589844
            ],
            [
              125.11003112792969,
              38.738853454589844
            ],
            [
              125.18850708007812,
              38.738853454589844
            ],
            [
              125.57337188720703,
              38.8680305480957
            ],
            [
              125.7893295288086,
              39.25570297241211
            ],
            [
              126.63677978515625,
              39.77294921875
            ],
            [
              127.81350708007812,
              40.16116714477539
            ],
            [
              128.2876739501953,
              40.16116714477539
            ],
            [
              128.2100372314453,
              40.031734466552734
            ],
            [
              128.2890167236328,
              40.031734466552734
            ],
            [
              129.0777130126953,
              40.42012023925781
            ],
            [
              129.23776245117188,
              40.6791877746582
            ],
            [
              129.75584411621094,
              40.873565673828125
            ],
            [
              129.8822021484375,
              41.19768524169922
            ],
            [
              129.7268524169922,
              41.32738494873047
            ],
            [
              129.81040954589844,
              41.45711898803711
            ],
            [
              129.6977081298828,
              41.65177917480469
            ],
            [
              130.32212829589844,
              42.236209869384766
            ],
            [
              130.40203857421875,
              42.236209869384766
            ]
          ]
        ]
      }
    }
  ]
}
