{
  "type": "FeatureCollection",
  "features": [
    {
      "type": "Feature",
      "properties": {
        "Name": "French Mandate for Syria and Lebanon",
        "FromYear": 1940,
        "ToYear": 1942,
        "Area": 195918.4995351798,
        "Type": "POLITY",
        "Wikipedia": "Mandate for Syria and the Lebanon",
        "Wikidata": "Q139708",
        "SeshatID": "",
        "Components": "",
        "MemberOf": "",
        "displayYear": 1940,
        "sourceYear": 1940,
        "mappedTerritoryId": "cliopatria_french_mandate_for_syria_and_lebanon"
      },
      "geometry": {
        "type": "Polygon",
        "coordinates": [
          [
            [
              41.37983703613281,
              35.902034759521484
            ],
            [
              41.33546447753906,
              36.15959167480469
            ],
            [
              41.25789260864258,
              36.15959167480469
            ],
            [
              41.291316986083984,
              36.417205810546875
            ],
            [
              42.11130905151367,
              36.73930740356445
            ],
            [
              42.398048400878906,
              37.12596130371094
            ],
            [
              42.26021957397461,
              37.254878997802734
            ],
            [
              42.026397705078125,
              37.254878997802734
            ],
            [
              41.6103401184082,
              37.06150817871094
            ],
            [
              40.76225280761719,
              37.12596130371094
            ],
            [
              39.537109375,
              36.67487716674805
            ],
            [
              38.837440490722656,
              36.67487716674805
            ],
            [
              38.549774169921875,
              36.8681755065918
            ],
            [
              38.005126953125,
              36.8681755065918
            ],
            [
              37.834354400634766,
              36.73930740356445
            ],
            [
              37.197532653808594,
              36.61045455932617
            ],
            [
              36.908504486083984,
              36.80373764038086
            ],
            [
              36.67515182495117,
              36.80373764038086
            ],
            [
              36.61785888671875,
              36.28839111328125
            ],
            [
              36.45561599731445,
              36.2239875793457
            ],
            [
              36.2658576965332,
              35.902034759521484
            ],
            [
              35.9559211730957,
              35.902034759521484
            ],
            [
              35.87843704223633,
              35.902034759521484
            ],
            [
              35.84488296508789,
              35.58015823364258
            ],
            [
              35.99294662475586,
              35.51579284667969
            ],
            [
              35.88248825073242,
              35.194007873535156
            ],
            [
              35.959747314453125,
              35.194007873535156
            ],
            [
              35.92698669433594,
              34.87228775024414
            ],
            [
              36.0682373046875,
              34.743614196777344
            ],
            [
              36.048770904541016,
              34.55062484741211
            ],
            [
              35.79212951660156,
              34.2933349609375
            ],
            [
              35.64447784423828,
              34.3576545715332
            ],
            [
              35.68381118774414,
              33.971771240234375
            ],
            [
              35.4470100402832,
              33.90746307373047
            ],
            [
              35.49934768676758,
              33.65024948120117
            ],
            [
              35.34577560424805,
              33.65024948120117
            ],
            [
              35.39840316772461,
              33.393062591552734
            ],
            [
              35.227169036865234,
              33.20018768310547
            ],
            [
              35.22126770019531,
              33.13589859008789
            ],
            [
              35.44523620605469,
              33.07160949707031
            ],
            [
              35.7758674621582,
              33.32876968383789
            ],
            [
              35.85255813598633,
              33.32876968383789
            ],
            [
              35.917057037353516,
              33.20018768310547
            ],
            [
              35.80439376831055,
              32.81447219848633
            ],
            [
              35.798458099365234,
              32.75019073486328
            ],
            [
              36.098575592041016,
              32.685909271240234
            ],
            [
              36.45102310180664,
              32.36451721191406
            ],
            [
              36.82706832885742,
              32.30024337768555
            ],
            [
              37.399200439453125,
              32.685909271240234
            ],
            [
              37.79452896118164,
              32.81447219848633
            ],
            [
              37.967071533203125,
              33.00732421875
            ],
            [
              38.84351348876953,
              33.32876968383789
            ],
            [
              39.017581939697266,
              33.52165222167969
            ],
            [
              39.57608413696289,
              33.71455001831055
            ],
            [
              39.583213806152344,
              33.77885055541992
            ],
            [
              39.660037994384766,
              33.77885055541992
            ],
            [
              40.472782135009766,
              34.164703369140625
            ],
            [
              40.48027420043945,
              34.22901916503906
            ],
            [
              40.55723190307617,
              34.22901916503906
            ],
            [
              41.04199981689453,
              34.42197799682617
            ],
            [
              41.266597747802734,
              35.00096893310547
            ],
            [
              41.18939971923828,
              35.00096893310547
            ],
            [
              41.19732666015625,
              35.065311431884766
            ],
            [
              41.27454376220703,
              35.065311431884766
            ],
            [
              41.44083023071289,
              35.77327346801758
            ],
            [
              41.37160110473633,
              35.837650299072266
            ],
            [
              41.37983703613281,
              35.902034759521484
            ]
          ],
          [
            [
              35.51771545410156,
              33.84315490722656
            ],
            [
              35.52387237548828,
              33.90746307373047
            ],
            [
              35.60073471069336,
              33.90746307373047
            ],
            [
              35.59455490112305,
              33.84315490722656
            ],
            [
              35.51771545410156,
              33.84315490722656
            ]
          ]
        ]
      }
    }
  ]
}
