{
  "type": "FeatureCollection",
  "features": [
    {
      "type": "Feature",
      "properties": {
        "Name": "Lavo Kingdom",
        "FromYear": 641,
        "ToYear": 660,
        "Area": 127760.68015161649,
        "Type": "POLITY",
        "Wikipedia": "Lavo Kingdom",
        "Wikidata": "Q1332305",
        "SeshatID": "th_lavo_k_1",
        "Components": "",
        "MemberOf": "",
        "displayYear": 649,
        "sourceYear": 649,
        "mappedTerritoryId": "cliopatria_lavo_kingdom"
      },
      "geometry": {
        "type": "Polygon",
        "coordinates": [
          [
            [
              101.91583251953125,
              16.100418090820312
            ],
            [
              101.62351989746094,
              15.586114883422852
            ],
            [
              101.67092895507812,
              15.393251419067383
            ],
            [
              101.52383422851562,
              15.393251419067383
            ],
            [
              101.50662231445312,
              15.26467514038086
            ],
            [
              101.61975860595703,
              15.007523536682129
            ],
            [
              101.55403900146484,
              14.493220329284668
            ],
            [
              101.89733123779297,
              14.300357818603516
            ],
            [
              101.97077178955078,
              14.300357818603516
            ],
            [
              101.73180389404297,
              13.528904914855957
            ],
            [
              101.68081665039062,
              13.07889175415039
            ],
            [
              101.81324768066406,
              12.950316429138184
            ],
            [
              101.78524780273438,
              12.69316577911377
            ],
            [
              101.71195220947266,
              12.69316577911377
            ],
            [
              101.5516128540039,
              12.564591407775879
            ],
            [
              100.82551574707031,
              12.628878593444824
            ],
            [
              100.99075317382812,
              13.464617729187012
            ],
            [
              100.63125610351562,
              13.528904914855957
            ],
            [
              100.10314178466797,
              13.40032958984375
            ],
            [
              100.11993408203125,
              12.886029243469238
            ],
            [
              100.02605438232422,
              12.69316577911377
            ],
            [
              99.39366149902344,
              12.950316429138184
            ],
            [
              99.19452667236328,
              13.143178939819336
            ],
            [
              99.17839050292969,
              13.657480239868164
            ],
            [
              99.06112670898438,
              13.914630889892578
            ],
            [
              98.40312957763672,
              14.55750846862793
            ],
            [
              98.4188461303711,
              14.686083793640137
            ],
            [
              98.16484832763672,
              15.007523536682129
            ],
            [
              98.19756317138672,
              15.26467514038086
            ],
            [
              98.5903091430664,
              15.457538604736328
            ],
            [
              98.59400939941406,
              16.036130905151367
            ],
            [
              98.75883483886719,
              16.16470718383789
            ],
            [
              99.091796875,
              15.907554626464844
            ],
            [
              99.3301773071289,
              16.036130905151367
            ],
            [
              99.83663940429688,
              15.971842765808105
            ],
            [
              100.0931625366211,
              16.228994369506836
            ],
            [
              100.23145294189453,
              16.16470718383789
            ],
            [
              100.21356964111328,
              16.036130905151367
            ],
            [
              100.36080932617188,
              16.036130905151367
            ],
            [
              100.8387222290039,
              16.807586669921875
            ],
            [
              100.99549865722656,
              16.87187385559082
            ],
            [
              101.01432037353516,
              17.000450134277344
            ],
            [
              101.1617660522461,
              17.000450134277344
            ],
            [
              101.26399230957031,
              17.193313598632812
            ],
            [
              101.5398941040039,
              17.06473731994629
            ],
            [
              102.00146484375,
              17.193313598632812
            ],
            [
              102.32228088378906,
              16.87187385559082
            ],
            [
              102.13709259033203,
              16.614723205566406
            ],
            [
              102.19206237792969,
              16.486146926879883
            ],
            [
              101.92495727539062,
              16.16470718383789
            ],
            [
              101.91583251953125,
              16.100418090820312
            ]
          ]
        ]
      }
    }
  ]
}
