{
  "type": "FeatureCollection",
  "features": [
    {
      "type": "Feature",
      "properties": {
        "Name": "Western Xia",
        "FromYear": 1206,
        "ToYear": 1215,
        "Area": 471405.4871754389,
        "Type": "POLITY",
        "Wikipedia": "Western Xia",
        "Wikidata": "Q7427",
        "SeshatID": "cn_xixia",
        "Components": "",
        "MemberOf": "",
        "displayYear": 1211,
        "sourceYear": 1211,
        "mappedTerritoryId": "cliopatria_western_xia"
      },
      "geometry": {
        "type": "Polygon",
        "coordinates": [
          [
            [
              111.27384948730469,
              40.873565673828125
            ],
            [
              111.30841064453125,
              40.93837356567383
            ],
            [
              110.83231353759766,
              40.93837356567383
            ],
            [
              110.8668212890625,
              41.00318908691406
            ],
            [
              109.78978729248047,
              41.06801223754883
            ],
            [
              108.66851806640625,
              40.74397277832031
            ],
            [
              107.4137191772461,
              40.614410400390625
            ],
            [
              103.9599609375,
              40.6791877746582
            ],
            [
              103.64356994628906,
              41.00318908691406
            ],
            [
              103.70792388916016,
              41.132843017578125
            ],
            [
              103.23867797851562,
              41.781593322753906
            ],
            [
              102.82625579833984,
              41.911441802978516
            ],
            [
              102.89247131347656,
              42.041324615478516
            ],
            [
              102.08035278320312,
              42.17123794555664
            ],
            [
              101.98678588867188,
              42.30118942260742
            ],
            [
              101.826904296875,
              42.30118942260742
            ],
            [
              101.81334686279297,
              42.43117141723633
            ],
            [
              101.52655792236328,
              42.496177673339844
            ],
            [
              101.55985260009766,
              42.56119155883789
            ],
            [
              98.91797637939453,
              42.56119155883789
            ],
            [
              98.95038604736328,
              42.62621307373047
            ],
            [
              98.10160827636719,
              42.691246032714844
            ],
            [
              97.40206146240234,
              41.911441802978516
            ],
            [
              96.44580841064453,
              40.355369567871094
            ],
            [
              96.52491760253906,
              40.355369567871094
            ],
            [
              96.20893859863281,
              39.25570297241211
            ],
            [
              96.28761291503906,
              39.25570297241211
            ],
            [
              96.23370361328125,
              39.1264533996582
            ],
            [
              96.52127838134766,
              39.06184005737305
            ],
            [
              96.5998764038086,
              39.06184005737305
            ],
            [
              96.67847442626953,
              39.06184005737305
            ],
            [
              96.62484741210938,
              38.93262481689453
            ],
            [
              96.96590423583984,
              38.997230529785156
            ],
            [
              97.720703125,
              38.54513168334961
            ],
            [
              98.39962005615234,
              38.48057174682617
            ],
            [
              98.58148193359375,
              38.351463317871094
            ],
            [
              100.14810943603516,
              38.351463317871094
            ],
            [
              100.40739440917969,
              38.22237777709961
            ],
            [
              100.79882049560547,
              38.22237777709961
            ],
            [
              100.74491882324219,
              38.09331130981445
            ],
            [
              102.074951171875,
              38.09331130981445
            ],
            [
              102.04773712158203,
              38.028785705566406
            ],
            [
              103.47877502441406,
              37.89975357055664
            ],
            [
              103.45140075683594,
              37.835243225097656
            ],
            [
              103.9984130859375,
              37.835243225097656
            ],
            [
              103.9709701538086,
              37.7707405090332
            ],
            [
              104.54096221923828,
              37.641746520996094
            ],
            [
              104.6190414428711,
              37.641746520996094
            ],
            [
              105.4329605102539,
              37.89975357055664
            ],
            [
              106.16472625732422,
              37.96426773071289
            ],
            [
              106.8154296875,
              38.54513168334961
            ],
            [
              107.4426498413086,
              38.54513168334961
            ],
            [
              107.51126098632812,
              38.351463317871094
            ],
            [
              107.90291595458984,
              38.351463317871094
            ],
            [
              107.9718017578125,
              38.157840728759766
            ],
            [
              108.74501037597656,
              37.96426773071289
            ],
            [
              108.8433609008789,
              37.835243225097656
            ],
            [
              110.39788055419922,
              38.157840728759766
            ],
            [
              110.67475891113281,
              38.416015625
            ],
            [
              111.01862335205078,
              38.48057174682617
            ],
            [
              111.15621948242188,
              38.93262481689453
            ],
            [
              111.51801300048828,
              39.19107437133789
            ],
            [
              111.39248657226562,
              39.25570297241211
            ],
            [
              111.68372344970703,
              39.8376350402832
            ],
            [
              112.48341369628906,
              40.614410400390625
            ],
            [
              112.57799530029297,
              40.93837356567383
            ],
            [
              111.27384948730469,
              40.873565673828125
            ]
          ]
        ]
      }
    }
  ]
}
