{
  "type": "FeatureCollection",
  "features": [
    {
      "type": "Feature",
      "properties": {
        "Name": "United States of Colombia",
        "FromYear": 1863,
        "ToYear": 1864,
        "Area": 1223347.7126842432,
        "Type": "POLITY",
        "Wikipedia": "United States of Colombia",
        "Wikidata": "Q1061488",
        "SeshatID": "",
        "Components": "",
        "MemberOf": "",
        "displayYear": 1864,
        "sourceYear": 1864,
        "mappedTerritoryId": "cliopatria_united_states_of_colombia"
      },
      "geometry": {
        "type": "MultiPolygon",
        "coordinates": [
          [
            [
              [
                -67.19925689697266,
                1.249976277351379
              ],
              [
                -67.27214813232422,
                1.892852187156677
              ],
              [
                -67.4910659790039,
                2.085714817047119
              ],
              [
                -67.85428619384766,
                1.76427698135376
              ],
              [
                -68.29130554199219,
                1.892852187156677
              ],
              [
                -68.43656158447266,
                1.699989318847656
              ],
              [
                -69.9652328491211,
                1.699989318847656
              ],
              [
                -69.96525573730469,
                1.185688734054565
              ],
              [
                -69.8199462890625,
                1.057113647460938
              ],
              [
                -69.38323974609375,
                1.057113647460938
              ],
              [
                -69.23804473876953,
                0.928538501262665
              ],
              [
                -69.31187438964844,
                0.671388268470764
              ],
              [
                -69.82133483886719,
                0.671388268470764
              ],
              [
                -70.03998565673828,
                0.60710072517395
              ],
              [
                -70.18663787841797,
                0.414238125085831
              ],
              [
                -70.10391998291016,
                -0.35721218585968
              ],
              [
                -69.95836639404297,
                -0.35721218585968
              ],
              [
                -69.6694564819336,
                -0.614362359046936
              ],
              [
                -69.67201232910156,
                -0.871512532234192
              ],
              [
                -69.4565658569336,
                -1.128662824630737
              ],
              [
                -69.85124206542969,
                -2.928715467453003
              ],
              [
                -70.21250915527344,
                -2.800140142440796
              ],
              [
                -70.35277557373047,
                -2.542989730834961
              ],
              [
                -70.78707885742188,
                -2.414414644241333
              ],
              [
                -70.857421875,
                -2.285839319229126
              ],
              [
                -71.22144317626953,
                -2.285839319229126
              ],
              [
                -71.44233703613281,
                -2.414414644241333
              ],
              [
                -71.65705871582031,
                -2.221551656723022
              ],
              [
                -71.87547302246094,
                -2.221551656723022
              ],
              [
                -72.39144134521484,
                -2.542989730834961
              ],
              [
                -73.11690521240234,
                -2.414414644241333
              ],
              [
                -73.182373046875,
                -2.028688907623291
              ],
              [
                -73.54194641113281,
                -1.771538615226746
              ],
              [
                -73.6097412109375,
                -1.450100660324097
              ],
              [
                -74.33158111572266,
                -1.00008761882782
              ],
              [
                -74.61660766601562,
                -0.421499729156494
              ],
              [
                -74.90560150146484,
                -0.164349600672722
              ],
              [
                -75.70563507080078,
                -0.100062072277069
              ],
              [
                -75.77804565429688,
                0.028512962162495
              ],
              [
                -76.08361053466797,
                0.092800483107567
              ],
              [
                -76.30024719238281,
                0.349950581789017
              ],
              [
                -76.95600891113281,
                0.221375524997711
              ],
              [
                -77.46466064453125,
                0.349950581789017
              ],
              [
                -77.53621673583984,
                0.60710072517395
              ],
              [
                -77.75392150878906,
                0.799963414669037
              ],
              [
                -78.4085922241211,
                0.992826044559479
              ],
              [
                -78.99101257324219,
                1.442839026451111
              ],
              [
                -78.99114227294922,
                1.507126569747925
              ],
              [
                -79.13688659667969,
                1.571414232254028
              ],
              [
                -79.13754272460938,
                1.76427698135376
              ],
              [
                -78.70103454589844,
                1.828564524650574
              ],
              [
                -78.77699279785156,
                2.342865228652954
              ],
              [
                -78.4874038696289,
                2.535728216171265
              ],
              [
                -77.90552520751953,
                2.600015640258789
              ],
              [
                -77.76564025878906,
                3.114316701889038
              ],
              [
                -77.26336669921875,
                3.628617763519287
              ],
              [
                -77.26665496826172,
                3.821480512619019
              ],
              [
                -77.4123306274414,
                3.821480512619019
              ],
              [
                -77.56282806396484,
                4.078630924224854
              ],
              [
                -77.56674194335938,
                4.271493911743164
              ],
              [
                -77.4210433959961,
                4.271493911743164
              ],
              [
                -77.53081512451172,
                5.685822010040283
              ],
              [
                -77.31619262695312,
                5.81439733505249
              ],
              [
                -77.54344177246094,
                6.071547985076904
              ],
              [
                -77.41372680664062,
                6.521561145782471
              ],
              [
                -77.725830078125,
                7.035862445831299
              ],
              [
                -78.33206939697266,
                7.550163269042969
              ],
              [
                -78.49637603759766,
                7.935888767242432
              ],
              [
                -78.5060043334961,
                8.128751754760742
              ],
              [
                -78.2869873046875,
                8.128751754760742
              ],
              [
                -78.23062133789062,
                8.450189590454102
              ],
              [
                -78.522705078125,
                8.450189590454102
              ],
              [
                -78.52961730957031,
                8.578764915466309
              ],
              [
                -79.0625,
                8.964489936828613
              ],
              [
                -79.6431655883789,
                8.900202751159668
              ],
              [
                -79.7675552368164,
                8.514476776123047
              ],
              [
                -79.97621154785156,
                8.321614265441895
              ],
              [
                -80.4108657836914,
                8.25732707977295
              ],
              [
                -80.32125091552734,
                7.935888767242432
              ],
              [
                -80.01974487304688,
                7.743025779724121
              ],
              [
                -80.0045394897461,
                7.421587944030762
              ],
              [
                -80.3664321899414,
                7.357300281524658
              ],
              [
                -80.5766372680664,
                7.164437294006348
              ],
              [
                -80.9414291381836,
                7.164437294006348
              ],
              [
                -81.04794311523438,
                7.871601104736328
              ],
              [
                -81.18123626708984,
                7.614450931549072
              ],
              [
                -81.47315216064453,
                7.614450931549072
              ],
              [
                -81.94063568115234,
                8.193038940429688
              ],
              [
                -82.232666015625,
                8.193038940429688
              ],
              [
                -82.38568115234375,
                8.321614265441895
              ],
              [
                -82.81673431396484,
                8.193038940429688
              ],
              [
                -83.03926086425781,
                8.25732707977295
              ],
              [
                -83.04280853271484,
                8.321614265441895
              ],
              [
                -82.83094024658203,
                8.450189590454102
              ],
              [
                -82.78797912597656,
                8.964489936828613
              ],
              [
                -82.88921356201172,
                9.41450309753418
              ],
              [
                -82.60948944091797,
                9.607365608215332
              ],
              [
                -82.5363998413086,
                9.607365608215332
              ],
              [
                -82.30876159667969,
                9.478790283203125
              ],
              [
                -82.20748138427734,
                9.028778076171875
              ],
              [
                -81.83834838867188,
                8.964489936828613
              ],
              [
                -81.92312622070312,
                9.157352447509766
              ],
              [
                -81.77700805664062,
                9.157352447509766
              ],
              [
                -81.46550750732422,
                8.835914611816406
              ],
              [
                -81.02725982666016,
                8.835914611816406
              ],
              [
                -80.53499603271484,
                9.157352447509766
              ],
              [
                -79.95831298828125,
                9.285927772521973
              ],
              [
                -79.68607330322266,
                9.607365608215332
              ],
              [
                -78.95521545410156,
                9.607365608215332
              ],
              [
                -78.94718170166016,
                9.478790283203125
              ],
              [
                -78.50871276855469,
                9.478790283203125
              ],
              [
                -77.98551940917969,
                9.285927772521973
              ],
              [
                -77.7439956665039,
                8.900202751159668
              ],
              [
                -77.5141830444336,
                8.707340240478516
              ],
              [
                -77.29507446289062,
                8.707340240478516
              ],
              [
                -77.1319580078125,
                8.385902404785156
              ],
              [
                -76.8301010131836,
                8.193038940429688
              ],
              [
                -76.92643737792969,
                8.643052101135254
              ],
              [
                -76.29025268554688,
                9.028778076171875
              ],
              [
                -76.09332275390625,
                9.41450309753418
              ],
              [
                -75.65867614746094,
                9.478790283203125
              ],
              [
                -75.63796997070312,
                10.314528465270996
              ],
              [
                -75.4959716796875,
                10.378815650939941
              ],
              [
                -75.5777359008789,
                10.507390975952148
              ],
              [
                -75.44463348388672,
                10.7002534866333
              ],
              [
                -75.22962188720703,
                10.764540672302246
              ],
              [
                -75.23863220214844,
                10.893115997314453
              ],
              [
                -74.96434783935547,
                11.15026569366455
              ],
              [
                -74.52061462402344,
                11.085978507995605
              ],
              [
                -74.36063385009766,
                10.893115997314453
              ],
              [
                -74.17333221435547,
                11.343128204345703
              ],
              [
                -73.15324401855469,
                11.407415390014648
              ],
              [
                -72.81107330322266,
                11.728853225708008
              ],
              [
                -72.23989868164062,
                11.92171573638916
              ],
              [
                -72.19175720214844,
                12.24315357208252
              ],
              [
                -71.90381622314453,
                12.307440757751465
              ],
              [
                -71.84087371826172,
                12.436016082763672
              ],
              [
                -71.32791900634766,
                12.436016082763672
              ],
              [
                -71.09784698486328,
                12.307440757751465
              ],
              [
                -71.07292938232422,
                11.986002922058105
              ],
              [
                -71.27811431884766,
                11.793140411376953
              ],
              [
                -71.9228286743164,
                11.6002779006958
              ],
              [
                -71.91812133789062,
                11.535990715026855
              ],
              [
                -72.06454467773438,
                11.535990715026855
              ],
              [
                -72.12379455566406,
                11.343128204345703
              ],
              [
                -72.67779541015625,
                10.893115997314453
              ],
              [
                -72.93220520019531,
                10.314528465270996
              ],
              [
                -72.97357940673828,
                9.800228118896484
              ],
              [
                -73.30924987792969,
                9.285927772521973
              ],
              [
                -73.22905731201172,
                9.157352447509766
              ],
              [
                -73.01341247558594,
                9.221640586853027
              ],
              [
                -72.707275390625,
                8.964489936828613
              ],
              [
                -72.61437225341797,
                8.578764915466309
              ],
              [
                -72.46512603759766,
                8.514476776123047
              ],
              [
                -72.45573425292969,
                8.321614265441895
              ],
              [
                -72.30361938476562,
                8.193038940429688
              ],
              [
                -72.50505828857422,
                7.807313442230225
              ],
              [
                -72.49125671386719,
                7.485875606536865
              ],
              [
                -72.11595916748047,
                7.228724956512451
              ],
              [
                -71.96011352539062,
                6.971574783325195
              ],
              [
                -70.50348663330078,
                7.035862445831299
              ],
              [
                -70.06107330322266,
                6.907287120819092
              ],
              [
                -69.75811004638672,
                6.585848808288574
              ],
              [
                -69.67677307128906,
                6.328698635101318
              ],
              [
                -69.52890014648438,
                6.264410972595215
              ],
              [
                -69.52494049072266,
                6.135835647583008
              ],
              [
                -69.3771743774414,
                6.071547985076904
              ],
              [
                -68.28536987304688,
                6.135835647583008
              ],
              [
                -67.99756622314453,
                6.264410972595215
              ],
              [
                -67.48519897460938,
                6.200123310089111
              ],
              [
                -67.61492156982422,
                5.62153434753418
              ],
              [
                -67.82872009277344,
                5.428671360015869
              ],
              [
                -67.82112121582031,
                5.10723352432251
              ],
              [
                -67.89399719238281,
                5.10723352432251
              ],
              [
                -67.80135345458984,
                4.078630924224854
              ],
              [
                -67.72463989257812,
                3.821480512619019
              ],
              [
                -67.4306869506836,
                3.628617763519287
              ],
              [
                -67.42687225341797,
                3.30717945098877
              ],
              [
                -67.86062622070312,
                2.985741376876831
              ],
              [
                -67.85952758789062,
                2.857166290283203
              ],
              [
                -67.3475570678711,
                2.535728216171265
              ],
              [
                -67.12626647949219,
                1.699989318847656
              ],
              [
                -66.98062133789062,
                1.507126569747925
              ],
              [
                -67.05368041992188,
                1.249976277351379
              ],
              [
                -67.19925689697266,
                1.249976277351379
              ]
            ]
          ],
          [
            [
              [
                -81.60688018798828,
                7.357300281524658
              ],
              [
                -81.89875030517578,
                7.357300281524658
              ],
              [
                -81.91102600097656,
                7.614450931549072
              ],
              [
                -81.69523620605469,
                7.678738594055176
              ],
              [
                -81.68589782714844,
                7.485875606536865
              ],
              [
                -81.61293029785156,
                7.485875606536865
              ],
              [
                -81.60688018798828,
                7.357300281524658
              ]
            ]
          ],
          [
            [
              [
                -79.02702331542969,
                8.321614265441895
              ],
              [
                -78.96083068847656,
                8.450189590454102
              ],
              [
                -78.81478881835938,
                8.450189590454102
              ],
              [
                -78.80462646484375,
                8.25732707977295
              ],
              [
                -78.87763977050781,
                8.25732707977295
              ],
              [
                -79.02702331542969,
                8.321614265441895
              ]
            ]
          ]
        ]
      }
    }
  ]
}
