{
  "type": "FeatureCollection",
  "features": [
    {
      "type": "Feature",
      "properties": {
        "Name": "Han Dynasty",
        "FromYear": 184,
        "ToYear": 196,
        "Area": 3820812.832831926,
        "Type": "POLITY",
        "Wikipedia": "Han dynasty",
        "Wikidata": "Q1068371",
        "SeshatID": "cn_eastern_han_dyn",
        "Components": "",
        "MemberOf": "",
        "displayYear": 189,
        "sourceYear": 189,
        "mappedTerritoryId": "eastern_han"
      },
      "geometry": {
        "type": "MultiPolygon",
        "coordinates": [
          [
            [
              [
                109.86219787597656,
                18.350492477416992
              ],
              [
                109.84064483642578,
                18.2219181060791
              ],
              [
                109.24968719482422,
                18.2219181060791
              ],
              [
                109.12333679199219,
                18.350492477416992
              ],
              [
                108.76459503173828,
                18.414779663085938
              ],
              [
                108.63818359375,
                18.543354034423828
              ],
              [
                108.70427703857422,
                19.379087448120117
              ],
              [
                109.20277404785156,
                19.700523376464844
              ],
              [
                109.2463607788086,
                19.95766830444336
              ],
              [
                110.15737915039062,
                20.08624267578125
              ],
              [
                110.59095001220703,
                20.021955490112305
              ],
              [
                110.613037109375,
                20.150527954101562
              ],
              [
                110.90947723388672,
                20.150527954101562
              ],
              [
                111.08741760253906,
                19.893383026123047
              ],
              [
                111.03193664550781,
                19.571949005126953
              ],
              [
                110.88386535644531,
                19.571949005126953
              ],
              [
                110.85066986083984,
                19.379087448120117
              ],
              [
                110.68057250976562,
                19.25051498413086
              ],
              [
                110.50775909423828,
                18.67193031311035
              ],
              [
                110.1902847290039,
                18.543354034423828
              ],
              [
                110.1794204711914,
                18.479066848754883
              ],
              [
                109.86219787597656,
                18.350492477416992
              ]
            ]
          ],
          [
            [
              [
                125.84493255615234,
                37.7707405090332
              ],
              [
                125.83466339111328,
                37.89975357055664
              ],
              [
                125.6783218383789,
                37.89975357055664
              ],
              [
                125.38711547851562,
                37.641746520996094
              ],
              [
                125.23096466064453,
                37.641746520996094
              ],
              [
                125.29808044433594,
                37.7707405090332
              ],
              [
                125.20932006835938,
                37.89975357055664
              ],
              [
                124.89665222167969,
                37.89975357055664
              ],
              [
                125.07669067382812,
                38.09331130981445
              ],
              [
                124.76374053955078,
                38.09331130981445
              ],
              [
                124.86637115478516,
                38.28691864013672
              ],
              [
                124.7880630493164,
                38.28691864013672
              ],
              [
                124.96138000488281,
                38.60969924926758
              ],
              [
                125.15330505371094,
                38.67427444458008
              ],
              [
                125.18850708007812,
                38.738853454589844
              ],
              [
                125.03155517578125,
                38.738853454589844
              ],
              [
                125.39002990722656,
                39.38497543334961
              ],
              [
                125.30574798583984,
                39.51427459716797
              ],
              [
                124.86974334716797,
                39.57893371582031
              ],
              [
                124.86456298828125,
                39.70827102661133
              ],
              [
                124.51239776611328,
                39.64360046386719
              ],
              [
                124.3446044921875,
                39.90232849121094
              ],
              [
                124.03396606445312,
                39.77294921875
              ],
              [
                123.59744262695312,
                39.8376350402832
              ],
              [
                122.93595886230469,
                39.64360046386719
              ],
              [
                122.17044830322266,
                39.25570297241211
              ],
              [
                121.95193481445312,
                38.997230529785156
              ],
              [
                121.71622467041016,
                38.997230529785156
              ],
              [
                121.42170715332031,
                38.738853454589844
              ],
              [
                121.02933502197266,
                38.738853454589844
              ],
              [
                121.20073699951172,
                39.06184005737305
              ],
              [
                121.51512908935547,
                39.06184005737305
              ],
              [
                121.69013214111328,
                39.38497543334961
              ],
              [
                121.2965316772461,
                39.38497543334961
              ],
              [
                121.20963287353516,
                39.51427459716797
              ],
              [
                121.28069305419922,
                39.64360046386719
              ],
              [
                121.43833923339844,
                39.64360046386719
              ],
              [
                121.50332641601562,
                39.90232849121094
              ],
              [
                121.7764663696289,
                39.9670295715332
              ],
              [
                122.23056030273438,
                40.4848747253418
              ],
              [
                122.10609436035156,
                40.6791877746582
              ],
              [
                121.82695770263672,
                40.74397277832031
              ],
              [
                121.82366180419922,
                40.873565673828125
              ],
              [
                121.1097640991211,
                40.873565673828125
              ],
              [
                120.9967269897461,
                40.6791877746582
              ],
              [
                120.64734649658203,
                40.4848747253418
              ],
              [
                120.50029754638672,
                40.225894927978516
              ],
              [
                119.38044738769531,
                39.77294921875
              ],
              [
                119.21530151367188,
                39.320335388183594
              ],
              [
                118.98941802978516,
                39.19107437133789
              ],
              [
                118.0568618774414,
                39.06184005737305
              ],
              [
                117.9670181274414,
                39.19107437133789
              ],
              [
                117.88837432861328,
                39.19107437133789
              ],
              [
                117.85466003417969,
                39.1264533996582
              ],
              [
                117.64249420166016,
                38.8680305480957
              ],
              [
                117.58926391601562,
                38.60969924926758
              ],
              [
                117.66768646240234,
                38.60969924926758
              ],
              [
                117.60245513916016,
                38.48057174682617
              ],
              [
                118.05360412597656,
                38.28691864013672
              ],
              [
                118.06742095947266,
                38.157840728759766
              ],
              [
                118.58300018310547,
                38.09331130981445
              ],
              [
                118.64759826660156,
                38.22237777709961
              ],
              [
                118.80416870117188,
                38.22237777709961
              ],
              [
                118.77176666259766,
                38.157840728759766
              ],
              [
                119.4571304321289,
                37.96426773071289
              ],
              [
                119.3928451538086,
                37.835243225097656
              ],
              [
                119.23655700683594,
                37.835243225097656
              ],
              [
                118.98403930664062,
                37.3193473815918
              ],
              [
                119.13996124267578,
                37.3193473815918
              ],
              [
                119.15568542480469,
                37.1904182434082
              ],
              [
                119.70111083984375,
                37.1904182434082
              ],
              [
                119.82661437988281,
                37.44829177856445
              ],
              [
                120.20220184326172,
                37.5772590637207
              ],
              [
                120.18807220458984,
                37.706241607666016
              ],
              [
                120.75377655029297,
                37.89975357055664
              ],
              [
                121.11202239990234,
                37.835243225097656
              ],
              [
                121.17103576660156,
                37.641746520996094
              ],
              [
                121.48333740234375,
                37.641746520996094
              ],
              [
                121.49687957763672,
                37.51277160644531
              ],
              [
                122.15351867675781,
                37.5772590637207
              ],
              [
                122.1211166381836,
                37.51277160644531
              ],
              [
                122.71288299560547,
                37.44829177856445
              ],
              [
                122.44239044189453,
                37.06150817871094
              ],
              [
                122.56636810302734,
                36.9970588684082
              ],
              [
                122.50314331054688,
                36.8681755065918
              ],
              [
                122.16053771972656,
                36.80373764038086
              ],
              [
                122.14556121826172,
                36.932613372802734
              ],
              [
                121.91207885742188,
                36.932613372802734
              ],
              [
                121.21208190917969,
                36.61045455932617
              ],
              [
                120.97892761230469,
                36.61045455932617
              ],
              [
                120.96481323242188,
                36.417205810546875
              ],
              [
                120.73184967041016,
                36.417205810546875
              ],
              [
                120.65852355957031,
                36.09519577026367
              ],
              [
                120.31848907470703,
                36.03080368041992
              ],
              [
                119.98648071289062,
                35.644527435302734
              ],
              [
                119.61874389648438,
                35.51579284667969
              ],
              [
                119.22760772705078,
                34.80794906616211
              ],
              [
                119.45901489257812,
                34.80794906616211
              ],
              [
                119.43090057373047,
                34.743614196777344
              ],
              [
                119.71125030517578,
                34.679283142089844
              ],
              [
                119.73230743408203,
                34.55062484741211
              ],
              [
                119.80936431884766,
                34.55062484741211
              ],
              [
                119.88642120361328,
                34.55062484741211
              ],
              [
                119.98465728759766,
                34.42197799682617
              ],
              [
                120.3418197631836,
                34.3576545715332
              ],
              [
                120.48936462402344,
                34.164703369140625
              ],
              [
                120.55045318603516,
                33.5859489440918
              ],
              [
                120.92630004882812,
                33.20018768310547
              ],
              [
                120.91920471191406,
                32.62162780761719
              ],
              [
                121.40264892578125,
                32.493072509765625
              ],
              [
                121.50330352783203,
                32.171695709228516
              ],
              [
                121.78321075439453,
                32.107421875
              ],
              [
                121.98702239990234,
                31.8503360748291
              ],
              [
                121.83556365966797,
                31.65752601623535
              ],
              [
                121.68311309814453,
                31.65752601623535
              ],
              [
                121.58055877685547,
                31.78606605529785
              ],
              [
                120.91914367675781,
                31.8503360748291
              ],
              [
                121.45442962646484,
                31.65752601623535
              ],
              [
                121.48112487792969,
                31.528987884521484
              ],
              [
                121.63350677490234,
                31.528987884521484
              ],
              [
                121.58425903320312,
                31.40045166015625
              ],
              [
                121.73657989501953,
                31.40045166015625
              ],
              [
                121.99526977539062,
                31.079113006591797
              ],
              [
                121.89926147460938,
                30.822044372558594
              ],
              [
                121.51921844482422,
                30.822044372558594
              ],
              [
                121.19719696044922,
                30.564971923828125
              ],
              [
                121.04530334472656,
                30.564971923828125
              ],
              [
                120.67976379394531,
                30.179353713989258
              ],
              [
                120.80880737304688,
                30.115081787109375
              ],
              [
                121.10469055175781,
                30.307893753051758
              ],
              [
                121.48409271240234,
                30.307893753051758
              ],
              [
                121.6202392578125,
                30.050809860229492
              ],
              [
                122.02978515625,
                29.922264099121094
              ],
              [
                121.864501953125,
                29.665164947509766
              ],
              [
                122.01595306396484,
                29.665164947509766
              ],
              [
                121.93843078613281,
                29.21521759033203
              ],
              [
                121.71156311035156,
                29.21521759033203
              ],
              [
                121.74463653564453,
                29.536611557006836
              ],
              [
                121.57134246826172,
                29.472333908081055
              ],
              [
                121.64702606201172,
                29.472333908081055
              ],
              [
                121.53888702392578,
                29.150936126708984
              ],
              [
                121.74431610107422,
                29.08665657043457
              ],
              [
                121.7143325805664,
                28.765243530273438
              ],
              [
                121.52177429199219,
                28.636676788330078
              ],
              [
                121.65211486816406,
                28.572391510009766
              ],
              [
                121.64590454101562,
                28.315250396728516
              ],
              [
                121.15326690673828,
                28.186676025390625
              ],
              [
                121.1933822631836,
                28.315250396728516
              ],
              [
                121.11795806884766,
                28.315250396728516
              ],
              [
                121.03816223144531,
                28.058101654052734
              ],
              [
                120.86773681640625,
                27.993812561035156
              ],
              [
                120.71461486816406,
                27.736658096313477
              ],
              [
                120.65725708007812,
                27.54378890991211
              ],
              [
                120.73251342773438,
                27.54378890991211
              ],
              [
                120.54503631591797,
                27.158044815063477
              ],
              [
                120.39466857910156,
                27.158044815063477
              ],
              [
                120.24666595458984,
                26.900876998901367
              ],
              [
                120.09639739990234,
                26.900876998901367
              ],
              [
                120.06058502197266,
                26.772293090820312
              ],
              [
                120.21080017089844,
                26.772293090820312
              ],
              [
                120.1576919555664,
                26.57941436767578
              ],
              [
                119.83992767333984,
                26.515121459960938
              ],
              [
                119.93810272216797,
                26.32224464416504
              ],
              [
                119.5870132446289,
                26.129364013671875
              ],
              [
                119.77836608886719,
                26.000778198242188
              ],
              [
                119.52989959716797,
                25.615020751953125
              ],
              [
                119.90438079833984,
                25.615020751953125
              ],
              [
                119.87213897705078,
                25.48643684387207
              ],
              [
                119.46599578857422,
                25.357851028442383
              ],
              [
                119.42289733886719,
                25.48643684387207
              ],
              [
                119.27314758300781,
                25.48643684387207
              ],
              [
                119.39114379882812,
                25.357851028442383
              ],
              [
                119.34419250488281,
                25.164974212646484
              ],
              [
                119.02947998046875,
                25.100683212280273
              ],
              [
                119.07367706298828,
                24.97209930419922
              ],
              [
                118.8191146850586,
                24.843517303466797
              ],
              [
                118.75972747802734,
                24.586353302001953
              ],
              [
                118.14736938476562,
                24.522062301635742
              ],
              [
                118.07573699951172,
                24.200613021850586
              ],
              [
                117.72126770019531,
                23.943456649780273
              ],
              [
                117.69377136230469,
                23.814878463745117
              ],
              [
                117.46995544433594,
                23.814878463745117
              ],
              [
                117.1788330078125,
                23.493436813354492
              ],
              [
                116.8938980102539,
                23.557723999023438
              ],
              [
                116.7796401977539,
                23.36486053466797
              ],
              [
                116.81497955322266,
                23.171995162963867
              ],
              [
                116.59144592285156,
                23.171995162963867
              ],
              [
                116.54004669189453,
                22.914846420288086
              ],
              [
                115.69562530517578,
                22.786272048950195
              ],
              [
                115.67061614990234,
                22.657697677612305
              ],
              [
                115.37285614013672,
                22.657697677612305
              ],
              [
                115.17442321777344,
                22.786272048950195
              ],
              [
                114.90156555175781,
                22.529123306274414
              ],
              [
                114.75272369384766,
                22.529123306274414
              ],
              [
                114.64081573486328,
                22.72198486328125
              ],
              [
                114.53111267089844,
                22.143402099609375
              ],
              [
                114.37039184570312,
                22.079116821289062
              ],
              [
                113.99858856201172,
                22.079116821289062
              ],
              [
                113.99634552001953,
                22.46483612060547
              ],
              [
                113.78524017333984,
                22.529123306274414
              ],
              [
                113.7474365234375,
                22.72198486328125
              ],
              [
                113.59854125976562,
                22.72198486328125
              ],
              [
                113.69869995117188,
                22.46483612060547
              ],
              [
                113.63867950439453,
                22.143402099609375
              ],
              [
                113.41557312011719,
                22.143402099609375
              ],
              [
                113.31752014160156,
                22.014829635620117
              ],
              [
                113.10626220703125,
                22.079116821289062
              ],
              [
                113.07096862792969,
                21.88625717163086
              ],
              [
                112.77362823486328,
                21.88625717163086
              ],
              [
                112.44146728515625,
                21.693397521972656
              ],
              [
                111.85850524902344,
                21.7576847076416
              ],
              [
                111.6640625,
                21.500539779663086
              ],
              [
                110.98419189453125,
                21.43625259399414
              ],
              [
                110.73885345458984,
                21.307680130004883
              ],
              [
                110.71642303466797,
                21.179107666015625
              ],
              [
                110.41944885253906,
                21.179107666015625
              ],
              [
                110.48252868652344,
                21.114822387695312
              ],
              [
                110.36384582519531,
                20.857677459716797
              ],
              [
                110.61627197265625,
                20.60053253173828
              ],
              [
                110.48687744140625,
                20.279102325439453
              ],
              [
                109.88289642333984,
                20.214815139770508
              ],
              [
                109.9267807006836,
                20.471960067749023
              ],
              [
                109.7894515991211,
                20.53624725341797
              ],
              [
                109.7702407836914,
                20.857677459716797
              ],
              [
                109.69603729248047,
                20.857677459716797
              ],
              [
                109.87005615234375,
                21.43625259399414
              ],
              [
                109.80696105957031,
                21.500539779663086
              ],
              [
                109.11621856689453,
                21.371967315673828
              ],
              [
                109.08638000488281,
                21.629112243652344
              ],
              [
                108.65169525146484,
                21.693397521972656
              ],
              [
                108.55519104003906,
                21.5648250579834
              ],
              [
                107.79033660888672,
                21.43625259399414
              ],
              [
                107.41735076904297,
                20.986249923706055
              ],
              [
                106.9613265991211,
                20.921964645385742
              ],
              [
                106.8337173461914,
                20.60053253173828
              ],
              [
                106.68537902832031,
                20.60053253173828
              ],
              [
                106.53694915771484,
                20.150527954101562
              ],
              [
                105.9654769897461,
                19.8290958404541
              ],
              [
                105.73389434814453,
                18.864791870117188
              ],
              [
                106.05134582519531,
                18.543354034423828
              ],
              [
                106.030517578125,
                18.414779663085938
              ],
              [
                106.17830657958984,
                18.414779663085938
              ],
              [
                106.29487609863281,
                18.2219181060791
              ],
              [
                106.56956481933594,
                18.093341827392578
              ],
              [
                106.57118225097656,
                17.643327713012695
              ],
              [
                106.7720947265625,
                17.514753341674805
              ],
              [
                106.75170135498047,
                17.38617706298828
              ],
              [
                107.02642822265625,
                17.257600784301758
              ],
              [
                106.7648696899414,
                17.000450134277344
              ],
              [
                106.5337142944336,
                16.9361629486084
              ],
              [
                105.143798828125,
                18.414779663085938
              ],
              [
                105.18512725830078,
                18.67193031311035
              ],
              [
                105.03726959228516,
                18.67193031311035
              ],
              [
                105.14230346679688,
                18.864791870117188
              ],
              [
                105.0151596069336,
                18.993366241455078
              ],
              [
                105.01402282714844,
                19.443374633789062
              ],
              [
                104.94000244140625,
                19.443374633789062
              ],
              [
                104.99213409423828,
                19.764808654785156
              ],
              [
                104.8648452758789,
                19.893383026123047
              ],
              [
                104.98062133789062,
                20.150527954101562
              ],
              [
                104.4395751953125,
                20.471960067749023
              ],
              [
                104.61909484863281,
                20.664819717407227
              ],
              [
                104.90534973144531,
                20.60053253173828
              ],
              [
                104.87299346923828,
                20.857677459716797
              ],
              [
                105.09559631347656,
                20.857677459716797
              ],
              [
                104.8512954711914,
                21.179107666015625
              ],
              [
                104.97850036621094,
                21.500539779663086
              ],
              [
                104.925537109375,
                21.629112243652344
              ],
              [
                105.0955810546875,
                21.7576847076416
              ],
              [
                105.1279525756836,
                21.950544357299805
              ],
              [
                104.87400817871094,
                22.20768928527832
              ],
              [
                105.24907684326172,
                22.657697677612305
              ],
              [
                105.17464447021484,
                22.657697677612305
              ],
              [
                105.21978759765625,
                22.914846420288086
              ],
              [
                105.11660766601562,
                23.171995162963867
              ],
              [
                104.95609283447266,
                23.107707977294922
              ],
              [
                104.90460968017578,
                23.236284255981445
              ],
              [
                102.98979187011719,
                23.36486053466797
              ],
              [
                101.81085205078125,
                24.264904022216797
              ],
              [
                101.46228790283203,
                25.164974212646484
              ],
              [
                101.39813232421875,
                25.936485290527344
              ],
              [
                101.19648742675781,
                26.386537551879883
              ],
              [
                101.08960723876953,
                27.54378890991211
              ],
              [
                101.01434326171875,
                27.54378890991211
              ],
              [
                101.04988098144531,
                27.993812561035156
              ],
              [
                100.91527557373047,
                28.058101654052734
              ],
              [
                101.03946685791016,
                28.25096321105957
              ],
              [
                100.96405792236328,
                28.25096321105957
              ],
              [
                101.03016662597656,
                28.508106231689453
              ],
              [
                100.95470428466797,
                28.508106231689453
              ],
              [
                101.02198791503906,
                28.765243530273438
              ],
              [
                100.88105010986328,
                29.08665657043457
              ],
              [
                100.95094299316406,
                29.34377670288086
              ],
              [
                100.87529754638672,
                29.34377670288086
              ],
              [
                100.9643325805664,
                29.665164947509766
              ],
              [
                100.88860321044922,
                29.665164947509766
              ],
              [
                100.961181640625,
                29.922264099121094
              ],
              [
                100.88539123535156,
                29.922264099121094
              ],
              [
                100.97779083251953,
                30.243623733520508
              ],
              [
                100.90192413330078,
                30.243623733520508
              ],
              [
                101.01526641845703,
                30.629240036010742
              ],
              [
                100.9393081665039,
                30.629240036010742
              ],
              [
                101.05530548095703,
                31.014846801757812
              ],
              [
                100.97924041748047,
                31.014846801757812
              ],
              [
                101.44035339355469,
                32.23596954345703
              ],
              [
                101.68687438964844,
                32.75019073486328
              ],
              [
                101.88323974609375,
                32.878753662109375
              ],
              [
                102.55159759521484,
                33.26447677612305
              ],
              [
                103.20997619628906,
                33.393062591552734
              ],
              [
                103.4928207397461,
                33.971771240234375
              ],
              [
                103.35535430908203,
                34.22901916503906
              ],
              [
                103.52665710449219,
                34.48630142211914
              ],
              [
                103.44961547851562,
                34.48630142211914
              ],
              [
                103.73529052734375,
                35.45143127441406
              ],
              [
                103.63004302978516,
                35.58015823364258
              ],
              [
                103.6487808227539,
                36.2239875793457
              ],
              [
                103.46696472167969,
                36.3527946472168
              ],
              [
                103.51822662353516,
                36.48161697387695
              ],
              [
                103.38858032226562,
                36.5460319519043
              ],
              [
                103.44023132324219,
                36.67487716674805
              ],
              [
                103.31065368652344,
                36.73930740356445
              ],
              [
                103.36270904541016,
                36.8681755065918
              ],
              [
                103.2077865600586,
                37.06150817871094
              ],
              [
                102.87095642089844,
                37.1904182434082
              ],
              [
                102.6109619140625,
                37.12596130371094
              ],
              [
                102.58558654785156,
                37.254878997802734
              ],
              [
                102.17054748535156,
                37.38381576538086
              ],
              [
                102.17203521728516,
                37.5772590637207
              ],
              [
                102.04254913330078,
                37.641746520996094
              ],
              [
                102.09606170654297,
                37.7707405090332
              ],
              [
                101.75530242919922,
                37.51277160644531
              ],
              [
                101.60066986083984,
                37.706241607666016
              ],
              [
                101.31484985351562,
                37.7707405090332
              ],
              [
                101.29009246826172,
                37.89975357055664
              ],
              [
                100.79631805419922,
                38.028785705566406
              ],
              [
                100.79882049560547,
                38.22237777709961
              ],
              [
                100.64225006103516,
                38.22237777709961
              ],
              [
                100.4137954711914,
                38.60969924926758
              ],
              [
                100.19944763183594,
                38.28691864013672
              ],
              [
                99.86175537109375,
                38.416015625
              ],
              [
                99.37857055664062,
                39.1264533996582
              ],
              [
                99.09188079833984,
                39.19107437133789
              ],
              [
                99.1197738647461,
                39.25570297241211
              ],
              [
                98.9577865600586,
                39.06184005737305
              ],
              [
                98.3840560913086,
                39.19107437133789
              ],
              [
                98.11726379394531,
                38.93262481689453
              ],
              [
                97.96016693115234,
                38.93262481689453
              ],
              [
                97.85742950439453,
                39.06184005737305
              ],
              [
                97.49164581298828,
                39.1264533996582
              ],
              [
                97.46768188476562,
                39.25570297241211
              ],
              [
                96.76294708251953,
                39.449623107910156
              ],
              [
                96.68096923828125,
                39.25570297241211
              ],
              [
                96.75963592529297,
                39.25570297241211
              ],
              [
                96.67847442626953,
                39.06184005737305
              ],
              [
                96.75707244873047,
                39.06184005737305
              ],
              [
                96.67670440673828,
                38.8680305480957
              ],
              [
                96.75523376464844,
                38.8680305480957
              ],
              [
                96.64930725097656,
                38.60969924926758
              ],
              [
                96.41403198242188,
                38.60969924926758
              ],
              [
                96.30970764160156,
                38.738853454589844
              ],
              [
                95.6822738647461,
                38.93262481689453
              ],
              [
                95.31853485107422,
                39.38497543334961
              ],
              [
                94.97687530517578,
                39.320335388183594
              ],
              [
                94.50609588623047,
                39.51427459716797
              ],
              [
                93.95469665527344,
                39.51427459716797
              ],
              [
                93.08816528320312,
                39.320335388183594
              ],
              [
                92.2484130859375,
                39.38497543334961
              ],
              [
                91.123291015625,
                39.1264533996582
              ],
              [
                89.58009338378906,
                38.997230529785156
              ],
              [
                88.7458267211914,
                38.8680305480957
              ],
              [
                87.66171264648438,
                38.48057174682617
              ],
              [
                86.44012451171875,
                38.351463317871094
              ],
              [
                86.08140563964844,
                38.22237777709961
              ],
              [
                85.81294250488281,
                37.89975357055664
              ],
              [
                85.35621643066406,
                37.706241607666016
              ],
              [
                85.1133804321289,
                37.44829177856445
              ],
              [
                82.1014175415039,
                36.80373764038086
              ],
              [
                82.02363586425781,
                36.80373764038086
              ],
              [
                81.69473266601562,
                36.9970588684082
              ],
              [
                82.05523681640625,
                37.641746520996094
              ],
              [
                82.48761749267578,
                37.7707405090332
              ],
              [
                82.90682983398438,
                38.09331130981445
              ],
              [
                85.1480484008789,
                39.1264533996582
              ],
              [
                85.37594604492188,
                39.320335388183594
              ],
              [
                88.24598693847656,
                40.225894927978516
              ],
              [
                88.56221008300781,
                40.225894927978516
              ],
              [
                90.78136444091797,
                40.80876541137695
              ],
              [
                92.1059341430664,
                40.93837356567383
              ],
              [
                92.47976684570312,
                41.06801223754883
              ],
              [
                93.2961654663086,
                40.93837356567383
              ],
              [
                93.26779174804688,
                40.873565673828125
              ],
              [
                93.71527099609375,
                40.80876541137695
              ],
              [
                93.68692016601562,
                40.74397277832031
              ],
              [
                95.22967529296875,
                41.00318908691406
              ],
              [
                97.21408081054688,
                41.00318908691406
              ],
              [
                97.18427276611328,
                40.93837356567383
              ],
              [
                97.88810729980469,
                40.74397277832031
              ],
              [
                98.03691864013672,
                40.54964065551758
              ],
              [
                98.27448272705078,
                40.54964065551758
              ],
              [
                98.50260162353516,
                40.355369567871094
              ],
              [
                98.94775390625,
                40.29063034057617
              ],
              [
                98.91836547851562,
                40.225894927978516
              ],
              [
                99.28423309326172,
                40.16116714477539
              ],
              [
                99.3836898803711,
                40.031734466552734
              ],
              [
                100.17345428466797,
                40.031734466552734
              ],
              [
                100.14405822753906,
                39.9670295715332
              ],
              [
                100.38090515136719,
                39.9670295715332
              ],
              [
                100.73719787597656,
                39.70827102661133
              ],
              [
                101.18104553222656,
                39.64360046386719
              ],
              [
                101.16522979736328,
                39.25570297241211
              ],
              [
                101.55858612060547,
                39.25570297241211
              ],
              [
                101.63008880615234,
                39.06184005737305
              ],
              [
                102.12320709228516,
                38.93262481689453
              ],
              [
                102.09483337402344,
                38.8680305480957
              ],
              [
                103.13201141357422,
                39.25570297241211
              ],
              [
                103.812255859375,
                39.70827102661133
              ],
              [
                104.58282470703125,
                39.8376350402832
              ],
              [
                104.66761779785156,
                39.51427459716797
              ],
              [
                103.9386215209961,
                39.1264533996582
              ],
              [
                103.60787963867188,
                38.738853454589844
              ],
              [
                104.10753631591797,
                38.80344009399414
              ],
              [
                103.83612060546875,
                38.54513168334961
              ],
              [
                103.75135040283203,
                38.351463317871094
              ],
              [
                103.8799057006836,
                38.28691864013672
              ],
              [
                103.6626205444336,
                37.96426773071289
              ],
              [
                103.76398468017578,
                37.835243225097656
              ],
              [
                104.36157989501953,
                37.7707405090332
              ],
              [
                104.462890625,
                37.641746520996094
              ],
              [
                105.77377319335938,
                37.96426773071289
              ],
              [
                107.3586196899414,
                37.835243225097656
              ],
              [
                108.53948974609375,
                38.028785705566406
              ],
              [
                108.51044464111328,
                37.96426773071289
              ],
              [
                108.74501037597656,
                37.96426773071289
              ],
              [
                108.8433609008789,
                37.835243225097656
              ],
              [
                110.12300872802734,
                37.89975357055664
              ],
              [
                110.09367370605469,
                37.835243225097656
              ],
              [
                110.48439025878906,
                37.835243225097656
              ],
              [
                110.45503997802734,
                37.7707405090332
              ],
              [
                111.74313354492188,
                37.51277160644531
              ],
              [
                113.0043716430664,
                39.64360046386719
              ],
              [
                113.6225357055664,
                40.225894927978516
              ],
              [
                113.76039123535156,
                40.4848747253418
              ],
              [
                114.95846557617188,
                40.93837356567383
              ],
              [
                115.99239349365234,
                41.781593322753906
              ],
              [
                117.33787536621094,
                42.17123794555664
              ],
              [
                117.73728942871094,
                42.17123794555664
              ],
              [
                117.70140075683594,
                41.97637939453125
              ],
              [
                117.82256317138672,
                41.911441802978516
              ],
              [
                117.70792388916016,
                41.71668243408203
              ],
              [
                117.79130554199219,
                41.586883544921875
              ],
              [
                118.0718765258789,
                41.521995544433594
              ],
              [
                118.03404998779297,
                41.45711898803711
              ],
              [
                118.46986389160156,
                41.521995544433594
              ],
              [
                118.43190002441406,
                41.45711898803711
              ],
              [
                118.67061614990234,
                41.45711898803711
              ],
              [
                118.63268280029297,
                41.39224624633789
              ],
              [
                118.82975006103516,
                41.45711898803711
              ],
              [
                118.7917709350586,
                41.39224624633789
              ],
              [
                119.4281005859375,
                41.39224624633789
              ],
              [
                119.3900146484375,
                41.32738494873047
              ],
              [
                121.02125549316406,
                41.26253128051758
              ],
              [
                123.1669921875,
                41.911441802978516
              ],
              [
                123.12676239013672,
                41.84651184082031
              ],
              [
                123.40548706054688,
                41.781593322753906
              ],
              [
                123.36537170410156,
                41.71668243408203
              ],
              [
                123.60441589355469,
                41.71668243408203
              ],
              [
                123.56433868408203,
                41.65177917480469
              ],
              [
                124.04171752929688,
                41.521995544433594
              ],
              [
                124.00180053710938,
                41.45711898803711
              ],
              [
                124.28016662597656,
                41.39224624633789
              ],
              [
                124.2403793334961,
                41.32738494873047
              ],
              [
                124.47891998291016,
                41.32738494873047
              ],
              [
                124.43917083740234,
                41.26253128051758
              ],
              [
                124.7173843383789,
                41.19768524169922
              ],
              [
                124.67777252197266,
                41.132843017578125
              ],
              [
                125.8306655883789,
                41.32738494873047
              ],
              [
                125.79044342041016,
                41.26253128051758
              ],
              [
                126.10839080810547,
                41.26253128051758
              ],
              [
                126.18696594238281,
                41.132843017578125
              ],
              [
                126.74209594726562,
                41.00318908691406
              ],
              [
                126.62281799316406,
                40.6791877746582
              ],
              [
                126.42505645751953,
                40.614410400390625
              ],
              [
                126.26929473876953,
                40.355369567871094
              ],
              [
                126.43173217773438,
                40.0964469909668
              ],
              [
                126.7094955444336,
                40.031734466552734
              ],
              [
                126.83229064941406,
                39.8376350402832
              ],
              [
                126.72828674316406,
                39.38497543334961
              ],
              [
                126.9644546508789,
                39.38497543334961
              ],
              [
                126.85406494140625,
                39.19107437133789
              ],
              [
                127.02290344238281,
                38.93262481689453
              ],
              [
                126.93743133544922,
                38.351463317871094
              ],
              [
                126.34768676757812,
                37.835243225097656
              ],
              [
                126.26954650878906,
                37.835243225097656
              ],
              [
                125.84493255615234,
                37.7707405090332
              ]
            ]
          ],
          [
            [
              [
                122.2725830078125,
                30.179353713989258
              ],
              [
                122.27982330322266,
                29.986536026000977
              ],
              [
                121.97661590576172,
                29.986536026000977
              ],
              [
                122.02213287353516,
                30.115081787109375
              ],
              [
                122.04503631591797,
                30.179353713989258
              ],
              [
                122.2725830078125,
                30.179353713989258
              ]
            ]
          ]
        ]
      }
    }
  ]
}
