{
  "type": "FeatureCollection",
  "features": [
    {
      "type": "Feature",
      "properties": {
        "Name": "Democratic Republic of Vietnam",
        "FromYear": 1956,
        "ToYear": 1966,
        "Area": 157593.6384494973,
        "Type": "POLITY",
        "Wikipedia": "North Vietnam",
        "Wikidata": "Q172640",
        "SeshatID": "vt_vietnam_democratic_rep",
        "Components": "",
        "MemberOf": "",
        "displayYear": 1966,
        "sourceYear": 1966,
        "mappedTerritoryId": "cliopatria_democratic_republic_of_vietnam"
      },
      "geometry": {
        "type": "Polygon",
        "coordinates": [
          [
            [
              108.09842681884766,
              21.500539779663086
            ],
            [
              107.97187042236328,
              21.629112243652344
            ],
            [
              107.58939361572266,
              21.5648250579834
            ],
            [
              107.4627456665039,
              21.693397521972656
            ],
            [
              107.23982238769531,
              21.693397521972656
            ],
            [
              106.71125030517578,
              22.079116821289062
            ],
            [
              106.60701751708984,
              22.33626365661621
            ],
            [
              106.77223205566406,
              22.85055923461914
            ],
            [
              106.70928955078125,
              22.914846420288086
            ],
            [
              106.32543182373047,
              22.85055923461914
            ],
            [
              106.19947814941406,
              22.97913360595703
            ],
            [
              105.75257110595703,
              22.97913360595703
            ],
            [
              105.43790435791016,
              23.30057144165039
            ],
            [
              105.21431732177734,
              23.30057144165039
            ],
            [
              104.95609283447266,
              23.107707977294922
            ],
            [
              104.83610534667969,
              22.85055923461914
            ],
            [
              104.51583099365234,
              22.72198486328125
            ],
            [
              104.15472412109375,
              22.786272048950195
            ],
            [
              104.0359878540039,
              22.529123306274414
            ],
            [
              103.88714599609375,
              22.529123306274414
            ],
            [
              103.77134704589844,
              22.72198486328125
            ],
            [
              103.32465362548828,
              22.72198486328125
            ],
            [
              103.21734619140625,
              22.529123306274414
            ],
            [
              102.91966247558594,
              22.529123306274414
            ],
            [
              102.86701202392578,
              22.657697677612305
            ],
            [
              102.58016967773438,
              22.72198486328125
            ],
            [
              102.22837829589844,
              22.400548934936523
            ],
            [
              102.20703125,
              22.271976470947266
            ],
            [
              102.47269439697266,
              22.079116821289062
            ],
            [
              102.45159149169922,
              21.950544357299805
            ],
            [
              102.70694732666016,
              21.693397521972656
            ],
            [
              103.0680160522461,
              21.629112243652344
            ],
            [
              102.93132781982422,
              21.24339485168457
            ],
            [
              103.03853607177734,
              20.986249923706055
            ],
            [
              103.59093475341797,
              20.72910499572754
            ],
            [
              103.81349182128906,
              20.72910499572754
            ],
            [
              103.99296569824219,
              20.921964645385742
            ],
            [
              104.364013671875,
              20.921964645385742
            ],
            [
              104.61909484863281,
              20.664819717407227
            ],
            [
              104.50334167480469,
              20.40767478942871
            ],
            [
              104.85322570800781,
              20.279102325439453
            ],
            [
              104.98062133789062,
              20.150527954101562
            ],
            [
              104.94934844970703,
              19.95766830444336
            ],
            [
              104.5270004272461,
              19.6362361907959
            ],
            [
              104.08272552490234,
              19.6362361907959
            ],
            [
              103.95710754394531,
              19.314802169799805
            ],
            [
              104.50773620605469,
              19.057653427124023
            ],
            [
              104.6246566772461,
              18.864791870117188
            ],
            [
              105.12155151367188,
              18.736217498779297
            ],
            [
              105.24868774414062,
              18.607641220092773
            ],
            [
              105.20738220214844,
              18.350492477416992
            ],
            [
              106.60742950439453,
              16.9361629486084
            ],
            [
              106.95267486572266,
              17.257600784301758
            ],
            [
              106.96282958984375,
              17.321889877319336
            ],
            [
              106.75170135498047,
              17.38617706298828
            ],
            [
              106.7720947265625,
              17.514753341674805
            ],
            [
              106.57118225097656,
              17.643327713012695
            ],
            [
              106.56956481933594,
              18.093341827392578
            ],
            [
              106.29487609863281,
              18.2219181060791
            ],
            [
              106.17830657958984,
              18.414779663085938
            ],
            [
              106.030517578125,
              18.414779663085938
            ],
            [
              106.05134582519531,
              18.543354034423828
            ],
            [
              105.73389434814453,
              18.864791870117188
            ],
            [
              105.91281127929688,
              19.507661819458008
            ],
            [
              105.84930419921875,
              19.571949005126953
            ],
            [
              106.0606460571289,
              19.95766830444336
            ],
            [
              106.53694915771484,
              20.150527954101562
            ],
            [
              106.68537902832031,
              20.60053253173828
            ],
            [
              106.8337173461914,
              20.60053253173828
            ],
            [
              106.87641143798828,
              20.857677459716797
            ],
            [
              107.41735076904297,
              20.986249923706055
            ],
            [
              107.79033660888672,
              21.43625259399414
            ],
            [
              108.08744049072266,
              21.43625259399414
            ],
            [
              108.09842681884766,
              21.500539779663086
            ]
          ]
        ]
      }
    }
  ]
}
