{
  "type": "FeatureCollection",
  "features": [
    {
      "type": "Feature",
      "properties": {
        "Name": "Tuyuhun",
        "FromYear": 439,
        "ToYear": 440,
        "Area": 344662.9654517397,
        "Type": "POLITY",
        "Wikipedia": "Tuyuhun",
        "Wikidata": "Q1196201",
        "SeshatID": "cn_tuyuhun",
        "Components": "",
        "MemberOf": "",
        "displayYear": 439,
        "sourceYear": 439,
        "mappedTerritoryId": "cliopatria_tuyuhun"
      },
      "geometry": {
        "type": "MultiPolygon",
        "coordinates": [
          [
            [
              [
                100.6964340209961,
                38.351463317871094
              ],
              [
                100.8745346069336,
                38.028785705566406
              ],
              [
                101.23871612548828,
                37.96426773071289
              ],
              [
                101.26336669921875,
                37.835243225097656
              ],
              [
                101.54920959472656,
                37.7707405090332
              ],
              [
                101.70372009277344,
                37.5772590637207
              ],
              [
                102.09606170654297,
                37.7707405090332
              ],
              [
                102.09397888183594,
                37.5772590637207
              ],
              [
                102.24852752685547,
                37.38381576538086
              ],
              [
                102.53401184082031,
                37.3193473815918
              ],
              [
                102.55928802490234,
                37.1904182434082
              ],
              [
                102.79303741455078,
                37.1904182434082
              ],
              [
                103.10328674316406,
                36.80373764038086
              ],
              [
                103.25885772705078,
                36.80373764038086
              ],
              [
                103.38858032226562,
                36.5460319519043
              ],
              [
                103.64786529541016,
                36.417205810546875
              ],
              [
                103.59667205810547,
                36.28839111328125
              ],
              [
                103.72779083251953,
                36.03080368041992
              ],
              [
                103.65229797363281,
                35.837650299072266
              ],
              [
                103.7297592163086,
                35.837650299072266
              ],
              [
                103.63004302978516,
                35.58015823364258
              ],
              [
                103.73529052734375,
                35.45143127441406
              ],
              [
                103.38555145263672,
                34.10039138793945
              ],
              [
                103.4928207397461,
                33.971771240234375
              ],
              [
                103.20997619628906,
                33.393062591552734
              ],
              [
                102.55159759521484,
                33.26447677612305
              ],
              [
                101.68687438964844,
                32.75019073486328
              ],
              [
                101.70845794677734,
                32.81447219848633
              ],
              [
                101.77364349365234,
                33.00732421875
              ],
              [
                101.59906768798828,
                33.393062591552734
              ],
              [
                101.57972717285156,
                33.77885055541992
              ],
              [
                101.50289916992188,
                33.77885055541992
              ],
              [
                101.6393051147461,
                34.164703369140625
              ],
              [
                101.4543685913086,
                34.2933349609375
              ],
              [
                101.5775375366211,
                34.42197799682617
              ],
              [
                101.41609191894531,
                34.614952087402344
              ],
              [
                101.53993225097656,
                34.743614196777344
              ],
              [
                101.00448608398438,
                35.38706970214844
              ],
              [
                100.21980285644531,
                35.77327346801758
              ],
              [
                99.41574096679688,
                35.902034759521484
              ],
              [
                99.30877685546875,
                36.03080368041992
              ],
              [
                98.84361267089844,
                36.03080368041992
              ],
              [
                96.39579772949219,
                36.5460319519043
              ],
              [
                96.21031951904297,
                36.67487716674805
              ],
              [
                95.89935302734375,
                36.67487716674805
              ],
              [
                95.50423431396484,
                36.8681755065918
              ],
              [
                94.69580841064453,
                36.9970588684082
              ],
              [
                92.59542083740234,
                37.641746520996094
              ],
              [
                90.39387512207031,
                38.028785705566406
              ],
              [
                90.28489685058594,
                38.157840728759766
              ],
              [
                90.05011749267578,
                38.157840728759766
              ],
              [
                89.9411392211914,
                38.28691864013672
              ],
              [
                89.70621490478516,
                38.28691864013672
              ],
              [
                89.59723663330078,
                38.416015625
              ],
              [
                88.96348571777344,
                38.60969924926758
              ],
              [
                88.80018615722656,
                38.80344009399414
              ],
              [
                88.72168731689453,
                38.80344009399414
              ],
              [
                90.49431610107422,
                39.1264533996582
              ],
              [
                91.54182434082031,
                39.19107437133789
              ],
              [
                92.2484130859375,
                39.38497543334961
              ],
              [
                93.00947570800781,
                39.320335388183594
              ],
              [
                93.29811096191406,
                39.449623107910156
              ],
              [
                93.50794982910156,
                39.38497543334961
              ],
              [
                93.87593078613281,
                39.51427459716797
              ],
              [
                94.58486938476562,
                39.51427459716797
              ],
              [
                95.05557250976562,
                39.320335388183594
              ],
              [
                95.31853485107422,
                39.38497543334961
              ],
              [
                95.39549255371094,
                39.19107437133789
              ],
              [
                95.55278778076172,
                39.19107437133789
              ],
              [
                95.81295013427734,
                38.8680305480957
              ],
              [
                96.36184692382812,
                38.67427444458008
              ],
              [
                96.70207977294922,
                38.738853454589844
              ],
              [
                96.73248291015625,
                39.19107437133789
              ],
              [
                96.65383911132812,
                39.19107437133789
              ],
              [
                96.76294708251953,
                39.449623107910156
              ],
              [
                97.20784759521484,
                39.38497543334961
              ],
              [
                97.90877532958984,
                38.997230529785156
              ],
              [
                98.22306060791016,
                38.997230529785156
              ],
              [
                98.3840560913086,
                39.19107437133789
              ],
              [
                98.9068374633789,
                39.1264533996582
              ],
              [
                99.19844818115234,
                39.25570297241211
              ],
              [
                99.81044006347656,
                38.48057174682617
              ],
              [
                100.2264404296875,
                38.351463317871094
              ],
              [
                100.4137954711914,
                38.60969924926758
              ],
              [
                100.53976440429688,
                38.351463317871094
              ],
              [
                100.6964340209961,
                38.351463317871094
              ]
            ]
          ],
          [
            [
              [
                91.39344787597656,
                37.7707405090332
              ],
              [
                91.31532287597656,
                37.7707405090332
              ],
              [
                91.33903503417969,
                37.835243225097656
              ],
              [
                91.41717529296875,
                37.835243225097656
              ],
              [
                91.39344787597656,
                37.7707405090332
              ]
            ]
          ]
        ]
      }
    }
  ]
}
