{
  "type": "FeatureCollection",
  "features": [
    {
      "type": "Feature",
      "properties": {
        "Name": "Ngô Dynasty",
        "FromYear": 1314,
        "ToYear": 1362,
        "Area": 152558.22541058355,
        "Type": "POLITY",
        "Wikipedia": "Ngô dynasty",
        "Wikidata": "Q703919",
        "SeshatID": "",
        "Components": "",
        "MemberOf": "",
        "displayYear": 1351,
        "sourceYear": 1351,
        "mappedTerritoryId": "cliopatria_ng_dynasty"
      },
      "geometry": {
        "type": "Polygon",
        "coordinates": [
          [
            [
              108.09842681884766,
              21.500539779663086
            ],
            [
              107.97187042236328,
              21.629112243652344
            ],
            [
              107.58939361572266,
              21.5648250579834
            ],
            [
              107.4627456665039,
              21.693397521972656
            ],
            [
              107.23982238769531,
              21.693397521972656
            ],
            [
              106.71125030517578,
              22.079116821289062
            ],
            [
              106.60701751708984,
              22.33626365661621
            ],
            [
              106.77223205566406,
              22.85055923461914
            ],
            [
              106.70928955078125,
              22.914846420288086
            ],
            [
              106.32543182373047,
              22.85055923461914
            ],
            [
              106.19947814941406,
              22.97913360595703
            ],
            [
              105.75257110595703,
              22.97913360595703
            ],
            [
              105.43790435791016,
              23.30057144165039
            ],
            [
              105.21431732177734,
              23.30057144165039
            ],
            [
              104.95609283447266,
              23.107707977294922
            ],
            [
              104.83610534667969,
              22.85055923461914
            ],
            [
              104.51583099365234,
              22.72198486328125
            ],
            [
              104.15472412109375,
              22.786272048950195
            ],
            [
              104.0359878540039,
              22.529123306274414
            ],
            [
              103.88714599609375,
              22.529123306274414
            ],
            [
              103.77134704589844,
              22.72198486328125
            ],
            [
              103.53697204589844,
              22.657697677612305
            ],
            [
              103.55680084228516,
              22.33626365661621
            ],
            [
              103.76914978027344,
              22.271976470947266
            ],
            [
              103.6517562866211,
              22.014829635620117
            ],
            [
              103.68354797363281,
              21.7576847076416
            ],
            [
              103.25952911376953,
              21.43625259399414
            ],
            [
              103.03853607177734,
              20.986249923706055
            ],
            [
              103.59093475341797,
              20.72910499572754
            ],
            [
              103.81349182128906,
              20.72910499572754
            ],
            [
              103.99296569824219,
              20.921964645385742
            ],
            [
              104.364013671875,
              20.921964645385742
            ],
            [
              104.61909484863281,
              20.664819717407227
            ],
            [
              104.50334167480469,
              20.40767478942871
            ],
            [
              104.65162658691406,
              20.40767478942871
            ],
            [
              104.98062133789062,
              20.150527954101562
            ],
            [
              104.85443115234375,
              19.8290958404541
            ],
            [
              104.27381134033203,
              19.443374633789062
            ],
            [
              104.25312805175781,
              19.314802169799805
            ],
            [
              104.39079284667969,
              19.25051498413086
            ],
            [
              104.35978698730469,
              19.057653427124023
            ],
            [
              104.50773620605469,
              19.057653427124023
            ],
            [
              104.6246566772461,
              18.864791870117188
            ],
            [
              105.12155151367188,
              18.736217498779297
            ],
            [
              105.24868774414062,
              18.607641220092773
            ],
            [
              105.20738220214844,
              18.350492477416992
            ],
            [
              106.60742950439453,
              16.9361629486084
            ],
            [
              106.68570709228516,
              16.486146926879883
            ],
            [
              106.97059631347656,
              16.421857833862305
            ],
            [
              107.1527328491211,
              16.16470718383789
            ],
            [
              107.5016098022461,
              16.036130905151367
            ],
            [
              108.31139373779297,
              16.036130905151367
            ],
            [
              108.32109069824219,
              16.100418090820312
            ],
            [
              108.1392822265625,
              16.35757064819336
            ],
            [
              107.84467315673828,
              16.35757064819336
            ],
            [
              107.86437225341797,
              16.486146926879883
            ],
            [
              107.65324401855469,
              16.550434112548828
            ],
            [
              107.67310333251953,
              16.67901039123535
            ],
            [
              107.48199462890625,
              16.87187385559082
            ],
            [
              107.3345718383789,
              16.87187385559082
            ],
            [
              107.10018157958984,
              17.257600784301758
            ],
            [
              106.75170135498047,
              17.38617706298828
            ],
            [
              106.7720947265625,
              17.514753341674805
            ],
            [
              106.51790618896484,
              17.77190399169922
            ],
            [
              106.56956481933594,
              18.093341827392578
            ],
            [
              106.29487609863281,
              18.2219181060791
            ],
            [
              106.17830657958984,
              18.414779663085938
            ],
            [
              106.030517578125,
              18.414779663085938
            ],
            [
              106.05134582519531,
              18.543354034423828
            ],
            [
              105.73389434814453,
              18.864791870117188
            ],
            [
              105.9654769897461,
              19.8290958404541
            ],
            [
              106.53694915771484,
              20.150527954101562
            ],
            [
              106.68537902832031,
              20.60053253173828
            ],
            [
              106.8337173461914,
              20.60053253173828
            ],
            [
              106.87641143798828,
              20.857677459716797
            ],
            [
              107.41735076904297,
              20.986249923706055
            ],
            [
              107.79033660888672,
              21.43625259399414
            ],
            [
              108.08744049072266,
              21.43625259399414
            ],
            [
              108.09842681884766,
              21.500539779663086
            ]
          ]
        ]
      }
    }
  ]
}
