{
  "type": "FeatureCollection",
  "features": [
    {
      "type": "Feature",
      "properties": {
        "Name": "Kingdom of France",
        "FromYear": 1713,
        "ToYear": 1733,
        "Area": 528660.5342901181,
        "Type": "POLITY",
        "Wikipedia": "Kingdom of France",
        "Wikidata": "Q207162",
        "SeshatID": "fr_bourbon_k_2",
        "Components": "",
        "MemberOf": "(Kingdom of France)",
        "displayYear": 1720,
        "sourceYear": 1720,
        "mappedTerritoryId": "cliopatria_kingdom_of_france"
      },
      "geometry": {
        "type": "MultiPolygon",
        "coordinates": [
          [
            [
              [
                4.738976001739502,
                50.04647445678711
              ],
              [
                4.822853088378906,
                50.04647445678711
              ],
              [
                4.830895900726318,
                49.84712600708008
              ],
              [
                5.596318244934082,
                49.51522445678711
              ],
              [
                5.85359001159668,
                49.316287994384766
              ],
              [
                6.01627254486084,
                49.44889450073242
              ],
              [
                6.099801540374756,
                49.44889450073242
              ],
              [
                6.18333101272583,
                49.44889450073242
              ],
              [
                6.266860485076904,
                49.44889450073242
              ],
              [
                6.360177040100098,
                49.11750411987305
              ],
              [
                6.691738605499268,
                49.18375015258789
              ],
              [
                6.775116920471191,
                49.18375015258789
              ],
              [
                6.776882648468018,
                49.11750411987305
              ],
              [
                6.860223770141602,
                49.11750411987305
              ],
              [
                6.861949920654297,
                49.051273345947266
              ],
              [
                6.945253372192383,
                49.051273345947266
              ],
              [
                7.028557300567627,
                49.051273345947266
              ],
              [
                7.03020715713501,
                48.98506164550781
              ],
              [
                7.031855583190918,
                48.91886520385742
              ],
              [
                6.613873958587646,
                48.98506164550781
              ],
              [
                6.617537975311279,
                48.852684020996094
              ],
              [
                6.868834018707275,
                48.786521911621094
              ],
              [
                6.951990127563477,
                48.786521911621094
              ],
              [
                7.529807567596436,
                48.98506164550781
              ],
              [
                7.528380393981934,
                49.051273345947266
              ],
              [
                8.112674713134766,
                48.98506164550781
              ],
              [
                8.115007400512695,
                48.852684020996094
              ],
              [
                7.867981433868408,
                48.72037124633789
              ],
              [
                7.870530128479004,
                48.5881233215332
              ],
              [
                7.787483692169189,
                48.5881233215332
              ],
              [
                7.788793087005615,
                48.52202224731445
              ],
              [
                7.705782890319824,
                48.52202224731445
              ],
              [
                7.707126617431641,
                48.455936431884766
              ],
              [
                7.708469390869141,
                48.38986587524414
              ],
              [
                7.709810256958008,
                48.323814392089844
              ],
              [
                7.626908302307129,
                48.323814392089844
              ],
              [
                7.552440643310547,
                47.92780685424805
              ],
              [
                7.55383825302124,
                47.86185836791992
              ],
              [
                7.555233955383301,
                47.79592514038086
              ],
              [
                7.556626796722412,
                47.730003356933594
              ],
              [
                7.558016777038574,
                47.664100646972656
              ],
              [
                7.559404373168945,
                47.598209381103516
              ],
              [
                7.39728307723999,
                47.46647262573242
              ],
              [
                6.983439445495605,
                47.53233337402344
              ],
              [
                6.981812000274658,
                47.598209381103516
              ],
              [
                6.980180740356445,
                47.664100646972656
              ],
              [
                6.816785335540771,
                47.598209381103516
              ],
              [
                6.985063552856445,
                47.46647262573242
              ],
              [
                6.989914417266846,
                47.26897048950195
              ],
              [
                6.828584671020508,
                47.13737487792969
              ],
              [
                6.830254077911377,
                47.07159423828125
              ],
              [
                6.748015880584717,
                47.07159423828125
              ],
              [
                6.665778160095215,
                47.07159423828125
              ],
              [
                6.667511463165283,
                47.005828857421875
              ],
              [
                6.585307121276855,
                47.005828857421875
              ],
              [
                6.587069988250732,
                46.94007873535156
              ],
              [
                6.504899501800537,
                46.94007873535156
              ],
              [
                6.506691455841064,
                46.87434005737305
              ],
              [
                6.103800296783447,
                46.61152267456055
              ],
              [
                6.033519744873047,
                46.21768569946289
              ],
              [
                5.634932518005371,
                45.889827728271484
              ],
              [
                5.48224401473999,
                45.56227111816406
              ],
              [
                5.812080860137939,
                45.431331634521484
              ],
              [
                5.901144027709961,
                45.169586181640625
              ],
              [
                6.228048801422119,
                45.10417556762695
              ],
              [
                6.640680313110352,
                44.842647552490234
              ],
              [
                6.565949440002441,
                44.58129119873047
              ],
              [
                6.814867973327637,
                44.32010269165039
              ],
              [
                6.413734436035156,
                44.18956756591797
              ],
              [
                6.416947841644287,
                44.05907440185547
              ],
              [
                6.74289083480835,
                43.92862319946289
              ],
              [
                6.668147563934326,
                43.6678352355957
              ],
              [
                6.829278945922852,
                43.6678352355957
              ],
              [
                6.91260290145874,
                43.53750228881836
              ],
              [
                6.832098007202148,
                43.53750228881836
              ],
              [
                6.593565464019775,
                43.407203674316406
              ],
              [
                6.517646789550781,
                43.211830139160156
              ],
              [
                5.796233177185059,
                43.146724700927734
              ],
              [
                5.631923198699951,
                43.276947021484375
              ],
              [
                5.390771865844727,
                43.276947021484375
              ],
              [
                5.386905193328857,
                43.407203674316406
              ],
              [
                4.577967166900635,
                43.53750228881836
              ],
              [
                4.177847862243652,
                43.472347259521484
              ],
              [
                4.173032760620117,
                43.6026611328125
              ],
              [
                3.850892543792725,
                43.6026611328125
              ],
              [
                2.984907388687134,
                43.146724700927734
              ],
              [
                3.009923458099365,
                42.56119155883789
              ],
              [
                3.089980125427246,
                42.56119155883789
              ],
              [
                3.092691898345947,
                42.496177673339844
              ],
              [
                2.458339214324951,
                42.36617660522461
              ],
              [
                1.80907130241394,
                42.56119155883789
              ],
              [
                1.72901451587677,
                42.56119155883789
              ],
              [
                1.725796341896057,
                42.62621307373047
              ],
              [
                1.645710229873657,
                42.62621307373047
              ],
              [
                1.565624117851257,
                42.62621307373047
              ],
              [
                1.485537886619568,
                42.62621307373047
              ],
              [
                1.074691534042358,
                42.82133865356445
              ],
              [
                0.040142297744751,
                42.691246032714844
              ],
              [
                -0.208102732896805,
                42.82133865356445
              ],
              [
                -0.528801321983337,
                42.82133865356445
              ],
              [
                -1.026964664459229,
                43.08163070678711
              ],
              [
                -1.428432941436768,
                43.08163070678711
              ],
              [
                -1.441840410232544,
                43.276947021484375
              ],
              [
                -1.687574744224548,
                43.342071533203125
              ],
              [
                -1.692170143127441,
                43.407203674316406
              ],
              [
                -1.459883332252502,
                43.53750228881836
              ],
              [
                -1.402047991752625,
                43.86341094970703
              ],
              [
                -1.321390628814697,
                43.86341094970703
              ],
              [
                -1.348801136016846,
                44.25482940673828
              ],
              [
                -1.267958283424377,
                44.25482940673828
              ],
              [
                -1.286344885826111,
                44.5159797668457
              ],
              [
                -1.205376982688904,
                44.5159797668457
              ],
              [
                -1.251859068870544,
                45.169586181640625
              ],
              [
                -1.170574903488159,
                45.169586181640625
              ],
              [
                -1.189373373985291,
                45.431331634521484
              ],
              [
                -1.031213998794556,
                45.496795654296875
              ],
              [
                -1.045281529426575,
                45.693260192871094
              ],
              [
                -1.213142395019531,
                45.75876998901367
              ],
              [
                -1.141096234321594,
                45.889827728271484
              ],
              [
                -1.222735166549683,
                45.889827728271484
              ],
              [
                -1.251809358596802,
                46.283294677734375
              ],
              [
                -1.666043281555176,
                46.348915100097656
              ],
              [
                -2.014399528503418,
                46.61152267456055
              ],
              [
                -2.024919986724854,
                46.74290466308594
              ],
              [
                -2.194406032562256,
                46.808616638183594
              ],
              [
                -2.139080047607422,
                47.13737487792969
              ],
              [
                -2.232228517532349,
                47.26897048950195
              ],
              [
                -2.561590671539307,
                47.26897048950195
              ],
              [
                -2.578423976898193,
                47.46647262573242
              ],
              [
                -2.825755596160889,
                47.46647262573242
              ],
              [
                -2.837259292602539,
                47.598209381103516
              ],
              [
                -3.155531167984009,
                47.46647262573242
              ],
              [
                -3.344320774078369,
                47.730003356933594
              ],
              [
                -3.757235288619995,
                47.730003356933594
              ],
              [
                -3.934937715530396,
                47.86185836791992
              ],
              [
                -4.424368858337402,
                47.79592514038086
              ],
              [
                -4.692053318023682,
                47.993770599365234
              ],
              [
                -4.705362796783447,
                48.1257438659668
              ],
              [
                -4.546383857727051,
                48.191749572753906
              ],
              [
                -4.642560005187988,
                48.323814392089844
              ],
              [
                -4.891265392303467,
                48.323814392089844
              ],
              [
                -4.911745548248291,
                48.52202224731445
              ],
              [
                -4.599917888641357,
                48.72037124633789
              ],
              [
                -3.85184383392334,
                48.72037124633789
              ],
              [
                -3.455082654953003,
                48.91886520385742
              ],
              [
                -3.122164011001587,
                48.91886520385742
              ],
              [
                -2.759404182434082,
                48.5881233215332
              ],
              [
                -2.521934509277344,
                48.72037124633789
              ],
              [
                -1.602181315422058,
                48.654239654541016
              ],
              [
                -1.718345284461975,
                49.051273345947266
              ],
              [
                -1.635041356086731,
                49.051273345947266
              ],
              [
                -1.651668906211853,
                49.2500114440918
              ],
              [
                -1.913302421569824,
                49.38258361816406
              ],
              [
                -2.031550645828247,
                49.78071212768555
              ],
              [
                -1.361783027648926,
                49.78071212768555
              ],
              [
                -1.250783205032349,
                49.44889450073242
              ],
              [
                0.007001183927059,
                49.38258361816406
              ],
              [
                -0.012448177672923,
                49.64793395996094
              ],
              [
                0.224112883210182,
                49.84712600708008
              ],
              [
                1.052847385406494,
                49.98000717163086
              ],
              [
                1.454967975616455,
                50.2459831237793
              ],
              [
                1.424705147743225,
                50.71213912963867
              ],
              [
                1.656218767166138,
                51.04566955566406
              ],
              [
                2.408700704574585,
                51.17921447753906
              ],
              [
                2.493265151977539,
                51.17921447753906
              ],
              [
                2.600777626037598,
                50.77880859375
              ],
              [
                3.106679201126099,
                50.77880859375
              ],
              [
                3.548239946365356,
                50.37908172607422
              ],
              [
                3.968613386154175,
                50.37908172607422
              ],
              [
                4.142810344696045,
                50.2459831237793
              ],
              [
                4.154837608337402,
                49.98000717163086
              ],
              [
                4.490188121795654,
                49.98000717163086
              ],
              [
                4.652331352233887,
                50.11296081542969
              ],
              [
                4.736247062683105,
                50.11296081542969
              ],
              [
                4.738976001739502,
                50.04647445678711
              ]
            ],
            [
              [
                5.037789344787598,
                44.25482940673828
              ],
              [
                4.961288928985596,
                44.12431716918945
              ],
              [
                4.799726963043213,
                44.12431716918945
              ],
              [
                4.730143547058105,
                43.79821014404297
              ],
              [
                4.97415018081665,
                43.73301696777344
              ],
              [
                5.048438549041748,
                43.92862319946289
              ],
              [
                5.288479328155518,
                43.99384307861328
              ],
              [
                5.110112190246582,
                44.5159797668457
              ],
              [
                4.95257568359375,
                44.38538360595703
              ],
              [
                4.707570552825928,
                44.45067596435547
              ],
              [
                4.631268501281738,
                44.32010269165039
              ],
              [
                4.712142467498779,
                44.32010269165039
              ],
              [
                5.037789344787598,
                44.25482940673828
              ]
            ]
          ],
          [
            [
              [
                -63.096065521240234,
                49.18375015258789
              ],
              [
                -63.49641418457031,
                49.316287994384766
              ],
              [
                -64.03435516357422,
                49.71431350708008
              ],
              [
                -64.4036636352539,
                49.78071212768555
              ],
              [
                -64.59197235107422,
                49.98000717163086
              ],
              [
                -63.09821319580078,
                49.84712600708008
              ],
              [
                -62.42756271362305,
                49.51522445678711
              ],
              [
                -61.86016845703125,
                49.38258361816406
              ],
              [
                -61.76201248168945,
                49.18375015258789
              ],
              [
                -61.72950744628906,
                49.11750411987305
              ],
              [
                -62.28023147583008,
                49.051273345947266
              ],
              [
                -63.096065521240234,
                49.18375015258789
              ]
            ]
          ]
        ]
      }
    }
  ]
}
