{
  "type": "FeatureCollection",
  "features": [
    {
      "type": "Feature",
      "properties": {
        "Name": "Chalukya Dynasty",
        "FromYear": 661,
        "ToYear": 731,
        "Area": 803601.6817073803,
        "Type": "POLITY",
        "Wikipedia": "Chalukya dynasty",
        "Wikidata": "Q1395011",
        "SeshatID": "in_badami_chalukya_emp",
        "Components": "",
        "MemberOf": "",
        "displayYear": 700,
        "sourceYear": 700,
        "mappedTerritoryId": "cliopatria_chalukya_dynasty"
      },
      "geometry": {
        "type": "Polygon",
        "coordinates": [
          [
            [
              76.87369537353516,
              12.821741104125977
            ],
            [
              76.62809753417969,
              12.500303268432617
            ],
            [
              76.24172973632812,
              12.24315357208252
            ],
            [
              76.23190307617188,
              12.114578247070312
            ],
            [
              76.00728607177734,
              12.050291061401367
            ],
            [
              75.84163665771484,
              11.793140411376953
            ],
            [
              75.45681762695312,
              11.535990715026855
            ],
            [
              75.3384780883789,
              11.92171573638916
            ],
            [
              75.06465148925781,
              12.178865432739258
            ],
            [
              74.74769592285156,
              12.821741104125977
            ],
            [
              74.66364288330078,
              13.593193054199219
            ],
            [
              74.4706802368164,
              13.914630889892578
            ],
            [
              74.3744888305664,
              14.493220329284668
            ],
            [
              73.97454071044922,
              14.943235397338867
            ],
            [
              73.74736785888672,
              15.650403022766113
            ],
            [
              73.53911590576172,
              15.77897834777832
            ],
            [
              73.41714477539062,
              16.036130905151367
            ],
            [
              73.32787322998047,
              16.614723205566406
            ],
            [
              73.25418853759766,
              16.614723205566406
            ],
            [
              73.25337219238281,
              17.321889877319336
            ],
            [
              72.95886993408203,
              18.029054641723633
            ],
            [
              72.87482452392578,
              19.314802169799805
            ],
            [
              72.73371887207031,
              19.379087448120117
            ],
            [
              72.7613525390625,
              19.6362361907959
            ],
            [
              72.63394165039062,
              19.8290958404541
            ],
            [
              72.88381102023818,
              20.777063381319827
            ],
            [
              73.27482297423727,
              21.014902401700276
            ],
            [
              73.666309693829,
              21.497249445617946
            ],
            [
              73.4531510467729,
              22.20768928527832
            ],
            [
              74.29000854492188,
              22.079116821289062
            ],
            [
              74.98150634765625,
              22.271976470947266
            ],
            [
              77.2363510131836,
              22.46483612060547
            ],
            [
              77.70645904541016,
              22.657697677612305
            ],
            [
              79.07891082763672,
              22.914846420288086
            ],
            [
              79.74919128417969,
              22.914846420288086
            ],
            [
              79.94783782958984,
              22.72198486328125
            ],
            [
              79.93147277832031,
              22.59341049194336
            ],
            [
              80.28728485107422,
              22.46483612060547
            ],
            [
              80.47804260253906,
              22.20768928527832
            ],
            [
              81.04874420166016,
              22.014829635620117
            ],
            [
              81.56920623779297,
              22.014829635620117
            ],
            [
              82.83375549316406,
              21.43625259399414
            ],
            [
              82.87562561035156,
              21.179107666015625
            ],
            [
              83.01602172851562,
              21.114822387695312
            ],
            [
              82.71546173095703,
              19.893383026123047
            ],
            [
              82.55933380126953,
              19.8290958404541
            ],
            [
              82.10965728759766,
              19.186227798461914
            ],
            [
              82.0859146118164,
              18.993366241455078
            ],
            [
              81.90646362304688,
              18.736217498779297
            ],
            [
              81.75859832763672,
              18.736217498779297
            ],
            [
              81.4744644165039,
              18.2219181060791
            ],
            [
              80.9113998413086,
              17.836191177368164
            ],
            [
              80.8147964477539,
              17.643327713012695
            ],
            [
              80.04694366455078,
              17.38617706298828
            ],
            [
              79.788818359375,
              17.06473731994629
            ],
            [
              79.75248718261719,
              16.743297576904297
            ],
            [
              79.82618713378906,
              16.743297576904297
            ],
            [
              79.99044861444418,
              15.548069698349082
            ],
            [
              79.6065543975283,
              15.57766946347153
            ],
            [
              79.0625763869851,
              15.40150905867558
            ],
            [
              78.8743374550275,
              15.12547100831965
            ],
            [
              79.23544197879093,
              14.60328630226691
            ],
            [
              78.95544576566107,
              14.32246301321029
            ],
            [
              77.44098323786332,
              14.46218480994551
            ],
            [
              76.9618066421868,
              12.821741104125977
            ],
            [
              76.94700622558594,
              12.821741104125977
            ],
            [
              76.87369537353516,
              12.821741104125977
            ]
          ]
        ]
      }
    }
  ]
}
