{
  "type": "FeatureCollection",
  "features": [
    {
      "type": "Feature",
      "properties": {
        "Name": "First Bulgarian Empire",
        "FromYear": 1003,
        "ToYear": 1009,
        "Area": 224050.03206536753,
        "Type": "POLITY",
        "Wikipedia": "First Bulgarian Empire",
        "Wikidata": "Q203817",
        "SeshatID": "bg_bulgaria_medieval",
        "Components": "",
        "MemberOf": "",
        "displayYear": 1004,
        "sourceYear": 1004,
        "mappedTerritoryId": "cliopatria_first_bulgarian_empire"
      },
      "geometry": {
        "type": "Polygon",
        "coordinates": [
          [
            [
              20.394643783569336,
              39.77294921875
            ],
            [
              20.315771102905273,
              39.77294921875
            ],
            [
              20.318906784057617,
              39.8376350402832
            ],
            [
              19.994253158569336,
              39.64360046386719
            ],
            [
              19.921405792236328,
              39.77294921875
            ],
            [
              20.00027847290039,
              39.77294921875
            ],
            [
              20.009418487548828,
              39.9670295715332
            ],
            [
              19.62952995300293,
              40.29063034057617
            ],
            [
              19.47136878967285,
              40.29063034057617
            ],
            [
              19.48629379272461,
              40.614410400390625
            ],
            [
              19.2486515045166,
              40.614410400390625
            ],
            [
              19.254547119140625,
              40.74397277832031
            ],
            [
              19.498455047607422,
              40.873565673828125
            ],
            [
              19.422176361083984,
              40.93837356567383
            ],
            [
              19.54244041442871,
              41.781593322753906
            ],
            [
              19.4691219329834,
              41.911441802978516
            ],
            [
              19.708423614501953,
              41.911441802978516
            ],
            [
              19.715024948120117,
              42.041324615478516
            ],
            [
              19.63520050048828,
              42.041324615478516
            ],
            [
              18.481433868408203,
              43.016544342041016
            ],
            [
              18.648008346557617,
              43.146724700927734
            ],
            [
              18.836687088012695,
              43.73301696777344
            ],
            [
              19.097936630249023,
              44.12431716918945
            ],
            [
              19.262819290161133,
              44.18956756591797
            ],
            [
              19.107723236083984,
              44.32010269165039
            ],
            [
              19.117544174194336,
              44.5159797668457
            ],
            [
              19.28616714477539,
              44.64661407470703
            ],
            [
              19.299577713012695,
              44.908016204833984
            ],
            [
              19.14055824279785,
              44.973392486572266
            ],
            [
              19.235076904296875,
              45.23500442504883
            ],
            [
              19.885604858398438,
              45.23500442504883
            ],
            [
              20.136940002441406,
              45.36587905883789
            ],
            [
              20.288434982299805,
              45.169586181640625
            ],
            [
              20.5284423828125,
              45.10417556762695
            ],
            [
              20.590364456176758,
              44.77729415893555
            ],
            [
              20.829694747924805,
              44.71194839477539
            ],
            [
              21.080976486206055,
              44.842647552490234
            ],
            [
              21.40547752380371,
              44.842647552490234
            ],
            [
              21.87479591369629,
              44.58129119873047
            ],
            [
              22.1177921295166,
              44.58129119873047
            ],
            [
              22.126689910888672,
              44.71194839477539
            ],
            [
              22.297855377197266,
              44.842647552490234
            ],
            [
              22.541231155395508,
              44.842647552490234
            ],
            [
              22.636333465576172,
              45.03877639770508
            ],
            [
              22.879995346069336,
              45.03877639770508
            ],
            [
              22.87523651123047,
              44.973392486572266
            ],
            [
              22.942081451416016,
              44.77729415893555
            ],
            [
              23.41872787475586,
              44.64661407470703
            ],
            [
              23.332780838012695,
              44.58129119873047
            ],
            [
              23.389131546020508,
              44.25482940673828
            ],
            [
              23.469974517822266,
              44.25482940673828
            ],
            [
              23.364660263061523,
              43.92862319946289
            ],
            [
              23.521102905273438,
              43.86341094970703
            ],
            [
              23.92439079284668,
              43.86341094970703
            ],
            [
              24.075435638427734,
              43.73301696777344
            ],
            [
              24.80620765686035,
              43.79821014404297
            ],
            [
              25.52049446105957,
              43.6678352355957
            ],
            [
              26.200672149658203,
              44.05907440185547
            ],
            [
              26.281423568725586,
              44.05907440185547
            ],
            [
              26.26943588256836,
              43.92862319946289
            ],
            [
              26.505428314208984,
              43.86341094970703
            ],
            [
              26.48125457763672,
              43.6026611328125
            ],
            [
              26.400718688964844,
              43.6026611328125
            ],
            [
              26.469234466552734,
              43.472347259521484
            ],
            [
              26.1297607421875,
              43.276947021484375
            ],
            [
              26.11229133605957,
              43.08163070678711
            ],
            [
              25.50588607788086,
              42.56119155883789
            ],
            [
              25.34577178955078,
              42.56119155883789
            ],
            [
              25.084333419799805,
              42.30118942260742
            ],
            [
              24.504514694213867,
              42.041324615478516
            ],
            [
              24.49448013305664,
              41.911441802978516
            ],
            [
              24.798267364501953,
              41.71668243408203
            ],
            [
              24.778104782104492,
              41.45711898803711
            ],
            [
              24.52469253540039,
              41.26253128051758
            ],
            [
              24.20674705505371,
              41.26253128051758
            ],
            [
              23.473424911499023,
              41.00318908691406
            ],
            [
              22.997167587280273,
              41.00318908691406
            ],
            [
              22.508596420288086,
              40.80876541137695
            ],
            [
              22.171741485595703,
              40.4848747253418
            ],
            [
              21.128570556640625,
              40.225894927978516
            ],
            [
              20.55560302734375,
              39.8376350402832
            ],
            [
              20.39780616760254,
              39.8376350402832
            ],
            [
              20.394643783569336,
              39.77294921875
            ]
          ]
        ]
      }
    }
  ]
}
