{
  "type": "FeatureCollection",
  "features": [
    {
      "type": "Feature",
      "properties": {
        "Name": "Mali Empire",
        "FromYear": 1415,
        "ToYear": 1462,
        "Area": 1113873.4693431782,
        "Type": "POLITY",
        "Wikipedia": "Mali Empire",
        "Wikidata": "Q184536",
        "SeshatID": "",
        "Components": "",
        "MemberOf": "",
        "displayYear": 1425,
        "sourceYear": 1425,
        "mappedTerritoryId": "cliopatria_mali_empire"
      },
      "geometry": {
        "type": "MultiPolygon",
        "coordinates": [
          [
            [
              [
                -6.252602100372314,
                12.114578247070312
              ],
              [
                -6.32585620880127,
                12.114578247070312
              ],
              [
                -6.326496124267578,
                12.178865432739258
              ],
              [
                -6.253236770629883,
                12.178865432739258
              ],
              [
                -6.252602100372314,
                12.114578247070312
              ]
            ]
          ],
          [
            [
              [
                1.265598893165588,
                16.87187385559082
              ],
              [
                1.571126222610474,
                15.52182674407959
              ],
              [
                1.719503283500671,
                15.328963279724121
              ],
              [
                1.65014910697937,
                14.621796607971191
              ],
              [
                1.210447072982788,
                14.428933143615723
              ],
              [
                0.255569607019424,
                14.428933143615723
              ],
              [
                0.180736601352692,
                14.621796607971191
              ],
              [
                -0.040168322622776,
                14.686083793640137
              ],
              [
                -0.115713961422443,
                14.943235397338867
              ],
              [
                -0.410283774137497,
                15.007523536682129
              ],
              [
                -0.339656442403793,
                15.328963279724121
              ],
              [
                -0.486739277839661,
                15.328963279724121
              ],
              [
                -0.710595369338989,
                15.650403022766113
              ],
              [
                -1.598118424415588,
                16.036130905151367
              ],
              [
                -2.48151707649231,
                16.036130905151367
              ],
              [
                -2.994995594024658,
                15.907554626464844
              ],
              [
                -2.919603109359741,
                15.77897834777832
              ],
              [
                -3.286630392074585,
                15.714691162109375
              ],
              [
                -3.284823179244995,
                15.586114883422852
              ],
              [
                -3.648131370544434,
                15.26467514038086
              ],
              [
                -3.862628698348999,
                14.81466007232666
              ],
              [
                -3.858539342880249,
                14.493220329284668
              ],
              [
                -4.148387432098389,
                14.171781539916992
              ],
              [
                -4.073441028594971,
                14.043206214904785
              ],
              [
                -4.29292631149292,
                13.97891902923584
              ],
              [
                -4.363352298736572,
                13.721768379211426
              ],
              [
                -4.582772731781006,
                13.657480239868164
              ],
              [
                -5.381765365600586,
                12.950316429138184
              ],
              [
                -5.528407096862793,
                12.950316429138184
              ],
              [
                -5.527018547058105,
                12.821741104125977
              ],
              [
                -5.673638820648193,
                12.821741104125977
              ],
              [
                -5.672267436981201,
                12.69316577911377
              ],
              [
                -6.036035537719727,
                12.436016082763672
              ],
              [
                -5.961458683013916,
                12.307440757751465
              ],
              [
                -6.327145576477051,
                12.24315357208252
              ],
              [
                -6.690194606781006,
                11.92171573638916
              ],
              [
                -6.973060131072998,
                10.764540672302246
              ],
              [
                -7.262497901916504,
                10.314528465270996
              ],
              [
                -7.188551425933838,
                10.185953140258789
              ],
              [
                -7.334793090820312,
                10.185953140258789
              ],
              [
                -7.624908924102783,
                9.800228118896484
              ],
              [
                -8.062732696533203,
                9.671652793884277
              ],
              [
                -8.062013626098633,
                9.543078422546387
              ],
              [
                -8.208539009094238,
                9.607365608215332
              ],
              [
                -8.427058219909668,
                9.478790283203125
              ],
              [
                -9.231735229492188,
                9.607365608215332
              ],
              [
                -9.742891311645508,
                9.543078422546387
              ],
              [
                -9.817340850830078,
                9.735940933227539
              ],
              [
                -10.035675048828125,
                9.607365608215332
              ],
              [
                -10.036620140075684,
                9.735940933227539
              ],
              [
                -10.328498840332031,
                9.671652793884277
              ],
              [
                -10.915373802185059,
                9.928803443908691
              ],
              [
                -11.134119987487793,
                9.86451530456543
              ],
              [
                -11.354593276977539,
                9.993090629577637
              ],
              [
                -12.15878963470459,
                9.993090629577637
              ],
              [
                -12.965087890625,
                10.185953140258789
              ],
              [
                -13.189045906066895,
                10.571678161621094
              ],
              [
                -13.117518424987793,
                10.7002534866333
              ],
              [
                -13.190672874450684,
                10.7002534866333
              ],
              [
                -13.194069862365723,
                10.957403182983398
              ],
              [
                -13.41629695892334,
                11.15026569366455
              ],
              [
                -13.418168067932129,
                11.278841018676758
              ],
              [
                -14.082006454467773,
                11.6002779006958
              ],
              [
                -14.374871253967285,
                11.6002779006958
              ],
              [
                -14.80884075164795,
                11.278841018676758
              ],
              [
                -15.030540466308594,
                11.407415390014648
              ],
              [
                -15.394387245178223,
                11.278841018676758
              ],
              [
                -15.477781295776367,
                11.857428550720215
              ],
              [
                -15.621872901916504,
                11.728853225708008
              ],
              [
                -16.06122589111328,
                11.728853225708008
              ],
              [
                -16.13689613342285,
                11.857428550720215
              ],
              [
                -16.282127380371094,
                11.793140411376953
              ],
              [
                -16.36302947998047,
                12.178865432739258
              ],
              [
                -16.582807540893555,
                12.178865432739258
              ],
              [
                -16.806697845458984,
                12.37172794342041
              ],
              [
                -16.821340560913086,
                13.014603614807129
              ],
              [
                -16.748014450073242,
                13.014603614807129
              ],
              [
                -16.830827713012695,
                13.40032958984375
              ],
              [
                -16.539003372192383,
                13.464617729187012
              ],
              [
                -16.54392433166504,
                13.657480239868164
              ],
              [
                -16.62067222595215,
                13.786055564880371
              ],
              [
                -16.767457962036133,
                13.786055564880371
              ],
              [
                -16.7744197845459,
                14.043206214904785
              ],
              [
                -17.007564544677734,
                14.493220329284668
              ],
              [
                -17.23375701904297,
                14.686083793640137
              ],
              [
                -17.454187393188477,
                14.686083793640137
              ],
              [
                -17.386709213256836,
                14.878947257995605
              ],
              [
                -17.023244857788086,
                15.007523536682129
              ],
              [
                -17.02732276916504,
                15.136098861694336
              ],
              [
                -16.81085968017578,
                15.26467514038086
              ],
              [
                -16.602807998657227,
                15.650403022766113
              ],
              [
                -16.48678970336914,
                16.550434112548828
              ],
              [
                -16.27979850769043,
                16.9361629486084
              ],
              [
                -15.761456489562988,
                16.87187385559082
              ],
              [
                -13.775532722473145,
                17.000450134277344
              ],
              [
                -13.706090927124023,
                17.129026412963867
              ],
              [
                -13.335280418395996,
                17.06473731994629
              ],
              [
                -12.970775604248047,
                17.193313598632812
              ],
              [
                -11.643321990966797,
                17.193313598632812
              ],
              [
                -11.352203369140625,
                17.321889877319336
              ],
              [
                -10.981487274169922,
                17.257600784301758
              ],
              [
                -10.985304832458496,
                17.38617706298828
              ],
              [
                -10.467053413391113,
                17.321889877319336
              ],
              [
                -9.65744400024414,
                17.38617706298828
              ],
              [
                -9.365888595581055,
                17.514753341674805
              ],
              [
                -8.921455383300781,
                17.450464248657227
              ],
              [
                -7.303038120269775,
                17.643327713012695
              ],
              [
                -4.86368465423584,
                17.450464248657227
              ],
              [
                -3.32015323638916,
                17.77190399169922
              ],
              [
                -0.444911062717438,
                18.029054641723633
              ],
              [
                0.443666607141495,
                17.836191177368164
              ],
              [
                0.964749038219452,
                17.450464248657227
              ],
              [
                1.264988303184509,
                16.9361629486084
              ],
              [
                1.265598893165588,
                16.87187385559082
              ]
            ]
          ]
        ]
      }
    }
  ]
}
