{
  "type": "FeatureCollection",
  "features": [
    {
      "type": "Feature",
      "properties": {
        "Name": "Federated Republic of Germany",
        "FromYear": 1991,
        "ToYear": 2023,
        "Area": 360584.8888335385,
        "Type": "POLITY",
        "Wikipedia": "Germany",
        "Wikidata": "Q183",
        "SeshatID": "",
        "Components": "",
        "MemberOf": "",
        "displayYear": 1992,
        "sourceYear": 1992,
        "mappedTerritoryId": "cliopatria_federated_republic_of_germany"
      },
      "geometry": {
        "type": "Polygon",
        "coordinates": [
          [
            [
              11.053302764892578,
              54.20612335205078
            ],
            [
              11.054854393005371,
              54.4095458984375
            ],
            [
              9.9271879196167,
              54.545284271240234
            ],
            [
              9.92687702178955,
              54.74907684326172
            ],
            [
              9.926774978637695,
              54.817054748535156
            ],
            [
              8.533562660217285,
              54.88506317138672
            ],
            [
              8.534452438354492,
              54.817054748535156
            ],
            [
              8.797733306884766,
              54.613189697265625
            ],
            [
              8.799209594726562,
              54.47740173339844
            ],
            [
              8.539765357971191,
              54.4095458984375
            ],
            [
              8.54152774810791,
              54.27390670776367
            ],
            [
              8.802155494689941,
              54.20612335205078
            ],
            [
              8.892172813415527,
              53.86756134033203
            ],
            [
              8.459527015686035,
              53.93522644042969
            ],
            [
              8.37701416015625,
              53.664710998535156
            ],
            [
              8.205669403076172,
              53.597137451171875
            ],
            [
              7.944795608520508,
              53.732303619384766
            ],
            [
              7.082295417785645,
              53.732303619384766
            ],
            [
              6.913325786590576,
              53.597137451171875
            ],
            [
              6.918599128723145,
              53.39456558227539
            ],
            [
              7.178262233734131,
              53.32708740234375
            ],
            [
              7.179872989654541,
              53.25962829589844
            ],
            [
              7.021557331085205,
              52.720787048339844
            ],
            [
              6.68117618560791,
              52.653533935546875
            ],
            [
              6.68488883972168,
              52.51908493041992
            ],
            [
              6.944602489471436,
              52.38472366333008
            ],
            [
              6.864534378051758,
              52.18334197998047
            ],
            [
              6.779329299926758,
              52.18334197998047
            ],
            [
              6.781125068664551,
              52.11625671386719
            ],
            [
              6.695963382720947,
              52.11625671386719
            ],
            [
              6.697800159454346,
              52.0491943359375
            ],
            [
              6.699635028839111,
              51.98215103149414
            ],
            [
              6.533320903778076,
              51.84812545776367
            ],
            [
              5.938404083251953,
              51.84812545776367
            ],
            [
              5.942830562591553,
              51.71418380737305
            ],
            [
              6.203768730163574,
              51.51342010498047
            ],
            [
              5.960404872894287,
              51.17921447753906
            ],
            [
              5.973455429077148,
              50.77880859375
            ],
            [
              6.320712566375732,
              50.445655822753906
            ],
            [
              6.324694156646729,
              50.312522888183594
            ],
            [
              6.076801300048828,
              50.17946243286133
            ],
            [
              6.078903675079346,
              50.11296081542969
            ],
            [
              6.162819862365723,
              50.11296081542969
            ],
            [
              6.164880752563477,
              50.04647445678711
            ],
            [
              6.166939258575439,
              49.98000717163086
            ],
            [
              6.338570117950439,
              49.84712600708008
            ],
            [
              6.348425388336182,
              49.51522445678711
            ],
            [
              6.691738605499268,
              49.18375015258789
            ],
            [
              8.112674713134766,
              48.98506164550781
            ],
            [
              8.115007400512695,
              48.852684020996094
            ],
            [
              7.705782890319824,
              48.52202224731445
            ],
            [
              7.633763790130615,
              47.993770599365234
            ],
            [
              7.551040172576904,
              47.993770599365234
            ],
            [
              7.559404373168945,
              47.598209381103516
            ],
            [
              7.973181247711182,
              47.53233337402344
            ],
            [
              8.467049598693848,
              47.598209381103516
            ],
            [
              8.547621726989746,
              47.730003356933594
            ],
            [
              9.457207679748535,
              47.598209381103516
            ],
            [
              9.868535995483398,
              47.79592514038086
            ],
            [
              9.868948936462402,
              47.730003356933594
            ],
            [
              9.951531410217285,
              47.730003356933594
            ],
            [
              9.951909065246582,
              47.664100646972656
            ],
            [
              9.86936092376709,
              47.664100646972656
            ],
            [
              9.869773864746094,
              47.598209381103516
            ],
            [
              9.870186805725098,
              47.53233337402344
            ],
            [
              10.118547439575195,
              47.33478927612305
            ],
            [
              10.36567211151123,
              47.33478927612305
            ],
            [
              10.447366714477539,
              47.598209381103516
            ],
            [
              10.859928131103516,
              47.53233337402344
            ],
            [
              11.024742126464844,
              47.4006233215332
            ],
            [
              11.933061599731445,
              47.664100646972656
            ],
            [
              12.75854206085205,
              47.664100646972656
            ],
            [
              12.839411735534668,
              47.53233337402344
            ],
            [
              13.004368782043457,
              47.53233337402344
            ],
            [
              13.088733673095703,
              47.664100646972656
            ],
            [
              12.924517631530762,
              47.730003356933594
            ],
            [
              12.927179336547852,
              47.92780685424805
            ],
            [
              12.762627601623535,
              47.993770599365234
            ],
            [
              12.765129089355469,
              48.191749572753906
            ],
            [
              13.26423168182373,
              48.323814392089844
            ],
            [
              13.434637069702148,
              48.5881233215332
            ],
            [
              13.768134117126465,
              48.654239654541016
            ],
            [
              13.770781517028809,
              48.786521911621094
            ],
            [
              12.532414436340332,
              49.51522445678711
            ],
            [
              12.534139633178711,
              49.64793395996094
            ],
            [
              12.36764907836914,
              49.71431350708008
            ],
            [
              12.370920181274414,
              49.98000717163086
            ],
            [
              12.204005241394043,
              50.04647445678711
            ],
            [
              12.20633602142334,
              50.2459831237793
            ],
            [
              12.376081466674805,
              50.37908172607422
            ],
            [
              12.796454429626465,
              50.37908172607422
            ],
            [
              13.391927719116211,
              50.71213912963867
            ],
            [
              14.153997421264648,
              50.84549331665039
            ],
            [
              14.328418731689453,
              51.04566955566406
            ],
            [
              14.8309965133667,
              50.912200927734375
            ],
            [
              14.837479591369629,
              51.112430572509766
            ],
            [
              15.01336669921875,
              51.31283950805664
            ],
            [
              14.600712776184082,
              51.64724349975586
            ],
            [
              14.515852928161621,
              51.64724349975586
            ],
            [
              14.517960548400879,
              51.71418380737305
            ],
            [
              14.602863311767578,
              51.71418380737305
            ],
            [
              14.703431129455566,
              52.18334197998047
            ],
            [
              14.537419319152832,
              52.31757736206055
            ],
            [
              14.548598289489746,
              52.653533935546875
            ],
            [
              14.125114440917969,
              52.78806686401367
            ],
            [
              14.133414268493652,
              53.057395935058594
            ],
            [
              14.39750862121582,
              53.25962829589844
            ],
            [
              14.232200622558594,
              53.462066650390625
            ],
            [
              14.241045951843262,
              53.732303619384766
            ],
            [
              14.154796600341797,
              53.732303619384766
            ],
            [
              13.986488342285156,
              53.86756134033203
            ],
            [
              14.159177780151367,
              53.86756134033203
            ],
            [
              14.165812492370605,
              54.07062530517578
            ],
            [
              13.304450988769531,
              54.20612335205078
            ],
            [
              13.739368438720703,
              54.27390670776367
            ],
            [
              13.662626266479492,
              54.613189697265625
            ],
            [
              13.405717849731445,
              54.74907684326172
            ],
            [
              13.14309310913086,
              54.681121826171875
            ],
            [
              13.05121898651123,
              54.47740173339844
            ],
            [
              12.4437894821167,
              54.47740173339844
            ],
            [
              12.093385696411133,
              54.27390670776367
            ],
            [
              11.398930549621582,
              54.138362884521484
            ],
            [
              11.397537231445312,
              54.00291442871094
            ],
            [
              10.879310607910156,
              54.07062530517578
            ],
            [
              10.966720581054688,
              54.20612335205078
            ],
            [
              11.053302764892578,
              54.20612335205078
            ]
          ]
        ]
      }
    }
  ]
}
