{
  "type": "FeatureCollection",
  "features": [
    {
      "type": "Feature",
      "properties": {
        "Name": "Federal Republic of Somalia",
        "FromYear": 1960,
        "ToYear": 2023,
        "Area": 646200.8121696736,
        "Type": "POLITY",
        "Wikipedia": "Somalia",
        "Wikidata": "Q1045",
        "SeshatID": "",
        "Components": "",
        "MemberOf": "",
        "displayYear": 1992,
        "sourceYear": 1992,
        "mappedTerritoryId": "cliopatria_federal_republic_of_somalia"
      },
      "geometry": {
        "type": "Polygon",
        "coordinates": [
          [
            [
              50.94806671142578,
              10.314528465270996
            ],
            [
              50.831058502197266,
              9.285927772521973
            ],
            [
              50.371917724609375,
              8.771627426147461
            ],
            [
              50.203346252441406,
              8.193038940429688
            ],
            [
              49.82863235473633,
              7.935888767242432
            ],
            [
              49.81439971923828,
              7.550163269042969
            ],
            [
              49.203407287597656,
              6.778711795806885
            ],
            [
              48.87750244140625,
              5.750109672546387
            ],
            [
              48.72964096069336,
              5.685822010040283
            ],
            [
              48.648597717285156,
              5.428671360015869
            ],
            [
              48.12063980102539,
              4.850082874298096
            ],
            [
              47.88682174682617,
              4.335781574249268
            ],
            [
              47.063690185546875,
              3.564330101013184
            ],
            [
              47.060157775878906,
              3.435754776000977
            ],
            [
              46.689056396484375,
              3.178604364395142
            ],
            [
              46.68561553955078,
              3.050029039382935
            ],
            [
              45.86627197265625,
              2.342865228652954
            ],
            [
              45.72066116333008,
              2.342865228652954
            ],
            [
              45.49577713012695,
              2.085714817047119
            ],
            [
              44.38966751098633,
              1.507126569747925
            ],
            [
              43.27535629272461,
              0.542813181877136
            ],
            [
              43.27243423461914,
              0.414238125085831
            ],
            [
              42.902767181396484,
              0.15708801150322
            ],
            [
              42.91486740112305,
              0.028512962162495
            ],
            [
              42.12020492553711,
              -0.742937445640564
            ],
            [
              42.12131118774414,
              -0.871512532234192
            ],
            [
              41.8313102722168,
              -1.00008761882782
            ],
            [
              41.833641052246094,
              -1.257237911224365
            ],
            [
              41.54615783691406,
              -1.642963409423828
            ],
            [
              41.473365783691406,
              -1.642963409423828
            ],
            [
              40.88401794433594,
              -0.871512532234192
            ],
            [
              40.928016662597656,
              2.857166290283203
            ],
            [
              41.30010986328125,
              3.178604364395142
            ],
            [
              41.75687789916992,
              3.950055837631226
            ],
            [
              42.12790298461914,
              4.207206249237061
            ],
            [
              42.7852897644043,
              4.271493911743164
            ],
            [
              43.45695877075195,
              4.850082874298096
            ],
            [
              44.768619537353516,
              4.850082874298096
            ],
            [
              45.063812255859375,
              4.978658199310303
            ],
            [
              45.36857604980469,
              5.428671360015869
            ],
            [
              45.59110641479492,
              5.557246685028076
            ],
            [
              45.595001220703125,
              5.685822010040283
            ],
            [
              46.1942024230957,
              6.200123310089111
            ],
            [
              46.198280334472656,
              6.328698635101318
            ],
            [
              47.85315704345703,
              7.807313442230225
            ],
            [
              47.85776901245117,
              7.935888767242432
            ],
            [
              46.83811569213867,
              8.000176429748535
            ],
            [
              46.69668197631836,
              8.128751754760742
            ],
            [
              43.809783935546875,
              9.09306526184082
            ],
            [
              43.59975051879883,
              9.350214958190918
            ],
            [
              43.38283157348633,
              9.41450309753418
            ],
            [
              43.25056457519531,
              9.800228118896484
            ],
            [
              43.035945892333984,
              9.928803443908691
            ],
            [
              42.76240539550781,
              10.443102836608887
            ],
            [
              42.85749435424805,
              11.021690368652344
            ],
            [
              43.23857116699219,
              11.407415390014648
            ],
            [
              43.24113845825195,
              11.47170352935791
            ],
            [
              43.31692886352539,
              11.535990715026855
            ],
            [
              43.67005920410156,
              11.214552879333496
            ],
            [
              43.73307418823242,
              10.957403182983398
            ],
            [
              44.083831787109375,
              10.571678161621094
            ],
            [
              44.371421813964844,
              10.443102836608887
            ],
            [
              44.88338088989258,
              10.443102836608887
            ],
            [
              45.706058502197266,
              10.893115997314453
            ],
            [
              46.578712463378906,
              10.764540672302246
            ],
            [
              47.25631332397461,
              11.214552879333496
            ],
            [
              47.985382080078125,
              11.15026569366455
            ],
            [
              48.359859466552734,
              11.343128204345703
            ],
            [
              49.08892822265625,
              11.278841018676758
            ],
            [
              49.686336517333984,
              11.535990715026855
            ],
            [
              50.275062561035156,
              11.6002779006958
            ],
            [
              50.58653259277344,
              11.986002922058105
            ],
            [
              51.099246978759766,
              11.986002922058105
            ],
            [
              51.31262969970703,
              11.857428550720215
            ],
            [
              51.14442825317383,
              11.407415390014648
            ],
            [
              51.176048278808594,
              10.507390975952148
            ],
            [
              51.02119445800781,
              10.314528465270996
            ],
            [
              50.94806671142578,
              10.314528465270996
            ]
          ]
        ]
      }
    }
  ]
}
