{
  "type": "FeatureCollection",
  "features": [
    {
      "type": "Feature",
      "properties": {
        "Name": "Sui Dynasty",
        "FromYear": 617,
        "ToYear": 622,
        "Area": 3278606.0789309,
        "Type": "POLITY",
        "Wikipedia": "Sui dynasty",
        "Wikidata": "Q7405",
        "SeshatID": "cn_sui_dyn",
        "Components": "",
        "MemberOf": "",
        "displayYear": 618,
        "sourceYear": 618,
        "mappedTerritoryId": "sui_dynasty"
      },
      "geometry": {
        "type": "MultiPolygon",
        "coordinates": [
          [
            [
              [
                109.86219787597656,
                18.350492477416992
              ],
              [
                109.84064483642578,
                18.2219181060791
              ],
              [
                109.24968719482422,
                18.2219181060791
              ],
              [
                109.12333679199219,
                18.350492477416992
              ],
              [
                108.76459503173828,
                18.414779663085938
              ],
              [
                108.63818359375,
                18.543354034423828
              ],
              [
                108.70427703857422,
                19.379087448120117
              ],
              [
                109.20277404785156,
                19.700523376464844
              ],
              [
                109.2463607788086,
                19.95766830444336
              ],
              [
                110.15737915039062,
                20.08624267578125
              ],
              [
                110.59095001220703,
                20.021955490112305
              ],
              [
                110.613037109375,
                20.150527954101562
              ],
              [
                110.90947723388672,
                20.150527954101562
              ],
              [
                111.08741760253906,
                19.893383026123047
              ],
              [
                111.03193664550781,
                19.571949005126953
              ],
              [
                110.88386535644531,
                19.571949005126953
              ],
              [
                110.85066986083984,
                19.379087448120117
              ],
              [
                110.68057250976562,
                19.25051498413086
              ],
              [
                110.50775909423828,
                18.67193031311035
              ],
              [
                110.1902847290039,
                18.543354034423828
              ],
              [
                110.1794204711914,
                18.479066848754883
              ],
              [
                109.86219787597656,
                18.350492477416992
              ]
            ]
          ],
          [
            [
              [
                106.08155822753906,
                23.557723999023438
              ],
              [
                106.09354400634766,
                23.622013092041016
              ],
              [
                106.16812133789062,
                23.622013092041016
              ],
              [
                106.1561279296875,
                23.557723999023438
              ],
              [
                106.08155822753906,
                23.557723999023438
              ]
            ]
          ],
          [
            [
              [
                120.64734649658203,
                40.4848747253418
              ],
              [
                120.50029754638672,
                40.225894927978516
              ],
              [
                119.38044738769531,
                39.77294921875
              ],
              [
                119.21530151367188,
                39.320335388183594
              ],
              [
                118.44984436035156,
                39.06184005737305
              ],
              [
                118.0568618774414,
                39.06184005737305
              ],
              [
                118.04566192626953,
                39.19107437133789
              ],
              [
                117.88837432861328,
                39.19107437133789
              ],
              [
                117.57643127441406,
                38.738853454589844
              ],
              [
                117.6549072265625,
                38.738853454589844
              ],
              [
                117.60245513916016,
                38.48057174682617
              ],
              [
                118.05360412597656,
                38.28691864013672
              ],
              [
                118.06742095947266,
                38.157840728759766
              ],
              [
                118.58300018310547,
                38.09331130981445
              ],
              [
                118.64759826660156,
                38.22237777709961
              ],
              [
                118.80416870117188,
                38.22237777709961
              ],
              [
                118.77176666259766,
                38.157840728759766
              ],
              [
                119.4571304321289,
                37.96426773071289
              ],
              [
                119.3928451538086,
                37.835243225097656
              ],
              [
                119.23655700683594,
                37.835243225097656
              ],
              [
                118.98403930664062,
                37.3193473815918
              ],
              [
                119.13996124267578,
                37.3193473815918
              ],
              [
                119.15568542480469,
                37.1904182434082
              ],
              [
                119.70111083984375,
                37.1904182434082
              ],
              [
                119.82661437988281,
                37.44829177856445
              ],
              [
                120.20220184326172,
                37.5772590637207
              ],
              [
                120.18807220458984,
                37.706241607666016
              ],
              [
                120.75377655029297,
                37.89975357055664
              ],
              [
                121.11202239990234,
                37.835243225097656
              ],
              [
                121.17103576660156,
                37.641746520996094
              ],
              [
                121.48333740234375,
                37.641746520996094
              ],
              [
                121.49687957763672,
                37.51277160644531
              ],
              [
                122.15351867675781,
                37.5772590637207
              ],
              [
                122.1211166381836,
                37.51277160644531
              ],
              [
                122.71288299560547,
                37.44829177856445
              ],
              [
                122.47421264648438,
                37.12596130371094
              ],
              [
                122.56636810302734,
                36.9970588684082
              ],
              [
                122.39389038085938,
                36.80373764038086
              ],
              [
                121.91207885742188,
                36.932613372802734
              ],
              [
                121.21208190917969,
                36.61045455932617
              ],
              [
                120.97892761230469,
                36.61045455932617
              ],
              [
                120.96481323242188,
                36.417205810546875
              ],
              [
                120.73184967041016,
                36.417205810546875
              ],
              [
                120.65852355957031,
                36.09519577026367
              ],
              [
                120.31848907470703,
                36.03080368041992
              ],
              [
                119.98648071289062,
                35.644527435302734
              ],
              [
                119.61874389648438,
                35.51579284667969
              ],
              [
                119.22760772705078,
                34.80794906616211
              ],
              [
                119.45901489257812,
                34.80794906616211
              ],
              [
                119.43090057373047,
                34.743614196777344
              ],
              [
                119.71125030517578,
                34.679283142089844
              ],
              [
                119.73230743408203,
                34.55062484741211
              ],
              [
                120.3418197631836,
                34.3576545715332
              ],
              [
                120.48936462402344,
                34.164703369140625
              ],
              [
                120.55045318603516,
                33.5859489440918
              ],
              [
                120.92630004882812,
                33.20018768310547
              ],
              [
                120.91920471191406,
                32.62162780761719
              ],
              [
                121.40264892578125,
                32.493072509765625
              ],
              [
                121.50330352783203,
                32.171695709228516
              ],
              [
                121.78321075439453,
                32.107421875
              ],
              [
                121.98702239990234,
                31.8503360748291
              ],
              [
                121.83556365966797,
                31.65752601623535
              ],
              [
                121.30052947998047,
                31.8503360748291
              ],
              [
                120.89421844482422,
                31.78606605529785
              ],
              [
                121.45442962646484,
                31.65752601623535
              ],
              [
                121.48112487792969,
                31.528987884521484
              ],
              [
                121.63350677490234,
                31.528987884521484
              ],
              [
                121.58425903320312,
                31.40045166015625
              ],
              [
                121.73657989501953,
                31.40045166015625
              ],
              [
                121.99526977539062,
                31.079113006591797
              ],
              [
                121.89926147460938,
                30.822044372558594
              ],
              [
                121.51921844482422,
                30.822044372558594
              ],
              [
                121.19719696044922,
                30.564971923828125
              ],
              [
                121.04530334472656,
                30.564971923828125
              ],
              [
                120.67976379394531,
                30.179353713989258
              ],
              [
                120.80880737304688,
                30.115081787109375
              ],
              [
                121.10469055175781,
                30.307893753051758
              ],
              [
                121.48409271240234,
                30.307893753051758
              ],
              [
                121.6202392578125,
                30.050809860229492
              ],
              [
                122.02978515625,
                29.922264099121094
              ],
              [
                121.864501953125,
                29.665164947509766
              ],
              [
                122.01595306396484,
                29.665164947509766
              ],
              [
                121.92787170410156,
                29.40805435180664
              ],
              [
                122.00353240966797,
                29.40805435180664
              ],
              [
                121.93843078613281,
                29.21521759033203
              ],
              [
                121.71156311035156,
                29.21521759033203
              ],
              [
                121.79838562011719,
                29.472333908081055
              ],
              [
                121.59324645996094,
                29.536611557006836
              ],
              [
                121.53888702392578,
                29.150936126708984
              ],
              [
                121.74431610107422,
                29.08665657043457
              ],
              [
                121.7143325805664,
                28.765243530273438
              ],
              [
                121.52177429199219,
                28.636676788330078
              ],
              [
                121.65211486816406,
                28.572391510009766
              ],
              [
                121.64590454101562,
                28.315250396728516
              ],
              [
                121.15326690673828,
                28.186676025390625
              ],
              [
                121.1933822631836,
                28.315250396728516
              ],
              [
                121.11795806884766,
                28.315250396728516
              ],
              [
                121.03816223144531,
                28.058101654052734
              ],
              [
                120.86773681640625,
                27.993812561035156
              ],
              [
                120.71461486816406,
                27.736658096313477
              ],
              [
                120.65725708007812,
                27.54378890991211
              ],
              [
                120.73251342773438,
                27.54378890991211
              ],
              [
                120.54503631591797,
                27.158044815063477
              ],
              [
                120.39466857910156,
                27.158044815063477
              ],
              [
                120.24666595458984,
                26.900876998901367
              ],
              [
                120.09639739990234,
                26.900876998901367
              ],
              [
                120.06058502197266,
                26.772293090820312
              ],
              [
                120.21080017089844,
                26.772293090820312
              ],
              [
                120.1576919555664,
                26.57941436767578
              ],
              [
                119.83992767333984,
                26.515121459960938
              ],
              [
                119.93810272216797,
                26.32224464416504
              ],
              [
                119.5870132446289,
                26.129364013671875
              ],
              [
                119.77836608886719,
                26.000778198242188
              ],
              [
                119.52989959716797,
                25.615020751953125
              ],
              [
                119.90438079833984,
                25.615020751953125
              ],
              [
                119.87213897705078,
                25.48643684387207
              ],
              [
                119.46599578857422,
                25.357851028442383
              ],
              [
                119.42289733886719,
                25.48643684387207
              ],
              [
                119.27314758300781,
                25.48643684387207
              ],
              [
                119.39114379882812,
                25.357851028442383
              ],
              [
                119.34419250488281,
                25.164974212646484
              ],
              [
                119.02947998046875,
                25.100683212280273
              ],
              [
                119.07367706298828,
                24.97209930419922
              ],
              [
                118.8191146850586,
                24.843517303466797
              ],
              [
                118.75972747802734,
                24.586353302001953
              ],
              [
                118.14736938476562,
                24.522062301635742
              ],
              [
                118.07573699951172,
                24.200613021850586
              ],
              [
                117.72126770019531,
                23.943456649780273
              ],
              [
                117.69377136230469,
                23.814878463745117
              ],
              [
                117.46995544433594,
                23.814878463745117
              ],
              [
                117.1788330078125,
                23.493436813354492
              ],
              [
                116.8938980102539,
                23.557723999023438
              ],
              [
                116.7796401977539,
                23.36486053466797
              ],
              [
                116.81497955322266,
                23.171995162963867
              ],
              [
                116.59144592285156,
                23.171995162963867
              ],
              [
                116.54004669189453,
                22.914846420288086
              ],
              [
                115.69562530517578,
                22.786272048950195
              ],
              [
                115.67061614990234,
                22.657697677612305
              ],
              [
                115.37285614013672,
                22.657697677612305
              ],
              [
                115.17442321777344,
                22.786272048950195
              ],
              [
                114.90156555175781,
                22.529123306274414
              ],
              [
                114.75272369384766,
                22.529123306274414
              ],
              [
                114.64081573486328,
                22.72198486328125
              ],
              [
                114.53111267089844,
                22.143402099609375
              ],
              [
                114.37039184570312,
                22.079116821289062
              ],
              [
                113.99858856201172,
                22.079116821289062
              ],
              [
                113.99634552001953,
                22.46483612060547
              ],
              [
                113.78524017333984,
                22.529123306274414
              ],
              [
                113.7474365234375,
                22.72198486328125
              ],
              [
                113.59854125976562,
                22.72198486328125
              ],
              [
                113.69869995117188,
                22.46483612060547
              ],
              [
                113.63867950439453,
                22.143402099609375
              ],
              [
                113.41557312011719,
                22.143402099609375
              ],
              [
                113.31752014160156,
                22.014829635620117
              ],
              [
                113.10626220703125,
                22.079116821289062
              ],
              [
                113.07096862792969,
                21.88625717163086
              ],
              [
                112.77362823486328,
                21.88625717163086
              ],
              [
                112.44146728515625,
                21.693397521972656
              ],
              [
                111.85850524902344,
                21.7576847076416
              ],
              [
                111.6640625,
                21.500539779663086
              ],
              [
                110.98419189453125,
                21.43625259399414
              ],
              [
                110.73885345458984,
                21.307680130004883
              ],
              [
                110.71642303466797,
                21.179107666015625
              ],
              [
                110.41944885253906,
                21.179107666015625
              ],
              [
                110.48252868652344,
                21.114822387695312
              ],
              [
                110.36384582519531,
                20.857677459716797
              ],
              [
                110.61627197265625,
                20.60053253173828
              ],
              [
                110.48687744140625,
                20.279102325439453
              ],
              [
                109.88289642333984,
                20.214815139770508
              ],
              [
                109.9267807006836,
                20.471960067749023
              ],
              [
                109.7894515991211,
                20.53624725341797
              ],
              [
                109.7702407836914,
                20.857677459716797
              ],
              [
                109.69603729248047,
                20.857677459716797
              ],
              [
                109.87005615234375,
                21.43625259399414
              ],
              [
                109.80696105957031,
                21.500539779663086
              ],
              [
                109.11621856689453,
                21.371967315673828
              ],
              [
                109.08638000488281,
                21.629112243652344
              ],
              [
                108.65169525146484,
                21.693397521972656
              ],
              [
                108.55519104003906,
                21.5648250579834
              ],
              [
                107.79033660888672,
                21.43625259399414
              ],
              [
                107.41735076904297,
                20.986249923706055
              ],
              [
                106.87641143798828,
                20.857677459716797
              ],
              [
                106.8337173461914,
                20.60053253173828
              ],
              [
                106.68537902832031,
                20.60053253173828
              ],
              [
                106.53694915771484,
                20.150527954101562
              ],
              [
                106.0606460571289,
                19.95766830444336
              ],
              [
                105.84930419921875,
                19.571949005126953
              ],
              [
                105.91281127929688,
                19.507661819458008
              ],
              [
                105.73389434814453,
                18.864791870117188
              ],
              [
                106.05134582519531,
                18.543354034423828
              ],
              [
                106.030517578125,
                18.414779663085938
              ],
              [
                106.17830657958984,
                18.414779663085938
              ],
              [
                106.29487609863281,
                18.2219181060791
              ],
              [
                106.56956481933594,
                18.093341827392578
              ],
              [
                106.5281982421875,
                17.836191177368164
              ],
              [
                106.51790618896484,
                17.77190399169922
              ],
              [
                106.29645538330078,
                17.77190399169922
              ],
              [
                106.24317932128906,
                17.90047836303711
              ],
              [
                105.8740234375,
                17.90047836303711
              ],
              [
                105.77974700927734,
                17.77190399169922
              ],
              [
                105.70592498779297,
                17.77190399169922
              ],
              [
                105.66277313232422,
                17.964767456054688
              ],
              [
                105.143798828125,
                18.414779663085938
              ],
              [
                105.18512725830078,
                18.67193031311035
              ],
              [
                105.03726959228516,
                18.67193031311035
              ],
              [
                105.14230346679688,
                18.864791870117188
              ],
              [
                104.97236633300781,
                19.186227798461914
              ],
              [
                104.99213409423828,
                19.764808654785156
              ],
              [
                104.8648452758789,
                19.893383026123047
              ],
              [
                104.98062133789062,
                20.150527954101562
              ],
              [
                104.4395751953125,
                20.471960067749023
              ],
              [
                104.61909484863281,
                20.664819717407227
              ],
              [
                104.90534973144531,
                20.60053253173828
              ],
              [
                104.87299346923828,
                20.857677459716797
              ],
              [
                105.09559631347656,
                20.857677459716797
              ],
              [
                104.8512954711914,
                21.179107666015625
              ],
              [
                104.97850036621094,
                21.500539779663086
              ],
              [
                104.925537109375,
                21.629112243652344
              ],
              [
                105.0955810546875,
                21.7576847076416
              ],
              [
                105.1279525756836,
                21.950544357299805
              ],
              [
                104.87400817871094,
                22.20768928527832
              ],
              [
                105.23788452148438,
                22.59341049194336
              ],
              [
                105.2715835571289,
                22.786272048950195
              ],
              [
                105.76407623291016,
                23.043420791625977
              ],
              [
                106.1561279296875,
                23.557723999023438
              ],
              [
                106.4664306640625,
                23.622013092041016
              ],
              [
                107.14945220947266,
                24.07203483581543
              ],
              [
                107.75928497314453,
                24.136323928833008
              ],
              [
                108.08728790283203,
                24.650644302368164
              ],
              [
                108.30946350097656,
                26.32224464416504
              ],
              [
                107.96507263183594,
                26.450830459594727
              ],
              [
                107.908935546875,
                26.836584091186523
              ],
              [
                106.9048080444336,
                27.029460906982422
              ],
              [
                106.60956573486328,
                27.35091781616211
              ],
              [
                106.45912170410156,
                27.35091781616211
              ],
              [
                106.1817855834961,
                27.736658096313477
              ],
              [
                106.20807647705078,
                28.12238883972168
              ],
              [
                106.1326904296875,
                28.12238883972168
              ],
              [
                106.24258422851562,
                28.25096321105957
              ],
              [
                106.14405822753906,
                28.44382095336914
              ],
              [
                105.52306365966797,
                28.379535675048828
              ],
              [
                105.51264190673828,
                28.058101654052734
              ],
              [
                105.12759399414062,
                27.736658096313477
              ],
              [
                104.61695861816406,
                27.800947189331055
              ],
              [
                104.43353271484375,
                27.6723690032959
              ],
              [
                104.25687408447266,
                27.865236282348633
              ],
              [
                104.63507843017578,
                28.44382095336914
              ],
              [
                103.99048614501953,
                28.572391510009766
              ],
              [
                103.86349487304688,
                28.379535675048828
              ],
              [
                103.99732208251953,
                28.315250396728516
              ],
              [
                103.96347045898438,
                28.186676025390625
              ],
              [
                103.63789367675781,
                27.800947189331055
              ],
              [
                103.4548110961914,
                27.6723690032959
              ],
              [
                103.32039642333984,
                27.736658096313477
              ],
              [
                103.28815460205078,
                27.608078002929688
              ],
              [
                103.28411865234375,
                27.2866268157959
              ],
              [
                103.35932922363281,
                27.2866268157959
              ],
              [
                103.4316635131836,
                26.643707275390625
              ],
              [
                103.50674438476562,
                26.643707275390625
              ],
              [
                103.46222686767578,
                26.450830459594727
              ],
              [
                103.19337463378906,
                26.257951736450195
              ],
              [
                102.90777587890625,
                26.32224464416504
              ],
              [
                102.55054473876953,
                26.06507110595703
              ],
              [
                102.2506332397461,
                26.06507110595703
              ],
              [
                102.20396423339844,
                26.19365882873535
              ],
              [
                102.05396270751953,
                26.19365882873535
              ],
              [
                102.1432113647461,
                26.257951736450195
              ],
              [
                102.14054107666016,
                26.57941436767578
              ],
              [
                101.80931854248047,
                26.772293090820312
              ],
              [
                101.58399963378906,
                26.772293090820312
              ],
              [
                101.6957778930664,
                27.865236282348633
              ],
              [
                101.36564636230469,
                28.636676788330078
              ],
              [
                101.19561004638672,
                29.40805435180664
              ],
              [
                101.0620346069336,
                29.472333908081055
              ],
              [
                101.05811309814453,
                29.729440689086914
              ],
              [
                100.98237609863281,
                29.729440689086914
              ],
              [
                101.0553207397461,
                29.986536026000977
              ],
              [
                100.95915222167969,
                30.179353713989258
              ],
              [
                101.01528930664062,
                30.372163772583008
              ],
              [
                100.93939971923828,
                30.372163772583008
              ],
              [
                100.99618530273438,
                30.564971923828125
              ],
              [
                100.92024230957031,
                30.564971923828125
              ],
              [
                101.13798522949219,
                31.528987884521484
              ],
              [
                101.66535949707031,
                32.685909271240234
              ],
              [
                101.68687438964844,
                32.75019073486328
              ],
              [
                102.55159759521484,
                33.26447677612305
              ],
              [
                103.20997619628906,
                33.393062591552734
              ],
              [
                103.4928207397461,
                33.971771240234375
              ],
              [
                103.38555145263672,
                34.10039138793945
              ],
              [
                103.73529052734375,
                35.45143127441406
              ],
              [
                103.63004302978516,
                35.58015823364258
              ],
              [
                103.72779083251953,
                36.03080368041992
              ],
              [
                103.59667205810547,
                36.28839111328125
              ],
              [
                103.64786529541016,
                36.417205810546875
              ],
              [
                103.38858032226562,
                36.5460319519043
              ],
              [
                103.25885772705078,
                36.80373764038086
              ],
              [
                103.10328674316406,
                36.80373764038086
              ],
              [
                102.97416687011719,
                37.06150817871094
              ],
              [
                102.24852752685547,
                37.38381576538086
              ],
              [
                102.09397888183594,
                37.5772590637207
              ],
              [
                102.09606170654297,
                37.7707405090332
              ],
              [
                101.70372009277344,
                37.5772590637207
              ],
              [
                101.54920959472656,
                37.7707405090332
              ],
              [
                101.26336669921875,
                37.835243225097656
              ],
              [
                101.23871612548828,
                37.96426773071289
              ],
              [
                100.8745346069336,
                38.028785705566406
              ],
              [
                100.4137954711914,
                38.60969924926758
              ],
              [
                100.2264404296875,
                38.351463317871094
              ],
              [
                99.81044006347656,
                38.48057174682617
              ],
              [
                99.19844818115234,
                39.25570297241211
              ],
              [
                98.9068374633789,
                39.1264533996582
              ],
              [
                98.3840560913086,
                39.19107437133789
              ],
              [
                98.22306060791016,
                38.997230529785156
              ],
              [
                97.90877532958984,
                38.997230529785156
              ],
              [
                97.20784759521484,
                39.38497543334961
              ],
              [
                96.76294708251953,
                39.449623107910156
              ],
              [
                96.65383911132812,
                39.19107437133789
              ],
              [
                96.73248291015625,
                39.19107437133789
              ],
              [
                96.70207977294922,
                38.738853454589844
              ],
              [
                96.36184692382812,
                38.67427444458008
              ],
              [
                95.81295013427734,
                38.8680305480957
              ],
              [
                95.55278778076172,
                39.19107437133789
              ],
              [
                95.39549255371094,
                39.19107437133789
              ],
              [
                95.31853485107422,
                39.38497543334961
              ],
              [
                95.05557250976562,
                39.320335388183594
              ],
              [
                94.58486938476562,
                39.51427459716797
              ],
              [
                93.87593078613281,
                39.51427459716797
              ],
              [
                93.35050964355469,
                39.38497543334961
              ],
              [
                93.24575805664062,
                39.51427459716797
              ],
              [
                93.29883575439453,
                39.64360046386719
              ],
              [
                93.22001647949219,
                39.64360046386719
              ],
              [
                93.2734375,
                39.77294921875
              ],
              [
                93.09048461914062,
                39.90232849121094
              ],
              [
                93.19904327392578,
                40.16116714477539
              ],
              [
                93.27806854248047,
                40.16116714477539
              ],
              [
                93.36487579345703,
                40.54964065551758
              ],
              [
                93.57447052001953,
                40.4848747253418
              ],
              [
                93.84545135498047,
                40.74397277832031
              ],
              [
                95.22967529296875,
                41.00318908691406
              ],
              [
                97.21408081054688,
                41.00318908691406
              ],
              [
                97.18427276611328,
                40.93837356567383
              ],
              [
                97.88810729980469,
                40.74397277832031
              ],
              [
                98.03691864013672,
                40.54964065551758
              ],
              [
                98.27448272705078,
                40.54964065551758
              ],
              [
                98.50260162353516,
                40.355369567871094
              ],
              [
                98.94775390625,
                40.29063034057617
              ],
              [
                98.91836547851562,
                40.225894927978516
              ],
              [
                99.28423309326172,
                40.16116714477539
              ],
              [
                99.3836898803711,
                40.031734466552734
              ],
              [
                100.17345428466797,
                40.031734466552734
              ],
              [
                100.14405822753906,
                39.9670295715332
              ],
              [
                100.38090515136719,
                39.9670295715332
              ],
              [
                100.73719787597656,
                39.70827102661133
              ],
              [
                101.25987243652344,
                39.64360046386719
              ],
              [
                101.28044891357422,
                39.51427459716797
              ],
              [
                101.43798828125,
                39.51427459716797
              ],
              [
                101.53751373291016,
                39.38497543334961
              ],
              [
                101.47991180419922,
                39.25570297241211
              ],
              [
                101.63008880615234,
                39.06184005737305
              ],
              [
                102.12320709228516,
                38.93262481689453
              ],
              [
                102.11685943603516,
                38.738853454589844
              ],
              [
                102.40255737304688,
                38.67427444458008
              ],
              [
                102.60418701171875,
                38.416015625
              ],
              [
                103.40498352050781,
                38.09331130981445
              ],
              [
                103.55694580078125,
                37.89975357055664
              ],
              [
                104.36157989501953,
                37.7707405090332
              ],
              [
                104.54096221923828,
                37.641746520996094
              ],
              [
                105.4329605102539,
                37.89975357055664
              ],
              [
                106.16472625732422,
                37.96426773071289
              ],
              [
                106.8154296875,
                38.54513168334961
              ],
              [
                107.4426498413086,
                38.54513168334961
              ],
              [
                107.51126098632812,
                38.351463317871094
              ],
              [
                107.90291595458984,
                38.351463317871094
              ],
              [
                108.14006042480469,
                37.835243225097656
              ],
              [
                109.07779693603516,
                37.835243225097656
              ],
              [
                110.39788055419922,
                38.157840728759766
              ],
              [
                110.67475891113281,
                38.416015625
              ],
              [
                111.01862335205078,
                38.48057174682617
              ],
              [
                111.15621948242188,
                38.93262481689453
              ],
              [
                111.51801300048828,
                39.19107437133789
              ],
              [
                111.39248657226562,
                39.25570297241211
              ],
              [
                111.68372344970703,
                39.8376350402832
              ],
              [
                111.90766143798828,
                39.9670295715332
              ],
              [
                111.89530181884766,
                40.0964469909668
              ],
              [
                112.04144287109375,
                40.225894927978516
              ],
              [
                111.95085906982422,
                40.355369567871094
              ],
              [
                109.48572540283203,
                40.4848747253418
              ],
              [
                109.47328186035156,
                40.614410400390625
              ],
              [
                109.31485748291016,
                40.614410400390625
              ],
              [
                109.223388671875,
                40.74397277832031
              ],
              [
                109.3246841430664,
                40.93837356567383
              ],
              [
                109.78978729248047,
                41.06801223754883
              ],
              [
                110.8668212890625,
                41.00318908691406
              ],
              [
                110.83231353759766,
                40.93837356567383
              ],
              [
                111.30841064453125,
                40.93837356567383
              ],
              [
                111.27384948730469,
                40.873565673828125
              ],
              [
                113.05408477783203,
                40.93837356567383
              ],
              [
                113.13343811035156,
                40.93837356567383
              ],
              [
                115.76353454589844,
                41.521995544433594
              ],
              [
                117.39749145507812,
                41.45711898803711
              ],
              [
                117.3600082397461,
                41.39224624633789
              ],
              [
                117.59864044189453,
                41.39224624633789
              ],
              [
                117.60334014892578,
                41.26253128051758
              ],
              [
                117.76231384277344,
                41.26253128051758
              ],
              [
                117.84668731689453,
                41.132843017578125
              ],
              [
                117.77824401855469,
                40.873565673828125
              ],
              [
                117.9001693725586,
                40.80876541137695
              ],
              [
                117.82709503173828,
                40.6791877746582
              ],
              [
                117.91288757324219,
                40.54964065551758
              ],
              [
                118.0712661743164,
                40.54964065551758
              ],
              [
                118.07810974121094,
                40.42012023925781
              ],
              [
                118.638916015625,
                40.29063034057617
              ],
              [
                118.60298156738281,
                40.225894927978516
              ],
              [
                118.99825286865234,
                40.225894927978516
              ],
              [
                119.545166015625,
                40.355369567871094
              ],
              [
                120.07857513427734,
                40.873565673828125
              ],
              [
                120.35420227050781,
                40.93837356567383
              ],
              [
                120.78031921386719,
                41.39224624633789
              ],
              [
                121.3733139038086,
                41.71668243408203
              ],
              [
                121.97047424316406,
                41.911441802978516
              ],
              [
                122.36931610107422,
                41.911441802978516
              ],
              [
                122.3293685913086,
                41.84651184082031
              ],
              [
                122.56858825683594,
                41.84651184082031
              ],
              [
                122.52867126464844,
                41.781593322753906
              ],
              [
                122.6083755493164,
                41.781593322753906
              ],
              [
                122.4899673461914,
                41.45711898803711
              ],
              [
                121.93632507324219,
                41.19768524169922
              ],
              [
                121.82366180419922,
                40.873565673828125
              ],
              [
                121.74433898925781,
                40.873565673828125
              ],
              [
                121.2684097290039,
                40.873565673828125
              ],
              [
                121.1890869140625,
                40.873565673828125
              ],
              [
                120.64734649658203,
                40.4848747253418
              ]
            ]
          ],
          [
            [
              [
                122.2725830078125,
                30.179353713989258
              ],
              [
                122.27982330322266,
                29.986536026000977
              ],
              [
                121.97661590576172,
                29.986536026000977
              ],
              [
                122.02213287353516,
                30.115081787109375
              ],
              [
                122.04503631591797,
                30.179353713989258
              ],
              [
                122.2725830078125,
                30.179353713989258
              ]
            ]
          ]
        ]
      }
    }
  ]
}
