{
  "type": "FeatureCollection",
  "features": [
    {
      "type": "Feature",
      "properties": {
        "Name": "Kingdom of Axum",
        "FromYear": 238,
        "ToYear": 352,
        "Area": 133415.64185753584,
        "Type": "POLITY",
        "Wikipedia": "Kingdom of Aksum",
        "Wikidata": "Q139377",
        "SeshatID": "et_aksum_emp_1",
        "Components": "",
        "MemberOf": "",
        "displayYear": 304,
        "sourceYear": 304,
        "mappedTerritoryId": "cliopatria_kingdom_of_axum"
      },
      "geometry": {
        "type": "MultiPolygon",
        "coordinates": [
          [
            [
              [
                40.81897735595703,
                14.81466007232666
              ],
              [
                41.39474105834961,
                14.55750846862793
              ],
              [
                41.664764404296875,
                14.043206214904785
              ],
              [
                42.378360748291016,
                13.593193054199219
              ],
              [
                42.43741226196289,
                13.271754264831543
              ],
              [
                42.217369079589844,
                13.271754264831543
              ],
              [
                41.91841125488281,
                13.143178939819336
              ],
              [
                41.91289520263672,
                13.014603614807129
              ],
              [
                41.47023010253906,
                12.950316429138184
              ],
              [
                41.3182258605957,
                12.821741104125977
              ],
              [
                38.97229766845703,
                12.821741104125977
              ],
              [
                38.39573287963867,
                13.07889175415039
              ],
              [
                38.26165008544922,
                13.40032958984375
              ],
              [
                38.114933013916016,
                13.40032958984375
              ],
              [
                38.19594955444336,
                13.593193054199219
              ],
              [
                37.999244689941406,
                14.171781539916992
              ],
              [
                38.16780471801758,
                14.686083793640137
              ],
              [
                38.62569046020508,
                15.07181167602539
              ],
              [
                38.55794143676758,
                15.200387001037598
              ],
              [
                38.77561569213867,
                15.136098861694336
              ],
              [
                38.934417724609375,
                15.393251419067383
              ],
              [
                39.15208435058594,
                15.328963279724121
              ],
              [
                39.605472564697266,
                15.586114883422852
              ],
              [
                39.73439025878906,
                15.200387001037598
              ],
              [
                39.807918548583984,
                15.200387001037598
              ],
              [
                39.82310485839844,
                15.52182674407959
              ],
              [
                39.97023010253906,
                15.52182674407959
              ],
              [
                40.310516357421875,
                14.943235397338867
              ],
              [
                40.68106460571289,
                15.007523536682129
              ],
              [
                40.821998596191406,
                14.878947257995605
              ],
              [
                40.81897735595703,
                14.81466007232666
              ]
            ]
          ],
          [
            [
              [
                38.325958251953125,
                14.943235397338867
              ],
              [
                38.32878875732422,
                15.007523536682129
              ],
              [
                38.40229797363281,
                15.007523536682129
              ],
              [
                38.39945983886719,
                14.943235397338867
              ],
              [
                38.325958251953125,
                14.943235397338867
              ]
            ]
          ],
          [
            [
              [
                42.765567779541016,
                15.52182674407959
              ],
              [
                42.6920051574707,
                15.52182674407959
              ],
              [
                42.8239860534668,
                16.614723205566406
              ],
              [
                42.476654052734375,
                17.000450134277344
              ],
              [
                42.48728942871094,
                17.193313598632812
              ],
              [
                42.63478469848633,
                17.193313598632812
              ],
              [
                43.02164077758789,
                17.514753341674805
              ],
              [
                43.03257751464844,
                17.707616806030273
              ],
              [
                43.250328063964844,
                17.643327713012695
              ],
              [
                43.552940368652344,
                17.77190399169922
              ],
              [
                43.89961624145508,
                17.38617706298828
              ],
              [
                43.81843948364258,
                17.257600784301758
              ],
              [
                44.02119445800781,
                16.9361629486084
              ],
              [
                44.017513275146484,
                16.87187385559082
              ],
              [
                43.94380187988281,
                16.87187385559082
              ],
              [
                43.911155700683594,
                16.293283462524414
              ],
              [
                44.1213264465332,
                16.100418090820312
              ],
              [
                43.949466705322266,
                15.650403022766113
              ],
              [
                43.99565505981445,
                15.136098861694336
              ],
              [
                42.88957214355469,
                15.07181167602539
              ],
              [
                42.81605529785156,
                15.07181167602539
              ],
              [
                42.765567779541016,
                15.52182674407959
              ]
            ]
          ]
        ]
      }
    }
  ]
}
