{
  "type": "FeatureCollection",
  "features": [
    {
      "type": "Feature",
      "properties": {
        "Name": "Srivijaya",
        "FromYear": 682,
        "ToYear": 691,
        "Area": 170100.9529440854,
        "Type": "POLITY",
        "Wikipedia": "Srivijaya",
        "Wikidata": "Q234197",
        "SeshatID": "",
        "Components": "",
        "MemberOf": "",
        "displayYear": 690,
        "sourceYear": 690,
        "mappedTerritoryId": "cliopatria_srivijaya"
      },
      "geometry": {
        "type": "MultiPolygon",
        "coordinates": [
          [
            [
              [
                105.11116027832031,
                -2.285839319229126
              ],
              [
                105.47697448730469,
                -2.350126981735229
              ],
              [
                105.63583374023438,
                -2.800140142440796
              ],
              [
                106.00804901123047,
                -3.05729079246521
              ],
              [
                105.94596099853516,
                -3.378728866577148
              ],
              [
                105.73420715332031,
                -3.57159161567688
              ],
              [
                105.89405059814453,
                -3.957317352294922
              ],
              [
                105.75579833984375,
                -4.150180339813232
              ],
              [
                105.85237121582031,
                -4.728769302368164
              ],
              [
                105.77951049804688,
                -4.728769302368164
              ],
              [
                105.80241394042969,
                -5.243070125579834
              ],
              [
                105.72953033447266,
                -5.243070125579834
              ],
              [
                105.75737762451172,
                -5.821659088134766
              ],
              [
                105.39286041259766,
                -5.821659088134766
              ],
              [
                105.23445892333984,
                -5.564508438110352
              ],
              [
                105.17095947265625,
                -5.757371425628662
              ],
              [
                104.80644989013672,
                -5.757371425628662
              ],
              [
                104.5055160522461,
                -5.564508438110352
              ],
              [
                104.59733581542969,
                -5.950234413146973
              ],
              [
                104.4515151977539,
                -5.950234413146973
              ],
              [
                104.147216796875,
                -5.693083763122559
              ],
              [
                104.14104461669922,
                -5.564508438110352
              ],
              [
                103.91932678222656,
                -5.500220775604248
              ],
              [
                103.7587890625,
                -5.17878246307373
              ],
              [
                103.23188781738281,
                -4.793056964874268
              ],
              [
                103.08615112304688,
                -4.793056964874268
              ],
              [
                102.18140411376953,
                -4.021605014801025
              ],
              [
                102.09700012207031,
                -3.700166940689087
              ],
              [
                101.87186431884766,
                -3.507303953170776
              ],
              [
                102.00902557373047,
                -3.250153541564941
              ],
              [
                102.06412506103516,
                -2.671565055847168
              ],
              [
                102.63238525390625,
                -2.157264232635498
              ],
              [
                102.84107971191406,
                -1.771538615226746
              ],
              [
                103.41309356689453,
                -1.321525454521179
              ],
              [
                103.55066680908203,
                -0.935800075531006
              ],
              [
                104.28108978271484,
                -1.064375281333923
              ],
              [
                104.52020263671875,
                -1.964401364326477
              ],
              [
                104.81305694580078,
                -2.028688907623291
              ],
              [
                104.81993865966797,
                -2.285839319229126
              ],
              [
                105.0383529663086,
                -2.285839319229126
              ],
              [
                105.11116027832031,
                -2.285839319229126
              ]
            ]
          ],
          [
            [
              [
                106.72411346435547,
                -2.671565055847168
              ],
              [
                106.5804443359375,
                -2.735852479934692
              ],
              [
                106.58443450927734,
                -2.864427804946899
              ],
              [
                106.80288696289062,
                -2.864427804946899
              ],
              [
                106.80907440185547,
                -3.05729079246521
              ],
              [
                106.44921112060547,
                -3.185865879058838
              ],
              [
                105.78146362304688,
                -2.800140142440796
              ],
              [
                105.77001953125,
                -2.414414644241333
              ],
              [
                105.61727142333984,
                -2.157264232635498
              ],
              [
                105.10765838623047,
                -2.157264232635498
              ],
              [
                104.95699310302734,
                -1.964401364326477
              ],
              [
                105.24491882324219,
                -1.83582615852356
              ],
              [
                105.23716735839844,
                -1.514388203620911
              ],
              [
                105.60416412353516,
                -1.642963409423828
              ],
              [
                105.60112762451172,
                -1.514388203620911
              ],
              [
                105.96508026123047,
                -1.514388203620911
              ],
              [
                106.20686340332031,
                -2.414414644241333
              ],
              [
                106.72217559814453,
                -2.607277393341064
              ],
              [
                106.72411346435547,
                -2.671565055847168
              ]
            ]
          ]
        ]
      }
    }
  ]
}
