{
  "type": "FeatureCollection",
  "features": [
    {
      "type": "Feature",
      "properties": {
        "Name": "Kingdom of Jordan",
        "FromYear": 1956,
        "ToYear": 1957,
        "Area": 103473.43997653056,
        "Type": "POLITY",
        "Wikipedia": "Jordan",
        "Wikidata": "Q810",
        "SeshatID": "",
        "Components": "",
        "MemberOf": "",
        "displayYear": 1956,
        "sourceYear": 1956,
        "mappedTerritoryId": "cliopatria_kingdom_of_jordan"
      },
      "geometry": {
        "type": "Polygon",
        "coordinates": [
          [
            [
              38.539710998535156,
              31.8503360748291
            ],
            [
              39.169307708740234,
              32.043148040771484
            ],
            [
              39.258705139160156,
              32.171695709228516
            ],
            [
              39.2718620300293,
              32.30024337768555
            ],
            [
              39.049224853515625,
              32.36451721191406
            ],
            [
              39.089054107666016,
              32.75019073486328
            ],
            [
              38.886253356933594,
              33.00732421875
            ],
            [
              38.84351348876953,
              33.32876968383789
            ],
            [
              37.967071533203125,
              33.00732421875
            ],
            [
              37.79452896118164,
              32.81447219848633
            ],
            [
              37.399200439453125,
              32.685909271240234
            ],
            [
              36.82706832885742,
              32.30024337768555
            ],
            [
              36.30413055419922,
              32.428794860839844
            ],
            [
              36.098575592041016,
              32.685909271240234
            ],
            [
              35.7219352722168,
              32.75019073486328
            ],
            [
              35.53977584838867,
              32.428794860839844
            ],
            [
              35.08116149902344,
              32.428794860839844
            ],
            [
              35.06425476074219,
              32.23596954345703
            ],
            [
              35.1406364440918,
              32.23596954345703
            ],
            [
              35.03096008300781,
              31.8503360748291
            ],
            [
              35.17799758911133,
              31.78606605529785
            ],
            [
              35.167030334472656,
              31.65752601623535
            ],
            [
              35.009159088134766,
              31.593257904052734
            ],
            [
              34.993019104003906,
              31.40045166015625
            ],
            [
              35.526123046875,
              31.40045166015625
            ],
            [
              35.493690490722656,
              31.014846801757812
            ],
            [
              35.22898483276367,
              30.564971923828125
            ],
            [
              35.07854461669922,
              29.600887298583984
            ],
            [
              34.92236328125,
              29.536611557006836
            ],
            [
              34.91290283203125,
              29.40805435180664
            ],
            [
              34.908206939697266,
              29.34377670288086
            ],
            [
              36.02833557128906,
              29.150936126708984
            ],
            [
              38.29143142700195,
              29.986536026000977
            ],
            [
              38.38414001464844,
              30.179353713989258
            ],
            [
              37.60599136352539,
              30.822044372558594
            ],
            [
              37.61750793457031,
              30.950578689575195
            ],
            [
              37.125431060791016,
              31.40045166015625
            ],
            [
              37.13711929321289,
              31.528987884521484
            ],
            [
              38.463436126708984,
              31.8503360748291
            ],
            [
              38.539710998535156,
              31.8503360748291
            ]
          ]
        ]
      }
    }
  ]
}
