{
  "type": "FeatureCollection",
  "features": [
    {
      "type": "Feature",
      "properties": {
        "Name": "Median Kingdom",
        "FromYear": -600,
        "ToYear": -551,
        "Area": 2243378.207667925,
        "Type": "POLITY",
        "Wikipedia": "Median dynasty",
        "Wikidata": "Q1183338",
        "SeshatID": "ir_median_emp",
        "Components": "",
        "MemberOf": "",
        "displayYear": -597,
        "sourceYear": -597,
        "mappedTerritoryId": "cliopatria_median_kingdom"
      },
      "geometry": {
        "type": "MultiPolygon",
        "coordinates": [
          [
            [
              [
                48.7973518371582,
                38.54513168334961
              ],
              [
                48.82852554321289,
                37.835243225097656
              ],
              [
                49.08510208129883,
                37.51277160644531
              ],
              [
                49.998783111572266,
                37.38381576538086
              ],
              [
                50.320892333984375,
                36.9970588684082
              ],
              [
                50.56571960449219,
                37.06150817871094
              ],
              [
                50.632293701171875,
                36.9970588684082
              ],
              [
                50.53199768066406,
                36.8681755065918
              ],
              [
                50.82074737548828,
                36.73930740356445
              ],
              [
                51.6419677734375,
                36.5460319519043
              ],
              [
                52.18585205078125,
                36.5460319519043
              ],
              [
                53.488651275634766,
                36.8681755065918
              ],
              [
                55.14763641357422,
                36.9970588684082
              ],
              [
                55.8088493347168,
                37.1904182434082
              ],
              [
                55.83466339111328,
                37.3193473815918
              ],
              [
                56.0555534362793,
                37.254878997802734
              ],
              [
                56.88809585571289,
                37.51277160644531
              ],
              [
                58.33419418334961,
                37.706241607666016
              ],
              [
                59.193275451660156,
                37.706241607666016
              ],
              [
                60.20331954956055,
                38.028785705566406
              ],
              [
                60.750816345214844,
                38.028785705566406
              ],
              [
                61.01542663574219,
                38.157840728759766
              ],
              [
                62.39240264892578,
                38.351463317871094
              ],
              [
                63.523433685302734,
                38.80344009399414
              ],
              [
                63.837432861328125,
                38.80344009399414
              ],
              [
                64.00749206542969,
                38.54513168334961
              ],
              [
                64.36690521240234,
                38.416015625
              ],
              [
                64.66151428222656,
                38.028785705566406
              ],
              [
                65.23883056640625,
                37.835243225097656
              ],
              [
                65.28494262695312,
                37.706241607666016
              ],
              [
                65.56533813476562,
                37.5772590637207
              ],
              [
                65.87754821777344,
                37.5772590637207
              ],
              [
                66.21959686279297,
                37.38381576538086
              ],
              [
                66.93768310546875,
                37.44829177856445
              ],
              [
                67.20094299316406,
                37.254878997802734
              ],
              [
                67.6069564819336,
                37.3193473815918
              ],
              [
                67.82445526123047,
                37.254878997802734
              ],
              [
                67.94763946533203,
                37.12596130371094
              ],
              [
                67.91515350341797,
                36.9970588684082
              ],
              [
                68.42752838134766,
                36.8681755065918
              ],
              [
                68.96853637695312,
                36.5460319519043
              ],
              [
                69.1401596069336,
                36.61045455932617
              ],
              [
                69.26310729980469,
                36.48161697387695
              ],
              [
                69.85186767578125,
                36.3527946472168
              ],
              [
                70.25643920898438,
                36.417205810546875
              ],
              [
                70.93402862548828,
                36.03080368041992
              ],
              [
                71.26058959960938,
                36.09519577026367
              ],
              [
                71.42745971679688,
                35.837650299072266
              ],
              [
                72.5676498413086,
                35.45143127441406
              ],
              [
                72.82379913330078,
                34.93662643432617
              ],
              [
                72.7118911743164,
                34.48630142211914
              ],
              [
                72.41804504394531,
                34.22901916503906
              ],
              [
                72.4638671875,
                34.10039138793945
              ],
              [
                72.04850769042969,
                33.971771240234375
              ],
              [
                72.00270080566406,
                33.77885055541992
              ],
              [
                71.84906005859375,
                33.77885055541992
              ],
              [
                71.69709014892578,
                33.45735549926758
              ],
              [
                71.33118438720703,
                33.20018768310547
              ],
              [
                71.37858581542969,
                33.07160949707031
              ],
              [
                71.22535705566406,
                33.07160949707031
              ],
              [
                71.18193054199219,
                32.878753662109375
              ],
              [
                70.9522476196289,
                32.878753662109375
              ],
              [
                70.95755767822266,
                32.557350158691406
              ],
              [
                70.59580993652344,
                32.30024337768555
              ],
              [
                70.45687103271484,
                32.36451721191406
              ],
              [
                70.26270294189453,
                32.171695709228516
              ],
              [
                69.71459197998047,
                32.107421875
              ],
              [
                69.62474822998047,
                32.043148040771484
              ],
              [
                69.67420196533203,
                31.91460609436035
              ],
              [
                69.20317077636719,
                31.8503360748291
              ],
              [
                69.1767807006836,
                31.7217960357666
              ],
              [
                67.9333267211914,
                30.822044372558594
              ],
              [
                67.78131103515625,
                30.822044372558594
              ],
              [
                66.81580352783203,
                30.115081787109375
              ],
              [
                66.50106048583984,
                30.050809860229492
              ],
              [
                66.2286376953125,
                29.79371452331543
              ],
              [
                65.20040130615234,
                29.536611557006836
              ],
              [
                64.60549926757812,
                29.600887298583984
              ],
              [
                64.29206085205078,
                29.536611557006836
              ],
              [
                64.19532775878906,
                29.40805435180664
              ],
              [
                62.22803497314453,
                29.40805435180664
              ],
              [
                61.728515625,
                29.600887298583984
              ],
              [
                59.89167404174805,
                28.958093643188477
              ],
              [
                59.7700309753418,
                28.636676788330078
              ],
              [
                59.628150939941406,
                28.700960159301758
              ],
              [
                59.52550506591797,
                28.508106231689453
              ],
              [
                59.56531524658203,
                28.25096321105957
              ],
              [
                59.41450119018555,
                28.25096321105957
              ],
              [
                59.388282775878906,
                28.058101654052734
              ],
              [
                59.153568267822266,
                27.993812561035156
              ],
              [
                59.00265884399414,
                27.41520881652832
              ],
              [
                58.92742156982422,
                27.41520881652832
              ],
              [
                58.98632049560547,
                27.2866268157959
              ],
              [
                58.87104797363281,
                26.96516990661621
              ],
              [
                58.9304313659668,
                26.836584091186523
              ],
              [
                59.155792236328125,
                26.836584091186523
              ],
              [
                59.04185485839844,
                26.515121459960938
              ],
              [
                59.17668151855469,
                26.386537551879883
              ],
              [
                58.98186111450195,
                26.000778198242188
              ],
              [
                59.44858169555664,
                25.48643684387207
              ],
              [
                59.35962677001953,
                25.357851028442383
              ],
              [
                59.060218811035156,
                25.357851028442383
              ],
              [
                58.78172302246094,
                25.55072784423828
              ],
              [
                57.957984924316406,
                25.55072784423828
              ],
              [
                57.7402229309082,
                25.615020751953125
              ],
              [
                57.67921447753906,
                25.743606567382812
              ],
              [
                57.37953567504883,
                25.743606567382812
              ],
              [
                57.11480712890625,
                26.06507110595703
              ],
              [
                57.05242156982422,
                26.836584091186523
              ],
              [
                56.714656829833984,
                27.158044815063477
              ],
              [
                56.188377380371094,
                27.158044815063477
              ],
              [
                56.098140716552734,
                27.029460906982422
              ],
              [
                56.32361602783203,
                27.029460906982422
              ],
              [
                56.30864334106445,
                26.900876998901367
              ],
              [
                56.06119155883789,
                26.70800018310547
              ],
              [
                55.60341262817383,
                26.643707275390625
              ],
              [
                55.439002990722656,
                26.515121459960938
              ],
              [
                55.220890045166016,
                26.57941436767578
              ],
              [
                55.23513412475586,
                26.70800018310547
              ],
              [
                54.83156204223633,
                26.450830459594727
              ],
              [
                54.463233947753906,
                26.515121459960938
              ],
              [
                54.25889205932617,
                26.70800018310547
              ],
              [
                53.65812301635742,
                26.70800018310547
              ],
              [
                53.46059036254883,
                26.96516990661621
              ],
              [
                52.736968994140625,
                27.222335815429688
              ],
              [
                52.478694915771484,
                27.608078002929688
              ],
              [
                52.04855728149414,
                27.800947189331055
              ],
              [
                51.45318603515625,
                27.865236282348633
              ],
              [
                51.06624984741211,
                28.44382095336914
              ],
              [
                51.028076171875,
                28.765243530273438
              ],
              [
                50.80903244018555,
                28.829526901245117
              ],
              [
                50.9150390625,
                29.08665657043457
              ],
              [
                50.620323181152344,
                29.150936126708984
              ],
              [
                50.65126037597656,
                29.40805435180664
              ],
              [
                50.23628234863281,
                29.729440689086914
              ],
              [
                50.0648078918457,
                30.179353713989258
              ],
              [
                49.585899353027344,
                29.986536026000977
              ],
              [
                49.01873016357422,
                30.307893753051758
              ],
              [
                49.110572814941406,
                30.436433792114258
              ],
              [
                49.11860656738281,
                30.500701904296875
              ],
              [
                49.27046203613281,
                30.500701904296875
              ],
              [
                49.28668975830078,
                30.629240036010742
              ],
              [
                48.252750396728516,
                31.464719772338867
              ],
              [
                48.15162658691406,
                32.428794860839844
              ],
              [
                47.93099594116211,
                32.493072509765625
              ],
              [
                47.966007232666016,
                32.75019073486328
              ],
              [
                47.559574127197266,
                33.13589859008789
              ],
              [
                46.67476272583008,
                33.393062591552734
              ],
              [
                46.71001052856445,
                33.65024948120117
              ],
              [
                46.14847946166992,
                34.03607940673828
              ],
              [
                46.175201416015625,
                34.22901916503906
              ],
              [
                45.97110366821289,
                34.42197799682617
              ],
              [
                45.535648345947266,
                34.614952087402344
              ],
              [
                45.50337219238281,
                34.93662643432617
              ],
              [
                44.88930892944336,
                35.51579284667969
              ],
              [
                44.3746452331543,
                35.708900451660156
              ],
              [
                44.032291412353516,
                36.03080368041992
              ],
              [
                42.999717712402344,
                36.417205810546875
              ],
              [
                42.95771789550781,
                36.67487716674805
              ],
              [
                43.21817398071289,
                36.8681755065918
              ],
              [
                43.2734375,
                37.254878997802734
              ],
              [
                43.476436614990234,
                37.5772590637207
              ],
              [
                44.45452117919922,
                38.351463317871094
              ],
              [
                45.11241912841797,
                38.54513168334961
              ],
              [
                45.63640213012695,
                38.8680305480957
              ],
              [
                46.1185188293457,
                38.93262481689453
              ],
              [
                46.19706726074219,
                38.93262481689453
              ],
              [
                46.58980941772461,
                38.93262481689453
              ],
              [
                47.039405822753906,
                39.25570297241211
              ],
              [
                47.162357330322266,
                39.06184005737305
              ],
              [
                47.12834930419922,
                38.8680305480957
              ],
              [
                47.409645080566406,
                39.1264533996582
              ],
              [
                47.56688690185547,
                39.1264533996582
              ],
              [
                47.622413635253906,
                38.997230529785156
              ],
              [
                47.9135856628418,
                38.8680305480957
              ],
              [
                48.082218170166016,
                38.93262481689453
              ],
              [
                48.12605667114258,
                38.738853454589844
              ],
              [
                48.28300857543945,
                38.738853454589844
              ],
              [
                48.405338287353516,
                38.54513168334961
              ],
              [
                48.483741760253906,
                38.54513168334961
              ],
              [
                48.7973518371582,
                38.54513168334961
              ]
            ]
          ],
          [
            [
              [
                56.06855010986328,
                37.3193473815918
              ],
              [
                55.9905891418457,
                37.3193473815918
              ],
              [
                56.003604888916016,
                37.38381576538086
              ],
              [
                56.08158874511719,
                37.38381576538086
              ],
              [
                56.06855010986328,
                37.3193473815918
              ]
            ]
          ]
        ]
      }
    }
  ]
}
