{"type": "FeatureCollection", "features": [{"type": "Feature", "properties": {"name": "Portuguese Republic", "displayYear": 1920, "fromYear": 1919, "toYear": 1923, "wikipedia": "Portugal", "seshatId": "", "areaKm2": 2202958.97430857, "source": "Seshat Cliopatria"}, "geometry": {"type": "MultiPolygon", "coordinates": [[[[-16.657413482666016, 12.24315357208252], [-16.36302947998047, 12.178865432739258], [-16.282127380371094, 11.793140411376953], [-16.13689613342285, 11.857428550720215], [-16.06122589111328, 11.728853225708008], [-15.621872901916504, 11.728853225708008], [-15.477781295776367, 11.857428550720215], [-15.4719820022583, 11.535990715026855], [-15.398770332336426, 11.535990715026855], [-15.468661308288574, 11.343128204345703], [-15.023347854614258, 10.957403182983398], [-14.950177192687988, 10.957403182983398], [-14.809881210327148, 11.343128204345703], [-14.593442916870117, 11.535990715026855], [-13.863401412963867, 11.664566040039062], [-13.719066619873047, 11.793140411376953], [-13.873369216918945, 12.24315357208252], [-13.582629203796387, 12.37172794342041], [-13.587417602539062, 12.628878593444824], [-15.346488952636719, 12.628878593444824], [-15.562348365783691, 12.436016082763672], [-16.22186279296875, 12.436016082763672], [-16.65877342224121, 12.307440757751465], [-16.657413482666016, 12.24315357208252]]], [[[-24.44495391845703, 14.943235397338867], [-24.450305938720703, 15.07181167602539], [-24.229759216308594, 15.07181167602539], [-24.219215393066406, 14.81466007232666], [-24.36359405517578, 14.750371932983398], [-24.44230842590332, 14.878947257995605], [-24.44495391845703, 14.943235397338867]]], [[[-23.7204532623291, 15.200387001037598], [-23.725826263427734, 15.328963279724121], [-23.502525329589844, 15.26467514038086], [-23.413368225097656, 14.878947257995605], [-23.707351684570312, 14.878947257995605], [-23.793981552124023, 15.200387001037598], [-23.7204532623291, 15.200387001037598]]], [[[-23.27928352355957, 15.200387001037598], [-23.211036682128906, 15.328963279724121], [-22.987781524658203, 15.26467514038086], [-23.053518295288086, 15.07181167602539], [-23.276662826538086, 15.136098861694336], [-23.27928352355957, 15.200387001037598]]], [[[-22.723270416259766, 15.971842765808105], [-22.94409942626953, 15.971842765808105], [-22.881837844848633, 16.228994369506836], [-22.584453582763672, 16.16470718383789], [-22.649662017822266, 15.971842765808105], [-22.723270416259766, 15.971842765808105]]], [[[-24.08133888244629, 16.67901039123535], [-24.075172424316406, 16.550434112548828], [-24.366777420043945, 16.486146926879883], [-24.37609100341797, 16.67901039123535], [-24.155027389526367, 16.67901039123535], [-24.08133888244629, 16.67901039123535]]], [[[-22.902328491210938, 16.67901039123535], [-22.976016998291016, 16.67901039123535], [-22.911346435546875, 16.87187385559082], [-22.82863998413086, 16.67901039123535], [-22.902328491210938, 16.67901039123535]]], [[[-24.827810287475586, 16.87187385559082], [-24.821401596069336, 16.743297576904297], [-24.968791961669922, 16.743297576904297], [-25.05219268798828, 16.9361629486084], [-25.27007293701172, 16.87187385559082], [-25.35367202758789, 17.06473731994629], [-25.286596298217773, 17.193313598632812], [-24.99492835998535, 17.257600784301758], [-24.914560317993164, 17.129026412963867], [-24.97847557067871, 16.9361629486084], [-24.831039428710938, 16.9361629486084], [-24.827810287475586, 16.87187385559082]]], [[[-16.781082153320312, 32.81447219848633], [-16.697999954223633, 32.75019073486328], [-16.761478424072266, 32.62162780761719], [-17.150527954101562, 32.685909271240234], [-17.170469284057617, 32.878753662109375], [-16.78765869140625, 32.878753662109375], [-16.781082153320312, 32.81447219848633]]], [[[-25.387224197387695, 37.706241607666016], [-25.86661148071289, 37.7707405090332], [-25.89920997619629, 37.96426773071289], [-25.10663414001465, 37.89975357055664], [-25.085397720336914, 37.7707405090332], [-25.309125900268555, 37.706241607666016], [-25.387224197387695, 37.706241607666016]]], [[[-28.080307006835938, 38.351463317871094], [-28.80933952331543, 38.48057174682617], [-28.84571075439453, 38.67427444458008], [-28.6103572845459, 38.67427444458008], [-28.586214065551758, 38.54513168334961], [-28.28455924987793, 38.60969924926758], [-28.11579704284668, 38.54513168334961], [-28.092098236083984, 38.416015625], [-28.080307006835938, 38.351463317871094]]], [[[-28.12770652770996, 38.60969924926758], [-28.151639938354492, 38.738853454589844], [-27.99468994140625, 38.738853454589844], [-27.88058853149414, 38.54513168334961], [-28.049278259277344, 38.60969924926758], [-28.12770652770996, 38.60969924926758]]], [[[-27.36688995361328, 38.738853454589844], [-27.3904972076416, 38.8680305480957], [-27.07640266418457, 38.8680305480957], [-27.02972984313965, 38.60969924926758], [-27.355144500732422, 38.67427444458008], [-27.36688995361328, 38.738853454589844]]], [[[40.53116989135742, -12.764715194702148], [40.33892822265625, -11.286102294921875], [40.48162841796875, -11.157526969909668], [40.53873062133789, -10.578939437866211], [40.39071273803711, -10.514652252197266], [40.317569732666016, -10.514652252197266], [39.52669906616211, -11.028952598571777], [38.726924896240234, -11.22181510925293], [38.512569427490234, -11.414677619934082], [37.850337982177734, -11.286102294921875], [37.27836990356445, -11.800402641296387], [36.98033142089844, -11.607540130615234], [36.399600982666016, -11.800402641296387], [36.030147552490234, -11.67182731628418], [35.87886047363281, -11.478964805603027], [35.659236907958984, -11.478964805603027], [35.37115478515625, -11.67182731628418], [34.93026351928711, -11.607540130615234], [34.931827545166016, -11.67182731628418], [34.86979293823242, -12.12183952331543], [34.653282165527344, -12.250414848327637], [34.763427734375, -13.600454330444336], [34.910179138183594, -13.600454330444336], [35.13801193237305, -13.85760498046875], [35.13996887207031, -13.921893119812012], [35.517112731933594, -14.243330955505371], [35.827911376953125, -14.757633209228516], [35.83453369140625, -14.9504976272583], [35.76102828979492, -14.9504976272583], [35.79340744018555, -15.850528717041016], [35.07880783081055, -16.429121017456055], [35.090999603271484, -16.750560760498047], [35.24087142944336, -16.814847946166992], [35.179630279541016, -17.136287689208984], [35.03215026855469, -17.136287689208984], [35.02469253540039, -16.943424224853516], [34.4182243347168, -16.493408203125], [34.2592658996582, -16.171968460083008], [34.241172790527344, -15.65766429901123], [34.5200309753418, -15.207649230957031], [34.503135681152344, -14.69334602355957], [34.27464294433594, -14.43619441986084], [33.47053146362305, -14.564769744873047], [33.3140754699707, -14.243330955505371], [32.9414176940918, -14.050468444824219], [32.7982063293457, -14.179043769836426], [32.140907287597656, -14.307619094848633], [31.997604370117188, -14.43619441986084], [30.1030330657959, -15.014784812927246], [30.187198638916016, -15.4005126953125], [30.337955474853516, -15.529088973999023], [30.271799087524414, -15.786240577697754], [30.351057052612305, -15.979104042053223], [31.311996459960938, -16.10767936706543], [31.688365936279297, -16.364831924438477], [32.35554122924805, -16.493408203125], [32.882354736328125, -16.814847946166992], [32.822200775146484, -17.20057487487793], [32.89594650268555, -17.20057487487793], [32.914390563964844, -17.71487808227539], [32.988197326660156, -17.71487808227539], [32.94252014160156, -18.486328125], [32.806453704833984, -18.80776596069336], [32.66090393066406, -18.872053146362305], [32.765296936035156, -19.70778465270996], [32.91575241088867, -19.772069931030273], [32.922786712646484, -19.96493148803711], [32.7166862487793, -20.414936065673828], [32.42918395996094, -20.672080993652344], [32.30568313598633, -21.379228591918945], [31.58287811279297, -21.957805633544922], [31.587352752685547, -22.08637809753418], [31.15446662902832, -22.472097396850586], [31.47768783569336, -23.179258346557617], [31.49466896057129, -23.629274368286133], [31.7285213470459, -23.886428833007812], [31.82691192626953, -24.46503448486328], [31.9016170501709, -24.46503448486328], [31.85214614868164, -25.04365348815918], [31.950843811035156, -25.55799102783203], [31.741628646850586, -25.87945556640625], [31.979326248168945, -26.136627197265625], [32.01644515991211, -26.843847274780273], [32.77128982543945, -26.908138275146484], [32.76766586303711, -26.843847274780273], [32.8427848815918, -26.843847274780273], [32.81102752685547, -26.265213012695312], [32.50092315673828, -26.07233428955078], [32.702903747558594, -25.622283935546875], [33.50403594970703, -25.172237396240234], [34.83102798461914, -24.786487579345703], [35.19186019897461, -24.529325485229492], [35.18551254272461, -24.400745391845703], [35.46856689453125, -24.079296112060547], [35.45935821533203, -23.886428833007812], [35.229515075683594, -23.757850646972656], [35.435550689697266, -23.372121810913086], [35.48434829711914, -22.793533325195312], [35.409889221191406, -22.793533325195312], [35.396060943603516, -22.472097396850586], [35.2418098449707, -22.343524932861328], [35.217830657958984, -21.76494598388672], [34.97163009643555, -21.186368942260742], [35.03561019897461, -20.92922592163086], [34.87448501586914, -20.6077938079834], [34.64946365356445, -20.543508529663086], [34.69834518432617, -19.900644302368164], [34.92058181762695, -19.900644302368164], [35.77215576171875, -19.000627517700195], [36.28173828125, -18.80776596069336], [36.34749221801758, -18.614904403686523], [36.8482666015625, -18.22917938232422], [36.83723449707031, -17.972028732299805], [37.12981414794922, -17.90774154663086], [37.41116714477539, -17.586301803588867], [37.777320861816406, -17.522014617919922], [38.13489532470703, -17.264863967895508], [38.937522888183594, -17.07200050354004], [39.217994689941406, -16.750560760498047], [39.509883880615234, -16.68627166748047], [39.574928283691406, -16.493408203125], [39.72226333618164, -16.493408203125], [39.78731155395508, -16.30054473876953], [40.07329559326172, -16.10767936706543], [40.20638656616211, -15.786240577697754], [40.49232482910156, -15.593376159667969], [40.54671096801758, -15.14336109161377], [40.75394821166992, -14.821921348571777], [40.738487243652344, -14.43619441986084], [40.591583251953125, -14.43619441986084], [40.655067443847656, -14.179043769836426], [40.508209228515625, -14.179043769836426], [40.576759338378906, -14.050468444824219], [40.46000671386719, -12.82900333404541], [40.53331756591797, -12.82900333404541], [40.53116989135742, -12.764715194702148]]], [[[12.80553913116455, -5.950234413146973], [12.222415924072266, -6.014522075653076], [12.223407745361328, -6.464535236358643], [12.735306739807129, -7.043123722076416], [12.882939338684082, -7.750287532806396], [13.249395370483398, -8.328875541687012], [13.250408172607422, -8.714601516723633], [12.885685920715332, -8.907464027404785], [12.88643741607666, -9.228901863098145], [13.032878875732422, -9.357477188110352], [13.033821105957031, -9.743202209472656], [13.253776550292969, -10.000351905822754], [13.254453659057617, -10.257502555847168], [13.47437572479248, -10.45036506652832], [13.695167541503906, -10.90037727355957], [13.697819709777832, -11.736114501953125], [13.333992004394531, -12.50756549835205], [12.894619941711426, -12.636139869689941], [12.822331428527832, -13.021865844726562], [12.383223533630371, -13.407590866088867], [12.383813858032227, -13.664741516113281], [12.164626121520996, -14.114755630493164], [12.165647506713867, -14.564769744873047], [11.873255729675293, -15.271936416625977], [11.873973846435547, -15.593376159667969], [11.653518676757812, -15.721952438354492], [11.582695960998535, -17.20057487487793], [11.582809448242188, -17.264863967895508], [12.467879295349121, -17.264863967895508], [12.835689544677734, -17.00771141052246], [13.278044700622559, -17.00771141052246], [13.426403045654297, -17.20057487487793], [13.944053649902344, -17.457727432250977], [18.296184539794922, -17.3934383392334], [18.595428466796875, -17.71487808227539], [18.892393112182617, -17.84345245361328], [20.22223663330078, -17.90774154663086], [20.519636154174805, -18.03631591796875], [21.553504943847656, -18.03631591796875], [22.140670776367188, -17.84345245361328], [23.17159080505371, -17.71487808227539], [23.242769241333008, -17.586301803588867], [22.119281768798828, -16.68627166748047], [21.966196060180664, -16.364831924438477], [21.914846420288086, -13.021865844726562], [23.820371627807617, -12.9575777053833], [23.81560707092285, -12.636139869689941], [23.959379196166992, -12.443277359008789], [23.876253128051758, -11.736114501953125], [24.018394470214844, -11.414677619934082], [24.01503562927246, -11.157526969909668], [23.866222381591797, -10.964664459228516], [23.2092227935791, -11.093239784240723], [22.404237747192383, -11.093239784240723], [22.33251190185547, -11.22181510925293], [22.112228393554688, -11.157526969909668], [22.25020408630371, -10.386076927185059], [21.730112075805664, -9.550339698791504], [21.865686416625977, -8.393163681030273], [21.71799659729004, -8.200301170349121], [21.784584045410156, -7.428849697113037], [21.63762092590332, -7.30027437210083], [20.543149948120117, -7.30027437210083], [20.39450454711914, -6.914548873901367], [20.103588104248047, -7.043123722076416], [19.519962310791016, -7.043123722076416], [19.449522018432617, -7.428849697113037], [19.304420471191406, -7.557425022125244], [19.306983947753906, -7.943150520324707], [19.161849975585938, -8.071725845336914], [18.35804557800293, -7.943150520324707], [17.92119789123535, -8.13601303100586], [17.55617332458496, -8.13601303100586], [17.26311683654785, -7.943150520324707], [16.894908905029297, -7.30027437210083], [16.893329620361328, -6.978836059570312], [16.672962188720703, -6.657398223876953], [16.59736442565918, -6.078809261322021], [16.377771377563477, -5.885946750640869], [12.805374145507812, -5.885946750640869], [12.80553913116455, -5.950234413146973]]], [[[123.87551879882812, -9.29318904876709], [124.3024673461914, -9.1646146774292], [124.37552642822266, -9.1646146774292], [124.25831604003906, -9.486052513122559], [123.96600341796875, -9.486052513122559], [123.80821228027344, -9.357477188110352], [123.88128662109375, -9.357477188110352], [123.87551879882812, -9.29318904876709]]], [[[125.6233139038086, -9.228901863098145], [125.2637939453125, -9.29318904876709], [124.99504089355469, -9.550339698791504], [124.92195892333984, -9.550339698791504], [124.82539367675781, -9.29318904876709], [125.03881072998047, -9.228901863098145], [125.02169036865234, -9.036039352416992], [124.80252838134766, -9.036039352416992], [124.7182846069336, -8.907464027404785], [124.71273803710938, -8.84317684173584], [125.19677734375, -8.52173900604248], [126.50582885742188, -8.457450866699219], [126.64117431640625, -8.328875541687012], [127.23064422607422, -8.393163681030273], [127.17391204833984, -8.586026191711426], [126.89839172363281, -8.778888702392578], [125.61753845214844, -9.1646146774292], [125.6233139038086, -9.228901863098145]]], [[[12.075453758239746, -5.500220775604248], [12.002561569213867, -5.500220775604248], [12.002704620361328, -5.564508438110352], [12.002846717834473, -5.628796100616455], [12.002988815307617, -5.693083763122559], [12.003129005432129, -5.757371425628662], [12.076030731201172, -5.757371425628662], [12.076172828674316, -5.821659088134766], [12.440226554870605, -5.628796100616455], [12.438632011413574, -4.98591947555542], [12.947854042053223, -4.664481639862061], [12.6556978225708, -4.407330989837646], [11.928659439086914, -5.050207138061523], [11.92880630493164, -5.114494800567627], [12.075307846069336, -5.435933113098145], [12.075453758239746, -5.500220775604248]]], [[[6.520137786865234, 0.414238125085831], [6.665691375732422, 0.414238125085831], [6.661185741424561, 0.15708801150322], [6.382774829864502, 0.028512962162495], [6.300692081451416, 0.349950581789017], [6.447360992431641, 0.414238125085831], [6.520137786865234, 0.414238125085831]]], [[[7.339029312133789, 1.507126569747925], [7.193447589874268, 1.507126569747925], [7.196528434753418, 1.699989318847656], [7.342116832733154, 1.699989318847656], [7.340063571929932, 1.571414232254028], [7.339029312133789, 1.507126569747925]]], [[[73.86363220214844, 15.328963279724121], [73.97454071044922, 14.943235397338867], [74.23912811279297, 14.621796607971191], [74.3125991821289, 14.621796607971191], [74.55064392089844, 14.81466007232666], [74.51935577392578, 15.26467514038086], [74.10276794433594, 15.52182674407959], [73.8023452758789, 15.457538604736328], [73.79620361328125, 15.393251419067383], [73.79009246826172, 15.328963279724121], [73.86363220214844, 15.328963279724121]]], [[[73.03199005126953, 20.08624267578125], [73.1801986694336, 20.08624267578125], [73.1940689086914, 20.214815139770508], [72.89759063720703, 20.214815139770508], [72.9578857421875, 20.08624267578125], [73.03199005126953, 20.08624267578125]]], [[[72.99243927001953, 20.40767478942871], [72.91829681396484, 20.40767478942871], [72.92520141601562, 20.471960067749023], [72.99935150146484, 20.471960067749023], [72.99243927001953, 20.40767478942871]]], [[[71.32752227783203, 20.793392181396484], [71.25333404541016, 20.793392181396484], [71.26007080078125, 20.857677459716797], [71.33426666259766, 20.857677459716797], [71.32752227783203, 20.793392181396484]]], [[[113.6625747680664, 22.271976470947266], [113.6506118774414, 22.20768928527832], [113.63867950439453, 22.143402099609375], [113.56431579589844, 22.143402099609375], [113.48994445800781, 22.143402099609375], [113.41557312011719, 22.143402099609375], [113.4513931274414, 22.33626365661621], [113.68661499023438, 22.400548934936523], [113.67457580566406, 22.33626365661621], [113.6625747680664, 22.271976470947266]]], [[[-8.921201705932617, 41.84651184082031], [-8.72695255279541, 40.74397277832031], [-8.872282981872559, 40.614410400390625], [-8.846114158630371, 40.355369567871094], [-8.925222396850586, 40.355369567871094], [-9.025042533874512, 39.77294921875], [-9.103915214538574, 39.77294921875], [-9.157164573669434, 39.51427459716797], [-9.387048721313477, 39.449623107910156], [-9.42748737335205, 39.06184005737305], [-9.571974754333496, 38.93262481689453], [-9.553065299987793, 38.738853454589844], [-9.38370418548584, 38.60969924926758], [-9.23299789428711, 38.67427444458008], [-9.20852279663086, 38.416015625], [-8.822718620300293, 38.48057174682617], [-8.818843841552734, 37.5772590637207], [-8.896896362304688, 37.5772590637207], [-9.00136661529541, 36.9970588684082], [-8.70113754272461, 37.12596130371094], [-7.677903652191162, 36.9970588684082], [-7.454815864562988, 37.12596130371094], [-7.465344429016113, 37.254878997802734], [-7.387404441833496, 37.254878997802734], [-7.502705097198486, 37.706241607666016], [-7.27909517288208, 37.835243225097656], [-7.14418888092041, 38.09331130981445], [-6.987714290618896, 38.09331130981445], [-6.998411178588867, 38.22237777709961], [-7.244168281555176, 38.351463317871094], [-7.271727085113525, 38.67427444458008], [-7.120340347290039, 38.738853454589844], [-6.985427379608154, 38.997230529785156], [-7.255166053771973, 39.38497543334961], [-7.418391227722168, 39.449623107910156], [-7.435848712921143, 39.64360046386719], [-6.895466804504395, 39.77294921875], [-6.839452266693115, 40.031734466552734], [-7.00321626663208, 40.0964469909668], [-7.014894485473633, 40.225894927978516], [-6.868430137634277, 40.355369567871094], [-6.927728176116943, 41.00318908691406], [-6.254164218902588, 41.45711898803711], [-6.271912097930908, 41.65177917480469], [-6.516909122467041, 41.71668243408203], [-6.700808048248291, 41.97637939453125], [-8.11717414855957, 41.781593322753906], [-8.216935157775879, 41.97637939453125], [-8.137139320373535, 41.97637939453125], [-8.150541305541992, 42.10627746582031], [-8.469955444335938, 42.10627746582031], [-8.928141593933105, 41.911441802978516], [-8.921201705932617, 41.84651184082031]]]]}}]}