{
  "type": "FeatureCollection",
  "features": [
    {
      "type": "Feature",
      "properties": {
        "Name": "Polish-Lithuanian Commonwealth",
        "FromYear": 1792,
        "ToYear": 1793,
        "Area": 222276.0717642364,
        "Type": "POLITY",
        "Wikipedia": "Polish-Lithuanian Commonwealth",
        "Wikidata": "Q172107",
        "SeshatID": "",
        "Components": "",
        "MemberOf": "",
        "displayYear": 1793,
        "sourceYear": 1793,
        "mappedTerritoryId": "cliopatria_polish_lithuanian_commonwealth"
      },
      "geometry": {
        "type": "Polygon",
        "coordinates": [
          [
            [
              27.12909698486328,
              55.83982467651367
            ],
            [
              27.099321365356445,
              55.63479995727539
            ],
            [
              26.651601791381836,
              55.56651306152344
            ],
            [
              26.691253662109375,
              55.225467681884766
            ],
            [
              26.507217407226562,
              55.15733337402344
            ],
            [
              26.488494873046875,
              55.021148681640625
            ],
            [
              26.314157485961914,
              55.021148681640625
            ],
            [
              26.286569595336914,
              54.817054748535156
            ],
            [
              26.451370239257812,
              54.74907684326172
            ],
            [
              26.4146785736084,
              54.47740173339844
            ],
            [
              26.040924072265625,
              54.27390670776367
            ],
            [
              26.109825134277344,
              54.138362884521484
            ],
            [
              26.360464096069336,
              54.07062530517578
            ],
            [
              26.238576889038086,
              53.799922943115234
            ],
            [
              26.47079086303711,
              53.597137451171875
            ],
            [
              26.44437026977539,
              53.39456558227539
            ],
            [
              26.263681411743164,
              53.32708740234375
            ],
            [
              26.24645233154297,
              53.192195892333984
            ],
            [
              25.971981048583984,
              53.057395935058594
            ],
            [
              25.767436981201172,
              52.78806686401367
            ],
            [
              25.734922409057617,
              52.51908493041992
            ],
            [
              25.820348739624023,
              52.51908493041992
            ],
            [
              25.873367309570312,
              52.250450134277344
            ],
            [
              26.035749435424805,
              52.18334197998047
            ],
            [
              26.15756607055664,
              51.78114318847656
            ],
            [
              26.319377899169922,
              51.71418380737305
            ],
            [
              26.179080963134766,
              51.24601745605469
            ],
            [
              26.00216293334961,
              51.17921447753906
            ],
            [
              25.98684310913086,
              51.04566955566406
            ],
            [
              26.240285873413086,
              51.04566955566406
            ],
            [
              26.140443801879883,
              50.912200927734375
            ],
            [
              26.20191192626953,
              50.71213912963867
            ],
            [
              26.01839256286621,
              50.578861236572266
            ],
            [
              25.98883628845215,
              50.312522888183594
            ],
            [
              25.722383499145508,
              50.17946243286133
            ],
            [
              25.29567527770996,
              50.11296081542969
            ],
            [
              25.07135772705078,
              50.37908172607422
            ],
            [
              24.566909790039062,
              50.37908172607422
            ],
            [
              24.341148376464844,
              50.64549255371094
            ],
            [
              24.00420570373535,
              50.64549255371094
            ],
            [
              23.764331817626953,
              50.77880859375
            ],
            [
              22.662311553955078,
              50.71213912963867
            ],
            [
              22.72307777404785,
              50.445655822753906
            ],
            [
              22.386619567871094,
              50.445655822753906
            ],
            [
              22.156654357910156,
              50.71213912963867
            ],
            [
              21.988101959228516,
              50.71213912963867
            ],
            [
              21.99927520751953,
              50.84549331665039
            ],
            [
              21.74620246887207,
              50.84549331665039
            ],
            [
              21.735273361206055,
              50.71213912963867
            ],
            [
              21.477136611938477,
              50.64549255371094
            ],
            [
              21.02581787109375,
              50.2459831237793
            ],
            [
              20.51714324951172,
              50.17946243286133
            ],
            [
              20.163354873657227,
              49.91355895996094
            ],
            [
              19.409168243408203,
              49.91355895996094
            ],
            [
              19.317293167114258,
              49.78071212768555
            ],
            [
              19.149852752685547,
              49.78071212768555
            ],
            [
              19.2415714263916,
              49.91355895996094
            ],
            [
              19.077926635742188,
              49.98000717163086
            ],
            [
              19.089900970458984,
              50.17946243286133
            ],
            [
              19.779064178466797,
              50.445655822753906
            ],
            [
              19.876659393310547,
              50.64549255371094
            ],
            [
              20.049747467041016,
              50.71213912963867
            ],
            [
              20.073148727416992,
              51.04566955566406
            ],
            [
              20.505477905273438,
              51.17921447753906
            ],
            [
              20.52557945251465,
              51.44654083251953
            ],
            [
              20.281309127807617,
              51.580322265625
            ],
            [
              20.221450805664062,
              51.91512680053711
            ],
            [
              19.981184005737305,
              52.11625671386719
            ],
            [
              20.171905517578125,
              52.38472366333008
            ],
            [
              20.433198928833008,
              52.4518928527832
            ],
            [
              20.395845413208008,
              53.057395935058594
            ],
            [
              20.66997718811035,
              53.25962829589844
            ],
            [
              20.927749633789062,
              53.25962829589844
            ],
            [
              21.28936767578125,
              53.462066650390625
            ],
            [
              22.42144775390625,
              53.597137451171875
            ],
            [
              22.548198699951172,
              54.00291442871094
            ],
            [
              22.461759567260742,
              54.00291442871094
            ],
            [
              22.482206344604492,
              54.20612335205078
            ],
            [
              22.66232681274414,
              54.27390670776367
            ],
            [
              22.69742774963379,
              54.613189697265625
            ],
            [
              22.704511642456055,
              54.681121826171875
            ],
            [
              22.812959671020508,
              54.88506317138672
            ],
            [
              22.573020935058594,
              55.089229583740234
            ],
            [
              22.398584365844727,
              55.089229583740234
            ],
            [
              22.412668228149414,
              55.225467681884766
            ],
            [
              21.640066146850586,
              55.36180877685547
            ],
            [
              21.235198974609375,
              55.70311737060547
            ],
            [
              21.248220443725586,
              55.83982467651367
            ],
            [
              20.991283416748047,
              55.90821838378906
            ],
            [
              20.9976863861084,
              55.97663879394531
            ],
            [
              20.909809112548828,
              55.97663879394531
            ],
            [
              20.916179656982422,
              56.04508590698242
            ],
            [
              21.18651008605957,
              56.11355972290039
            ],
            [
              21.382530212402344,
              56.319149017333984
            ],
            [
              21.74201202392578,
              56.387733459472656
            ],
            [
              23.41761016845703,
              56.387733459472656
            ],
            [
              24.1064510345459,
              56.25059127807617
            ],
            [
              24.82863998413086,
              56.387733459472656
            ],
            [
              25.066509246826172,
              56.182064056396484
            ],
            [
              25.761505126953125,
              56.11355972290039
            ],
            [
              25.8309326171875,
              55.97663879394531
            ],
            [
              26.495513916015625,
              55.70311737060547
            ],
            [
              26.953548431396484,
              55.83982467651367
            ],
            [
              27.12909698486328,
              55.83982467651367
            ]
          ]
        ]
      }
    }
  ]
}
