{
  "type": "FeatureCollection",
  "features": [
    {
      "type": "Feature",
      "properties": {
        "Name": "Pagan Kingdom",
        "FromYear": 1066,
        "ToYear": 1187,
        "Area": 439459.7004594322,
        "Type": "POLITY",
        "Wikipedia": "Pagan Kingdom",
        "Wikidata": "Q888574",
        "SeshatID": "mm_bagan",
        "Components": "",
        "MemberOf": "",
        "displayYear": 1141,
        "sourceYear": 1141,
        "mappedTerritoryId": "cliopatria_pagan_kingdom"
      },
      "geometry": {
        "type": "Polygon",
        "coordinates": [
          [
            [
              97.48451232910156,
              25.100683212280273
            ],
            [
              97.522705078125,
              24.907808303833008
            ],
            [
              97.73493957519531,
              24.843517303466797
            ],
            [
              97.60076904296875,
              24.522062301635742
            ],
            [
              97.80154418945312,
              24.393482208251953
            ],
            [
              97.76696014404297,
              24.200613021850586
            ],
            [
              97.84162139892578,
              24.200613021850586
            ],
            [
              97.6695556640625,
              24.07203483581543
            ],
            [
              97.71048736572266,
              23.879167556762695
            ],
            [
              97.55015563964844,
              23.814878463745117
            ],
            [
              97.5280990600586,
              23.68630027770996
            ],
            [
              97.65538787841797,
              23.557723999023438
            ],
            [
              97.61221313476562,
              23.30057144165039
            ],
            [
              97.6867446899414,
              23.30057144165039
            ],
            [
              97.68733215332031,
              22.85055923461914
            ],
            [
              97.76179504394531,
              22.85055923461914
            ],
            [
              97.6243896484375,
              21.500539779663086
            ],
            [
              97.69867706298828,
              21.500539779663086
            ],
            [
              97.53387451171875,
              20.40767478942871
            ],
            [
              97.32804870605469,
              20.021955490112305
            ],
            [
              97.38294982910156,
              19.893383026123047
            ],
            [
              97.24176025390625,
              19.443374633789062
            ],
            [
              97.31578826904297,
              19.443374633789062
            ],
            [
              97.25835418701172,
              19.057653427124023
            ],
            [
              97.36808013916016,
              18.800504684448242
            ],
            [
              97.50641632080078,
              18.736217498779297
            ],
            [
              97.48735046386719,
              18.607641220092773
            ],
            [
              97.47782897949219,
              18.543354034423828
            ],
            [
              97.44935607910156,
              18.350492477416992
            ],
            [
              97.72592163085938,
              18.2219181060791
            ],
            [
              97.9178695678711,
              17.514753341674805
            ],
            [
              98.62763977050781,
              16.807586669921875
            ],
            [
              98.63817596435547,
              16.35757064819336
            ],
            [
              98.93278503417969,
              16.35757064819336
            ],
            [
              98.82364654541016,
              16.100418090820312
            ],
            [
              98.6676254272461,
              16.036130905151367
            ],
            [
              98.67230224609375,
              15.52182674407959
            ],
            [
              98.26284790039062,
              15.200387001037598
            ],
            [
              98.23027801513672,
              14.943235397338867
            ],
            [
              98.48443603515625,
              14.621796607971191
            ],
            [
              98.46879577636719,
              14.493220329284668
            ],
            [
              98.80519104003906,
              14.236069679260254
            ],
            [
              98.78999328613281,
              14.107494354248047
            ],
            [
              99.12709045410156,
              13.850343704223633
            ],
            [
              99.24447631835938,
              13.593193054199219
            ],
            [
              99.20860290527344,
              13.271754264831543
            ],
            [
              99.28195190429688,
              13.271754264831543
            ],
            [
              99.16683197021484,
              12.886029243469238
            ],
            [
              99.42621612548828,
              12.564591407775879
            ],
            [
              99.46651458740234,
              12.24315357208252
            ],
            [
              99.66049194335938,
              11.986002922058105
            ],
            [
              99.56826782226562,
              11.793140411376953
            ],
            [
              99.49503326416016,
              11.793140411376953
            ],
            [
              99.33612060546875,
              11.664566040039062
            ],
            [
              98.61006927490234,
              11.728853225708008
            ],
            [
              98.64683532714844,
              12.821741104125977
            ],
            [
              98.42300415039062,
              13.464617729187012
            ],
            [
              98.28340911865234,
              13.528904914855957
            ],
            [
              98.24630737304688,
              13.850343704223633
            ],
            [
              98.04086303710938,
              13.97891902923584
            ],
            [
              98.07085418701172,
              14.236069679260254
            ],
            [
              97.8811264038086,
              14.493220329284668
            ],
            [
              97.9858627319336,
              14.750371932983398
            ],
            [
              97.77332305908203,
              14.81466007232666
            ],
            [
              97.74982452392578,
              15.77897834777832
            ],
            [
              97.55474090576172,
              15.971842765808105
            ],
            [
              97.62474060058594,
              16.486146926879883
            ],
            [
              97.40374755859375,
              16.486146926879883
            ],
            [
              97.27415466308594,
              16.614723205566406
            ],
            [
              97.16256713867188,
              16.87187385559082
            ],
            [
              97.19876861572266,
              17.129026412963867
            ],
            [
              97.0512924194336,
              17.129026412963867
            ],
            [
              97.06951141357422,
              17.257600784301758
            ],
            [
              96.9311294555664,
              17.321889877319336
            ],
            [
              96.92353820800781,
              16.743297576904297
            ],
            [
              96.83206939697266,
              16.614723205566406
            ],
            [
              96.66708374023438,
              16.486146926879883
            ],
            [
              96.3724136352539,
              16.486146926879883
            ],
            [
              96.35496520996094,
              16.35757064819336
            ],
            [
              96.03450012207031,
              16.16470718383789
            ],
            [
              95.81361389160156,
              16.16470718383789
            ],
            [
              95.60743713378906,
              15.714691162109375
            ],
            [
              95.3131103515625,
              15.714691162109375
            ],
            [
              95.33806610107422,
              15.907554626464844
            ],
            [
              94.87162017822266,
              15.714691162109375
            ],
            [
              94.81454467773438,
              15.843266487121582
            ],
            [
              94.2423095703125,
              15.971842765808105
            ],
            [
              94.35287475585938,
              16.807586669921875
            ],
            [
              94.57398223876953,
              16.807586669921875
            ],
            [
              94.84796905517578,
              17.193313598632812
            ],
            [
              94.80095672607422,
              17.38617706298828
            ],
            [
              94.98450469970703,
              17.643327713012695
            ],
            [
              94.9652328491211,
              18.029054641723633
            ],
            [
              95.09423065185547,
              18.414779663085938
            ],
            [
              94.90023803710938,
              18.607641220092773
            ],
            [
              94.7990493774414,
              19.443374633789062
            ],
            [
              94.54010772705078,
              19.700523376464844
            ],
            [
              94.51245880126953,
              20.021955490112305
            ],
            [
              93.41019439697266,
              20.08624267578125
            ],
            [
              93.02145385742188,
              19.95766830444336
            ],
            [
              93.05791473388672,
              20.214815139770508
            ],
            [
              92.82646942138672,
              20.150527954101562
            ],
            [
              92.85374450683594,
              20.343387603759766
            ],
            [
              92.63134002685547,
              20.343387603759766
            ],
            [
              92.24980163574219,
              20.793392181396484
            ],
            [
              92.35125732421875,
              20.986249923706055
            ],
            [
              92.33184051513672,
              21.371967315673828
            ],
            [
              92.69396209716797,
              21.307680130004883
            ],
            [
              92.7314453125,
              22.079116821289062
            ],
            [
              93.01941680908203,
              22.014829635620117
            ],
            [
              93.18712615966797,
              22.143402099609375
            ],
            [
              93.17465209960938,
              23.043420791625977
            ],
            [
              93.41824340820312,
              23.171995162963867
            ],
            [
              93.48997497558594,
              23.622013092041016
            ],
            [
              94.42739868164062,
              23.879167556762695
            ],
            [
              94.6531982421875,
              24.329193115234375
            ],
            [
              95.00859069824219,
              24.650644302368164
            ],
            [
              95.25225830078125,
              25.164974212646484
            ],
            [
              95.48883056640625,
              25.229267120361328
            ],
            [
              95.687744140625,
              25.48643684387207
            ],
            [
              95.86457824707031,
              26.000778198242188
            ],
            [
              96.32749938964844,
              26.06507110595703
            ],
            [
              96.66302490234375,
              25.8721923828125
            ],
            [
              97.03773498535156,
              25.8721923828125
            ],
            [
              97.23487091064453,
              25.357851028442383
            ],
            [
              97.4344253540039,
              25.229267120361328
            ],
            [
              97.40969848632812,
              25.100683212280273
            ],
            [
              97.48451232910156,
              25.100683212280273
            ]
          ]
        ]
      }
    }
  ]
}
