{
  "type": "FeatureCollection",
  "features": [
    {
      "type": "Feature",
      "properties": {
        "Name": "French Indochina",
        "FromYear": 1908,
        "ToYear": 1916,
        "Area": 790240.4749441263,
        "Type": "POLITY",
        "Wikipedia": "French Indochina",
        "Wikidata": "Q185682",
        "SeshatID": "fr_france_modern_1",
        "Components": "",
        "MemberOf": "(French Third Republic)",
        "displayYear": 1916,
        "sourceYear": 1916,
        "mappedTerritoryId": "cliopatria_french_indochina"
      },
      "geometry": {
        "type": "MultiPolygon",
        "coordinates": [
          [
            [
              [
                69.95783233642578,
                -49.52272033691406
              ],
              [
                70.20854949951172,
                -49.52272033691406
              ],
              [
                70.2652359008789,
                -49.65542984008789
              ],
              [
                70.15489959716797,
                -49.788211822509766
              ],
              [
                69.81999969482422,
                -49.788211822509766
              ],
              [
                69.76334381103516,
                -49.65542984008789
              ],
              [
                69.09416198730469,
                -49.65542984008789
              ],
              [
                69.06646728515625,
                -49.788211822509766
              ],
              [
                68.81529235839844,
                -49.788211822509766
              ],
              [
                68.6535415649414,
                -48.99253845214844
              ],
              [
                68.82008361816406,
                -48.99253845214844
              ],
              [
                68.73973083496094,
                -48.79399490356445
              ],
              [
                68.9625015258789,
                -48.72784423828125
              ],
              [
                69.2093734741211,
                -48.92634201049805
              ],
              [
                69.56951904296875,
                -48.99253845214844
              ],
              [
                69.59589385986328,
                -49.25749588012695
              ],
              [
                70.42990112304688,
                -49.058753967285156
              ],
              [
                70.56975555419922,
                -49.390071868896484
              ],
              [
                70.18035888671875,
                -49.45638656616211
              ],
              [
                70.0968246459961,
                -49.45638656616211
              ],
              [
                69.81829071044922,
                -49.390071868896484
              ],
              [
                69.95783233642578,
                -49.52272033691406
              ]
            ]
          ],
          [
            [
              [
                55.40795135498047,
                -21.443513870239258
              ],
              [
                55.0963249206543,
                -21.250656127929688
              ],
              [
                55.07707595825195,
                -20.993511199951172
              ],
              [
                55.21589660644531,
                -20.864938735961914
              ],
              [
                55.58690643310547,
                -20.864938735961914
              ],
              [
                55.59175109863281,
                -20.92922592163086
              ],
              [
                55.769493103027344,
                -21.31494140625
              ],
              [
                55.63078308105469,
                -21.443513870239258
              ],
              [
                55.40795135498047,
                -21.443513870239258
              ]
            ]
          ],
          [
            [
              [
                103.94351959228516,
                10.057377815246582
              ],
              [
                103.81444549560547,
                10.250240325927734
              ],
              [
                103.90501403808594,
                10.443102836608887
              ],
              [
                103.9781494140625,
                10.443102836608887
              ],
              [
                104.12442779541016,
                10.443102836608887
              ],
              [
                104.0897445678711,
                10.057377815246582
              ],
              [
                103.94351959228516,
                10.057377815246582
              ]
            ]
          ],
          [
            [
              [
                79.8111343383789,
                11.021690368652344
              ],
              [
                79.88430786132812,
                11.021690368652344
              ],
              [
                79.87494659423828,
                10.893115997314453
              ],
              [
                79.72860717773438,
                10.893115997314453
              ],
              [
                79.8111343383789,
                11.021690368652344
              ]
            ]
          ],
          [
            [
              [
                75.59862518310547,
                11.47170352935791
              ],
              [
                75.5254135131836,
                11.47170352935791
              ],
              [
                75.530029296875,
                11.535990715026855
              ],
              [
                75.53466796875,
                11.6002779006958
              ],
              [
                75.60787963867188,
                11.6002779006958
              ],
              [
                75.68109893798828,
                11.6002779006958
              ],
              [
                75.67645263671875,
                11.535990715026855
              ],
              [
                75.60324096679688,
                11.535990715026855
              ],
              [
                75.59862518310547,
                11.47170352935791
              ]
            ]
          ],
          [
            [
              [
                79.80611419677734,
                11.92171573638916
              ],
              [
                79.87935638427734,
                11.92171573638916
              ],
              [
                79.86930084228516,
                11.793140411376953
              ],
              [
                79.72283935546875,
                11.793140411376953
              ],
              [
                79.80611419677734,
                11.92171573638916
              ]
            ]
          ],
          [
            [
              [
                82.34681701660156,
                16.87187385559082
              ],
              [
                82.42052459716797,
                16.87187385559082
              ],
              [
                82.40552520751953,
                16.743297576904297
              ],
              [
                82.25813293457031,
                16.743297576904297
              ],
              [
                82.34681701660156,
                16.87187385559082
              ]
            ]
          ],
          [
            [
              [
                88.4442138671875,
                22.786272048950195
              ],
              [
                88.51866912841797,
                22.786272048950195
              ],
              [
                88.49099731445312,
                22.59341049194336
              ],
              [
                88.34213256835938,
                22.59341049194336
              ],
              [
                88.4442138671875,
                22.786272048950195
              ]
            ]
          ],
          [
            [
              [
                167.6926727294922,
                -21.63637351989746
              ],
              [
                167.6221923828125,
                -21.379228591918945
              ],
              [
                167.6964569091797,
                -21.379228591918945
              ],
              [
                167.77072143554688,
                -21.379228591918945
              ],
              [
                168.01112365722656,
                -21.443513870239258
              ],
              [
                168.0076446533203,
                -21.700658798217773
              ],
              [
                167.6926727294922,
                -21.63637351989746
              ]
            ]
          ],
          [
            [
              [
                166.85113525390625,
                -22.08637809753418
              ],
              [
                166.8672332763672,
                -22.40781021118164
              ],
              [
                166.0869903564453,
                -22.279237747192383
              ],
              [
                165.84886169433594,
                -21.957805633544922
              ],
              [
                165.00042724609375,
                -21.572086334228516
              ],
              [
                164.0933074951172,
                -20.672080993652344
              ],
              [
                163.88504028320312,
                -20.15778923034668
              ],
              [
                164.4373779296875,
                -20.28636360168457
              ],
              [
                164.74398803710938,
                -20.6077938079834
              ],
              [
                165.1657257080078,
                -20.8006534576416
              ],
              [
                165.41668701171875,
                -21.186368942260742
              ],
              [
                165.7828369140625,
                -21.443513870239258
              ],
              [
                165.85711669921875,
                -21.443513870239258
              ],
              [
                166.39044189453125,
                -21.76494598388672
              ],
              [
                166.51795959472656,
                -21.957805633544922
              ],
              [
                166.85113525390625,
                -22.08637809753418
              ]
            ]
          ],
          [
            [
              [
                167.0603790283203,
                -20.672080993652344
              ],
              [
                167.2603759765625,
                -20.864938735961914
              ],
              [
                167.32962036132812,
                -21.12208366394043
              ],
              [
                167.12428283691406,
                -21.186368942260742
              ],
              [
                167.05003356933594,
                -21.186368942260742
              ],
              [
                166.90660095214844,
                -20.92922592163086
              ],
              [
                166.9120330810547,
                -20.672080993652344
              ],
              [
                167.0603790283203,
                -20.672080993652344
              ]
            ]
          ],
          [
            [
              [
                107.58939361572266,
                21.5648250579834
              ],
              [
                107.97187042236328,
                21.629112243652344
              ],
              [
                108.09842681884766,
                21.500539779663086
              ],
              [
                108.08744049072266,
                21.43625259399414
              ],
              [
                107.79033660888672,
                21.43625259399414
              ],
              [
                107.41735076904297,
                20.986249923706055
              ],
              [
                106.87641143798828,
                20.857677459716797
              ],
              [
                106.8337173461914,
                20.60053253173828
              ],
              [
                106.68537902832031,
                20.60053253173828
              ],
              [
                106.53694915771484,
                20.150527954101562
              ],
              [
                105.9654769897461,
                19.8290958404541
              ],
              [
                105.73389434814453,
                18.864791870117188
              ],
              [
                106.05134582519531,
                18.543354034423828
              ],
              [
                106.030517578125,
                18.414779663085938
              ],
              [
                106.17830657958984,
                18.414779663085938
              ],
              [
                106.29487609863281,
                18.2219181060791
              ],
              [
                106.56956481933594,
                18.093341827392578
              ],
              [
                106.51790618896484,
                17.77190399169922
              ],
              [
                106.7720947265625,
                17.514753341674805
              ],
              [
                106.75170135498047,
                17.38617706298828
              ],
              [
                107.10018157958984,
                17.257600784301758
              ],
              [
                107.3345718383789,
                16.87187385559082
              ],
              [
                107.48199462890625,
                16.87187385559082
              ],
              [
                107.67310333251953,
                16.67901039123535
              ],
              [
                107.65324401855469,
                16.550434112548828
              ],
              [
                107.86437225341797,
                16.486146926879883
              ],
              [
                107.84467315673828,
                16.35757064819336
              ],
              [
                108.1392822265625,
                16.35757064819336
              ],
              [
                108.33081817626953,
                16.16470718383789
              ],
              [
                108.36572265625,
                15.907554626464844
              ],
              [
                108.69552612304688,
                15.650403022766113
              ],
              [
                108.67666625976562,
                15.52182674407959
              ],
              [
                109.01643371582031,
                15.328963279724121
              ],
              [
                108.97062683105469,
                15.007523536682129
              ],
              [
                109.15530395507812,
                14.750371932983398
              ],
              [
                109.17644500732422,
                14.364645004272461
              ],
              [
                109.3543701171875,
                14.043206214904785
              ],
              [
                109.33059692382812,
                13.271754264831543
              ],
              [
                109.51193237304688,
                12.950316429138184
              ],
              [
                109.46688079833984,
                12.564591407775879
              ],
              [
                109.32029724121094,
                12.564591407775879
              ],
              [
                109.22508239746094,
                12.37172794342041
              ],
              [
                109.2141342163086,
                11.6002779006958
              ],
              [
                108.72840118408203,
                11.15026569366455
              ],
              [
                108.58203125,
                11.15026569366455
              ],
              [
                108.56910705566406,
                11.021690368652344
              ],
              [
                108.11732482910156,
                10.893115997314453
              ],
              [
                108.02532958984375,
                10.7002534866333
              ],
              [
                107.33641815185547,
                10.378815650939941
              ],
              [
                107.04991149902344,
                10.443102836608887
              ],
              [
                107.07432556152344,
                10.7002534866333
              ],
              [
                107.00117492675781,
                10.7002534866333
              ],
              [
                106.98281860351562,
                10.507390975952148
              ],
              [
                106.75736236572266,
                10.443102836608887
              ],
              [
                106.81851196289062,
                10.314528465270996
              ],
              [
                106.66631317138672,
                10.250240325927734
              ],
              [
                106.80664825439453,
                10.185953140258789
              ],
              [
                106.79491424560547,
                10.057377815246582
              ],
              [
                106.64287567138672,
                9.993090629577637
              ],
              [
                106.69871520996094,
                9.800228118896484
              ],
              [
                106.55252075195312,
                9.800228118896484
              ],
              [
                106.60304260253906,
                9.543078422546387
              ],
              [
                106.2320785522461,
                9.478790283203125
              ],
              [
                106.14253997802734,
                9.285927772521973
              ],
              [
                105.62030029296875,
                9.157352447509766
              ],
              [
                105.13510131835938,
                8.578764915466309
              ],
              [
                104.7649154663086,
                8.514476776123047
              ],
              [
                104.7020034790039,
                8.643052101135254
              ],
              [
                104.8582992553711,
                8.771627426147461
              ],
              [
                104.71222686767578,
                8.771627426147461
              ],
              [
                104.7926025390625,
                9.735940933227539
              ],
              [
                105.03448486328125,
                9.993090629577637
              ],
              [
                104.53990173339844,
                10.185953140258789
              ],
              [
                104.4169692993164,
                10.443102836608887
              ],
              [
                104.12442779541016,
                10.443102836608887
              ],
              [
                103.91679382324219,
                10.571678161621094
              ],
              [
                103.54518127441406,
                10.507390975952148
              ],
              [
                103.48978424072266,
                10.7002534866333
              ],
              [
                103.64208221435547,
                10.764540672302246
              ],
              [
                103.59931945800781,
                11.085978507995605
              ],
              [
                103.3554458618164,
                10.828827857971191
              ],
              [
                103.06279754638672,
                10.828827857971191
              ],
              [
                103.05123901367188,
                11.47170352935791
              ],
              [
                102.84432220458984,
                11.6002779006958
              ],
              [
                102.8701400756836,
                11.857428550720215
              ],
              [
                102.73677062988281,
                11.986002922058105
              ],
              [
                102.74337005615234,
                12.050291061401367
              ],
              [
                102.84342956542969,
                12.307440757751465
              ],
              [
                102.4069595336914,
                13.014603614807129
              ],
              [
                102.39213562011719,
                13.528904914855957
              ],
              [
                102.70829010009766,
                13.721768379211426
              ],
              [
                102.90162658691406,
                14.107494354248047
              ],
              [
                103.45578002929688,
                14.428933143615723
              ],
              [
                104.9248275756836,
                14.428933143615723
              ],
              [
                104.9818115234375,
                14.300357818603516
              ],
              [
                105.43069458007812,
                14.364645004272461
              ],
              [
                105.611083984375,
                14.621796607971191
              ],
              [
                105.65400695800781,
                14.943235397338867
              ],
              [
                105.51571655273438,
                15.007523536682129
              ],
              [
                105.67894744873047,
                15.650403022766113
              ],
              [
                105.4030532836914,
                15.77897834777832
              ],
              [
                105.43096923828125,
                15.971842765808105
              ],
              [
                105.30252075195312,
                16.100418090820312
              ],
              [
                104.88909149169922,
                16.293283462524414
              ],
              [
                104.77997589111328,
                16.550434112548828
              ],
              [
                104.83367919921875,
                17.38617706298828
              ],
              [
                104.44100189208984,
                17.707616806030273
              ],
              [
                104.46113586425781,
                17.836191177368164
              ],
              [
                104.01504516601562,
                18.286205291748047
              ],
              [
                103.36023712158203,
                18.350492477416992
              ],
              [
                102.92076873779297,
                17.90047836303711
              ],
              [
                102.5516128540039,
                17.90047836303711
              ],
              [
                102.49761199951172,
                18.029054641723633
              ],
              [
                102.0743408203125,
                18.157629013061523
              ],
              [
                101.3119888305664,
                17.514753341674805
              ],
              [
                101.08100891113281,
                17.450464248657227
              ],
              [
                101.06524658203125,
                17.836191177368164
              ],
              [
                101.27169799804688,
                18.2219181060791
              ],
              [
                101.13379669189453,
                18.286205291748047
              ],
              [
                101.1832275390625,
                18.607641220092773
              ],
              [
                101.3509521484375,
                18.736217498779297
              ],
              [
                101.4008560180664,
                19.057653427124023
              ],
              [
                101.28290557861328,
                19.25051498413086
              ],
              [
                101.31295013427734,
                19.443374633789062
              ],
              [
                101.18492889404297,
                19.571949005126953
              ],
              [
                100.51858520507812,
                19.571949005126953
              ],
              [
                100.5439224243164,
                20.214815139770508
              ],
              [
                100.1288833618164,
                20.40767478942871
              ],
              [
                100.24270629882812,
                20.664819717407227
              ],
              [
                100.6435546875,
                20.857677459716797
              ],
              [
                100.69373321533203,
                21.179107666015625
              ],
              [
                101.17981719970703,
                21.43625259399414
              ],
              [
                101.31816864013672,
                21.371967315673828
              ],
              [
                101.3619155883789,
                21.179107666015625
              ],
              [
                101.80736541748047,
                21.179107666015625
              ],
              [
                101.87920379638672,
                21.629112243652344
              ],
              [
                101.64425659179688,
                22.014829635620117
              ],
              [
                101.71820831298828,
                22.46483612060547
              ],
              [
                102.15396881103516,
                22.400548934936523
              ],
              [
                102.58016967773438,
                22.72198486328125
              ],
              [
                102.86701202392578,
                22.657697677612305
              ],
              [
                102.91966247558594,
                22.529123306274414
              ],
              [
                103.21734619140625,
                22.529123306274414
              ],
              [
                103.32465362548828,
                22.72198486328125
              ],
              [
                103.77134704589844,
                22.72198486328125
              ],
              [
                103.88714599609375,
                22.529123306274414
              ],
              [
                104.0359878540039,
                22.529123306274414
              ],
              [
                104.15472412109375,
                22.786272048950195
              ],
              [
                104.51583099365234,
                22.72198486328125
              ],
              [
                104.83610534667969,
                22.85055923461914
              ],
              [
                104.95609283447266,
                23.107707977294922
              ],
              [
                105.21431732177734,
                23.30057144165039
              ],
              [
                105.43790435791016,
                23.30057144165039
              ],
              [
                105.75257110595703,
                22.97913360595703
              ],
              [
                106.19947814941406,
                22.97913360595703
              ],
              [
                106.32543182373047,
                22.85055923461914
              ],
              [
                106.70928955078125,
                22.914846420288086
              ],
              [
                106.67022705078125,
                22.271976470947266
              ],
              [
                106.6590805053711,
                22.20768928527832
              ],
              [
                107.10216522216797,
                21.7576847076416
              ],
              [
                107.4627456665039,
                21.693397521972656
              ],
              [
                107.58939361572266,
                21.5648250579834
              ]
            ]
          ],
          [
            [
              [
                110.64218139648438,
                21.179107666015625
              ],
              [
                110.56793975830078,
                21.179107666015625
              ],
              [
                110.49369049072266,
                21.179107666015625
              ],
              [
                110.41944885253906,
                21.179107666015625
              ],
              [
                110.40829467773438,
                21.114822387695312
              ],
              [
                110.19672393798828,
                21.179107666015625
              ],
              [
                110.33821105957031,
                21.5648250579834
              ],
              [
                110.6353759765625,
                21.5648250579834
              ],
              [
                110.8243637084961,
                21.371967315673828
              ],
              [
                110.8131103515625,
                21.307680130004883
              ],
              [
                110.73885345458984,
                21.307680130004883
              ],
              [
                110.72762298583984,
                21.24339485168457
              ],
              [
                110.71642303466797,
                21.179107666015625
              ],
              [
                110.64218139648438,
                21.179107666015625
              ]
            ]
          ],
          [
            [
              [
                117.2264633178711,
                39.57893371582031
              ],
              [
                117.3840560913086,
                39.57893371582031
              ],
              [
                117.39447021484375,
                39.449623107910156
              ],
              [
                117.36046600341797,
                39.38497543334961
              ],
              [
                117.13549041748047,
                39.25570297241211
              ],
              [
                117.01180267333984,
                39.320335388183594
              ],
              [
                117.2264633178711,
                39.57893371582031
              ]
            ]
          ]
        ]
      }
    }
  ]
}
