{
  "type": "FeatureCollection",
  "features": [
    {
      "type": "Feature",
      "properties": {
        "Name": "Han",
        "FromYear": -203,
        "ToYear": -203,
        "Area": 1310598.0010179528,
        "Type": "POLITY",
        "Wikipedia": "Han (state)",
        "Wikidata": "Q1968654",
        "SeshatID": "",
        "Components": "",
        "MemberOf": "",
        "displayYear": -203,
        "sourceYear": -203,
        "mappedTerritoryId": "cliopatria_han"
      },
      "geometry": {
        "type": "Polygon",
        "coordinates": [
          [
            [
              124.7970962524414,
              41.06801223754883
            ],
            [
              124.41182708740234,
              40.29063034057617
            ],
            [
              123.87106323242188,
              39.90232849121094
            ],
            [
              123.876220703125,
              39.77294921875
            ],
            [
              123.59744262695312,
              39.8376350402832
            ],
            [
              122.93595886230469,
              39.64360046386719
            ],
            [
              122.17044830322266,
              39.25570297241211
            ],
            [
              121.95193481445312,
              38.997230529785156
            ],
            [
              121.71622467041016,
              38.997230529785156
            ],
            [
              121.42170715332031,
              38.738853454589844
            ],
            [
              121.02933502197266,
              38.738853454589844
            ],
            [
              121.20073699951172,
              39.06184005737305
            ],
            [
              121.51512908935547,
              39.06184005737305
            ],
            [
              121.69013214111328,
              39.38497543334961
            ],
            [
              121.2965316772461,
              39.38497543334961
            ],
            [
              121.20963287353516,
              39.51427459716797
            ],
            [
              121.28069305419922,
              39.64360046386719
            ],
            [
              121.43833923339844,
              39.64360046386719
            ],
            [
              121.50332641601562,
              39.90232849121094
            ],
            [
              121.7764663696289,
              39.9670295715332
            ],
            [
              122.23056030273438,
              40.4848747253418
            ],
            [
              122.10609436035156,
              40.6791877746582
            ],
            [
              121.82695770263672,
              40.74397277832031
            ],
            [
              121.82366180419922,
              40.873565673828125
            ],
            [
              121.1097640991211,
              40.873565673828125
            ],
            [
              120.9967269897461,
              40.6791877746582
            ],
            [
              120.64734649658203,
              40.4848747253418
            ],
            [
              120.50029754638672,
              40.225894927978516
            ],
            [
              119.38044738769531,
              39.77294921875
            ],
            [
              119.21530151367188,
              39.320335388183594
            ],
            [
              118.98941802978516,
              39.19107437133789
            ],
            [
              118.44984436035156,
              39.06184005737305
            ],
            [
              118.0568618774414,
              39.06184005737305
            ],
            [
              118.04566192626953,
              39.19107437133789
            ],
            [
              117.77603912353516,
              39.1264533996582
            ],
            [
              117.57643127441406,
              38.738853454589844
            ],
            [
              117.6549072265625,
              38.738853454589844
            ],
            [
              117.60245513916016,
              38.48057174682617
            ],
            [
              117.75920867919922,
              38.48057174682617
            ],
            [
              117.77266693115234,
              38.351463317871094
            ],
            [
              118.05360412597656,
              38.28691864013672
            ],
            [
              118.06742095947266,
              38.157840728759766
            ],
            [
              118.58300018310547,
              38.09331130981445
            ],
            [
              118.64759826660156,
              38.22237777709961
            ],
            [
              118.80416870117188,
              38.22237777709961
            ],
            [
              118.77176666259766,
              38.157840728759766
            ],
            [
              119.4571304321289,
              37.96426773071289
            ],
            [
              119.3928451538086,
              37.835243225097656
            ],
            [
              119.23655700683594,
              37.835243225097656
            ],
            [
              118.98403930664062,
              37.3193473815918
            ],
            [
              119.13996124267578,
              37.3193473815918
            ],
            [
              119.15568542480469,
              37.1904182434082
            ],
            [
              119.70111083984375,
              37.1904182434082
            ],
            [
              119.82661437988281,
              37.44829177856445
            ],
            [
              120.20220184326172,
              37.5772590637207
            ],
            [
              120.18807220458984,
              37.706241607666016
            ],
            [
              120.75377655029297,
              37.89975357055664
            ],
            [
              121.11202239990234,
              37.835243225097656
            ],
            [
              121.17103576660156,
              37.641746520996094
            ],
            [
              121.48333740234375,
              37.641746520996094
            ],
            [
              121.49687957763672,
              37.51277160644531
            ],
            [
              122.15351867675781,
              37.5772590637207
            ],
            [
              122.1211166381836,
              37.51277160644531
            ],
            [
              122.71288299560547,
              37.44829177856445
            ],
            [
              122.47421264648438,
              37.12596130371094
            ],
            [
              122.56636810302734,
              36.9970588684082
            ],
            [
              122.39389038085938,
              36.80373764038086
            ],
            [
              121.91207885742188,
              36.932613372802734
            ],
            [
              121.21208190917969,
              36.61045455932617
            ],
            [
              120.97892761230469,
              36.61045455932617
            ],
            [
              120.96481323242188,
              36.417205810546875
            ],
            [
              120.73184967041016,
              36.417205810546875
            ],
            [
              120.65852355957031,
              36.09519577026367
            ],
            [
              120.31848907470703,
              36.03080368041992
            ],
            [
              119.98648071289062,
              35.644527435302734
            ],
            [
              119.61874389648438,
              35.51579284667969
            ],
            [
              119.36904907226562,
              35.12965774536133
            ],
            [
              119.27667236328125,
              34.743614196777344
            ],
            [
              118.9402847290039,
              34.679283142089844
            ],
            [
              118.86318969726562,
              34.679283142089844
            ],
            [
              118.42839050292969,
              34.743614196777344
            ],
            [
              118.48418426513672,
              34.87228775024414
            ],
            [
              118.30868530273438,
              35.00096893310547
            ],
            [
              117.5306167602539,
              34.80794906616211
            ],
            [
              117.43812561035156,
              35.12965774536133
            ],
            [
              117.00260162353516,
              35.194007873535156
            ],
            [
              116.8143081665039,
              34.93662643432617
            ],
            [
              116.0335922241211,
              34.55062484741211
            ],
            [
              115.95295715332031,
              34.3576545715332
            ],
            [
              115.5147933959961,
              34.22901916503906
            ],
            [
              115.04898071289062,
              33.65024948120117
            ],
            [
              114.87063598632812,
              33.20018768310547
            ],
            [
              114.54073333740234,
              32.94303894042969
            ],
            [
              114.05657958984375,
              32.878753662109375
            ],
            [
              114.02941131591797,
              33.00732421875
            ],
            [
              113.1102294921875,
              33.00732421875
            ],
            [
              112.6541976928711,
              32.81447219848633
            ],
            [
              112.60590362548828,
              32.685909271240234
            ],
            [
              111.60594177246094,
              32.043148040771484
            ],
            [
              111.19526672363281,
              31.528987884521484
            ],
            [
              111.2365951538086,
              31.20764923095703
            ],
            [
              111.84453582763672,
              30.757776260375977
            ],
            [
              111.78018188476562,
              30.564971923828125
            ],
            [
              111.75890350341797,
              30.500701904296875
            ],
            [
              110.55853271484375,
              29.34377670288086
            ],
            [
              109.7818603515625,
              29.022375106811523
            ],
            [
              107.64720153808594,
              28.958093643188477
            ],
            [
              106.72551727294922,
              28.636676788330078
            ],
            [
              106.02836608886719,
              28.572391510009766
            ],
            [
              106.06861114501953,
              28.44382095336914
            ],
            [
              105.61591339111328,
              28.44382095336914
            ],
            [
              105.43032836914062,
              28.315250396728516
            ],
            [
              104.61784362792969,
              28.379535675048828
            ],
            [
              104.06596374511719,
              28.572391510009766
            ],
            [
              103.89775848388672,
              28.508106231689453
            ],
            [
              103.85684967041016,
              28.636676788330078
            ],
            [
              102.71814727783203,
              28.893810272216797
            ],
            [
              102.60204315185547,
              29.022375106811523
            ],
            [
              101.95689392089844,
              29.150936126708984
            ],
            [
              101.15557098388672,
              29.536611557006836
            ],
            [
              100.59754180908203,
              30.500701904296875
            ],
            [
              100.98189544677734,
              31.271915435791016
            ],
            [
              101.83576965332031,
              32.043148040771484
            ],
            [
              102.1578369140625,
              32.557350158691406
            ],
            [
              102.31184387207031,
              33.45735549926758
            ],
            [
              102.23511505126953,
              33.45735549926758
            ],
            [
              102.32524871826172,
              33.71455001831055
            ],
            [
              102.24845123291016,
              33.71455001831055
            ],
            [
              102.40869140625,
              34.164703369140625
            ],
            [
              103.0943603515625,
              34.3576545715332
            ],
            [
              103.37882232666016,
              34.2933349609375
            ],
            [
              103.59811401367188,
              34.679283142089844
            ],
            [
              105.23469543457031,
              35.12965774536133
            ],
            [
              105.2594985961914,
              35.194007873535156
            ],
            [
              106.18482971191406,
              35.38706970214844
            ],
            [
              106.49311065673828,
              35.58015823364258
            ],
            [
              106.69967651367188,
              35.51579284667969
            ],
            [
              107.26708221435547,
              35.77327346801758
            ],
            [
              108.30186462402344,
              36.03080368041992
            ],
            [
              108.7540512084961,
              36.73930740356445
            ],
            [
              110.13337707519531,
              38.09331130981445
            ],
            [
              111.48646545410156,
              38.80344009399414
            ],
            [
              112.07821655273438,
              39.8376350402832
            ],
            [
              112.6287612915039,
              40.29063034057617
            ],
            [
              113.48834228515625,
              40.42012023925781
            ],
            [
              114.04228210449219,
              40.42012023925781
            ],
            [
              114.00764465332031,
              40.355369567871094
            ],
            [
              114.48229217529297,
              40.355369567871094
            ],
            [
              114.44762420654297,
              40.29063034057617
            ],
            [
              114.79872131347656,
              40.355369567871094
            ],
            [
              114.76395416259766,
              40.29063034057617
            ],
            [
              115.28268432617188,
              40.225894927978516
            ],
            [
              115.54975891113281,
              39.8376350402832
            ],
            [
              116.10205078125,
              39.8376350402832
            ],
            [
              117.10945892333984,
              40.0964469909668
            ],
            [
              117.45270538330078,
              40.29063034057617
            ],
            [
              118.97895050048828,
              40.614410400390625
            ],
            [
              122.92768859863281,
              41.911441802978516
            ],
            [
              123.1669921875,
              41.911441802978516
            ],
            [
              123.12676239013672,
              41.84651184082031
            ],
            [
              123.40548706054688,
              41.781593322753906
            ],
            [
              123.36537170410156,
              41.71668243408203
            ],
            [
              123.60441589355469,
              41.71668243408203
            ],
            [
              123.56433868408203,
              41.65177917480469
            ],
            [
              123.84288024902344,
              41.586883544921875
            ],
            [
              123.80292510986328,
              41.521995544433594
            ],
            [
              124.04171752929688,
              41.521995544433594
            ],
            [
              124.00180053710938,
              41.45711898803711
            ],
            [
              124.28016662597656,
              41.39224624633789
            ],
            [
              124.2403793334961,
              41.32738494873047
            ],
            [
              124.47891998291016,
              41.32738494873047
            ],
            [
              124.43917083740234,
              41.26253128051758
            ],
            [
              124.83663940429688,
              41.132843017578125
            ],
            [
              124.7970962524414,
              41.06801223754883
            ]
          ]
        ]
      }
    }
  ]
}
