{
  "type": "FeatureCollection",
  "features": [
    {
      "type": "Feature",
      "properties": {
        "Name": "Ptolemaic Kingdom",
        "FromYear": -301,
        "ToYear": -292,
        "Area": 703904.5071497224,
        "Type": "POLITY",
        "Wikipedia": "Ptolemaic Kingdom",
        "Wikidata": "Q2320005",
        "SeshatID": "",
        "Components": "",
        "MemberOf": "",
        "displayYear": -300,
        "sourceYear": -300,
        "mappedTerritoryId": "cliopatria_ptolemaic_kingdom"
      },
      "geometry": {
        "type": "MultiPolygon",
        "coordinates": [
          [
            [
              [
                37.0732307434082,
                33.26447677612305
              ],
              [
                37.054195404052734,
                33.07160949707031
              ],
              [
                36.90095901489258,
                33.07160949707031
              ],
              [
                36.716766357421875,
                32.75019073486328
              ],
              [
                36.750667572021484,
                32.30024337768555
              ],
              [
                36.5155143737793,
                32.23596954345703
              ],
              [
                36.65636444091797,
                32.107421875
              ],
              [
                36.491905212402344,
                31.978878021240234
              ],
              [
                36.46286392211914,
                31.65752601623535
              ],
              [
                36.38663864135742,
                31.65752601623535
              ],
              [
                36.423099517822266,
                31.20764923095703
              ],
              [
                35.662025451660156,
                31.20764923095703
              ],
              [
                35.49904251098633,
                31.079113006591797
              ],
              [
                35.35223388671875,
                31.143381118774414
              ],
              [
                34.62143325805664,
                30.564971923828125
              ],
              [
                34.61144256591797,
                30.436433792114258
              ],
              [
                34.38864517211914,
                30.500701904296875
              ],
              [
                34.30289840698242,
                30.372163772583008
              ],
              [
                33.837974548339844,
                30.243623733520508
              ],
              [
                32.918514251708984,
                30.115081787109375
              ],
              [
                32.90950393676758,
                29.986536026000977
              ],
              [
                32.75790023803711,
                29.986536026000977
              ],
              [
                32.67325973510742,
                29.857990264892578
              ],
              [
                32.52609634399414,
                29.922264099121094
              ],
              [
                32.44160079956055,
                29.79371452331543
              ],
              [
                32.68916320800781,
                28.958093643188477
              ],
              [
                32.83612823486328,
                28.893810272216797
              ],
              [
                33.10531997680664,
                28.379535675048828
              ],
              [
                33.60887145996094,
                27.993812561035156
              ],
              [
                33.585105895996094,
                27.608078002929688
              ],
              [
                33.7991943359375,
                27.41520881652832
              ],
              [
                33.92659378051758,
                27.029460906982422
              ],
              [
                34.07311248779297,
                26.96516990661621
              ],
              [
                34.05074691772461,
                26.57941436767578
              ],
              [
                34.197208404541016,
                26.515121459960938
              ],
              [
                34.461280822753906,
                25.8721923828125
              ],
              [
                34.60763931274414,
                25.807899475097656
              ],
              [
                35.145530700683594,
                24.650644302368164
              ],
              [
                35.860408782958984,
                24.00774574279785
              ],
              [
                35.85411834716797,
                23.879167556762695
              ],
              [
                35.558753967285156,
                23.943456649780273
              ],
              [
                35.55257034301758,
                23.814878463745117
              ],
              [
                35.10795974731445,
                23.879167556762695
              ],
              [
                33.75636291503906,
                23.68630027770996
              ],
              [
                33.6817741394043,
                23.68630027770996
              ],
              [
                33.38899612426758,
                23.814878463745117
              ],
              [
                32.040863037109375,
                23.68630027770996
              ],
              [
                31.670488357543945,
                23.75058937072754
              ],
              [
                30.537214279174805,
                23.36486053466797
              ],
              [
                30.462675094604492,
                23.36486053466797
              ],
              [
                30.39519500732422,
                23.557723999023438
              ],
              [
                30.10396385192871,
                23.75058937072754
              ],
              [
                30.10871124267578,
                23.879167556762695
              ],
              [
                29.95948028564453,
                23.879167556762695
              ],
              [
                29.672801971435547,
                24.200613021850586
              ],
              [
                28.568815231323242,
                24.650644302368164
              ],
              [
                28.288646697998047,
                25.164974212646484
              ],
              [
                28.24367904663086,
                25.936485290527344
              ],
              [
                28.34531593322754,
                26.57941436767578
              ],
              [
                28.270244598388672,
                26.57941436767578
              ],
              [
                28.15372657775879,
                27.35091781616211
              ],
              [
                27.93669891357422,
                27.54378890991211
              ],
              [
                27.710918426513672,
                27.54378890991211
              ],
              [
                27.791961669921875,
                27.6723690032959
              ],
              [
                27.429920196533203,
                27.993812561035156
              ],
              [
                27.27633285522461,
                27.92952537536621
              ],
              [
                27.28502082824707,
                28.12238883972168
              ],
              [
                27.06757926940918,
                28.315250396728516
              ],
              [
                26.251968383789062,
                28.636676788330078
              ],
              [
                26.182157516479492,
                28.765243530273438
              ],
              [
                25.882884979248047,
                28.829526901245117
              ],
              [
                25.516281127929688,
                29.08665657043457
              ],
              [
                25.376264572143555,
                29.34377670288086
              ],
              [
                25.39052391052246,
                29.665164947509766
              ],
              [
                25.466249465942383,
                29.665164947509766
              ],
              [
                25.73289680480957,
                30.500701904296875
              ],
              [
                25.89109230041504,
                30.629240036010742
              ],
              [
                25.986495971679688,
                31.014846801757812
              ],
              [
                26.31792640686035,
                31.528987884521484
              ],
              [
                27.148780822753906,
                31.40045166015625
              ],
              [
                27.514896392822266,
                31.143381118774414
              ],
              [
                28.496395111083984,
                31.014846801757812
              ],
              [
                28.865032196044922,
                30.822044372558594
              ],
              [
                29.3970890045166,
                30.822044372558594
              ],
              [
                29.485143661499023,
                31.014846801757812
              ],
              [
                29.633193969726562,
                30.950578689575195
              ],
              [
                29.86956024169922,
                31.079113006591797
              ],
              [
                29.8017635345459,
                31.20764923095703
              ],
              [
                29.882049560546875,
                31.271915435791016
              ],
              [
                30.33879280090332,
                31.271915435791016
              ],
              [
                30.271244049072266,
                31.40045166015625
              ],
              [
                30.351730346679688,
                31.464719772338867
              ],
              [
                30.80877685546875,
                31.464719772338867
              ],
              [
                30.965608596801758,
                31.528987884521484
              ],
              [
                30.974620819091797,
                31.65752601623535
              ],
              [
                31.203296661376953,
                31.65752601623535
              ],
              [
                31.117990493774414,
                31.528987884521484
              ],
              [
                31.265825271606445,
                31.464719772338867
              ],
              [
                31.875221252441406,
                31.464719772338867
              ],
              [
                31.780553817749023,
                31.20764923095703
              ],
              [
                31.93739891052246,
                31.271915435791016
              ],
              [
                31.999635696411133,
                31.079113006591797
              ],
              [
                32.303932189941406,
                31.079113006591797
              ],
              [
                32.23719787597656,
                31.20764923095703
              ],
              [
                32.53215408325195,
                31.079113006591797
              ],
              [
                32.76515197753906,
                31.143381118774414
              ],
              [
                32.8316764831543,
                31.014846801757812
              ],
              [
                33.74934005737305,
                31.079113006591797
              ],
              [
                34.2972412109375,
                31.271915435791016
              ],
              [
                34.30759811401367,
                31.40045166015625
              ],
              [
                34.63344955444336,
                31.65752601623535
              ],
              [
                34.57329559326172,
                31.8503360748291
              ],
              [
                34.81304168701172,
                31.978878021240234
              ],
              [
                34.76983642578125,
                32.36451721191406
              ],
              [
                35.021759033203125,
                32.62162780761719
              ],
              [
                35.05632781982422,
                33.00732421875
              ],
              [
                35.21538543701172,
                33.07160949707031
              ],
              [
                35.39840316772461,
                33.393062591552734
              ],
              [
                35.34577560424805,
                33.65024948120117
              ],
              [
                35.49934768676758,
                33.65024948120117
              ],
              [
                35.4470100402832,
                33.90746307373047
              ],
              [
                35.68381118774414,
                33.971771240234375
              ],
              [
                35.64447784423828,
                34.3576545715332
              ],
              [
                35.79212951660156,
                34.2933349609375
              ],
              [
                36.048770904541016,
                34.55062484741211
              ],
              [
                36.0682373046875,
                34.743614196777344
              ],
              [
                35.92698669433594,
                34.87228775024414
              ],
              [
                35.959747314453125,
                35.194007873535156
              ],
              [
                35.88248825073242,
                35.194007873535156
              ],
              [
                35.88907241821289,
                35.258358001708984
              ],
              [
                36.268775939941406,
                35.194007873535156
              ],
              [
                36.165035247802734,
                34.93662643432617
              ],
              [
                36.312767028808594,
                34.87228775024414
              ],
              [
                36.29301834106445,
                34.679283142089844
              ],
              [
                36.44062423706055,
                34.614952087402344
              ],
              [
                36.56190872192383,
                34.2933349609375
              ],
              [
                36.86982345581055,
                34.2933349609375
              ],
              [
                37.00392532348633,
                34.10039138793945
              ],
              [
                37.38852310180664,
                34.10039138793945
              ],
              [
                37.59914016723633,
                33.90746307373047
              ],
              [
                37.64933776855469,
                33.65024948120117
              ],
              [
                37.57255172729492,
                33.65024948120117
              ],
              [
                37.0732307434082,
                33.26447677612305
              ]
            ]
          ],
          [
            [
              [
                36.144901275634766,
                36.932613372802734
              ],
              [
                35.833587646484375,
                36.932613372802734
              ],
              [
                35.487709045410156,
                36.61045455932617
              ],
              [
                35.11265563964844,
                36.73930740356445
              ],
              [
                34.95038986206055,
                36.67487716674805
              ],
              [
                34.892860412597656,
                36.8681755065918
              ],
              [
                34.581634521484375,
                36.8681755065918
              ],
              [
                34.2507209777832,
                36.67487716674805
              ],
              [
                33.97906494140625,
                36.28839111328125
              ],
              [
                33.2744140625,
                36.2239875793457
              ],
              [
                32.713401794433594,
                36.03080368041992
              ],
              [
                32.558349609375,
                36.03080368041992
              ],
              [
                32.498512268066406,
                36.2239875793457
              ],
              [
                31.91849136352539,
                36.67487716674805
              ],
              [
                31.840749740600586,
                36.67487716674805
              ],
              [
                31.738351821899414,
                37.254878997802734
              ],
              [
                31.59439468383789,
                37.38381576538086
              ],
              [
                31.600387573242188,
                37.44829177856445
              ],
              [
                31.606399536132812,
                37.51277160644531
              ],
              [
                31.6124324798584,
                37.5772590637207
              ],
              [
                31.618486404418945,
                37.641746520996094
              ],
              [
                32.03375244140625,
                37.89975357055664
              ],
              [
                33.67526626586914,
                37.89975357055664
              ],
              [
                34.358001708984375,
                37.706241607666016
              ],
              [
                35.67116928100586,
                37.5772590637207
              ],
              [
                35.998069763183594,
                37.706241607666016
              ],
              [
                36.34809112548828,
                38.028785705566406
              ],
              [
                37.1146354675293,
                37.89975357055664
              ],
              [
                37.76396560668945,
                38.09331130981445
              ],
              [
                39.172237396240234,
                38.09331130981445
              ],
              [
                39.599029541015625,
                37.7707405090332
              ],
              [
                39.54883575439453,
                37.38381576538086
              ],
              [
                39.13452911376953,
                37.1904182434082
              ],
              [
                38.26960754394531,
                37.12596130371094
              ],
              [
                38.176177978515625,
                36.9970588684082
              ],
              [
                38.02047348022461,
                36.9970588684082
              ],
              [
                37.99748992919922,
                36.80373764038086
              ],
              [
                37.27525329589844,
                36.61045455932617
              ],
              [
                36.26490020751953,
                36.61045455932617
              ],
              [
                36.27198791503906,
                36.67487716674805
              ],
              [
                36.144901275634766,
                36.932613372802734
              ]
            ]
          ]
        ]
      }
    }
  ]
}
