{
  "type": "FeatureCollection",
  "features": [
    {
      "type": "Feature",
      "properties": {
        "Name": "Holy Roman Empire",
        "FromYear": 970,
        "ToYear": 979,
        "Area": 724680.2217539055,
        "Type": "POLITY",
        "Wikipedia": "Holy Roman Empire",
        "Wikidata": "Q12548",
        "SeshatID": "de_empire_1",
        "Components": "",
        "MemberOf": "(Holy Roman Empire)",
        "displayYear": 979,
        "sourceYear": 979,
        "mappedTerritoryId": "holy_roman_empire"
      },
      "geometry": {
        "type": "MultiPolygon",
        "coordinates": [
          [
            [
              [
                9.331360816955566,
                43.016544342041016
              ],
              [
                9.491888999938965,
                43.016544342041016
              ],
              [
                9.49340534210205,
                42.75628662109375
              ],
              [
                9.5735502243042,
                42.75628662109375
              ],
              [
                9.577608108520508,
                41.97637939453125
              ],
              [
                9.497812271118164,
                41.97637939453125
              ],
              [
                9.49889087677002,
                41.781593322753906
              ],
              [
                9.262411117553711,
                41.39224624633789
              ],
              [
                9.1038236618042,
                41.32738494873047
              ],
              [
                8.783942222595215,
                41.521995544433594
              ],
              [
                8.782108306884766,
                41.71668243408203
              ],
              [
                8.622743606567383,
                41.71668243408203
              ],
              [
                8.700496673583984,
                41.911441802978516
              ],
              [
                8.538846015930176,
                42.10627746582031
              ],
              [
                8.534564018249512,
                42.496177673339844
              ],
              [
                8.772740364074707,
                42.691246032714844
              ],
              [
                9.17282485961914,
                42.75628662109375
              ],
              [
                9.251097679138184,
                43.016544342041016
              ],
              [
                9.331360816955566,
                43.016544342041016
              ]
            ]
          ],
          [
            [
              [
                10.45510196685791,
                42.88639831542969
              ],
              [
                10.455166816711426,
                42.691246032714844
              ],
              [
                10.21481990814209,
                42.691246032714844
              ],
              [
                10.134284973144531,
                42.88639831542969
              ],
              [
                10.214488983154297,
                42.88639831542969
              ],
              [
                10.45510196685791,
                42.88639831542969
              ]
            ]
          ],
          [
            [
              [
                13.05121898651123,
                54.47740173339844
              ],
              [
                13.132953643798828,
                54.27390670776367
              ],
              [
                13.391033172607422,
                54.20612335205078
              ],
              [
                13.389228820800781,
                54.138362884521484
              ],
              [
                13.212760925292969,
                54.00291442871094
              ],
              [
                13.206046104431152,
                53.732303619384766
              ],
              [
                13.462994575500488,
                53.664710998535156
              ],
              [
                13.54919719696045,
                53.664710998535156
              ],
              [
                14.22783088684082,
                53.32708740234375
              ],
              [
                14.307177543640137,
                53.124786376953125
              ],
              [
                14.133414268493652,
                53.057395935058594
              ],
              [
                14.127176284790039,
                52.85536575317383
              ],
              [
                14.548598289489746,
                52.653533935546875
              ],
              [
                14.634113311767578,
                52.653533935546875
              ],
              [
                14.546341896057129,
                52.586299896240234
              ],
              [
                14.618226051330566,
                52.18334197998047
              ],
              [
                15.212130546569824,
                52.11625671386719
              ],
              [
                15.27958869934082,
                51.64724349975586
              ],
              [
                15.534167289733887,
                51.64724349975586
              ],
              [
                15.528964042663574,
                51.51342010498047
              ],
              [
                15.613738059997559,
                51.51342010498047
              ],
              [
                15.680119514465332,
                51.04566955566406
              ],
              [
                15.930866241455078,
                50.97892379760742
              ],
              [
                15.922855377197266,
                50.77880859375
              ],
              [
                15.416954040527344,
                50.77880859375
              ],
              [
                15.255345344543457,
                50.97892379760742
              ],
              [
                14.577799797058105,
                50.912200927734375
              ],
              [
                14.497381210327148,
                51.04566955566406
              ],
              [
                14.328418731689453,
                51.04566955566406
              ],
              [
                14.153997421264648,
                50.84549331665039
              ],
              [
                13.391927719116211,
                50.71213912963867
              ],
              [
                12.796454429626465,
                50.37908172607422
              ],
              [
                12.376081466674805,
                50.37908172607422
              ],
              [
                12.20633602142334,
                50.2459831237793
              ],
              [
                12.204005241394043,
                50.04647445678711
              ],
              [
                12.370920181274414,
                49.98000717163086
              ],
              [
                12.36764907836914,
                49.71431350708008
              ],
              [
                12.534139633178711,
                49.64793395996094
              ],
              [
                12.532414436340332,
                49.51522445678711
              ],
              [
                12.69770336151123,
                49.38258361816406
              ],
              [
                13.112967491149902,
                49.2500114440918
              ],
              [
                13.276345252990723,
                49.051273345947266
              ],
              [
                13.442953109741211,
                49.051273345947266
              ],
              [
                13.605730056762695,
                48.852684020996094
              ],
              [
                13.937092781066895,
                48.786521911621094
              ],
              [
                14.182053565979004,
                48.5881233215332
              ],
              [
                14.765128135681152,
                48.654239654541016
              ],
              [
                14.940543174743652,
                48.98506164550781
              ],
              [
                15.68774127960205,
                48.91886520385742
              ],
              [
                16.179914474487305,
                48.72037124633789
              ],
              [
                16.927988052368164,
                48.72037124633789
              ],
              [
                16.829010009765625,
                48.323814392089844
              ],
              [
                16.911911010742188,
                48.323814392089844
              ],
              [
                16.984167098999023,
                48.059749603271484
              ],
              [
                16.48518943786621,
                47.993770599365234
              ],
              [
                16.3150634765625,
                47.86185836791992
              ],
              [
                16.303508758544922,
                47.53233337402344
              ],
              [
                16.138551712036133,
                47.53233337402344
              ],
              [
                16.123157501220703,
                47.07159423828125
              ],
              [
                15.864084243774414,
                46.677207946777344
              ],
              [
                15.860001564025879,
                46.54585266113281
              ],
              [
                16.019739151000977,
                46.414546966552734
              ],
              [
                15.933717727661133,
                46.283294677734375
              ],
              [
                15.604452133178711,
                46.21768569946289
              ],
              [
                15.678460121154785,
                45.95537567138672
              ],
              [
                15.264768600463867,
                45.75876998901367
              ],
              [
                15.339118957519531,
                45.496795654296875
              ],
              [
                14.44612979888916,
                45.62776184082031
              ],
              [
                14.277569770812988,
                45.36587905883789
              ],
              [
                14.196189880371094,
                45.36587905883789
              ],
              [
                14.189410209655762,
                45.03877639770508
              ],
              [
                14.026969909667969,
                45.03877639770508
              ],
              [
                13.945749282836914,
                45.03877639770508
              ],
              [
                13.628785133361816,
                45.496795654296875
              ],
              [
                13.710229873657227,
                45.496795654296875
              ],
              [
                13.714865684509277,
                45.75876998901367
              ],
              [
                13.144780158996582,
                45.82429504394531
              ],
              [
                13.061376571655273,
                45.693260192871094
              ],
              [
                12.9815673828125,
                45.82429504394531
              ],
              [
                12.818355560302734,
                45.82429504394531
              ],
              [
                12.736748695373535,
                45.82429504394531
              ],
              [
                12.164421081542969,
                45.693260192871094
              ],
              [
                12.000378608703613,
                45.56227111816406
              ],
              [
                11.998926162719727,
                45.36587905883789
              ],
              [
                12.161685943603516,
                45.36587905883789
              ],
              [
                12.161133766174316,
                45.300437927246094
              ],
              [
                12.160021781921387,
                45.169586181640625
              ],
              [
                12.40256118774414,
                45.03877639770508
              ],
              [
                12.399906158447266,
                44.77729415893555
              ],
              [
                12.157197952270508,
                44.842647552490234
              ],
              [
                12.153728485107422,
                44.45067596435547
              ],
              [
                12.312999725341797,
                44.18956756591797
              ],
              [
                12.873446464538574,
                43.79821014404297
              ],
              [
                13.035634994506836,
                43.86341094970703
              ],
              [
                13.033763885498047,
                43.73301696777344
              ],
              [
                13.513986587524414,
                43.53750228881836
              ],
              [
                13.512868881225586,
                43.472347259521484
              ],
              [
                13.270421028137207,
                43.407203674316406
              ],
              [
                13.191967964172363,
                43.53750228881836
              ],
              [
                12.548683166503906,
                43.6026611328125
              ],
              [
                12.5471773147583,
                43.472347259521484
              ],
              [
                12.224648475646973,
                43.407203674316406
              ],
              [
                11.82194709777832,
                43.342071533203125
              ],
              [
                11.820984840393066,
                43.211830139160156
              ],
              [
                11.981149673461914,
                43.146724700927734
              ],
              [
                12.0580472946167,
                42.75628662109375
              ],
              [
                11.736565589904785,
                42.62621307373047
              ],
              [
                11.574831008911133,
                42.36617660522461
              ],
              [
                11.494861602783203,
                42.36617660522461
              ],
              [
                11.255227088928223,
                42.43117141723633
              ],
              [
                11.175962448120117,
                42.62621307373047
              ],
              [
                11.015789985656738,
                42.62621307373047
              ],
              [
                11.01634693145752,
                42.82133865356445
              ],
              [
                10.535322189331055,
                43.08163070678711
              ],
              [
                10.212339401245117,
                43.99384307861328
              ],
              [
                9.889463424682617,
                43.99384307861328
              ],
              [
                9.969700813293457,
                44.12431716918945
              ],
              [
                9.7273588180542,
                44.12431716918945
              ],
              [
                9.159077644348145,
                44.45067596435547
              ],
              [
                8.431501388549805,
                44.38538360595703
              ],
              [
                8.033902168273926,
                43.92862319946289
              ],
              [
                7.632706642150879,
                43.79821014404297
              ],
              [
                7.552080154418945,
                43.79821014404297
              ],
              [
                7.625912189483643,
                44.18956756591797
              ],
              [
                7.303933143615723,
                44.12431716918945
              ],
              [
                6.895741939544678,
                44.32010269165039
              ],
              [
                6.965181350708008,
                44.842647552490234
              ],
              [
                6.637507915496826,
                44.973392486572266
              ],
              [
                6.634309768676758,
                45.10417556762695
              ],
              [
                7.037666320800781,
                45.23500442504883
              ],
              [
                7.114676952362061,
                45.431331634521484
              ],
              [
                7.356207847595215,
                45.56227111816406
              ],
              [
                8.006918907165527,
                45.62776184082031
              ],
              [
                7.918499946594238,
                46.02093505859375
              ],
              [
                8.40284538269043,
                46.414546966552734
              ],
              [
                8.311593055725098,
                47.005828857421875
              ],
              [
                8.392777442932129,
                47.07159423828125
              ],
              [
                8.309483528137207,
                47.13737487792969
              ],
              [
                8.552461624145508,
                47.4006233215332
              ],
              [
                8.550530433654785,
                47.53233337402344
              ],
              [
                8.549562454223633,
                47.598209381103516
              ],
              [
                7.476891040802002,
                47.598209381103516
              ],
              [
                7.39728307723999,
                47.46647262573242
              ],
              [
                7.149951457977295,
                47.46647262573242
              ],
              [
                6.975266933441162,
                47.86185836791992
              ],
              [
                6.80824613571167,
                47.92780685424805
              ],
              [
                6.144739151000977,
                47.993770599365234
              ],
              [
                5.818123817443848,
                47.86185836791992
              ],
              [
                5.646180152893066,
                48.059749603271484
              ],
              [
                5.480661869049072,
                48.059749603271484
              ],
              [
                5.47376823425293,
                48.257774353027344
              ],
              [
                5.217910766601562,
                48.455936431884766
              ],
              [
                4.883440971374512,
                48.52202224731445
              ],
              [
                4.865273475646973,
                48.98506164550781
              ],
              [
                5.026719093322754,
                49.11750411987305
              ],
              [
                4.679802417755127,
                49.44889450073242
              ],
              [
                4.576823711395264,
                49.91355895996094
              ],
              [
                3.816332101821899,
                50.04647445678711
              ],
              [
                3.548239946365356,
                50.37908172607422
              ],
              [
                3.538282871246338,
                50.578861236572266
              ],
              [
                3.700162887573242,
                50.71213912963867
              ],
              [
                4.034165859222412,
                50.77880859375
              ],
              [
                4.263070583343506,
                51.31283950805664
              ],
              [
                3.504641532897949,
                51.24601745605469
              ],
              [
                3.409677743911743,
                51.44654083251953
              ],
              [
                3.494410037994385,
                51.44654083251953
              ],
              [
                3.74860668182373,
                51.44654083251953
              ],
              [
                3.40621018409729,
                51.51342010498047
              ],
              [
                3.399252653121948,
                51.64724349975586
              ],
              [
                3.738690614700317,
                51.64724349975586
              ],
              [
                3.647099733352661,
                51.78114318847656
              ],
              [
                3.81699013710022,
                51.78114318847656
              ],
              [
                3.810401916503906,
                51.91512680053711
              ],
              [
                3.980464458465576,
                51.91512680053711
              ],
              [
                3.974021434783936,
                52.0491943359375
              ],
              [
                4.223166942596436,
                52.18334197998047
              ],
              [
                4.21693229675293,
                52.31757736206055
              ],
              [
                4.463808536529541,
                52.51908493041992
              ],
              [
                4.454747676849365,
                52.720787048339844
              ],
              [
                4.699799060821533,
                52.99003219604492
              ],
              [
                4.871281623840332,
                52.99003219604492
              ],
              [
                4.879741191864014,
                52.78806686401367
              ],
              [
                5.056382656097412,
                52.653533935546875
              ],
              [
                5.136557102203369,
                52.78806686401367
              ],
              [
                5.390830039978027,
                52.85536575317383
              ],
              [
                5.385728359222412,
                52.99003219604492
              ],
              [
                5.20894193649292,
                53.124786376953125
              ],
              [
                5.542333602905273,
                53.39456558227539
              ],
              [
                6.226210117340088,
                53.52959060668945
              ],
              [
                6.916844367980957,
                53.462066650390625
              ],
              [
                6.913325786590576,
                53.597137451171875
              ],
              [
                7.082295417785645,
                53.732303619384766
              ],
              [
                7.944795608520508,
                53.732303619384766
              ],
              [
                8.032201766967773,
                53.664710998535156
              ],
              [
                7.94840145111084,
                53.52959060668945
              ],
              [
                8.120620727539062,
                53.52959060668945
              ],
              [
                8.204607963562012,
                53.664710998535156
              ],
              [
                8.37701416015625,
                53.664710998535156
              ],
              [
                8.459527015686035,
                53.93522644042969
              ],
              [
                8.892172813415527,
                53.86756134033203
              ],
              [
                8.80289077758789,
                54.138362884521484
              ],
              [
                8.802155494689941,
                54.20612335205078
              ],
              [
                8.887362480163574,
                54.341712951660156
              ],
              [
                9.148486137390137,
                54.20612335205078
              ],
              [
                9.927618026733398,
                54.27390670776367
              ],
              [
                10.187621116638184,
                54.47740173339844
              ],
              [
                10.274396896362305,
                54.47740173339844
              ],
              [
                11.054854393005371,
                54.4095458984375
              ],
              [
                11.053302764892578,
                54.20612335205078
              ],
              [
                10.879310607910156,
                54.07062530517578
              ],
              [
                11.138218879699707,
                54.00291442871094
              ],
              [
                11.397537231445312,
                54.00291442871094
              ],
              [
                11.398930549621582,
                54.138362884521484
              ],
              [
                12.35576343536377,
                54.4095458984375
              ],
              [
                12.442490577697754,
                54.4095458984375
              ],
              [
                13.05121898651123,
                54.47740173339844
              ]
            ]
          ]
        ]
      }
    }
  ]
}
