{
  "type": "FeatureCollection",
  "features": [
    {
      "type": "Feature",
      "properties": {
        "Name": "Republic of Finland",
        "FromYear": 1945,
        "ToYear": 2023,
        "Area": 337168.55490823474,
        "Type": "POLITY",
        "Wikipedia": "Finland",
        "Wikidata": "Q33",
        "SeshatID": "su_finland_rep",
        "Components": "",
        "MemberOf": "",
        "displayYear": 2008,
        "sourceYear": 2008,
        "mappedTerritoryId": "cliopatria_republic_of_finland"
      },
      "geometry": {
        "type": "MultiPolygon",
        "coordinates": [
          [
            [
              [
                19.703351974487305,
                60.34645080566406
              ],
              [
                19.71640968322754,
                60.48725891113281
              ],
              [
                20.167306900024414,
                60.416839599609375
              ],
              [
                20.146883010864258,
                60.20578384399414
              ],
              [
                19.951000213623047,
                60.065250396728516
              ],
              [
                19.683900833129883,
                60.135501861572266
              ],
              [
                19.696849822998047,
                60.276100158691406
              ],
              [
                19.703351974487305,
                60.34645080566406
              ]
            ]
          ],
          [
            [
              [
                27.876306533813477,
                60.557716369628906
              ],
              [
                27.13186264038086,
                60.48725891113281
              ],
              [
                27.05181121826172,
                60.557716369628906
              ],
              [
                26.75438690185547,
                60.416839599609375
              ],
              [
                26.399471282958984,
                60.48725891113281
              ],
              [
                25.818273544311523,
                60.276100158691406
              ],
              [
                24.611000061035156,
                60.135501861572266
              ],
              [
                24.50045394897461,
                59.99503707885742
              ],
              [
                24.054182052612305,
                60.065250396728516
              ],
              [
                23.76235580444336,
                59.92485809326172
              ],
              [
                23.02524757385254,
                59.85470962524414
              ],
              [
                23.05118179321289,
                60.065250396728516
              ],
              [
                22.31354331970215,
                59.99503707885742
              ],
              [
                22.363000869750977,
                60.416839599609375
              ],
              [
                21.90556526184082,
                60.416839599609375
              ],
              [
                21.379648208618164,
                60.628211975097656
              ],
              [
                21.40285301208496,
                60.83990478515625
              ],
              [
                21.234464645385742,
                60.9812126159668
              ],
              [
                21.249881744384766,
                61.12267303466797
              ],
              [
                21.441972732543945,
                61.193458557128906
              ],
              [
                21.49768829345703,
                61.69001388549805
              ],
              [
                21.235559463500977,
                61.832237243652344
              ],
              [
                21.190174102783203,
                62.259857177734375
              ],
              [
                21.291358947753906,
                62.331268310546875
              ],
              [
                21.198148727416992,
                62.331268310546875
              ],
              [
                21.21416664123535,
                62.474212646484375
              ],
              [
                20.949846267700195,
                62.61732482910156
              ],
              [
                21.067264556884766,
                62.83230972290039
              ],
              [
                21.262784957885742,
                62.904052734375
              ],
              [
                21.27918243408203,
                63.047672271728516
              ],
              [
                21.475318908691406,
                63.11954879760742
              ],
              [
                21.500577926635742,
                63.33543014526367
              ],
              [
                21.962575912475586,
                63.263427734375
              ],
              [
                22.159679412841797,
                63.33543014526367
              ],
              [
                22.366201400756836,
                63.479576110839844
              ],
              [
                22.3845157623291,
                63.623897552490234
              ],
              [
                22.781234741210938,
                63.768394470214844
              ],
              [
                22.80032730102539,
                63.91307830810547
              ],
              [
                23.283843994140625,
                63.98548889160156
              ],
              [
                23.303813934326172,
                64.13044738769531
              ],
              [
                23.493669509887695,
                64.13044738769531
              ],
              [
                23.82017707824707,
                64.4209213256836
              ],
              [
                24.010604858398438,
                64.4209213256836
              ],
              [
                24.54205894470215,
                64.78507995605469
              ],
              [
                24.564443588256836,
                64.93107604980469
              ],
              [
                25.234498977661133,
                64.93107604980469
              ],
              [
                25.233224868774414,
                65.51705932617188
              ],
              [
                24.944276809692383,
                65.51705932617188
              ],
              [
                24.956022262573242,
                65.59053039550781
              ],
              [
                24.666847229003906,
                65.59053039550781
              ],
              [
                24.49690818786621,
                65.73763275146484
              ],
              [
                24.121912002563477,
                65.8112564086914
              ],
              [
                24.025293350219727,
                65.8112564086914
              ],
              [
                24.05880355834961,
                66.0324478149414
              ],
              [
                23.70433235168457,
                66.25411987304688
              ],
              [
                23.902938842773438,
                66.92203521728516
              ],
              [
                23.545406341552734,
                67.14566802978516
              ],
              [
                23.689157485961914,
                67.44463348388672
              ],
              [
                23.4054012298584,
                67.51952362060547
              ],
              [
                23.58470916748047,
                68.04534912109375
              ],
              [
                23.40987205505371,
                68.19611358642578
              ],
              [
                23.211511611938477,
                68.19611358642578
              ],
              [
                23.223005294799805,
                68.27159118652344
              ],
              [
                23.02447509765625,
                68.27159118652344
              ],
              [
                23.035846710205078,
                68.34712219238281
              ],
              [
                21.874967575073242,
                68.57408905029297
              ],
              [
                21.507225036621094,
                68.8016128540039
              ],
              [
                21.11773109436035,
                68.87757110595703
              ],
              [
                20.947467803955078,
                69.10584259033203
              ],
              [
                21.067846298217773,
                69.25833129882812
              ],
              [
                21.770601272583008,
                69.25833129882812
              ],
              [
                22.217212677001953,
                68.87757110595703
              ],
              [
                22.417118072509766,
                68.87757110595703
              ],
              [
                22.406017303466797,
                68.8016128540039
              ],
              [
                22.79408073425293,
                68.7257080078125
              ],
              [
                22.782730102539062,
                68.64987182617188
              ],
              [
                24.403335571289062,
                68.8016128540039
              ],
              [
                24.390546798706055,
                68.7257080078125
              ],
              [
                24.863161087036133,
                68.57408905029297
              ],
              [
                25.429479598999023,
                68.95359802246094
              ],
              [
                25.629560470581055,
                68.95359802246094
              ],
              [
                25.657630920410156,
                69.10584259033203
              ],
              [
                25.757848739624023,
                69.10584259033203
              ],
              [
                25.858652114868164,
                69.64068603515625
              ],
              [
                26.206161499023438,
                69.8708724975586
              ],
              [
                27.233366012573242,
                69.9477310180664
              ],
              [
                27.24948501586914,
                70.024658203125
              ],
              [
                28.161184310913086,
                70.024658203125
              ],
              [
                28.144235610961914,
                69.9477310180664
              ],
              [
                28.531824111938477,
                69.8708724975586
              ],
              [
                28.514657974243164,
                69.79407501220703
              ],
              [
                28.91875457763672,
                69.79407501220703
              ],
              [
                28.90129852294922,
                69.71734619140625
              ],
              [
                29.287288665771484,
                69.64068603515625
              ],
              [
                29.133947372436523,
                69.41107940673828
              ],
              [
                28.798139572143555,
                69.25833129882812
              ],
              [
                28.847667694091797,
                69.0296859741211
              ],
              [
                28.63077163696289,
                68.95359802246094
              ],
              [
                28.416759490966797,
                68.42272186279297
              ],
              [
                28.583311080932617,
                68.27159118652344
              ],
              [
                28.781841278076172,
                68.27159118652344
              ],
              [
                28.765607833862305,
                68.19611358642578
              ],
              [
                29.34401512145996,
                68.1207046508789
              ],
              [
                29.4097843170166,
                67.97005462646484
              ],
              [
                29.607641220092773,
                67.97005462646484
              ],
              [
                29.935470581054688,
                67.66946411132812
              ],
              [
                29.7868709564209,
                67.44463348388672
              ],
              [
                29.59016990661621,
                67.44463348388672
              ],
              [
                29.132892608642578,
                67.14566802978516
              ],
              [
                29.0543212890625,
                66.77322387695312
              ],
              [
                30.0314884185791,
                65.88493347167969
              ],
              [
                29.99983024597168,
                65.73763275146484
              ],
              [
                29.663768768310547,
                65.51705932617188
              ],
              [
                29.617761611938477,
                65.29694366455078
              ],
              [
                29.794553756713867,
                65.22367095947266
              ],
              [
                29.622629165649414,
                64.8580551147461
              ],
              [
                30.085460662841797,
                64.78507995605469
              ],
              [
                29.928970336914062,
                64.49365234375
              ],
              [
                30.549240112304688,
                64.27558898925781
              ],
              [
                30.50291633605957,
                64.05794525146484
              ],
              [
                30.078414916992188,
                63.84071350097656
              ],
              [
                30.048580169677734,
                63.69612503051758
              ],
              [
                30.93169403076172,
                63.4074821472168
              ],
              [
                30.99508285522461,
                63.263427734375
              ],
              [
                31.183259963989258,
                63.263427734375
              ],
              [
                31.496828079223633,
                62.9758415222168
              ],
              [
                31.217166900634766,
                62.54574966430664
              ],
              [
                29.501466751098633,
                61.40604019165039
              ],
              [
                29.31673812866211,
                61.40604019165039
              ],
              [
                28.488615036010742,
                60.91054153442383
              ],
              [
                28.304771423339844,
                60.91054153442383
              ],
              [
                27.99224853515625,
                60.69873809814453
              ],
              [
                27.96791648864746,
                60.557716369628906
              ],
              [
                27.876306533813477,
                60.557716369628906
              ]
            ]
          ]
        ]
      }
    }
  ]
}
