{
  "type": "FeatureCollection",
  "features": [
    {
      "type": "Feature",
      "properties": {
        "Name": "Republic of Indonesia",
        "FromYear": 1947,
        "ToYear": 1948,
        "Area": 408208.9072453399,
        "Type": "POLITY",
        "Wikipedia": "Indonesia",
        "Wikidata": "Q252",
        "SeshatID": "",
        "Components": "",
        "MemberOf": "",
        "displayYear": 1948,
        "sourceYear": 1948,
        "mappedTerritoryId": "cliopatria_republic_of_indonesia"
      },
      "geometry": {
        "type": "MultiPolygon",
        "coordinates": [
          [
            [
              [
                99.35307312011719,
                -2.028688907623291
              ],
              [
                99.64427185058594,
                -2.028688907623291
              ],
              [
                99.79984283447266,
                -2.414414644241333
              ],
              [
                99.65422821044922,
                -2.414414644241333
              ],
              [
                99.57801818847656,
                -2.285839319229126
              ],
              [
                99.50521087646484,
                -2.285839319229126
              ],
              [
                99.3579330444336,
                -2.221551656723022
              ],
              [
                99.35307312011719,
                -2.028688907623291
              ]
            ]
          ],
          [
            [
              [
                98.81977844238281,
                -0.935800075531006
              ],
              [
                99.11994171142578,
                -1.385813117027283
              ],
              [
                99.2013168334961,
                -1.771538615226746
              ],
              [
                98.83883666992188,
                -1.83582615852356
              ],
              [
                98.46349334716797,
                -1.321525454521179
              ],
              [
                98.46216583251953,
                -1.257237911224365
              ],
              [
                98.45708465576172,
                -1.00008761882782
              ],
              [
                98.81977844238281,
                -0.935800075531006
              ]
            ]
          ],
          [
            [
              [
                98.15896606445312,
                -0.614362359046936
              ],
              [
                98.20932006835938,
                0.092800483107567
              ],
              [
                98.36795806884766,
                0.028512962162495
              ],
              [
                98.44481658935547,
                -0.292924642562866
              ],
              [
                98.44583129882812,
                -0.35721218585968
              ],
              [
                98.37730407714844,
                -0.614362359046936
              ],
              [
                98.15896606445312,
                -0.614362359046936
              ]
            ]
          ],
          [
            [
              [
                98.72062683105469,
                0.15708801150322
              ],
              [
                98.73182678222656,
                0.028512962162495
              ],
              [
                98.5862808227539,
                0.028512962162495
              ],
              [
                98.51350402832031,
                0.028512962162495
              ],
              [
                98.35486602783203,
                0.092800483107567
              ],
              [
                98.43143463134766,
                0.221375524997711
              ],
              [
                98.72062683105469,
                0.15708801150322
              ]
            ]
          ],
          [
            [
              [
                97.45433807373047,
                1.507126569747925
              ],
              [
                97.80496978759766,
                1.121401190757751
              ],
              [
                97.78824615478516,
                0.60710072517395
              ],
              [
                97.56790161132812,
                0.542813181877136
              ],
              [
                97.43255615234375,
                0.864250957965851
              ],
              [
                97.14775848388672,
                1.057113647460938
              ],
              [
                97.14990234375,
                1.121401190757751
              ],
              [
                97.00867462158203,
                1.249976277351379
              ],
              [
                97.01533508300781,
                1.442839026451111
              ],
              [
                97.45433807373047,
                1.507126569747925
              ]
            ]
          ],
          [
            [
              [
                96.04208374023438,
                2.664303302764893
              ],
              [
                96.40098571777344,
                2.535728216171265
              ],
              [
                96.39338684082031,
                2.342865228652954
              ],
              [
                96.17497253417969,
                2.342865228652954
              ],
              [
                96.1072006225586,
                2.471440553665161
              ],
              [
                95.67544555664062,
                2.600015640258789
              ],
              [
                95.60780334472656,
                2.728590965270996
              ],
              [
                95.68852233886719,
                2.921453714370728
              ],
              [
                95.76134490966797,
                2.921453714370728
              ],
              [
                95.97713470458984,
                2.857166290283203
              ],
              [
                96.04208374023438,
                2.664303302764893
              ]
            ]
          ],
          [
            [
              [
                109.89845275878906,
                -8.007437705993652
              ],
              [
                109.89408111572266,
                -7.943150520324707
              ],
              [
                110.0791244506836,
                -7.428849697113037
              ],
              [
                110.49667358398438,
                -7.10741138458252
              ],
              [
                110.71954345703125,
                -7.171699047088623
              ],
              [
                110.69599151611328,
                -6.78597354888916
              ],
              [
                110.4080581665039,
                -6.850261211395264
              ],
              [
                110.40422058105469,
                -6.78597354888916
              ],
              [
                110.60062408447266,
                -6.400247573852539
              ],
              [
                110.89232635498047,
                -6.400247573852539
              ],
              [
                111.05307006835938,
                -6.657398223876953
              ],
              [
                111.48690795898438,
                -6.59311056137085
              ],
              [
                111.64424133300781,
                -6.78597354888916
              ],
              [
                112.52741241455078,
                -6.914548873901367
              ],
              [
                112.53138732910156,
                -6.978836059570312
              ],
              [
                112.53944396972656,
                -7.10741138458252
              ],
              [
                112.32057189941406,
                -7.10741138458252
              ],
              [
                112.18281555175781,
                -7.235986709594727
              ],
              [
                112.19527435302734,
                -7.428849697113037
              ],
              [
                112.34970092773438,
                -7.557425022125244
              ],
              [
                112.30292510986328,
                -7.943150520324707
              ],
              [
                112.54006958007812,
                -8.200301170349121
              ],
              [
                112.89592742919922,
                -8.071725845336914
              ],
              [
                112.9874267578125,
                -8.328875541687012
              ],
              [
                112.99214172363281,
                -8.393163681030273
              ],
              [
                112.26666259765625,
                -8.457450866699219
              ],
              [
                111.8922119140625,
                -8.328875541687012
              ],
              [
                110.64639282226562,
                -8.264588356018066
              ],
              [
                109.89845275878906,
                -8.007437705993652
              ]
            ]
          ],
          [
            [
              [
                105.90641784667969,
                -5.885946750640869
              ],
              [
                106.27423095703125,
                -5.950234413146973
              ],
              [
                106.34713745117188,
                -5.950234413146973
              ],
              [
                106.29798126220703,
                -6.400247573852539
              ],
              [
                106.22505187988281,
                -6.400247573852539
              ],
              [
                106.31581115722656,
                -6.721685886383057
              ],
              [
                106.18470001220703,
                -6.978836059570312
              ],
              [
                106.11174774169922,
                -6.978836059570312
              ],
              [
                105.8854751586914,
                -6.850261211395264
              ],
              [
                105.37486267089844,
                -6.850261211395264
              ],
              [
                105.3712158203125,
                -6.78597354888916
              ],
              [
                105.42984771728516,
                -6.528822898864746
              ],
              [
                105.71111297607422,
                -6.335959911346436
              ],
              [
                105.69756317138672,
                -6.078809261322021
              ],
              [
                105.90641784667969,
                -5.885946750640869
              ]
            ]
          ],
          [
            [
              [
                100.24752044677734,
                -2.800140142440796
              ],
              [
                100.39888763427734,
                -2.993003129959106
              ],
              [
                100.33404541015625,
                -3.250153541564941
              ],
              [
                100.1135482788086,
                -3.185865879058838
              ],
              [
                100.03096008300781,
                -2.864427804946899
              ],
              [
                99.88532257080078,
                -2.864427804946899
              ],
              [
                99.80693817138672,
                -2.671565055847168
              ],
              [
                99.8743896484375,
                -2.478702068328857
              ],
              [
                99.94719696044922,
                -2.478702068328857
              ],
              [
                100.10189056396484,
                -2.800140142440796
              ],
              [
                100.24752044677734,
                -2.800140142440796
              ]
            ]
          ],
          [
            [
              [
                100.68892669677734,
                2.342865228652954
              ],
              [
                100.90734100341797,
                2.342865228652954
              ],
              [
                101.25869750976562,
                2.021427392959595
              ],
              [
                101.40930938720703,
                2.150002479553223
              ],
              [
                101.69799041748047,
                2.085714817047119
              ],
              [
                101.6856918334961,
                1.76427698135376
              ],
              [
                101.61289978027344,
                1.76427698135376
              ],
              [
                101.68091583251953,
                1.635701775550842
              ],
              [
                102.40647888183594,
                1.571414232254028
              ],
              [
                102.39044952392578,
                1.121401190757751
              ],
              [
                102.82716369628906,
                1.121401190757751
              ],
              [
                103.11170959472656,
                0.928538501262665
              ],
              [
                103.10741424560547,
                0.799963414669037
              ],
              [
                102.96185302734375,
                0.799963414669037
              ],
              [
                102.94943237304688,
                0.414238125085831
              ],
              [
                103.09905242919922,
                0.542813181877136
              ],
              [
                103.3173828125,
                0.542813181877136
              ],
              [
                103.74205017089844,
                0.15708801150322
              ],
              [
                103.75341033935547,
                -0.035774555057287
              ],
              [
                103.39151000976562,
                -0.164349600672722
              ],
              [
                103.61084747314453,
                -0.228637129068375
              ],
              [
                103.61294555664062,
                -0.35721218585968
              ],
              [
                103.32291412353516,
                -0.421499729156494
              ],
              [
                103.32862854003906,
                -0.742937445640564
              ],
              [
                103.6247329711914,
                -1.00008761882782
              ],
              [
                104.20700073242188,
                -1.00008761882782
              ],
              [
                104.43795776367188,
                -1.578675746917725
              ],
              [
                104.4394760131836,
                -1.642963409423828
              ],
              [
                103.86021423339844,
                -1.771538615226746
              ],
              [
                103.43152618408203,
                -2.092976570129395
              ],
              [
                103.2945785522461,
                -2.414414644241333
              ],
              [
                103.14896392822266,
                -2.414414644241333
              ],
              [
                103.158203125,
                -2.735852479934692
              ],
              [
                103.30769348144531,
                -2.864427804946899
              ],
              [
                103.39270782470703,
                -3.250153541564941
              ],
              [
                103.7722396850586,
                -3.700166940689087
              ],
              [
                103.91791534423828,
                -3.700166940689087
              ],
              [
                104.44451904296875,
                -4.150180339813232
              ],
              [
                104.94951629638672,
                -4.021605014801025
              ],
              [
                104.94468688964844,
                -3.893029928207397
              ],
              [
                105.22897338867188,
                -3.700166940689087
              ],
              [
                105.75579833984375,
                -4.150180339813232
              ],
              [
                105.7583236694336,
                -4.214468002319336
              ],
              [
                105.85237121582031,
                -4.728769302368164
              ],
              [
                105.77951049804688,
                -4.728769302368164
              ],
              [
                105.80241394042969,
                -5.243070125579834
              ],
              [
                105.72953033447266,
                -5.243070125579834
              ],
              [
                105.75737762451172,
                -5.821659088134766
              ],
              [
                105.39286041259766,
                -5.821659088134766
              ],
              [
                105.23445892333984,
                -5.564508438110352
              ],
              [
                105.17095947265625,
                -5.757371425628662
              ],
              [
                104.80644989013672,
                -5.757371425628662
              ],
              [
                104.5055160522461,
                -5.564508438110352
              ],
              [
                104.59733581542969,
                -5.950234413146973
              ],
              [
                104.302490234375,
                -5.885946750640869
              ],
              [
                104.14104461669922,
                -5.564508438110352
              ],
              [
                103.9952621459961,
                -5.564508438110352
              ],
              [
                103.76461029052734,
                -5.307357788085938
              ],
              [
                103.7587890625,
                -5.17878246307373
              ],
              [
                103.23188781738281,
                -4.793056964874268
              ],
              [
                103.08615112304688,
                -4.793056964874268
              ],
              [
                102.18140411376953,
                -4.021605014801025
              ],
              [
                102.09700012207031,
                -3.700166940689087
              ],
              [
                101.42642211914062,
                -3.250153541564941
              ],
              [
                101.26883697509766,
                -2.864427804946899
              ],
              [
                100.89729309082031,
                -2.607277393341064
              ],
              [
                100.74459838867188,
                -2.350126981735229
              ],
              [
                100.73310089111328,
                -1.900113701820374
              ],
              [
                100.28319549560547,
                -1.321525454521179
              ],
              [
                100.2014389038086,
                -0.871512532234192
              ],
              [
                99.68407440185547,
                -0.421499729156494
              ],
              [
                99.60628509521484,
                -0.100062072277069
              ],
              [
                99.45955657958984,
                0.028512962162495
              ],
              [
                99.2281494140625,
                0.092800483107567
              ],
              [
                99.15918731689453,
                0.221375524997711
              ],
              [
                98.94086456298828,
                0.221375524997711
              ],
              [
                98.95271301269531,
                0.60710072517395
              ],
              [
                98.81124877929688,
                0.735675871372223
              ],
              [
                98.61222076416016,
                1.314263939857483
              ],
              [
                98.62593841552734,
                1.699989318847656
              ],
              [
                97.91728973388672,
                2.214290142059326
              ],
              [
                97.55577087402344,
                2.27857780456543
              ],
              [
                97.50360870361328,
                2.7928786277771
              ],
              [
                97.1475830078125,
                2.985741376876831
              ],
              [
                96.8814926147461,
                3.564330101013184
              ],
              [
                96.59890747070312,
                3.757192850112915
              ],
              [
                96.2376708984375,
                3.821480512619019
              ],
              [
                96.17078399658203,
                3.950055837631226
              ],
              [
                96.17378997802734,
                4.01434326171875
              ],
              [
                97.12690734863281,
                4.142918586730957
              ],
              [
                97.61864471435547,
                3.757192850112915
              ],
              [
                97.84014129638672,
                3.821480512619019
              ],
              [
                98.19541931152344,
                3.628617763519287
              ],
              [
                98.54511260986328,
                3.30717945098877
              ],
              [
                98.60671997070312,
                3.050029039382935
              ],
              [
                99.31336212158203,
                2.535728216171265
              ],
              [
                99.30818176269531,
                2.407152891159058
              ],
              [
                99.521484375,
                2.27857780456543
              ],
              [
                99.5164566040039,
                2.150002479553223
              ],
              [
                99.6595687866211,
                2.085714817047119
              ],
              [
                99.65465545654297,
                1.957139730453491
              ],
              [
                99.79782104492188,
                1.892852187156677
              ],
              [
                99.79301452636719,
                1.76427698135376
              ],
              [
                100.00667572021484,
                1.635701775550842
              ],
              [
                100.07251739501953,
                1.442839026451111
              ],
              [
                100.29088592529297,
                1.442839026451111
              ],
              [
                100.36830139160156,
                1.571414232254028
              ],
              [
                100.30258178710938,
                1.76427698135376
              ],
              [
                100.15939331054688,
                1.828564524650574
              ],
              [
                100.24699401855469,
                2.214290142059326
              ],
              [
                100.17418670654297,
                2.214290142059326
              ],
              [
                100.18445587158203,
                2.471440553665161
              ],
              [
                100.25727081298828,
                2.471440553665161
              ],
              [
                100.330078125,
                2.471440553665161
              ],
              [
                100.3926010131836,
                2.214290142059326
              ],
              [
                100.53568267822266,
                2.150002479553223
              ],
              [
                100.68128967285156,
                2.150002479553223
              ],
              [
                100.68892669677734,
                2.342865228652954
              ]
            ]
          ],
          [
            [
              [
                103.40068054199219,
                0.864250957965851
              ],
              [
                103.39641571044922,
                0.735675871372223
              ],
              [
                103.3943099975586,
                0.671388268470764
              ],
              [
                103.17597198486328,
                0.671388268470764
              ],
              [
                103.18233489990234,
                0.864250957965851
              ],
              [
                103.40068054199219,
                0.864250957965851
              ]
            ]
          ]
        ]
      }
    }
  ]
}
